address,area,city,detail,lat,lng,name,province,street_id,telephone,uid
北京市东城区朝阳门北大街新保利大厦1层,东城区,北京市,1,39.939072,116.438765,中国建设银行(保利支行),北京市,178610cac45094f0b42655cc,(010)64082400,178610cac45094f0b42655cc
"北京市东城区建国门北大街5号1层107,2层202",东城区,北京市,1,39.91977,116.44069,中国建设银行(金城分理处),北京市,9d07645f414c6017b1077deb,(010)85072290,9d07645f414c6017b1077deb
北京市东城区东花市大街花市枣苑甲3号,东城区,北京市,1,39.903244,116.436543,中国建设银行(东河沿储蓄所),北京市,d4034eb38b342cf6c1364499,(010)51005335,d4034eb38b342cf6c1364499
北京市东城区安乐林路16号院鼎盛园商务楼1层,东城区,北京市,1,39.871266,116.41544,中国建设银行(北京安乐林支行),北京市,663bece81cace7886b49f309,"(010)87893296,(010)87893134",663bece81cace7886b49f309
北京市东城区珠市口东大街5-8号光明日报集团大楼1层,东城区,北京市,1,39.899518,116.420629,中国建设银行(明光支行),北京市,ffd6d40371b4738f16b54b99,(010)67074735,ffd6d40371b4738f16b54b99
北京市东城区东四北大街甲343号,东城区,北京市,1,39.934619,116.423575,中国建设银行(北京朝内大街支行),北京市,15a938104a28cabc14c8f653,,15a938104a28cabc14c8f653
北京市东城区崇文门外大街114号,东城区,北京市,1,39.900606,116.425599,中国建设银行(天坛支行),北京市,14076deea00feef403294f99,(010)67148178,14076deea00feef403294f99
北京市建国门内大街8号中粮广场B座,东城区,北京市,1,39.912657,116.436278,中国建设银行(北京建国支行),北京市,dc0f0adc6a350921f82213c9,(010)65263440,dc0f0adc6a350921f82213c9
"北京市东城区青龙胡同1号1层107,1层108,4层418",东城区,北京市,1,39.954474,116.430808,中国建设银行(北京新华支行),北京市,19d1f2404657cf90deee8bac,(010)84187370,19d1f2404657cf90deee8bac
北京市东城区美术馆后街8号,东城区,北京市,1,39.939127,116.416095,中国建设银行(北京东四支行),北京市,d37139e83f4876bfa2a93450,,d37139e83f4876bfa2a93450
东城区东直门外大街29号,东城区,北京市,1,39.947397,116.450811,中国建设银行(东直门支行),北京市,480b24d0f4ed94f19cec2bff,(010)64661774,480b24d0f4ed94f19cec2bff
安定门外大街138号皇城国际1层,东城区,北京市,1,39.961522,116.414904,中国建设银行(北京分行地坛支行),北京市,6113ef77a7ea7f148e7727ff,"(010)64268430,(010)64268433",6113ef77a7ea7f148e7727ff
北京市东城区北三环东路36号环球贸易中心A座1层,东城区,北京市,1,39.974869,116.416339,中国建设银行(北京环贸支行),北京市,923ffd00d8bb8cb7d92f28ff,"(010)58257471,(010)58257475",923ffd00d8bb8cb7d92f28ff
北京市东城区东中街29号东环广场南楼,东城区,北京市,1,39.942827,116.442751,中国建设银行(北京东四十条支行),北京市,5508504dfef62bcbc7f025ff,(010)64182118,5508504dfef62bcbc7f025ff
北京市东城区王府井大街99号世纪大厦1层,东城区,北京市,1,39.925008,116.416768,中国建设银行(北京王府井支行),北京市,b9e5d0b834da39bc81a12eff,,b9e5d0b834da39bc81a12eff
北京市东城区广渠门内大街27号鼎新大厦一层,东城区,北京市,1,39.900067,116.442808,中国建设银行(北京广渠门内大街支行),北京市,0621408dddbaae3a51e5c5d3,(010)87101597,0621408dddbaae3a51e5c5d3
北京市东城区朝内南小街12号楼15号底商,东城区,北京市,1,39.924552,116.433216,中国建设银行(北京朝内南小街支行),北京市,ef773a0f274db734220220ff,(010)65266214,ef773a0f274db734220220ff
北京市东城区东直门内大街2号一层,东城区,北京市,1,39.946384,116.437893,中国建设银行(北京东直门内支行),北京市,,(010)59751623,0df96a612d120a3f9fec2b6d
北京市东城区西打磨厂街1号,东城区,北京市,1,39.905793,116.417942,中国建设银行(北京前门支行),北京市,6deee3086a4f396a28fc4899,(010)67084007,6deee3086a4f396a28fc4899
北京市东城区帅府园胡同13号,东城区,北京市,1,39.918465,116.418269,中国建设银行(王府井大街支行),北京市,98e1c54c43f0f1e22b11d17d,(010)65228396,98e1c54c43f0f1e22b11d17d
和平里七区36号楼,东城区,北京市,1,39.968024,116.431229,中国建设银行(和平里支行营业部),北京市,,(010)64282590,db28731022f6b754d12dd62f
北京市东城区西打磨厂街1号附近,东城区,北京市,1,39.905514,116.418297,中国建设银行(养老金北京运营中心),北京市,652a0c70d73223cb82288a69,,652a0c70d73223cb82288a69
前门东小街1附近,东城区,北京市,1,39.906278,116.418111,中国建设银行前门消费信贷业务处理中心,北京市,2fc01ed6da7edfa1ae04577f,,2fc01ed6da7edfa1ae04577f
北京市东城区朝阳门北大街25号中国海洋石油办公楼1层,东城区,北京市,1,39.931184,116.43935,中国建设银行ATM(海油支行),北京市,,,fea841b8cf6ad71957bfffbd
马家堡路1号陶然大厦一层,东城区,北京市,1,39.876411,116.394908,中国建设银行ATM(陶然大厦),北京市,a8e76953621608e90b69d9b2,,a8e76953621608e90b69d9b2
北京市东城区美术馆后街8号,东城区,北京市,1,39.93925,116.415714,中国建设银行东四消费者信贷中心,北京市,0fcc42e7028f79f6260bd03d,,0fcc42e7028f79f6260bd03d
北京市东城区广渠门内大街27-4鼎新大厦1层,东城区,北京市,1,39.900037,116.442774,中国建设银行ATM(广渠门内大街支行),北京市,4642844a8e29dfa7c8fa5fb7,,4642844a8e29dfa7c8fa5fb7
和平里东街3-1,东城区,北京市,1,39.961677,116.431485,中国建设银行24小时自助银行(和平里东街储蓄所),北京市,d6ee8724fd7c899ea8f0cdf1,,d6ee8724fd7c899ea8f0cdf1
青龙胡同1号歌华大厦1层,东城区,北京市,1,39.954616,116.430817,中国建设银行24小时自助银行(北京新华支行),北京市,e25ca379e7143e9bdb1318d5,,e25ca379e7143e9bdb1318d5
北京市东城区东直门内大街2号,东城区,北京市,1,39.946688,116.437733,中国建设银行24小时自助银行(东直门内支行),北京市,3d8d06386b2bc0f971210b1a,,3d8d06386b2bc0f971210b1a
北京市东城区西打磨厂街1号楼,东城区,北京市,1,39.906038,116.418024,中国建设银行24小时自助银行(北京前门支行),北京市,20f23aa1674ceb5a2902e104,,20f23aa1674ceb5a2902e104
北京市东城区王府井大街255号北京市百货大楼F1,东城区,北京市,1,39.920053,116.416601,中国建设银行24小时自助银行(北京市百货大楼),北京市,,,1a80b1eee982c4564f3a593e
北京市东城区前门大街2号,东城区,北京市,1,39.90452,116.404591,中国建设银行24小时自助银行(前门大街),北京市,,,e56bf5e3dec3a33a0782c272
北京市东城区崇文门外大街114-4号,东城区,北京市,1,39.899538,116.420646,中国建设银行24小时自助银行(北京明光支行),北京市,7ae293b7b390a7ade81e97c8,,7ae293b7b390a7ade81e97c8
北京市东城区青龙胡同1号歌华大厦B座4层,东城区,北京市,1,39.954801,116.430806,中国建设银行个人贷款中心(安定门东大街),北京市,,,3d8380e5b760258594031908
东花市北里中区甲27号楼附近,东城区,北京市,1,39.904396,116.438503,中国建设银行24小时自助银行(东花市中街),北京市,46b7b312ab40b0e2b64f54a4,,46b7b312ab40b0e2b64f54a4
朝阳门北大街1号新保利大厦1层,东城区,北京市,1,39.939173,116.438736,中国建设银行24小时自助银行服务(保利支行),北京市,aa5fb5205bd3fe3d00ff2d28,,aa5fb5205bd3fe3d00ff2d28
北京市东城区朝阳门南小街12-1号,东城区,北京市,1,39.92451,116.433421,中国建设银行24小时自助银行(朝内南小街储蓄所),北京市,61085211ca07a0dfc41b75bd,,61085211ca07a0dfc41b75bd
北京市东城区帅府园胡同9号,东城区,北京市,1,39.918467,116.41809,中国建设银行24小时自助银行服务(北京王府井大街支行),北京市,,,a3d3a36350e28c967adbd205
建国门内大街8号中粮广场B座1层,东城区,北京市,1,39.91257,116.436287,中国建设银行24小时自助银行(建国支行),北京市,cf586a2d9c8f07c8471a32a0,,cf586a2d9c8f07c8471a32a0
夕照寺街16-3,东城区,北京市,1,39.893563,116.447158,中国建设银行24小时自助银行(银燕储蓄所),北京市,631c4157bb07036130f71d99,,631c4157bb07036130f71d99
东城区北三环东路36号环球贸易中心A座1楼,东城区,北京市,1,39.974814,116.416471,中国建设银行24小时自助银行(北京环贸支行),北京市,872b96e781e591f72dfaa751,,872b96e781e591f72dfaa751
北京市东城区东直门外大街29号,东城区,北京市,1,39.947407,116.450812,中国建设银行24小时自助银行(北京东直门支行),北京市,a5097bfa3a1a5763f03cbaff,,a5097bfa3a1a5763f03cbaff
北京市东城区和平里东街11号院南门雍和航星园,东城区,北京市,1,39.956914,116.428944,中国建设银行24小时自助银行(安定门东滨河路),北京市,845f486810e9af7cad31e515,,845f486810e9af7cad31e515
建国门北大街5号金成建国5号,东城区,北京市,1,39.919764,116.440732,中国建设银行24小时自助银行服务(北京金成分理处),北京市,4c11bafa5c3e67b714b54b8e,,4c11bafa5c3e67b714b54b8e
美术馆后街8,东城区,北京市,1,39.939073,116.415742,中国建设银行24小时自助银行(北京东四支行),北京市,04bdf4a31b4fc34f354aaeff,,04bdf4a31b4fc34f354aaeff
东城区王府井大街99号世纪大厦A座605室,东城区,北京市,1,39.925009,116.416805,中国建设银行24小时自助银行(王府井支行),北京市,fe80aaabb4b7fa4ecac3db0a,,dbf4d6ee4ff3492a6fa3ccc9
东四北大街343号,东城区,北京市,1,39.934309,116.423595,中国建设银行24小时自助银行(北京朝内大街支行),北京市,5211d219ac0323267cc876bd,,5211d219ac0323267cc876bd
北京市东城区安外大街138号皇城国际1层,东城区,北京市,1,39.96179,116.414978,中国建设银行24小时自助银行(北京地坛支行),北京市,1c95daf5aaac795c246e98a2,,1c95daf5aaac795c246e98a2
东长安街1号东方广场2层PE109-12,东城区,北京市,1,39.915898,116.422517,中国建设银行24小时自助银行(北京东方广场支行),北京市,42d0628ca7e40dc4c2f1cf1c,,42d0628ca7e40dc4c2f1cf1c
北京市东城区和平西街21号天丰利菜市场1层,东城区,北京市,1,39.9681,116.431204,中国建设银行24小时自助银行(北京和平里支行),北京市,0d8a6ca5b4327352593ac8f5,,0d8a6ca5b4327352593ac8f5
北京市西城区闹市口大街1,西城区,北京市,1,39.910742,116.369357,中国建设银行(北京兴融支行营业部),北京市,bf29b702a95e9f9909b93a3e,95533,bf29b702a95e9f9909b93a3e
北京市西城区太平桥大街19号1层,西城区,北京市,1,39.928133,116.370927,中国建设银行(丰盛支行),北京市,edd64ce144cc7bef3ee231b1,,edd64ce144cc7bef3ee231b1
北京市西城区金融大街25号,西城区,北京市,1,39.919229,116.364429,中国建设银行(总行),北京市,529ba33dd18fefbd7ab55cd8,,529ba33dd18fefbd7ab55cd8
北京市西城区兴盛街6号,西城区,北京市,1,39.915895,116.367098,中国建设银行(金融街支行),北京市,15e1e85e6c373adf5910938c,,15e1e85e6c373adf5910938c
北京市西城区车公庄大街9号五栋大楼底商,西城区,北京市,1,39.938306,116.355647,中国建设银行(车公庄支行),北京市,d7fd2ad3fb730c540bccdd30,(010)88395147,d7fd2ad3fb730c540bccdd30
北京市西城区复兴门内大街160号,西城区,北京市,1,39.911678,116.36453,中国建设银行(北京复兴支行),北京市,e85e2527f60e212e94f08c8c,(010)66411463,e85e2527f60e212e94f08c8c
北京市西城区金融大街19号富凯大厦,西城区,北京市,1,39.920943,116.365963,中国建设银行(月坛支行营业部),北京市,34e485085ef16c9fd9d8918c,(010)66573141,34e485085ef16c9fd9d8918c
北京市西城区黄寺大街23号,西城区,北京市,1,39.969901,116.391938,中国建设银行(北京鼎昆支行),北京市,d1469ee74cc04b6284330428,(010)82235679,d1469ee74cc04b6284330428
北京市西城区华远街13号置地星座A座首层,西城区,北京市,1,39.915337,116.377692,中国建设银行(北京华远街支行),北京市,09185c564070885df119373e,(010)66037966,09185c564070885df119373e
北京市西城区西单北大街34号,西城区,北京市,1,39.923488,116.380529,中国建设银行(西单支行),北京市,637df60acb5d977240afe630,"(010)66022071,(010)66050444,(010)66022966,(010)66053443",637df60acb5d977240afe630
北京市西城区德胜门外大街13号院1号楼1层108、109、2层205,西城区,北京市,1,39.964924,116.385332,中国建设银行(北京德胜支行),北京市,b35edd55980283ff7f29bd80,(010)84080448,b35edd55980283ff7f29bd80
北京市西城区阜成门外大街甲26号,西城区,北京市,1,39.928485,116.349574,中国建设银行(北京西四支行),北京市,fa835ce283cd32b6e812e430,,fa835ce283cd32b6e812e430
北京市西城区广安门外大街305号8区15~17楼底商101(C),西城区,北京市,1,39.898976,116.342474,中国建设银行(达官营支行),北京市,46e86fdd242d8012d13ce3cf,(010)51930139,46e86fdd242d8012d13ce3cf
北京市西城区宣武门外大街28号富卓大厦B座1层,西城区,北京市,1,39.900401,116.381326,中国建设银行(宣武门支行),北京市,46e86fdd0f0aef6fd13ce3e9,(010)63023515,46e86fdd0f0aef6fd13ce3e9
北京市西城区月坛南街甲18号,西城区,北京市,1,39.919391,116.350737,中国建设银行(北京月坛南街支行),北京市,35debf2904a4df44a6da393e,(010)68580228,35debf2904a4df44a6da393e
北京市西城区广安门南街24号,西城区,北京市,1,39.887149,116.357088,中国建设银行(北京白纸坊支行),北京市,f696f3c2f9cb32eb1b11d5e9,,f696f3c2f9cb32eb1b11d5e9
北京市西城区广安门内大街314号,西城区,北京市,1,39.894868,116.363895,中国建设银行(宣武支行),北京市,bd5046e8b62a1241d72ce2e9,(010)63209653,bd5046e8b62a1241d72ce2e9
牛街11-5号,西城区,北京市,1,39.890734,116.369938,中国建设银行(牛街支行),北京市,2cc3c8e822c4a5d64d2fdfe9,(010)58373427,2cc3c8e822c4a5d64d2fdfe9
北京市西城区建功西里2号楼1层,西城区,北京市,1,39.883236,116.35985,中国建设银行(南菜园储蓄所),北京市,c8e8f633b39d756cab0dd8e9,95533,c8e8f633b39d756cab0dd8e9
北京市西城区马莲道路17号,西城区,北京市,1,39.887042,116.332824,中国建设银行(马莲道支行),北京市,f633606a6227934e0b69d9e9,(010)63272337,f633606a6227934e0b69d9e9
陶然亭路2号9号,西城区,北京市,1,39.884895,116.393018,中国建设银行(陶然亭支行),北京市,935be3bc56143140744ff120,(010)83495826,935be3bc56143140744ff120
北京市西城区地安门西大街甲99号,西城区,北京市,1,39.93982,116.393659,中国建设银行(北京平安大街支行),北京市,3a0a78bdd34f15fa63180928,(010)83288396,3a0a78bdd34f15fa63180928
北京市西城区菜市口大街平原里20-2号,西城区,北京市,1,39.888639,116.380196,中国建设银行(菜市口南街支行),北京市,a3f21eee4c0aed452fb17e57,(010)63554018,a3f21eee4c0aed452fb17e57
北京市西城区鲍家街43中央音乐大学,西城区,北京市,1,39.908231,116.364477,中国建设银行24小时自助银行(天银大厦C座南),北京市,40f6bac0b8a4f6cfca09f040,,40f6bac0b8a4f6cfca09f040
北京市西城区北三环中路3号双全大厦,西城区,北京市,1,39.975305,116.397202,中国建设银行(北京科技馆支行),北京市,7d5f3a0afc05944b2cb90828,(010)62016569,7d5f3a0afc05944b2cb90828
北京市西城区里仁街3号商业群房首层,西城区,北京市,1,39.882023,116.37821,中国建设银行(北京里仁街支行),北京市,606ab0d08705332a0e3ddae9,(010)63513192,606ab0d08705332a0e3ddae9
北京市西城区南横街四平园小区综合楼,西城区,北京市,1,39.889215,116.387872,中国建设银行(北京四平园支行),北京市,8cba4bb005279c84ad0457e6,(010)83556735,8cba4bb005279c84ad0457e6
北京市西城区百万庄大街22号院2号楼一层东侧,西城区,北京市,1,39.933735,116.346071,中国建设银行(北京百万庄支行),北京市,a28cfcdcc3654b1677026976,(010)68994588,a28cfcdcc3654b1677026976
西城区广安门北滨河路2号,西城区,北京市,1,39.906756,116.359025,中国建设银行(北京天宁寺支行),北京市,d47639ba93533b1872455b75,(010)83111624,d47639ba93533b1872455b75
北京市西城区北礼士路8号,西城区,北京市,1,39.944727,116.359285,中国建设银行(北京展览路支行),北京市,251374c9d04b3e3fa11de930,(010)68363796,251374c9d04b3e3fa11de930
北京市西城区新街口西里三区2号楼1层2-8,西城区,北京市,1,39.951365,116.372978,中国建设银行(北京新街口西里支行),北京市,74c933fb1833985e9e82ea30,(010)82221708,74c933fb1833985e9e82ea30
西城区北三环中路3号双全大厦210号,西城区,北京市,1,39.975232,116.397212,中国建设银行(北京市分行汽车金融服务中心),北京市,4660454ce45a9f7b283a9f67,95533,4660454ce45a9f7b283a9f67
北京市西城区金融大街19号富凯大厦一层,西城区,北京市,1,39.920937,116.366121,中国建设银行个人出入境金融服务中心,北京市,bf895a4e861782d9cb213d34,(010)66575601,bf895a4e861782d9cb213d34
月坛南街18-4号,西城区,北京市,1,39.919449,116.35063,中国建设银行24小时自助银行服务(北京月坛南街支行),北京市,b533ea4ad87ea33f4f6d4627,,b533ea4ad87ea33f4f6d4627
长安兴融中心2座8层,西城区,北京市,1,39.910406,116.369067,建行单证中心,北京市,,,c46d2ee335c3ebe643ab9a8d
北京市西城区白云观街北里国宏大厦1层,西城区,北京市,1,39.911547,116.34257,中国建设银行ATM,北京市,58d72e024948d23b902ca31b,,58d72e024948d23b902ca31b
北京市西城区广内大街广安门内大街,西城区,北京市,1,39.894954,116.363888,中国建设银行贵金属中心,北京市,034bcd1acec2621b3fe231a9,,034bcd1acec2621b3fe231a9
北京市西城区西单北大街131号西单大悦城F6,西城区,北京市,1,39.917437,116.379217,中国建设银行ATM(西单大悦城),北京市,f8d4e9ff090f7cafb13c81dd,,f8d4e9ff090f7cafb13c81dd
北京市西城区西单北大街110号老佛爷百货F5,西城区,北京市,1,39.920055,116.381071,中国建设银行ATM(老佛爷百货),北京市,4ff51722f9155ab9f4b91659,,4ff51722f9155ab9f4b91659
北京市西城区兴盛街6号,西城区,北京市,1,39.915799,116.36714,中国建设银行24小时自助银行服务(金融大街),北京市,644feb5513eca3ff2db90897,,644feb5513eca3ff2db90897
北京市西城区西单北大街120号西单商场F1,西城区,北京市,1,39.918455,116.380711,中国建设银行ATM(西单商场),北京市,,,06e837c6b15f13aa210220df
北京市西城区马连道中里三区5-11,西城区,北京市,1,39.890423,116.337168,中国建设银行24小时自助银行(马连道南街),北京市,108b1cea838e26d23486f4b4,,108b1cea838e26d23486f4b4
北京市西城区西单北大街133号北京君太百货F3,西城区,北京市,1,39.91608,116.379748,中国建设银行ATM(君太百货),北京市,84b71713e2ee4cca57bfff12,,84b71713e2ee4cca57bfff12
真武庙二条4号院真武家园1号楼裙房局部,西城区,北京市,1,39.910663,116.354413,中国建设银行24小时自助银行服务(真武庙支行),北京市,2bff6a9d6b9a6834dc1e5235,,2bff6a9d6b9a6834dc1e5235
西城区天宁寺32号楼,西城区,北京市,1,39.898955,116.342543,中国建设银行24小时自助银行(北京达官营支行),北京市,ded6c04a34bbd9a4f7b91672,,34fcd0e36f05eef7b35c6a59
北京市西城区百万庄大街22号院2号,西城区,北京市,1,39.933591,116.346558,中国建设银行24小时自助银行服务(北京百万庄支行),北京市,6c243944414b87799122e05c,,6c243944414b87799122e05c
西城区双旗杆东里12号楼,西城区,北京市,1,39.972264,116.394275,中国建设银行24小时自助银行(黄寺储蓄所),北京市,828cc2c5fdd211bc00ff2dc2,,828cc2c5fdd211bc00ff2dc2
西城区丰汇园21号楼1楼,西城区,北京市,1,39.921597,116.371985,中国建设银行24小时自助银行(南千章胡同),北京市,1b2d6eae72df5c597ec87629,,1b2d6eae72df5c597ec87629
太平桥大街19号恒奥中心B座1层,西城区,北京市,1,39.928194,116.370807,中国建设银行24小时自助银行(北京丰盛支行),北京市,bd0879e9e9f1d991ca09f0da,,bd0879e9e9f1d991ca09f0da
平原里20-2号,西城区,北京市,1,39.888582,116.380498,中国建设银行24小时自助银行(菜市口南街支行),北京市,cb11977fc47524e82ce67bc4,,cb11977fc47524e82ce67bc4
北京市西城区陶然亭路2号9,西城区,北京市,1,39.884867,116.39289,中国建设银行24小时自助银行服务(北京陶然亭支行),北京市,3e2d8dadaa023060f32d83bc,,3e2d8dadaa023060f32d83bc
北京市西城区阜成门北大街15-1号,西城区,北京市,1,39.933749,116.362255,中国建设银行24小时自助银行(阜北十五号院东北),北京市,f2f15ffb45a79788631c6733,,f2f15ffb45a79788631c6733
北京市西城区马莲道11号附近,西城区,北京市,1,39.890058,116.335977,中国建设银行24小时自助银行(北京马连道南街支行),北京市,5b278f7142f6206cfbdc8592,,5b278f7142f6206cfbdc8592
北京市西城区北三环中路3,西城区,北京市,1,39.97523,116.397149,中国建设银行24小时自助银行(北京科技馆支行),北京市,d6b3045552ab6204b5f42f26,,d6b3045552ab6204b5f42f26
北京市西城区闹市口大街1号院1号楼,西城区,北京市,1,39.910766,116.369357,中国建设银行24小时自助银行(北京兴融支行),北京市,5ddabac8eef2d5d842d63ee0,,5ddabac8eef2d5d842d63ee0
北京市西城区华远街13号置地星座A座首层,西城区,北京市,1,39.915404,116.37782,中国建设银行24小时自助银行(北京华远街支行),北京市,0aee138b59c3687096f08c87,,8575c36b4e4a1fea8b2fb56a
牛街11号108室圣芳商厦首层,西城区,北京市,1,39.890674,116.369936,中国建设银行24小时自助银行(牛街支行),北京市,7c72d2299dd0091e75e5b696,,7c72d2299dd0091e75e5b696
北京市西城区里仁街3-1号院-2室附近,西城区,北京市,1,39.882027,116.378566,中国建设银行24小时自助银行服务(里仁街储蓄所),北京市,f0b434dca8c0bfb4aecb6679,,f0b434dca8c0bfb4aecb6679
复兴门内大街160-1号,西城区,北京市,1,39.911713,116.364266,中国建设银行24小时自助银行(北京复兴支行),北京市,,,235a09f7c97d00f97ab55c1e
北京市西城区车公庄大街9-5号,西城区,北京市,1,39.93857,116.355795,中国建设银行24小时自助银行(北京车公庄支行),北京市,0e29837c18262fe0af045765,,6b08a180d2fc6fcbaf080f7f
北礼士路甲8号,西城区,北京市,1,39.944629,116.359317,中国建设银行24小时自助银行(北京展览路支行),北京市,6098d7f25bb2a6aef603b84c,,6098d7f25bb2a6aef603b84c
北京市西城区广安门南街24号,西城区,北京市,1,39.887333,116.357118,中国建设银行24小时自助银行(白纸坊支行),北京市,d731c894191f887879dbd2f8,,d731c894191f887879dbd2f8
西城区广外南滨河路7号,西城区,北京市,1,39.892862,116.354872,中国建设银行24小时自助银行(广安门支行),北京市,8bee243d985ea3d272210ba4,,8bee243d985ea3d272210ba4
黄寺大街23号-18,西城区,北京市,1,39.970172,116.391845,中国建设银行24小时自助银行服务(北京鼎昆支行),北京市,accc8a41070a4ff4f9f0cb58,,accc8a41070a4ff4f9f0cb58
安德路118-4号,西城区,北京市,1,39.957545,116.391853,中国建设银行24小时自助银行(北京安德路支行),北京市,20a47bbb1f55f479373a71a0,,20a47bbb1f55f479373a71a0
新街口西里小区三区2号楼,西城区,北京市,1,39.951391,116.372969,中国建设银行24小时自助银行(新街口西里储蓄所),北京市,1020060f3b1ab2d81894c656,,1020060f3b1ab2d81894c656
北京市西城区德胜门外大街13号院1,西城区,北京市,1,39.964541,116.384974,中国建设银行24小时自助银行(德胜支行),北京市,,,f486ce702e390ee640ab9a81
西城区西长安街15号,西城区,北京市,1,39.913903,116.384524,中国建设银行24小时自助银行(西长安街支行),北京市,999df0036c4f3bdadeee8be7,,999df0036c4f3bdadeee8be7
北京市西城区地安门西大街甲99号,西城区,北京市,1,39.939716,116.393694,中国建设银行24小时自助银行(北京平安大街支行),北京市,341c35de0b9173bee6073828,,341c35de0b9173bee6073828
四平园1-5,西城区,北京市,1,39.889077,116.3877,中国建设银行24小时自助银行服务(四平园支行),北京市,3e219f5422d5057896f08c0b,,3e219f5422d5057896f08c0b
宣武门外大街26,西城区,北京市,1,39.900401,116.381425,中国建设银行24小时自助银行(北京宣武门支行),北京市,a5097bfa39045663f03cbae9,,a5097bfa39045663f03cbae9
北京市西城区金融大街19号富凯大厦B座102室,西城区,北京市,1,39.920856,116.36608,中国建设银行24小时自助银行(北京月坛支行),北京市,3b56459d89b03a23c16c1430,,3b56459d89b03a23c16c1430
马连道路15号,西城区,北京市,1,39.887028,116.332866,中国建设银行24小时自助银行(北京马莲道支行),北京市,fb24d9f92c87b6541b11d5f6,,fb24d9f92c87b6541b11d5f6
建功南里2-5,西城区,北京市,1,39.883233,116.359851,中国建设银行24小时自助银行(南菜园储蓄所),北京市,7c3dff0260970c6aa5da396b,,7c3dff0260970c6aa5da396b
广安门内大街308,西城区,北京市,1,39.894847,116.363852,中国建设银行24小时自助银行(宣武支行),北京市,669775d0a3e2ed5bfd0eb0e9,,669775d0a3e2ed5bfd0eb0e9
西城区广安门北滨河路2-5号,西城区,北京市,1,39.906644,116.359138,中国建设银行24小时自助银行服务(滨河储蓄所),北京市,91613554ea00b84408ccddce,,91613554ea00b84408ccddce
北京市西城区阜成门外大街甲26号,西城区,北京市,1,39.928518,116.349674,中国建设银行24小时自助银行(北京复兴门支行),北京市,3d9e03756158fddde9f853bb,,3d9e03756158fddde9f853bb
阜成门南大街9-11号,西城区,北京市,1,39.924565,116.362656,中国建设银行24小时自助银行(阜成门南大街),北京市,2be0a6eb38a852697d29bdeb,,2be0a6eb38a852697d29bdeb
北京市西城区太平桥大街19号恒奥中心B座1层101室,西城区,北京市,1,39.928127,116.370935,个人信用报告查询(恒奥中心点),北京市,ab19ad49b402056f46e27453,,ab19ad49b402056f46e27453
北京市朝阳区望京西园二区京电底商综合楼2,朝阳区,北京市,1,40.01049,116.475109,中国建设银行(北京广顺北大街支行),北京市,84af0090cf5def8dda13185d,(010)64747146,750ec1658b74c7284c3a596c
十里堡东里甲108,朝阳区,北京市,1,39.922953,116.511569,中国建设银行(北京八里庄支行),北京市,6a29b3eb356fe099c9c3db35,(010)85590293,6a29b3eb356fe099c9c3db35
裕民路4-16号,朝阳区,北京市,1,39.979067,116.391909,中国建设银行(裕民路储蓄所),北京市,48eb00580e5c94ad2fe67b4c,(010)62026563,48eb00580e5c94ad2fe67b4c
北京市朝阳区芍药居北里文学馆路310号楼底商,朝阳区,北京市,1,39.989653,116.439869,中国建设银行(芍药居储蓄所),北京市,f9fd6062d6a9881f0f0e6b4c,(010)84617823,f9fd6062d6a9881f0f0e6b4c
花家地北里1号,朝阳区,北京市,1,39.991937,116.474868,中国建设银行(望京支行),北京市,cac5fc7610700df32cb96d4c,(010)64738788,cac5fc7610700df32cb96d4c
北京市朝阳区金蝉南里14号楼1层商业10-11号,朝阳区,北京市,1,39.86735,116.51108,中国建设银行(华侨城支行),北京市,7aea43b7ddb161f87d29bda9,,7aea43b7ddb161f87d29bda9
北京市朝阳区朝新嘉园东里五区18号楼,朝阳区,北京市,1,39.957931,116.563998,中国建设银行(东坝中路支行),北京市,627a8de7a7cc1778c8213df8,(010)65789957,627a8de7a7cc1778c8213df8
北京市朝阳区朝阳门外大街乙10号,朝阳区,北京市,1,39.928285,116.454015,中国建设银行(北京朝阳支行),北京市,8cba4bb0028d9f84ad04574c,,8cba4bb0028d9f84ad04574c
北京市朝阳区农光里144号附属楼,朝阳区,北京市,1,39.888338,116.474109,中国建设银行(北京市朝阳区武圣路储蓄所),北京市,d7fd2ad3f9e80e540accddb5,(010)67330375,d7fd2ad3f9e80e540accddb5
北京市朝阳区成寿寺路138号院4号楼底商,朝阳区,北京市,1,39.846799,116.454159,中国建设银行(北京成寿寺路支行),北京市,6113ef77e7143f698f772780,(010)87669709,6113ef77e7143f698f772780
北京市朝阳区安外北苑红军营南路天乐园1号楼A-2一层商铺,朝阳区,北京市,1,40.039486,116.419032,中国建设银行(北京傲城支行),北京市,39d43f827bb8ce86a8059d7a,,39d43f827bb8ce86a8059d7a
北京市朝阳区光华路7号汉威大厦西区1楼,朝阳区,北京市,1,39.919443,116.460881,中国建设银行(光华支行),北京市,550fd5f9fd256179921fc9b5,,550fd5f9fd256179921fc9b5
北京市朝阳区建国路88号SOHO现代城1层,朝阳区,北京市,1,39.913128,116.483785,中国建设银行(北京永安支行),北京市,b109b4698dfe358d01294f0f,(010)85801320,b109b4698dfe358d01294f0f
北京市朝阳区亮马桥路32号,朝阳区,北京市,1,39.959486,116.482884,中国建设银行(北京新源支行),北京市,803708f199a10c790189724c,(010)64613257,803708f199a10c790189724c
北京市朝阳区安立路60号润枫德尚大厦首层,朝阳区,北京市,1,40.012012,116.416559,中国建设银行(北京润德支行),北京市,db1f39d429e9a86ff5c59c7a,(010)64827205,db1f39d429e9a86ff5c59c7a
北京市朝阳区东四环中路八里庄西里1号远洋天地61栋A区配底商一层,朝阳区,北京市,1,39.918441,116.497958,中国建设银行(北京远洋支行),北京市,8d7a534986c00037f5eafc79,,8d7a534986c00037f5eafc79
北京市朝阳区小关北里45号世纪嘉园5号楼一层,朝阳区,北京市,1,39.989231,116.417739,中国建设银行(奥体支行),北京市,c1653405cfc37779ab175a4c,"(010)84898057,(010)84898051,(010)84898821",c1653405cfc37779ab175a4c
北京市朝阳区曙光西路甲6号院5号楼,朝阳区,北京市,1,39.968863,116.457269,中国建设银行(静安庄支行),北京市,7bf32b43a9e3c438871541d2,"(010)58678125,(010)58677090",7bf32b43a9e3c438871541d2
北京市朝阳区北辰东路8号北辰汇欣大厦B座1层,朝阳区,北京市,1,40.000884,116.41107,中国建设银行(安慧支行),北京市,9ee392b8f80cc03fbbbd63fc,"(010)84970059,(010)84970015",9ee392b8f80cc03fbbbd63fc
惠新东街11号A-1-1号,朝阳区,北京市,1,39.987121,116.430611,中国建设银行(惠新东街支行),北京市,92b806d289a980fe79b55c4c,(010)64823121,92b806d289a980fe79b55c4c
北京市朝阳区东三环中路辅路57号富力·双子座1层,朝阳区,北京市,1,39.90317,116.466285,中国建设银行(光明支行),北京市,15ed53ce677b80549322e0b5,(010)58767190,15ed53ce677b80549322e0b5
建国东路15号甲1号院北岸商业广场,朝阳区,北京市,1,39.91948,116.587675,中国建设银行(北京双桥支行),北京市,3a604e350abc4cc782a12e03,(010)85376921,3a604e350abc4cc782a12e03
北京市朝阳区劲松南路1号海文大厦1层,朝阳区,北京市,1,39.887526,116.466656,中国建设银行(劲松支行),北京市,f757e6eee5f97817270bd0b5,(010)67764583,f757e6eee5f97817270bd0b5
北京市朝阳区小营路10号阳明广场3号楼首层,朝阳区,北京市,1,40.001407,116.431005,中国建设银行(北京阳明支行),北京市,61085211bf4d7da1c51b754c,(010)84641192,61085211bf4d7da1c51b754c
北京市朝阳区光华路4号院东方梅地亚中心B座1楼,朝阳区,北京市,1,39.918356,116.479791,中国建设银行(梅地亚支行),北京市,5508504dbe086bb6c6f02580,(010)65833029,5508504dbe086bb6c6f02580
北京市朝阳区南十里居41号院6号楼1层D105、D106、D109,朝阳区,北京市,1,39.965683,116.50445,中国建设银行(南十里居支行),北京市,89fd4ea3afa59947e5e9654c,(010)58293790,89fd4ea3afa59947e5e9654c
北京市朝阳区林萃路倚林佳园24号楼108-2号(旭日超市对面),朝阳区,北京市,1,40.019774,116.377228,中国建设银行(北京林萃支行),北京市,7c5e480b84b593b4adb22a7f,(010)82722431,7c5e480b84b593b4adb22a7f
清河营东路1号院17号楼,朝阳区,北京市,1,40.054196,116.441361,中国建设银行(清苑路支行),北京市,,(010)84459162,df303ec5480bbbad353a7147
北京市朝阳区建国路89号,朝阳区,北京市,1,39.917569,116.485107,中国建设银行(华贸支行),北京市,dbf4d6ee410f4b2a6ea3ccb5,(010)51996065,dbf4d6ee410f4b2a6ea3ccb5
北京市朝阳区周庄山水文园小区5号楼1楼,朝阳区,北京市,1,39.873364,116.477255,中国建设银行(山水文园支行),北京市,a2f1727dc2909b295af6be53,(010)87368070,a2f1727dc2909b295af6be53
北京市朝阳区湖光中街望京新城南湖西园125号楼一楼,朝阳区,北京市,1,40.00304,116.463031,中国建设银行(北京南湖支行),北京市,2687e5621327c5ffc61e51cb,(010)64718981,2687e5621327c5ffc61e51cb
北京市朝阳区东三环中路39号建外SOHO8号楼1层,朝阳区,北京市,1,39.910359,116.458524,中国建设银行(保利支行),北京市,,,16a8ddbbe9a788bbbbbd6356
北京市朝阳区潘家园东里18号龙鼎华大厦1层,朝阳区,北京市,1,39.886805,116.462593,中国建设银行(华威支行),北京市,beabdbf411c541987169d3b5,(010)67798607,beabdbf411c541987169d3b5
北京市朝阳区左家庄路一号国门大厦B座,朝阳区,北京市,1,39.964877,116.455524,中国建设银行(北京三元支行),北京市,425376f5717955f45abbbc25,,425376f5717955f45abbbc25
北京市朝阳区甜水园东街7号,朝阳区,北京市,1,39.930994,116.490986,中国建设银行(金台路储蓄所),北京市,53349ee3caecc06e2202624c,(010)65080730,53349ee3caecc06e2202624c
"北京市朝阳区双龙南里204号楼1层204-3,2层204-6",朝阳区,北京市,1,39.876796,116.485701,中国建设银行(北京双龙支行),北京市,c8e8f633b241766caa0dd8b5,(010)87322426,c8e8f633b241766caa0dd8b5
北京市朝阳区东四环中路78号,朝阳区,北京市,1,39.905678,116.497843,中国建设银行(百子湾支行),北京市,ef773a0f67b3f74923022080,(010)59626144,ef773a0f67b3f74923022080
北京市朝阳区和平里兴化路1号,朝阳区,北京市,1,39.971034,116.420138,中国建设银行(兴化路支行),北京市,38e4803761a53749373a714c,(010)84289689,38e4803761a53749373a714c
星火西路19号1层,朝阳区,北京市,1,39.943689,116.507646,中国建设银行(星火西路分行),北京市,f44ab334d24141b22fe67ba6,(010)85854552,f44ab334d24141b22fe67ba6
百子湾西里101号楼1层商业fg号,朝阳区,北京市,1,39.906663,116.503996,中国建设银行(金都杭城支行),北京市,04bdf4a3ae15504c354aae26,(010)87950352,04bdf4a3ae15504c354aae26
北京市朝阳区安定路35号,朝阳区,北京市,1,39.980544,116.413502,中国建设银行(北京安华支行),北京市,b1c556e8c1ee8d0cb426554c,(010)51993352,b1c556e8c1ee8d0cb426554c
北京市朝阳区和平里樱花园西街28号楼,朝阳区,北京市,1,39.980631,116.424582,中国建设银行(北京樱花支行),北京市,005861083c4514a546e2744c,(010)64428643,005861083c4514a546e2744c
北京市朝阳区华威西里38号楼,朝阳区,北京市,1,39.881676,116.459316,中国建设银行(北京架松支行),北京市,49e7ea535d8edccc3a04b17a,(010)67713288,49e7ea535d8edccc3a04b17a
北京市朝阳区常营南路50号,朝阳区,北京市,1,39.924365,116.59718,中国建设银行(北京汇鸿家园支行),北京市,6ee01020bb6e98ef52e5c543,(010)65771275,6ee01020bb6e98ef52e5c543
朝阳区望京西园四区423号楼首层,朝阳区,北京市,1,40.001506,116.475842,中国建设银行(望京西园储蓄所),北京市,22ef77d9809e56f5018972c0,(010)64703357,22ef77d9809e56f5018972c0
北京市朝阳区立清路6号院1号,朝阳区,北京市,1,40.055604,116.416332,中国建设银行(北京立水桥支行),北京市,39a0f9524093182243ab9a24,(010)84672197,39a0f9524093182243ab9a24
北京市朝阳区北苑路170号,朝阳区,北京市,1,40.002912,116.424855,中国建设银行(北京慧忠路支行),北京市,341c35de9f14efbde70738a1,(010)59273401,341c35de9f14efbde70738a1
北京市朝阳区望京西路50号卷石天地1楼,朝阳区,北京市,1,39.989781,116.464851,中国建设银行(北京花家地支行),北京市,06d2dffd131642f688f15d4c,(010)64735351,06d2dffd131642f688f15d4c
北京市朝阳区朝阳北路129号院2号,朝阳区,北京市,1,39.929674,116.50875,中国建设银行(北京朝阳北路支行),北京市,47f7e641ec86158d130daa21,95533,47f7e641ec86158d130daa21
北京市朝阳区青年路西里5号院3号,朝阳区,北京市,1,39.932808,116.523182,中国建设银行(北京青年路支行),北京市,e2a6f1edf65bd49ab4265528,(010)85565921,e2a6f1edf65bd49ab4265528
建国门外大街甲6号SK大厦1层101-103,朝阳区,北京市,1,39.913208,116.463097,中国建设银行(建国门外大街支行),北京市,e6ee2fd277801d482a11d1b5,"(010)59712719,(010)59712718,(010)59712716",e6ee2fd277801d482a11d1b5
北京市朝阳区建外大街永安东里16号(CBD国际大厦)一层商业,朝阳区,北京市,1,39.910346,116.458491,中国建设银行(北京永安里支行),北京市,3783b31c6bc29df3067ce811,(010)85219525,3783b31c6bc29df3067ce811
北京市朝阳区左家庄西街12号楼,朝阳区,北京市,1,39.956565,116.447064,中国建设银行(柳芳南里储蓄所),北京市,f2f15ffb43429588631c674c,(010)64670896,f2f15ffb43429588631c674c
北京市朝阳区东土城路8号林达大厦一层,朝阳区,北京市,1,39.962142,116.439095,中国建设银行(北京东土城路支行),北京市,844a750e9331f2b96268584c,(010)64294575,844a750e9331f2b96268584c
北京市朝阳区西坝河西里23号红都阳光商务会馆附近,朝阳区,北京市,1,39.97467,116.443126,中国建设银行(北京西坝河支行),北京市,c9b682c211d32413c2f1cfd8,(010)64221068,c9b682c211d32413c2f1cfd8
北京市朝阳区安华西里二区18号楼,朝阳区,北京市,1,39.970991,116.402127,中国建设银行(北京中轴路支行),北京市,d24e48eb700ca7b4afee7a4c,(010)51996155,d24e48eb700ca7b4afee7a4c
北京市朝阳区松榆南路38号院1号东方美景小区,朝阳区,北京市,1,39.876697,116.474606,中国建设银行(东方美景储蓄所),北京市,d5f93c0e67eea85cecdfcab5,(010)87311090,d5f93c0e67eea85cecdfcab5
北京市朝阳区西大望路59号甲1号楼A-108号,朝阳区,北京市,1,39.896009,116.483771,中国建设银行(北京平乐园支行),北京市,24d05508b056e5d213882480,(010)58610553,24d05508b056e5d213882480
北京市朝阳区朝阳路67号财满街财经中心东区8号楼1层,朝阳区,北京市,1,39.923202,116.544123,中国建设银行(北京财满街支行),北京市,1020060fe23269a61894c643,(010)85768638,1020060fe23269a61894c643
北京市朝阳区将府家园北里202号,朝阳区,北京市,1,39.976805,116.50977,中国建设银行(北京驼房营支行),北京市,d8e8f7b4334c8bb414b54b21,(010)84670539,d8e8f7b4334c8bb414b54b21
北京市朝阳区顺源里2号楼,朝阳区,北京市,1,39.956618,116.462823,中国建设银行(北京顺源里支行),北京市,b388f9fd00364f41b35c6a4c,(010)64605788,b388f9fd00364f41b35c6a4c
北京市朝阳区东三环北路2号南银大厦一层,朝阳区,北京市,1,39.962551,116.464007,中国建设银行(北京燕莎东支行),北京市,3be490e96969e3a92b06ce41,(010)64100260,3be490e96969e3a92b06ce41
北京市朝阳区青年路西里2号院9号楼1层,朝阳区,北京市,1,39.940569,116.519602,中国建设银行(国美第一城支行),北京市,607f0603d5c3583a15c90575,(010)52069042,607f0603d5c3583a15c90575
北京市朝阳区建国路118号招商局大厦一层,朝阳区,北京市,1,39.913246,116.470046,中国建设银行(北京航华科贸支行),北京市,d6ee872448bd54e0a9f0cdb5,"(010)65671105,(010)65671106,(010)65670886",d6ee872448bd54e0a9f0cdb5
北京市朝阳区甜水园街万科公园5号2层,朝阳区,北京市,1,39.930582,116.484303,中国建设银行(北京甜水园支行),北京市,6b97b3fa0c6a866025d2bb91,,6b97b3fa0c6a866025d2bb91
北京市朝阳区东三环向军北里4号,朝阳区,北京市,1,39.927944,116.467542,中国建设银行(北京呼家楼支行),北京市,dcb4952a5da336d9be484285,(010)65085908,dcb4952a5da336d9be484285
北京市朝阳区黄厂南里1号院14号楼1层,朝阳区,北京市,1,39.851673,116.571108,中国建设银行(富力又一城支行),北京市,12cd81eaed1623ae0869d9ff,(010)59641703,12cd81eaed1623ae0869d9ff
北京市朝阳区广渠路百子湾东里408号楼一层104室,朝阳区,北京市,1,39.899636,116.510795,中国建设银行(京广渠东路支行),北京市,5f0cb9a374bb610af4b91667,,5f0cb9a374bb610af4b91667
北京市朝阳区吕营大街观筑庭园801号楼1层105室,朝阳区,北京市,1,39.845453,116.476845,中国建设银行(北京吕家营支行),北京市,61877e4b126ee714047ce841,(010)87641537,61877e4b126ee714047ce841
双桥东路3号院10号楼,朝阳区,北京市,1,39.90532,116.607803,中国建设银行(北京双桥东路支行),北京市,3f7550a2466dc872f21937ed,(010)59694600,3f7550a2466dc872f21937ed
北京市朝阳区北苑家园莲葩园7号西侧地上1层-2层,朝阳区,北京市,1,40.049975,116.427871,中国建设银行(北京北苑家园支行),北京市,a1a512965e47f7829f9d6857,(010)84959821,a1a512965e47f7829f9d6857
北京市朝阳区石佛营东路八里庄北里128号楼,朝阳区,北京市,1,39.93732,116.507337,中国建设银行(北京六里屯支行),北京市,08bf416c3d14ac2515a190bf,(010)85816929,251374c9b9b5e741a11de94d
北京市朝阳区百子湾南2路70号楼1-2层202号,朝阳区,北京市,1,39.902361,116.483777,中国建设银行(北京广渠路支行),北京市,504d6113316cbece47572680,(010)67343430,504d6113316cbece47572680
西坝河南里17-10号,朝阳区,北京市,1,39.966133,116.446068,中国建设银行(左家庄西街支行),北京市,c881609ab22862ceb6147fc3,95533,c881609ab22862ceb6147fc3
北京市朝阳区广渠路23号院1层6号,朝阳区,北京市,1,39.899677,116.494069,中国建设银行(北京大郊亭支行),北京市,6423e9b8d8c140fdf13cba90,"(010)67721422,(010)67725167",6423e9b8d8c140fdf13cba90
北京市朝阳区呼家楼新苑4号楼,朝阳区,北京市,1,39.923995,116.469936,中国建设银行(北京东三环中路支行),北京市,814829d2f55f391c4107c127,(010)65851980,814829d2f55f391c4107c127
北京市朝阳区酒仙桥路2号,朝阳区,北京市,1,39.992873,116.496482,中国建设银行(北京电子城科技园区支行),北京市,750ec1656551592b4c3a594c,(010)64322028,750ec1656551592b4c3a594c
北京市朝阳区惠新东街11号紫光发展大厦1层,朝阳区,北京市,1,39.987109,116.430577,中国建设银行24小时自助银行服务(北京惠新东街支行),北京市,2a6a5a672367e9371d1d116f,,2a6a5a672367e9371d1d116f
双桥东路3号院10号楼,朝阳区,北京市,1,39.905302,116.6077,中国建设银行24小时自助银行(北京双桥支行),北京市,b43dc6fd0b139fe32902e186,,b43dc6fd0b139fe32902e186
裕民路4-16号,朝阳区,北京市,1,39.979071,116.392071,中国建设银行24小时自助银行(裕民路储蓄所),北京市,31fa5bce02537166581093c5,,31fa5bce02537166581093c5
北京市朝阳区西大望路59号风度柏林小区a-108号楼,朝阳区,北京市,1,39.896059,116.483593,中国建设银行24小时自助银行(北京平乐园支行),北京市,d1e404f0fc27040d6dc02c72,,d1e404f0fc27040d6dc02c72
朝阳门外大街10号蓝岛西区1层,朝阳区,北京市,1,39.928551,116.453749,中国建设银行24小时自助银行(北京朝阳支行),北京市,d5f93c0e6790a85ceddfca4f,,d5f93c0e6790a85ceddfca4f
北京市朝阳区朝外大街99号百脑汇一层南门处,朝阳区,北京市,1,39.9295,116.451788,中国建设银行ATM,北京市,13414f023b8b0d3032f71d76,,13414f023b8b0d3032f71d76
永安东里16号CBD国际大厦,朝阳区,北京市,1,39.910465,116.458535,中国建设银行ATM,北京市,,,3bf18b8d5ac79db0b4265544
北京市朝阳区酒仙桥路18号颐堤港M,朝阳区,北京市,1,39.975347,116.497679,中国建设银行ATM(颐堤港),北京市,5343b9d1a8dc278b32870a71,,5343b9d1a8dc278b32870a71
北京市朝阳区平乐园村100号北京工业大学,朝阳区,北京市,1,39.883968,116.488038,中国建设银行24小时自助银行(思源路),北京市,6113ef77a1237d148f7727b4,,6113ef77a1237d148f7727b4
北京市朝阳区朝阳北路101号朝阳大悦城B1,朝阳区,北京市,1,39.930396,116.525082,中国建设银行ATM(朝阳大悦城),北京市,b388f9fd005a4f41b25c6aa8,,a6d77426b67eb977276e98ac
北京市朝阳区甜水园东街1号,朝阳区,北京市,1,39.932902,116.491099,中国建设银行24小时自助银行(甜水园东街),北京市,639363b7a04fa9defda77801,,639363b7a04fa9defda77801
北京市朝阳区弘燕东路,朝阳区,北京市,1,39.873334,116.487535,中国建设银行24小时自助银行,北京市,,,d5f37ba09cdfde97f8f0cb06
北京市朝阳区北四环东路108号华堂商场F1,朝阳区,北京市,1,39.994299,116.426844,中国建设银行ATM(华堂商场),北京市,7454d99387774f8cd13ce3a9,,7454d99387774f8cd13ce3a9
北京市朝阳区东三环北路2号南银大厦一层,朝阳区,北京市,1,39.962753,116.463856,中国建设银行ATM(南银大厦),北京市,7debcf3f203e1ecc354aae95,,7debcf3f203e1ecc354aae95
顺源里2号,朝阳区,北京市,1,39.956541,116.462708,中国建设银行24小时自助银行服务(顺源里支行),北京市,87248d96560993b32806ce4f,,87248d96560993b32806ce4f
东大桥路8号SOHO尚都南塔1层,朝阳区,北京市,1,39.923408,116.460023,中国建设银行24小时自助银行(金桐西路),北京市,976d6df76c61ec3dabf72933,,976d6df76c61ec3dabf72933
北京市朝阳区广渠门外大街9号,朝阳区,北京市,1,39.899689,116.46364,中国建设银行24小时自助银行,北京市,55adc656332346de283a9fc4,,84ebc11b3d388a8d07fef58d
北京市朝阳区林萃路倚林佳园24号楼108-2号,朝阳区,北京市,1,40.019898,116.377285,中国建设银行24小时自助银行服务(北京林萃支行),北京市,b0d056f2cbfeab7dcac3db7a,,b0d056f2cbfeab7dcac3db7a
观筑庭园801号楼底商,朝阳区,北京市,1,39.845367,116.47705,中国建设银行24小时自助银行服务(北京吕家营支行),北京市,4ddcba3c58d33f75ab0dd8ff,,4ddcba3c58d33f75ab0dd8ff
建国东路15号甲1号院北岸商业广场,朝阳区,北京市,1,39.919497,116.587677,中国建设银行24小时自助银行服务(北京双桥支行),北京市,e1606f83b26ed089283a9fd9,,e1606f83b26ed089283a9fd9
北京市朝阳区阜通东大街6号方恒购物中心F1,朝阳区,北京市,1,39.995103,116.488046,中国建设银行ATM(方恒购物中心),北京市,96bd4e7a4544d4505d17c340,,96bd4e7a4544d4505d17c340
北京市朝阳区建国路118号招商局大厦1层,朝阳区,北京市,1,39.913153,116.469949,中国建设银行ATM(航华科贸支行),北京市,f90c1c933c01a58f8adb737e,,f90c1c933c01a58f8adb737e
北京市朝阳区朝外头条甲93号附近,朝阳区,北京市,1,39.921742,116.442545,中国建设银行24小时自助银行服务,北京市,9ea95c20d2c51f4ae8e58237,,9ea95c20d2c51f4ae8e58237
北京市朝阳区潘家园东里18号,朝阳区,北京市,1,39.886843,116.46253,中国建设银行24小时自助银行(北京劲松支行),北京市,3f9337d6806a1ab3f62310b4,,3f9337d6806a1ab3f62310b4
北京市朝阳区东三环中路57号,朝阳区,北京市,1,39.903241,116.466346,中国建设银行个人出入境金融服务中心,北京市,,,7117d4f4a5e8ff2133621219
北京市朝阳区双惠苑甲3,朝阳区,北京市,1,39.912083,116.583472,中国建设银行24小时自助银行服务(北京双桥南路支行),北京市,23b781156fb96c1195ca07b8,,23b781156fb96c1195ca07b8
北京市朝阳区望京西园4区423号楼1层,朝阳区,北京市,1,40.001595,116.475787,中国建设银行24小时自助银行(北京望京西园支行),北京市,2425db5c6e88536e740269e7,,2425db5c6e88536e740269e7
北京市朝阳区七圣中街12号爱琴海F1,朝阳区,北京市,1,39.977206,116.442132,中国建设银行ATM(北京爱琴海购物中心),北京市,,,3aa030c83aaae84db31e3613
北京市朝阳区机场南路西里甲8号,朝阳区,北京市,1,40.054866,116.598134,中国建设银行24小时自助银行服务(顺义区天竺储蓄所),北京市,190380419cd726ec940319c6,,75d0881a02fcc54d3b04b18a
北京市朝阳区呼家楼新苑4号楼,朝阳区,北京市,1,39.924054,116.469779,中国建设银行24小时自助银行服务(北京东三环中路支行),北京市,7b825a217869264d93114c4d,,7b825a217869264d93114c4d
北京市朝阳区平乐园100号(北京市双龙南里204号北25米)北京工业大学内,朝阳区,北京市,1,39.879627,116.487892,中国建设银行24小时自助银行(日新路),北京市,617e7cd955c69c399a68b4ff,,617e7cd955c69c399a68b4ff
北京市朝阳区朝阳路67号院8财满街财经中心8号楼,朝阳区,北京市,1,39.923172,116.544225,中国建设银行24小时自助银行(北京财满街支行),北京市,b0d056f239f7357ecac3db43,,b0d056f239f7357ecac3db43
湖光中街南湖西园125号,朝阳区,北京市,1,40.00297,116.462973,中国建设银行24小时自助银行(南湖储蓄所),北京市,f60a15eda4061791bb17e7d7,,f60a15eda4061791bb17e7d7
北京市朝阳区立清路6号院1号,朝阳区,北京市,1,40.055665,116.416287,中国建设银行24小时自助银行(北京立水桥支行),北京市,97f69d77b540577dc7effb6c,,97f69d77b540577dc7effb6c
安立路60号,朝阳区,北京市,1,40.011989,116.416467,中国建设银行24小时自助银行(北京润德支行),北京市,4ea3f2f10390deaaaecb6675,,4ea3f2f10390deaaaecb6675
北京市朝阳区霞光里30号院5-1号,朝阳区,北京市,1,39.964651,116.471207,中国建设银行24小时自助银行服务(霞光里储蓄所自助银行),北京市,4b1765e5a6a533846c3e1b71,,a5af13011e1aa65f9cec2bc6
朝阳公园南路8号院14-6,朝阳区,北京市,1,39.959407,116.482891,中国建设银行24小时自助银行(北京新源支行),北京市,bdc096f43e9695011676431a,,bdc096f43e9695011676431a
北京市朝阳区星火西路19,朝阳区,北京市,1,39.943825,116.507799,中国建设银行24小时自助银行(北京星火西路支行),北京市,9cde5ee15136de8aa2acc4e5,,9cde5ee15136de8aa2acc4e5
北京市朝阳区光华路4号东方梅地亚中心B座,朝阳区,北京市,1,39.918191,116.479765,中国建设银行24小时自助银行(梅地亚支行),北京市,631c4157bb2c036130f71db4,,631c4157bb2c036130f71db4
建国路88号院-7号SOHO现代城A座,朝阳区,北京市,1,39.913284,116.483538,中国建设银行24小时自助银行(北京永安支行),北京市,,,88544fefcfc72be8fa0cadfb
北京市朝阳区甜水园公园5号,朝阳区,北京市,1,39.930658,116.484217,中国建设银行24小时自助银行服务(北京甜水园支行),北京市,6c354b6b8ee49d56bca822b8,,6c354b6b8ee49d56bca822b8
惠新东街10对外经济贸易大学,朝阳区,北京市,1,39.986016,116.432805,中国建设银行24小时自助银行服务(图书馆西路),北京市,07081da1c17d945f9ff77923,,07081da1c17d945f9ff77923
北京市朝阳区左家庄西街内5号楼1号院,朝阳区,北京市,1,39.956633,116.447054,中国建设银行24小时自助银行服务(柳芳南里储蓄所),北京市,6ee01020bb5a98ef52e5c54f,,6ee01020bb5a98ef52e5c54f
文学馆路310号楼,朝阳区,北京市,1,39.989714,116.439868,中国建设银行24小时自助银行服务(芍药居储蓄所),北京市,059208b5479b938e17b54bbc,,059208b5479b938e17b54bbc
朝阳区安华西里2区18号楼,朝阳区,北京市,1,39.971116,116.402134,中国建设银行24小时自助银行服务(北京中轴路支行),北京市,64ff3be1d31d0fc590114ce2,,64ff3be1d31d0fc590114ce2
黄厂南里1号院16号,朝阳区,北京市,1,39.851719,116.57131,中国建设银行24小时自助银行服务(北京富力又一城支行),北京市,2f1ad4996081ff8dad045785,,2f1ad4996081ff8dad045785
北京市朝阳区百子湾东里408号4,朝阳区,北京市,1,39.89972,116.510657,中国建设银行24小时自助银行(北京广渠东路支行),北京市,9a14a3903504f631283a9ff6,,9a14a3903504f631283a9ff6
北京市朝阳区广渠路23号院6,朝阳区,北京市,1,39.899755,116.494271,中国建设银行24小时自助银行(大郊亭支行),北京市,355d54fbe2466e81aeb22a4e,,355d54fbe2466e81aeb22a4e
朝阳区南新园中路38号美景东方家园A103,朝阳区,北京市,1,39.876729,116.474644,中国建设银行24小时自助银行(东方美景储蓄所),北京市,d6df91c1b3bff16af6b916b4,,d6df91c1b3bff16af6b916b4
天桥南大街甲126号,朝阳区,北京市,1,39.873407,116.477443,中国建设银行24小时自助银行(山水文园储蓄所),北京市,c3f8bf1d742abf4346e27411,,c3f8bf1d742abf4346e27411
朝新嘉园东里五区18号楼,朝阳区,北京市,1,39.957947,116.563862,中国建设银行24小时自助银行服务(东坝中路支行),北京市,9f2b63586c007d417369d3dc,,9f2b63586c007d417369d3dc
朝阳区长营南路50号院12-13号,朝阳区,北京市,1,39.924319,116.597178,中国建设银行24小时自助银行(汇鸿家园储蓄所),北京市,f633606a61b1904e0b69d943,,f633606a61b1904e0b69d943
北京市朝阳区京旺家园二区中国建设银行,朝阳区,北京市,1,40.015355,116.535722,中国建设银行24小时自助银行(北京北皋支行),北京市,7a36bf66ed11501fc7effb4b,,7a36bf66ed11501fc7effb4b
北京市朝阳区酒仙桥路2号北京798艺术区A区内,朝阳区,北京市,1,39.993046,116.496574,中国建设银行24小时自助银行服务(北京市电子城科技园区支行),北京市,2ad32cc31cbd308f9d95de4f,,2ad32cc31cbd308f9d95de4f
北京市朝阳区望京西园二区211号,朝阳区,北京市,1,40.010135,116.47503,中国建设银行24小时自助银行(广顺北大街支行),北京市,2f1f2bfb43807615d23ce33c,,2f1f2bfb43807615d23ce33c
清河营东路1号院17号楼,朝阳区,北京市,1,40.054193,116.441535,中国建设银行24小时自助银行(清苑路支行),北京市,3cd23ca9c56791f803ec011c,,3cd23ca9c56791f803ec011c
朝阳区慧忠北路安慧北里秀园16号楼,朝阳区,北京市,1,40.004583,116.41943,中国建设银行24小时自助银行(秀园储蓄所),北京市,2b0869740cd465178a2fb555,,2b0869740cd465178a2fb555
北京市朝阳区北苑路170号,朝阳区,北京市,1,40.002955,116.424889,中国建设银行24小时自助银行服务(北京慧忠路支行),北京市,93314bea43ef690588f15da5,,93314bea43ef690588f15da5
将府家园北里202,朝阳区,北京市,1,39.976731,116.509622,中国建设银行24小时自助银行(北京驼房营支行),北京市,ed4195ea4d1ea2a0018972be,,ed4195ea4d1ea2a0018972be
南十里居41号院6,朝阳区,北京市,1,39.965659,116.504354,中国建设银行24小时自助银行(南十里居支行),北京市,5898fd5ec73dc82f12882411,,5898fd5ec73dc82f12882411
望京西路甲50号,朝阳区,北京市,1,39.989853,116.464867,中国建设银行24小时自助银行(北京花家地支行),北京市,,,6546f248a14870e6213bf218
朝阳北路129号院2,朝阳区,北京市,1,39.929859,116.50875,中国建设银行24小时自助银行(北京朝阳北路支行),北京市,0d081e732384215e8b2fb5a7,,0d081e732384215e8b2fb5a7
青年路西里5号院3,朝阳区,北京市,1,39.932736,116.523181,中国建设银行24小时自助银行(北京青年路支行),北京市,5acb915d7b0f988176026964,,5acb915d7b0f988176026964
北京市朝阳区十里堡东里甲108,朝阳区,北京市,1,39.922971,116.511694,中国建设银行24小时自助银行(八里庄支行),北京市,83bc59ef6fa9bb65b75f1ee0,,43bef4fc3f45d33697031970
朝阳区金台里甲15号,朝阳区,北京市,1,39.923218,116.484098,中国建设银行24小时自助银行服务(北京红庙支行),北京市,052d12b4fbb6fcbca80dd8cb,,052d12b4fbb6fcbca80dd8cb
朝阳区光华路7号汉威大厦1层,朝阳区,北京市,1,39.919511,116.460661,中国建设银行24小时自助银行(北京光华支行),北京市,aee93d39b499f308abf729e1,,aee93d39b499f308abf729e1
建国门外大街甲6号SK大厦1层101-103,朝阳区,北京市,1,39.913296,116.463315,中国建设银行24小时自助银行(建国门外大街支行),北京市,a21baa1e14d43b1557bfff11,,a21baa1e14d43b1557bfff11
小关北里45号院5号东方证券大厦,朝阳区,北京市,1,39.989229,116.417658,中国建设银行24小时自助银行(北京奥体支行),北京市,2ba1e1f65b07f2957c29bdb1,,2ba1e1f65b07f2957c29bdb1
朝阳区樱花西街28号楼,朝阳区,北京市,1,39.980484,116.424616,中国建设银行24小时自助银行(北京樱花支行),北京市,af57a2a813852e269c09f7f2,,af57a2a813852e269c09f7f2
兴化路1号,朝阳区,北京市,1,39.970992,116.420308,中国建设银行24小时自助银行(兴化路储蓄所),北京市,fd6f88cbb335c12784154158,,fd6f88cbb335c12784154158
北京市朝阳区日坛北路17号日坛国际贸易中心F1,朝阳区,北京市,1,39.923913,116.448915,中国建设银行24小时自助银行(日坛国际贸易中心),北京市,ac4879eb0a98dc034d776e77,,ac4879eb0a98dc034d776e77
北京市朝阳区武圣路农光里144-1,朝阳区,北京市,1,39.888393,116.474148,中国建设银行24小时自助银行(武圣路储蓄所),北京市,6985fcf43f75226ebe48427e,,6985fcf43f75226ebe48427e
十里河文化街东150米,朝阳区,北京市,1,39.867254,116.466096,中国建设银行24小时自助银行(东方博宝大厦西南),北京市,127ef8951b4816e2fa0cadb8,,127ef8951b4816e2fa0cadb8
北京市朝阳区东三环南路102-12号,朝阳区,北京市,1,39.87128,116.466554,中国建设银行24小时自助银行服务(大羊坊路),北京市,6deee308c3f1e21429fc4821,,7755125133268490364aae90
北京市朝阳区成寿寺路138号院4号楼底商,朝阳区,北京市,1,39.846709,116.454075,中国建设银行24小时自助银行(北京成寿寺路支行),北京市,b3aa435ddc56140815764321,,b3aa435ddc56140815764321
北京市朝阳区花家地街花家地北里1号楼,朝阳区,北京市,1,39.991964,116.474715,中国建设银行24小时自助银行(北京望京支行),北京市,f757e6eee5877817260bd04f,,f757e6eee5877817260bd04f
北京市朝阳区北苑家园莲葩园7号,朝阳区,北京市,1,40.049983,116.427882,中国建设银行24小时自助银行(北京北苑家园支行),北京市,0b6645a10dc428e829fc48a0,,0b6645a10dc428e829fc48a0
北京市朝阳区天乐园1-3,朝阳区,北京市,1,40.039412,116.419162,中国建设银行24小时自助银行(北京傲城支行),北京市,89fd4ea3af9a9947e5e96575,,89fd4ea3af9a9947e5e96575
北京市朝阳区慧忠路北辰汇欣大厦B座1层,朝阳区,北京市,1,40.000731,116.411301,中国建设银行24小时自助银行(安慧支行),北京市,09ba9f889cdea2e844572679,,09ba9f889cdea2e844572679
小营路10号,朝阳区,北京市,1,40.001191,116.430949,中国建设银行24小时自助银行(北京阳明支行),北京市,24ef7cc8ac2b2960da2f2827,,24ef7cc8ac2b2960da2f2827
科学园南里东街10-2,朝阳区,北京市,1,40.00377,116.389187,中国建设银行24小时自助银行(南沙滩储蓄所),北京市,fff47ef4a009d914ad0457cd,,fff47ef4a009d914ad0457cd
百子湾西里101-7,朝阳区,北京市,1,39.906642,116.504016,中国建设银行24小时自助银行(金都杭城支行),北京市,a1418eb42c2f5401ebe5820d,,a1418eb42c2f5401ebe5820d
甜水园东里7号楼,朝阳区,北京市,1,39.930974,116.491195,中国建设银行24小时自助银行(金台路储蓄所),北京市,f696f3c2fa6931eb1b11d54f,,f696f3c2fa6931eb1b11d54f
朝阳区东四环中路78号金隅大成国际中心A2座,朝阳区,北京市,1,39.905494,116.498299,中国建设银行24小时自助银行(北京百子湾路支行),北京市,555c1b82d3d010d9c356ac52,,555c1b82d3d010d9c356ac52
朝阳区东三环中路57号,朝阳区,北京市,1,39.903169,116.466393,中国建设银行24小时自助银行(光明支行),北京市,c07172b3552956160782c2bc,,c07172b3552956160782c2bc
朝阳区东三环北路京广桥(近呼家楼地铁站),朝阳区,北京市,1,39.927961,116.46777,中国建设银行24小时自助银行(呼家楼支行),北京市,474cb4b64aa8e2766c3e1bd3,,474cb4b64aa8e2766c3e1bd3
安定路35号安华发展大厦,朝阳区,北京市,1,39.980681,116.413284,中国建设银行24小时自助银行(安华支行),北京市,272e6dbd5847c09f16a1904c,,272e6dbd5847c09f16a1904c
北京市朝阳区大柳树路世纪东方嘉园1区9号楼底商(世纪东方城小区门口东部),朝阳区,北京市,1,39.882219,116.501313,中国建设银行24小时自助银行(世纪东方城储蓄所),北京市,67e8f0d490cd73e160180973,,f3ca3375350d42e90f0e6bd4
双龙南里204-3,朝阳区,北京市,1,39.876808,116.485723,中国建设银行24小时自助银行(双龙支行),北京市,2e00c5dd5f248f1cd6851fb4,,2e00c5dd5f248f1cd6851fb4
北京市朝阳区华威西里38号,朝阳区,北京市,1,39.881671,116.459573,中国建设银行24小时自助银行服务(架松储蓄所),北京市,e1d689cb3c427f1e52e5c5e1,,419622d0674491f3f90cad41
左家庄1号,朝阳区,北京市,1,39.964859,116.455422,中国建设银行24小时自助银行(北京三元支行),北京市,37cd9e410c657ea185420e8e,,37cd9e410c657ea185420e8e
北京市朝阳区国美第一城2号院9号楼,朝阳区,北京市,1,39.940606,116.519603,中国建设银行24小时自助银行(国美第一城支行),北京市,56f2f6963da3f1800aa8d443,,56f2f6963da3f1800aa8d443
北京市朝阳区八里庄西里61号,朝阳区,北京市,1,39.918547,116.498248,中国建设银行24小时自助银行(远洋支行),北京市,23116913fe0f67fd724b87b4,,23116913fe0f67fd724b87b4
北京市朝阳区中纺街30号宜必思酒店(东大桥店附近),朝阳区,北京市,1,39.930505,116.461795,中国建设银行24小时自助银行服务(南三里屯路),北京市,eff5a8408eecc799c1f1cf9e,,eff5a8408eecc799c1f1cf9e
北京市朝阳区东土城路8号林达大厦1楼,朝阳区,北京市,1,39.962253,116.439206,中国建设银行24小时自助银行(东土城路储蓄所),北京市,db277c7e77f4c219e01103e2,,db277c7e77f4c219e01103e2
金蝉南里14号楼,朝阳区,北京市,1,39.867453,116.510757,中国建设银行24小时自助银行(华侨城储蓄所),北京市,86a866791fd36ba6b23c816e,,86a866791fd36ba6b23c816e
百子湾南二路70乐成豪丽公寓202,朝阳区,北京市,1,39.902293,116.482968,中国建设银行24小时自助银行(北京广渠路支行),北京市,a5097bfa7ae0171ef13cba80,,a5097bfa7ae0171ef13cba80
北京市丰台区永定门外马家堡路甲88号,丰台区,北京市,1,39.866589,116.392942,中国建设银行(北京洋桥北里支行),北京市,d6fa4a3bad46c8b6b35c6af4,(010)67228569,d6fa4a3bad46c8b6b35c6af4
开阳路与幸福路交叉口嘉金大厦1层,丰台区,北京市,1,39.873944,116.380322,中国建设银行(开阳里支行),北京市,0cb195ba0e5b700ec356ac49,(010)83538802,0cb195ba0e5b700ec356ac49
北京市丰台区大成路6号院1东南60米,丰台区,北京市,1,39.895358,116.278622,中国建设银行(大成路),北京市,,,363c7507c265f8d62b201a93
北京市丰台区大成南里2区3号楼02号B(长安新城项目西区公建一层),丰台区,北京市,1,39.895023,116.270635,中国建设银行(长安新城支行),北京市,53349ee3cb7bc36e220262dd,(010)68696435,53349ee3cb7bc36e220262dd
莲花池西里10号路桥大厦1层,丰台区,北京市,1,39.896147,116.314415,中国建设银行(北京丰岳支行),北京市,100914389894e5257bf79619,"(010)63462555,(010)63463223",100914389894e5257bf79619
北京市丰台区樊羊路69号院1号楼1层,丰台区,北京市,1,39.828208,116.319101,中国建设银行(樊羊路支行),北京市,2a96ef32fb328b6a4bcc4a90,(010)83068763,2a96ef32fb328b6a4bcc4a90
北京市丰台区南四环西路188号3区4楼,丰台区,北京市,1,39.831536,116.291671,中国建设银行(北京丰科园支行),北京市,f757e6ee169be914260bd055,(010)63701058,f757e6ee169be914260bd055
北京市丰台区东大街25号楼1层,丰台区,北京市,1,39.864511,116.299815,中国建设银行(东大街支行),北京市,18165334c4205704fb2d61dd,,18165334c4205704fb2d61dd
北京市丰台区西四环南路54号,丰台区,北京市,1,39.874053,116.289814,中国建设银行(北京丰台支行),北京市,61085211bcda7ea1c51b75dd,(010)63857407,61085211bcda7ea1c51b75dd
北京市丰台区马家堡西路32号院8,丰台区,北京市,1,39.844679,116.377921,中国建设银行(公益西桥支行),北京市,f721ae6ac13e829af7eafcca,(010)67047963,f721ae6ac13e829af7eafcca
北京市丰台区北京西站南路4号,丰台区,北京市,1,39.893769,116.327941,中国建设银行(北京西客站支行),北京市,bd0919a506a71132734b879b,(010)63492182,803708f198360f79018972dd
北京市丰台区马家堡西居住区明日嘉园三里明日商厦1-125,丰台区,北京市,1,39.851674,116.373619,中国建设银行(明日嘉和支行),北京市,cf0c31229298fc82c9291504,(010)87585275,cf0c31229298fc82c9291504
北京市丰台区韩庄子二里19号楼首层,丰台区,北京市,1,39.844282,116.293925,中国建设银行(韩庄子支行),北京市,f2f15ffb44d59688631c67dd,,f2f15ffb44d59688631c67dd
北京市丰台区方庄南路2号,丰台区,北京市,1,39.864321,116.445922,中国建设银行(北京方庄桥南支行),北京市,ecb26949383ada644e776e94,(010)57539030,ecb26949383ada644e776e94
方庄南路58号院11号,丰台区,北京市,1,39.853167,116.446066,中国建设银行(北京方庄南路支行),北京市,24fff95d73f10fd1fe0eb04a,(010)87820508,24fff95d73f10fd1fe0eb04a
北京市丰台区赵公口5号,丰台区,北京市,1,39.862392,116.420327,中国建设银行(北京木樨园支行),北京市,5933938312515e2eabf72937,(010)67234743,5933938312515e2eabf72937
北京市丰台区东高地南街7号,丰台区,北京市,1,39.812441,116.424096,中国建设银行(北京万源路支行),北京市,ddfdf6a14cf90468a9059d94,(010)68756682,ddfdf6a14cf90468a9059d94
北京市丰台区马家堡东路57-2号(近东丽温泉小区),丰台区,北京市,1,39.860984,116.39295,中国建设银行(洋桥支行),北京市,64ff3be16530d1bb90114cd3,(010)67577970,64ff3be16530d1bb90114cd3
北京市丰台区银地家园1号楼首层04北侧,丰台区,北京市,1,39.828117,116.342157,中国建设银行(北京银地支行),北京市,b292b3aa7af7bf56be48423a,(010)83710549,b292b3aa7af7bf56be48423a
北京市丰台区首经贸北路8号院2-1栋1楼A-102号,丰台区,北京市,1,39.849958,116.327428,中国建设银行(万年花城支行),北京市,08f1f1f5a20639ca88db73dd,(010)83600743,08f1f1f5a20639ca88db73dd
北京市丰台区右安门外大街1号,丰台区,北京市,1,39.872861,116.370538,中国建设银行(右安门支行),北京市,6691856d85c2b17c21026201,,6691856d85c2b17c21026201
北京市丰台区莲花池南里21号景都桂龙大酒店首层,丰台区,北京市,1,39.894102,116.323453,中国建设银行(六里桥支行),北京市,480ec7ba86e96d7dbda2403f,,1faf662848c26d769d95de8a
北京市丰台区西罗园路一区15号,丰台区,北京市,1,39.867769,116.398942,中国建设银行(西罗园支行),北京市,3be122e152d6a8521ef74dd3,(010)67215072,3be122e152d6a8521ef74dd3
北京市丰台区光彩路66号院5号楼首层,丰台区,北京市,1,39.84472,116.422544,中国建设银行(北京光彩支行),北京市,0c6071a7f186b49f2e473378,(010)87809611,0c6071a7f186b49f2e473378
北京市丰台区马家堡东路168号院6号楼,丰台区,北京市,1,39.844312,116.39357,中国建设银行(公益东桥支行),北京市,65ed1be8f72f01a92eb17ebd,(010)87248158,65ed1be8f72f01a92eb17ebd
北京市丰台区草桥欣园3区1号楼一层1-8号,丰台区,北京市,1,39.851437,116.364676,中国建设银行(北京嘉园支行),北京市,4ea3f2f10238ddaaaecb66dd,,4ea3f2f10238ddaaaecb66dd
北京市丰台区青塔村15号,丰台区,北京市,1,39.901485,116.270742,中国建设银行(北京青塔支行),北京市,cb4fd146d04b3c419d9d68dd,(010)68672211,cb4fd146d04b3c419d9d68dd
北京市丰台区永外果园43号珠江骏景27号楼一层,丰台区,北京市,1,39.860265,116.401667,中国建设银行(北京珠江骏景支行),北京市,50fb64ff7330e75de9f853d3,(010)87805401,50fb64ff7330e75de9f853d3
北京市丰台区宋庄路26号院2号楼1至2层,丰台区,北京市,1,39.854827,116.435322,中国建设银行(北京宋家庄支行),北京市,8866762807fef1c6b11e3654,(010)87169484,8866762807fef1c6b11e3654
北京市丰台区太平桥华源一里11号楼首层底商17号,丰台区,北京市,1,39.884307,116.324083,中国建设银行(北京华源里支行),北京市,fc767524ae8c14fa4e776edd,(010)63286613,fc767524ae8c14fa4e776edd
北京市丰台区程庄路五里店北里一区4号楼一层,丰台区,北京市,1,39.869884,116.268837,中国建设银行(北京五里店支行),北京市,f9bf84d9995e5002b75f1e0d,(010)83734058,f9bf84d9995e5002b75f1e0d
北京市丰台区晓月苑五里2号楼商业4号,丰台区,北京市,1,39.84045,116.247706,中国建设银行(北京晓月苑支行),北京市,b3fa0b540c5f5d2b79b55c89,,b3fa0b540c5f5d2b79b55c89
北京市丰台区群星路芳群园四区6号楼1楼,丰台区,北京市,1,39.867433,116.434625,中国建设银行(芳群园四区支行),北京市,4eb3b533d49bf875430245d3,,4eb3b533d49bf875430245d3
北京市丰台区角门北路8号院1号楼正旗大厦,丰台区,北京市,1,39.856128,116.38844,中国建设银行(北京马家堡支行),北京市,2848ffd695d28b0f48cc4ad3,(010)67584043,2848ffd695d28b0f48cc4ad3
"北京市丰台区莲怡园北路2号院1号楼1层107-109号,111-112号",丰台区,北京市,1,39.892341,116.308821,中国建设银行(北京马官营支行),北京市,63ae75deea096cf81b11d567,(010)63252011,63ae75deea096cf81b11d567
北京市丰台区南三环西路91号院1号楼1层104,丰台区,北京市,1,39.856137,116.339553,中国建设银行(北京万柳园支行),北京市,f1f5cac59bb5b09836b06cdd,(010)63300389,f1f5cac59bb5b09836b06cdd
北京市丰台区丰桥路7号院三环新城16号楼底商,丰台区,北京市,1,39.856982,116.315944,中国建设银行(北京三环新城支行),北京市,7524cb4fb585763404026fdd,(010)83630924,7524cb4fb585763404026fdd
北京市丰台区云岗西路5-1号,丰台区,北京市,1,39.816922,116.165842,中国建设银行(云岗支行专柜店),北京市,750ec165f447c8284c3a595f,(010)68190551,750ec165f447c8284c3a595f
华源四里甲51层14#-F07、F08、F09、F1052层14#-S07、S08、S09、S10,丰台区,北京市,1,39.886235,116.32704,中国建设银行(北京太平桥支行),北京市,,(010)63259812,8dfbde23d269833ab54f5409
北京市丰台区科学城东怡海花园怡海路5-15号,丰台区,北京市,1,39.840082,116.30523,中国建设银行(北京怡海花园支行),北京市,d219bb1d5427458bf50e77dd,(010)63712074,d219bb1d5427458bf50e77dd
北京市丰台区魏家村南路20号院7号楼1至2层7-6,丰台区,北京市,1,39.887594,116.274302,中国建设银行(北京梅市口支行),北京市,75055cde64b64c601ee99964,(010)83823114,75055cde64b64c601ee99964
北京市丰台区东大街25附近,丰台区,北京市,1,39.86443,116.299983,中国建设银行(东大街消费信贷中心),北京市,ee73f18800ed5a26a1d2300d,,ee73f18800ed5a26a1d2300d
北京市丰台区方庄蒲芳路28号,丰台区,北京市,1,39.871422,116.433554,中国建设银行(城市建设开发专业支行),北京市,3dc9befd89437616bea240d3,,3dc9befd89437616bea240d3
西四环南路54号,丰台区,北京市,1,39.873842,116.290042,建行营业大厅,北京市,,,abf13239f2a5ecca7369d33c
北京市丰台区南三环西路10号,丰台区,北京市,1,39.862518,116.380193,中国建设银行总行北京数据中心,北京市,eae81e8a821f47d9da2f282b,,eae81e8a821f47d9da2f282b
北京市丰台区西四环南路54号,丰台区,北京市,1,39.874102,116.289744,中国建设银行(北京市分行丰台消费信贷中心),北京市,2e50630771d5dbe80b1cc75b,"(010)63868802,(010)63811262,(010)63822881",2e50630771d5dbe80b1cc75b
北京市丰台区小屯路89,丰台区,北京市,1,39.883841,116.257889,中国建设银行ATM(航兴天润),北京市,89d8714646eff63440d63e6f,,89d8714646eff63440d63e6f
北京市丰台区宋庄路26号院2号楼,丰台区,北京市,1,39.854845,116.435281,中国建设银行24小时自助银行(宋家庄支行),北京市,e2c761dac7c4454d2dfaa715,,e2c761dac7c4454d2dfaa715
北京市丰台区晓月中路晓月苑五里2号楼底商,丰台区,北京市,1,39.840358,116.247588,中国建设银行24小时自助银行服务(北京晓月苑支行),北京市,9ae609a864ab2da0ddee8b27,,9ae609a864ab2da0ddee8b27
北京市丰台区开阳路3号院1,丰台区,北京市,1,39.874022,116.380355,中国建设银行24小时自助银行(北京开阳里支行),北京市,e13c116680b8d1bf1d5800d5,,e13c116680b8d1bf1d5800d5
北京市丰台区万丰路305号亿客隆,丰台区,北京市,1,39.87926,116.302591,中国建设银行ATM(亿潼隆万丰店),北京市,47fdc6c59b81e8a3b817e73e,,47fdc6c59b81e8a3b817e73e
草桥东路1号上品折扣草桥店1层,丰台区,北京市,1,39.856957,116.365229,中国建设银行ATM(上品折扣草桥店),北京市,7cbd958ee8dab056a0acc461,,7cbd958ee8dab056a0acc461
北京市丰台区大成路6号楼附近,丰台区,北京市,1,39.895331,116.278582,中国建设银行24小时自助银行(大成路),北京市,,,2cf69b91103964db85420ead
丰台区成寿寺四方景园2区6号,丰台区,北京市,1,39.864243,116.446108,中国建设银行24小时自助银行服务(北京方庄桥南支行),北京市,742affff627acfa004fef507,,742affff627acfa004fef507
北京市丰台区马家堡东路101号银泰百货大红门店B1层,丰台区,北京市,1,39.844192,116.393569,中国建设银行24小时自助银行服务(公益东桥支行网点),北京市,524f36c94689eac79fe32180,,524f36c94689eac79fe32180
丰台区永外果园43号珠江骏景27号楼1楼(近天雅服装商城),丰台区,北京市,1,39.860251,116.401899,中国建设银行24小时自助银行(北京珠江骏景支行),北京市,05dd7d5fff16fc7cac080f83,,05dd7d5fff16fc7cac080f83
北京市丰台区靛厂路11号千禧购物中心F1,丰台区,北京市,1,39.896198,116.29055,中国建设银行ATM(千禧街休闲购物广场),北京市,ff727da7c7faf7b5b6147f21,,ff727da7c7faf7b5b6147f21
北京市丰台区方庄芳星园一区6号,丰台区,北京市,1,39.871661,116.439049,中国建设银行24小时自助银行(北京中医药大学东方医院东楼东南),北京市,5b222d896c3fc1d2601c670b,,5b222d896c3fc1d2601c670b
北京市丰台区右安门外大街1-8号,丰台区,北京市,1,39.872889,116.370556,中国建设银行24小时自助银行(右安门支行),北京市,cc0849a0f96aa12d9503198f,,cc0849a0f96aa12d9503198f
方庄南路58号院11,丰台区,北京市,1,39.853106,116.446034,中国建设银行24小时自助银行服务(北京方庄南路支行),北京市,68c1bf8d85ebe1f62cb90823,,68c1bf8d85ebe1f62cb90823
光彩路66号院5号楼首层,丰台区,北京市,1,39.845594,116.422229,中国建设银行24小时自助银行服务(北京光彩支行),北京市,8f4c3c9524df12635e17c36c,,8f4c3c9524df12635e17c36c
北京市丰台区莲怡园北路2,丰台区,北京市,1,39.892478,116.308697,中国建设银行24小时自助银行服务(北京马官营支行),北京市,1cd7e11b2204b6b3b04c49ea,,bf515500871cdb71c8291510
北京市丰台区丰台北路16号,丰台区,北京市,1,39.872528,116.313909,中国建设银行24小时自助银行(恒泰广场),北京市,,,7f81ac9db87b5f4e38e4a65d
北京市丰台区西四环南路54,丰台区,北京市,1,39.873658,116.289863,中国建设银行24小时自助银行服务(北京丰台支行),北京市,8afc82bde50fb2df5d0d02a0,,8afc82bde50fb2df5d0d02a0
莲花池西里10号路桥大厦1层,丰台区,北京市,1,39.896161,116.314431,中国建设银行24小时自助银行(丰岳支行),北京市,c77f28bd6b8b24b449fd3f76,,c77f28bd6b8b24b449fd3f76
首经贸北路8号院2-1栋1层A-102号,丰台区,北京市,1,39.84995,116.327611,中国建设银行24小时自助银行(北京万年花城支行),北京市,50499435b91247094054d7f2,,50499435b91247094054d7f2
丰台区韩庄子二里19-4号,丰台区,北京市,1,39.844333,116.294076,中国建设银行24小时自助银行(韩庄子储蓄所),北京市,d5fd91f6a2d6aab4ad045776,,d5fd91f6a2d6aab4ad045776
科学城东怡海花园怡海路5-15号,丰台区,北京市,1,39.840009,116.30514,中国建设银行24小时自助银行(怡海花园储蓄所),北京市,8ab0dfc47075b716d8eceddd,,8ab0dfc47075b716d8eceddd
南四环西路188号三区4,丰台区,北京市,1,39.83159,116.29171,中国建设银行24小时自助银行(北京丰科园支行),北京市,b1c556e8c2108e0cb426553a,,b1c556e8c2108e0cb426553a
北京市丰台区赵公口5号(近赵公口桥),丰台区,北京市,1,39.862295,116.420402,中国建设银行24小时自助银行(木樨园支行),北京市,2e0e708e30e8414245e2746c,,2e0e708e30e8414245e2746c
北京市丰台区马家堡东路35号,丰台区,北京市,1,39.866529,116.393004,中国建设银行24小时自助银行服务(北京洋桥北里支行),北京市,be1ea5efd84eadc114948e5e,,be1ea5efd84eadc114948e5e
嘉和路明日东方商厦1-125室,丰台区,北京市,1,39.851657,116.373574,中国建设银行24小时自助银行(明日嘉和支行),北京市,296ddb139ebf0bbce115f9ad,,296ddb139ebf0bbce115f9ad
马家堡西路,丰台区,北京市,1,39.858081,116.377545,中国建设银行24小时自助银行(马家堡西路),北京市,1cf175bdf9f5ec50fbf0cba3,,ee8880cdd4d1f357b34c493c
北京市丰台区东高地南街7号,丰台区,北京市,1,39.812349,116.424282,中国建设银行24小时自助银行(万源路支行),北京市,ceec36a8b6b819774d2fdf44,,ceec36a8b6b819774d2fdf44
北京市丰台区莲花池东路114-1号,丰台区,北京市,1,39.902393,116.332094,中国建设银行24小时自助银行(北京西站),北京市,6dfd262bbc326b7b626858ee,,6dfd262bbc326b7b626858ee
丰台区太平桥西里小区20号楼1楼,丰台区,北京市,1,39.886075,116.327194,中国建设银行24小时自助银行服务(北京太平桥支行),北京市,5db9a634f78c176c774ff18d,,5db9a634f78c176c774ff18d
北京市西站南路4,丰台区,北京市,1,39.893848,116.327898,中国建设银行24小时自助银行(北京西客站支行),北京市,440ade3aa1d554aeeb12e4f2,,440ade3aa1d554aeeb12e4f2
北京市丰台区马连道路15,丰台区,北京市,1,39.884216,116.32394,中国建设银行24小时自助银行(太平桥储蓄所),北京市,465eed7ceb27b819eedfcaab,,465eed7ceb27b819eedfcaab
北京市丰台区南三环西路宝隆大厦,丰台区,北京市,1,39.85615,116.339428,中国建设银行24小时自助银行服务(万柳园储蓄所),北京市,e5e2bdd99a16260cc6effbcb,,e5e2bdd99a16260cc6effbcb
北京市丰台区银地花园1号楼,丰台区,北京市,1,39.828107,116.342335,中国建设银行24小时自助银行(银地支行),北京市,49d959381a51a143c61e513a,,49d959381a51a143c61e513a
北京市丰台区丰桥路6号院2甲3-59,丰台区,北京市,1,39.856891,116.316022,中国建设银行24小时自助银行(三环新城支行),北京市,61f634f662731a786b49f3dd,,61f634f662731a786b49f3dd
青塔村15号,丰台区,北京市,1,39.901432,116.270834,中国建设银行24小时自助银行(青塔储蓄所),北京市,fa835ce2bcbe33b6e812e4dd,,fa835ce2bcbe33b6e812e4dd
大成南里二区3,丰台区,北京市,1,39.894995,116.270635,中国建设银行24小时自助银行服务(长安新城储蓄所),北京市,0ffb4bfa634a347d5cd4fea7,,0ffb4bfa634a347d5cd4fea7
云岗西路5号,丰台区,北京市,1,39.816744,116.166137,中国建设银行24小时自助银行(云岗支行),北京市,bcaebff84ddb6654c9e33c3e,,bcaebff84ddb6654c9e33c3e
方庄蒲方路28号,丰台区,北京市,1,39.871544,116.433324,中国建设银行24小时自助银行服务(北京城市建设开发专业支行),北京市,27ff90637179a8042a02e192,,27ff90637179a8042a02e192
北京市丰台区芳群园四区丙6号,丰台区,北京市,1,39.86716,116.434904,中国建设银行24小时自助银行(芳群园储蓄所),北京市,9275c11a9fea09d0e5073899,,9275c11a9fea09d0e5073899
北京市丰台区马家堡西路32号院8,丰台区,北京市,1,39.844685,116.377955,中国建设银行24小时自助银行服务(北京公益西桥支行),北京市,84378c3748880b68b7265580,,84378c3748880b68b7265580
丰台区草桥欣园三区1-8,丰台区,北京市,1,39.851408,116.364767,中国建设银行24小时自助银行(嘉园支行),北京市,0a15c7ec52e86ffced74f8dd,,0a15c7ec52e86ffced74f8dd
北京市丰台区樊羊路69号院1号楼1层,丰台区,北京市,1,39.828289,116.31911,中国建设银行24小时自助银行(北京樊羊路支行),北京市,2f42e6dce79dc1ba5bf6bed2,,2f42e6dce79dc1ba5bf6bed2
北京市丰台区五里店北里一区4号楼1层西侧,丰台区,北京市,1,39.869808,116.268886,中国建设银行24小时自助银行(五里店支行网点),北京市,cf4b0ffc26dd6999ebe58274,,cf4b0ffc26dd6999ebe58274
北京市丰台区马家堡东路57-2,丰台区,北京市,1,39.86099,116.392885,中国建设银行24小时自助银行服务(北京洋桥支行),北京市,58046b2a1a6120b12cb908c3,,58046b2a1a6120b12cb908c3
北京市丰台区角门北路8号正旗大厦1层,丰台区,北京市,1,39.856313,116.388269,中国建设银行24小时自助银行(马家堡储蓄所),北京市,34baf1c165cb96ef2ce67bf0,,34baf1c165cb96ef2ce67bf0
丰台区莲花池南里21号爱华大厦,丰台区,北京市,1,39.893976,116.323691,中国建设银行24小时自助银行(北京六里桥支行),北京市,597c20f71163035f081cc79b,,597c20f71163035f081cc79b
北京市丰台区西四环中路130号,丰台区,北京市,1,39.885181,116.28446,中国建设银行24小时自助银行服务(阅园小区西南),北京市,,,da2b169375ff55e4d1f49e90
北京市丰台区东大街25,丰台区,北京市,1,39.86453,116.300004,中国建设银行24小时自助银行(东大街支行),北京市,3da907f3eb710853b320a8dd,,3da907f3eb710853b320a8dd
北京市丰台区魏家村南路20号院7号,丰台区,北京市,1,39.887547,116.274749,中国建设银行24小时自助银行(北京梅市口支行),北京市,98651c95d857670e3686f4d7,,98651c95d857670e3686f4d7
北京市石景山区石景山路22号,石景山区,北京市,1,39.912301,116.225565,中国建设银行(石景山支行),北京市,fd007c5eebc3e06ca8f729d8,(010)51993639,fd007c5eebc3e06ca8f729d8
北京市石景山区阜石路165号当代商城(鼎城店)F1,石景山区,北京市,1,39.931737,116.202032,中国建设银行(当代商城),北京市,0cafbc3b7394b414a10464ed,(010)68860141,0cafbc3b7394b414a10464ed
北京市石景山区鲁谷大街51号(近西富港中心),石景山区,北京市,1,39.896609,116.237619,中国建设银行(鲁谷支行),北京市,e889a744ce030fc88605bfcb,(010)68645276,e889a744ce030fc88605bfcb
北京市石景山区复兴路46号,石景山区,北京市,1,39.913133,116.260427,中国建设银行(北京玉兴支行),北京市,b4ea3cd845b6076f88f15d25,(010)68219360,b4ea3cd845b6076f88f15d25
北京市石景山区西黄新村西里2号楼底商,石景山区,北京市,1,39.939312,116.211265,中国建设银行(北京雍景支行),北京市,e609bc0246b071f02b06cef0,(010)88938650,e609bc0246b071f02b06cef0
北京市石景山区金顶西街18号(337总站南侧),石景山区,北京市,1,39.934931,116.16677,中国建设银行(模式口支行),北京市,28e700f18428ae7c095cb3c9,(010)88753060,28e700f18428ae7c095cb3c9
北京市石景山区永乐小区72栋2号,石景山区,北京市,1,39.909112,116.241892,中国建设银行(北京西永乐支行),北京市,62d16081abf0652af8dc85f9,,62d16081abf0652af8dc85f9
北京市石景山区香山南路168号院1号楼104室,石景山区,北京市,1,39.949368,116.207539,中国建设银行(北京西山枫林支行),北京市,1f703db49e04d6088e77278e,(010)88789147,3587fafb9f7fc9ce5cd4fe0e
北京市石景山区阜石路165号当代商城(鼎城店)F1,石景山区,北京市,1,39.93183,116.202099,中国建设银行24小时自助银行服务(当代商城),北京市,,,cdeca038ba411265631c67d7
北京市石景山区玉泉路19号甲中国科学院研究生院玉泉路分院,石景山区,北京市,1,39.915745,116.258497,中国建设银行24小时自助银行,北京市,ef91b853a7708746d23ce376,,ef91b853a7708746d23ce376
北京市石景山区复兴路48-1号,石景山区,北京市,1,39.913156,116.260376,中国建设银行24小时自助银行服务(北京玉兴支行),北京市,efe2c09239e7ace80accddd8,,efe2c09239e7ace80accddd8
八角西街37,石景山区,北京市,1,39.921858,116.204984,中国建设银行24小时自助银行(八角北里支行),北京市,d4034eb31858bdf5c0364476,,d4034eb31858bdf5c0364476
北京市石景山区鲁谷路108号,石景山区,北京市,1,39.909184,116.24179,中国建设银行24小时自助银行(西永乐支行),北京市,a12baa4089c20128e856fa56,,a12baa4089c20128e856fa56
北京市石景山区鲁谷小区五芳园1号,石景山区,北京市,1,39.904776,116.230694,中国建设银行24小时自助银行服务(鲁谷南路),北京市,48d197221a28e7b5770269b2,,48d197221a28e7b5770269b2
石景山路49号,石景山区,北京市,1,39.913772,116.195134,中国建设银行24小时自助银行(北京古城支行),北京市,2cc3c8e823fba4d64d2fdfd8,,2cc3c8e823fba4d64d2fdfd8
金顶西街18,石景山区,北京市,1,39.934859,116.166919,中国建设银行24小时自助银行服务(北京模式口支行),北京市,43b7e889918a456a58f6bed7,,43b7e889918a456a58f6bed7
香山南路168号,石景山区,北京市,1,39.949509,116.207463,中国建设银行24小时自助银行(北京西山枫林支行),北京市,435d7aea7b792c355abbbcd7,,435d7aea7b792c355abbbcd7
北京市石景山区西黄新村西里1,石景山区,北京市,1,39.939207,116.211439,中国建设银行24小时自助银行(北京雍景支行),北京市,020722c310af2cb13617dc5a,,020722c310af2cb13617dc5a
北京市石景山区阜石路300号喜隆多新国际购物中心F1,石景山区,北京市,1,39.929393,116.178196,中国建设银行24小时自助银行服务(喜隆多新国际购物中心),北京市,469e5d4ef402efbbbea240f0,,469e5d4ef402efbbbea240f0
石景山路22-16号建行大厦,石景山区,北京市,1,39.912531,116.225562,中国建设银行24小时自助银行服务(北京石景山支行),北京市,78a055d0fd5941ae246e98df,,78a055d0fd5941ae246e98df
北京市石景山区鲁谷大街51,石景山区,北京市,1,39.896815,116.23742,中国工商银行24小时自助银行服务,北京市,9494ef3a82cf4a95a6da39c5,,9494ef3a82cf4a95a6da39c5
北京市海淀区上地信息路28号信息大厦1层,海淀区,北京市,1,40.041838,116.317985,中国建设银行(北京上地支行),北京市,56f2f696864928fe0aa8d410,(010)62967186,56f2f696864928fe0aa8d410
杏石口路西杉创意园一区4号楼,海淀区,北京市,1,39.959891,116.2363,中国建设银行(北京巨山路支行),北京市,6b55149e0675b83e1c38941b,(010)62730109,6b55149e0675b83e1c38941b
北三环西路99号院西海国际中心117-118号,海淀区,北京市,1,39.970261,116.31499,中国建设银行(苏州桥支行),北京市,44f2cc85ea381820c9c3db76,,44f2cc85ea381820c9c3db76
北京市海淀区首体南路9号主语商务中心5号楼一层,海淀区,北京市,1,39.940691,116.33158,中国建设银行(首体南路支行),北京市,43b7e889921b446a58f6be46,(010)68790409,43b7e889921b446a58f6be46
用友软件园北区17号楼,海淀区,北京市,1,40.077991,116.249943,中国建设银行(北京永丰路支行),北京市,6fa636e249ae78485fbe86d1,(010)82789613,6fa636e249ae78485fbe86d1
北京市海淀区圆西路2号,海淀区,北京市,1,40.030848,116.286359,中国建设银行(北京圆西路支行),北京市,e665da1d57155b774afd3fe4,(010)62895585,e665da1d57155b774afd3fe4
北京市海淀区龙岗路甲6号,海淀区,北京市,1,40.03646,116.359225,中国建设银行(龙岗路支行),北京市,1bdda665041b0b82ee74f819,(010)62901080,1bdda665041b0b82ee74f819
北京市海淀区板井路59号世纪城6区首层,海淀区,北京市,1,39.956241,116.292284,中国建设银行(世纪城支行),北京市,e889a744b58960b58605bf46,(010)88594037,e889a744b58960b58605bf46
北京市海淀区复兴路28号,海淀区,北京市,1,39.911589,116.281167,中国建设银行(西四环支行),北京市,53cebd509ca8aa612b02e1a0,"(010)68218709,(010)68218718",53cebd509ca8aa612b02e1a0
北京市海淀区苏州街3号大恒科技大厦一层,海淀区,北京市,1,39.988345,116.311822,中国建设银行(北京硅谷支行),北京市,881a28e729ae0247f942b246,(010)82569379,881a28e729ae0247f942b246
西二旗大街天信亮酒店1层,海淀区,北京市,1,40.060267,116.323052,中国建设银行(西二旗支行),北京市,f1e033a56d8275e50ab93af6,(010)82717180,f1e033a56d8275e50ab93af6
北京市海淀区中关村大街27号中关村大厦1层(近海淀医院),海淀区,北京市,1,39.98373,116.323009,中国建设银行(中关村支行),北京市,14076deea757edf402294f41,(010)82856384,14076deea757edf402294f41
北京市海淀区中关村南路新科祥园小区甲7号楼裙房,海淀区,北京市,1,39.987022,116.330055,中国建设银行(中南路支行),北京市,3be122e15258a8521ef74d41,(010)62533804,3be122e15258a8521ef74d41
北京市海淀区知春路7号致真大厦C座1层,海淀区,北京市,1,39.982761,116.357566,中国建设银行(北京学知支行),北京市,71f2833f9d681767ee74f878,(010)82263371,71f2833f9d681767ee74f878
北京市海淀区羊坊店路恩菲科技大厦1层,海淀区,北京市,1,39.911251,116.328209,中国建设银行(金安支行),北京市,632cb216c7e16fc6ae080fff,"(010)63955750,(010)63955786,(010)63936101",632cb216c7e16fc6ae080fff
北京市海淀区紫竹院路88号紫竹花园A座,海淀区,北京市,1,39.950576,116.308897,中国建设银行(紫竹桥支行),北京市,64ff3be165bed1bb90114c41,(010)88552608,64ff3be165bed1bb90114c41
北京市海淀区阜成路19号,海淀区,北京市,1,39.93,116.324257,中国建设银行(阜成路支行),北京市,c7fb04bdd2fcf815fa0cad46,(010)68725785,c7fb04bdd2fcf815fa0cad46
北京市海淀区志新东路甲6号,海淀区,北京市,1,39.997791,116.376023,中国建设银行(齐园路储蓄所),北京市,a5097bfa39a35663f03cba46,(010)62326339,a5097bfa39a35663f03cba46
北京市海淀区花园北路20号牡丹园北里6号楼首层,海淀区,北京市,1,39.986443,116.381286,中国建设银行(牡丹园储蓄所),北京市,7bfa08fca380c87f25d2bb46,(010)62082990,7bfa08fca380c87f25d2bb46
北京市海淀区成府路29号,海淀区,北京市,1,39.99867,116.359389,中国建设银行(五道口储蓄所),北京市,befdb29289f586e187154141,(010)62335345,befdb29289f586e187154141
北京市海淀区信息路19-1号,海淀区,北京市,1,40.037358,116.318421,中国建设银行(上地储蓄所),北京市,dc2f32e10edd97f470455b8a,(010)62981673,dc2f32e10edd97f470455b8a
北京市海淀区远大路一号金源时代购物中心一层,海淀区,北京市,1,39.964623,116.29397,中国建设银行(北京金源支行),北京市,0dc3d82d4bc8b06c75e5b646,(010)88872123,0dc3d82d4bc8b06c75e5b646
北京市海淀区学院路甲38号长城电脑大厦一层,海淀区,北京市,1,39.98754,116.361222,中国建设银行(花园路支行),北京市,669775d0a345ed5bfd0eb046,(010)62001170,669775d0a345ed5bfd0eb046
北京市海淀区车公庄西路38号,海淀区,北京市,1,39.938024,116.318944,中国建设银行(花园村储蓄所),北京市,f26e2fc516915e721ef74dbb,(010)68413376,f26e2fc516915e721ef74dbb
北京市海淀区北蜂窝路5号院1-2号楼间裙房1楼,海淀区,北京市,1,39.911339,116.335023,中国建设银行(会成支行),北京市,cb4c459f3b2133d1df1e52ba,(010)63951400,cb4c459f3b2133d1df1e52ba
北京市海淀区文慧园北路22号,海淀区,北京市,1,39.960381,116.368421,中国建设银行(小西天储蓄所),北京市,ea4a3dc982a2772e4e554741,(010)62273182,ea4a3dc982a2772e4e554741
"北京市海淀区万柳东路15号(101室,201室),17号(101室,201室)",海淀区,北京市,1,39.975794,116.307204,中国建设银行(北京万泉支行),北京市,b292b3aa7a02bf56be484241,,b292b3aa7a02bf56be484241
北京市海淀区增光路小区35号,海淀区,北京市,1,39.934145,116.329016,中国建设银行(增光路支行),北京市,e3082848bd8911bfb34c4941,,e3082848bd8911bfb34c4941
北京市海淀区四季青路8号海淀烟草公司旁,海淀区,北京市,1,39.960016,116.278234,中国建设银行(四季青支行),北京市,8d96925c50225138c0f1cfb3,(010)88499403,8d96925c50225138c0f1cfb3
北京市海淀区闵庄南路9号,海淀区,北京市,1,39.972389,116.253634,中国建设银行(闵庄南路支行),北京市,8bc934301a9d18fffd0eb083,(010)88403297,8bc934301a9d18fffd0eb083
北京市海淀区复兴路甲36号白朗园B段,海淀区,北京市,1,39.913071,116.270492,中国建设银行(北京玉泉支行),北京市,28bbd6398627e29df7eafcff,(010)88202118,28bbd6398627e29df7eafcff
花园北路49号,海淀区,北京市,1,39.988865,116.3662,中国建设银行(自动柜员机),北京市,,,68a6811f83d79d555e17c313
北京市海淀区万柳中路蜂鸟家园2号楼一层,海淀区,北京市,1,39.971,116.303897,中国建设银行(北京万柳支行),北京市,b3aa435d42b5860b15764341,"(010)82564746,(010)82860546",b3aa435d42b5860b15764341
北京市海淀区北蜂窝路14-1号,海淀区,北京市,1,39.909365,116.335828,中国建设银行(北蜂窝路支行),北京市,7f58a0d4250cacdd94ec84aa,(010)63463363,7f58a0d4250cacdd94ec84aa
北京市海淀区阜成路101号,海淀区,北京市,1,39.931158,116.293257,中国建设银行(北京恩济支行),北京市,,(010)88138033,187626d789ddff5289db73bb
北京市海淀区翠微中里14号,海淀区,北京市,1,39.921575,116.302022,中国建设银行(万寿路支行),北京市,48f12be895e5b6c7ce04efd2,(010)68213023,48f12be895e5b6c7ce04efd2
北京市海淀区万丰路18号院5号1层101号,海淀区,北京市,1,39.893947,116.301921,中国建设银行(橙色年代支行),北京市,56f2f6963c82f2800ba8d4a0,(010)58871941,56f2f6963c82f2800ba8d4a0
北京市海淀区复兴路3-2号,海淀区,北京市,1,39.91384,116.340045,中国建设银行(木樨地支行),北京市,2cc3c8e82273a5d64c2fdfa0,(010)68572048,2cc3c8e82273a5d64c2fdfa0
永定路乙一号乐府商厦一号楼一层底商,海淀区,北京市,1,39.934926,116.270182,中国建设银行(乐府江南支行),北京市,254cb3b244c763fb0b1cc7ce,(010)58970603,254cb3b244c763fb0b1cc7ce
北京市海淀区北三环中路43号,海淀区,北京市,1,39.976748,116.377028,中国建设银行(北京北太平庄支行),北京市,9fbfeef2cb77f445ede4a546,(010)62050174,9fbfeef2cb77f445ede4a546
北京市海淀区北三环中路40号,海淀区,北京市,1,39.973322,116.370908,中国建设银行(北京北三环支行),北京市,09185c56f4de145ef019379a,(010)62006036,09185c56f4de145ef019379a
北京市海淀区后屯南路26号,海淀区,北京市,1,40.047608,116.36072,中国建设银行(北京小营东路支行),北京市,d9050b9c3eca932d306212e0,(010)61199783,d9050b9c3eca932d306212e0
北京市海淀区清华大学34小区,海淀区,北京市,1,40.017019,116.325482,中国建设银行(北京清华西门支行),北京市,adfcb9caa59b4633a21de959,(010)62798636,adfcb9caa59b4633a21de959
北京市海淀区清华大学东门外华业大厦,海淀区,北京市,1,40.002591,116.339974,中国建设银行(北京清华园支行),北京市,435d7aeadbf38c485abbbc58,(010)62703671,435d7aeadbf38c485abbbc58
北京市海淀区农大南路万霖博雅明园(厢黄旗1号楼)103、104室,海淀区,北京市,1,40.030816,116.302087,中国建设银行(北京农大南路支行),北京市,31a5eaf9f0351a9feb56fa26,(010)82791610,31a5eaf9f0351a9feb56fa26
北京市海淀区高粱桥斜街59号院2号楼,海淀区,北京市,1,39.95008,116.355418,中国建设银行(北京长河湾支行),北京市,d5f93c0e89cd365fecdfca9a,(010)82191686,d5f93c0e89cd365fecdfca9a
北京市海淀区四道口2号1号楼地上1层,海淀区,北京市,1,39.966064,116.351738,中国建设银行(北京四道口支行),北京市,29e390b4a220dc79a31de91e,,29e390b4a220dc79a31de91e
北京市海淀区中关村南大街46号,海淀区,北京市,1,39.953168,116.335873,中国建设银行(北京白石桥支行),北京市,d305db1f218bfa3e932ca346,(010)58995578,d305db1f218bfa3e932ca346
北京市海淀区西郊板井曙光花园中路11号北京农科大厦首层B106室,海淀区,北京市,1,39.949473,116.294308,中国建设银行(北京曙光花园支行),北京市,7aea43b7ded662f87c29bd46,(010)51501578,7aea43b7ded662f87c29bd46
北京市海淀区蓝靛厂居住区世纪城3期春荫园6号楼,海淀区,北京市,1,39.969308,116.289836,中国建设银行(北京远大中路支行),北京市,d4034eb38a6c2ff6c0364441,(010)88872754,d4034eb38a6c2ff6c0364441
北京市海淀区玉渊潭南路1号B座首层,海淀区,北京市,1,39.917029,116.337426,中国建设银行(北京钓鱼台支行),北京市,4648934ad61a2f293c9a5e6b,(010)68781028,4648934ad61a2f293c9a5e6b
北京市海淀区三里河路17号,海淀区,北京市,1,39.932769,116.340204,中国建设银行(北京甘家口支行),北京市,00f1c7fb23e2311fc056ac46,"(010)88392604,(010)88392556",00f1c7fb23e2311fc056ac46
北京市海淀区玉渊潭南路10-2号,海淀区,北京市,1,39.916978,116.320715,中国建设银行(玉渊潭南路储蓄所),北京市,fa835ce2bc3d33b6e912e4a0,(010)68512182,fa835ce2bc3d33b6e912e4a0
北京市海淀区西翠路5号今日商业中心9号楼一层,海淀区,北京市,1,39.906716,116.287457,中国建设银行(北京今日家园支行),北京市,4eb94d3544d946768f55ecee,(010)88285045,4eb94d3544d946768f55ecee
北京市海淀区北洼路18号,海淀区,北京市,1,39.942802,116.310219,中国建设银行(北京北洼路支行),北京市,bb661eb9046a6e88abf0cdaa,(010)68429375,bb661eb9046a6e88abf0cdaa
北京市海淀区海淀路50号,海淀区,北京市,1,39.992705,116.320876,中国建设银行(北京北大南街支行),北京市,101bc61bc95a1ea3c42ba146,(010)62521857,101bc61bc95a1ea3c42ba146
北京市海淀区学院南路47号,海淀区,北京市,1,39.963632,116.346257,中国建设银行(北京皂君庙支行),北京市,2848ffd6955c8b0f48cc4a41,,2848ffd6955c8b0f48cc4a41
北京市海淀区知春路96号,海淀区,北京市,1,39.981762,116.331989,中国建设银行(北京中关村分行),北京市,5e60fb0e4da3dd4eeb12e4af,(010)51998115,5e60fb0e4da3dd4eeb12e4af
西四环北路160号,海淀区,北京市,1,39.937793,116.282766,中国建设银行(北京定慧北桥支行),北京市,10385cd6e41e514114b54bb8,(010)88505513,10385cd6e41e514114b54bb8
北京市海淀区太平路44号一层,海淀区,北京市,1,39.906283,116.273467,中国建设银行(北京太平路支行),北京市,2ad32cc31da8338f9c95dea0,(010)88279079,2ad32cc31da8338f9c95dea0
阳光北里1-4号商业楼1栋,海淀区,北京市,1,40.043225,116.342541,中国建设银行(安宁庄东路支行),北京市,3a0a78bdd28314fa6318096c,(010)62948941,3a0a78bdd28314fa6318096c
清华园街道清华大学16区,海淀区,北京市,1,40.004652,116.33103,中国建设银行(北京清华大学支行),北京市,72d5d0fb277d6d7125d2bbd6,,72d5d0fb277d6d7125d2bbd6
北京市海淀区中关村东路18号财智大厦1层,海淀区,北京市,1,39.994073,116.340397,中国建设银行(北京保福寺支行),北京市,071787ec1da9f5d13ce23146,(010)52725381,071787ec1da9f5d13ce23146
北京市海淀区清华东路17号中国农业大学东校区南平房,海淀区,北京市,1,40.008439,116.359666,中国建设银行(北京清华东路支行),北京市,9dec8d941acde500d3ff23aa,(010)62317336,9dec8d941acde500d3ff23aa
阜成路30号院16号乙楼底商,海淀区,北京市,1,39.929657,116.3094,中国建设银行(北京西钓鱼台支行),北京市,07f3c8b5efb08b636240a946,"(010)68461071,(010)88517017",07f3c8b5efb08b636240a946
北京市海淀区恩济里小区27号楼底商首层,海淀区,北京市,1,39.934021,116.293448,中国建设银行(北京恩济里支行),北京市,04bdf4a318f6c24f354aae46,(010)88123570,04bdf4a318f6c24f354aae46
北京海淀区金沟河路108号底商地上1层,海淀区,北京市,1,39.924177,116.285004,中国建设银行(北京紫金长安支行),北京市,3d449ccc4758dfc8220262c6,(010)88121722,3d449ccc4758dfc8220262c6
北京市海淀区西直门北大街32号枫蓝国际购物中心C座一层商业区,海淀区,北京市,1,39.958183,116.363942,中国建设银行(北京西直门北大街支行),北京市,3dc9befd89cd7616bea24041,(010)62252814,3dc9befd89cd7616bea24041
北京市海淀区东北旺西路8号中关村软件园一期27号楼C座一层102号,海淀区,北京市,1,40.050931,116.294553,中国建设银行(中关村软件园支行营业所),北京市,,,a8529b75b690f96c21f017b6
北京市海淀区万寿路西街11号院5号楼,海淀区,北京市,1,39.918068,116.29004,中国建设银行(北京市海淀区育英储蓄所),北京市,5ce2637d284ad051af31e5a0,(010)68241808,5ce2637d284ad051af31e5a0
北京市海淀区清华东路17号中国农业大学东校区(东南门)附近,海淀区,北京市,1,40.007943,116.365202,中国建设银行24小时自助银行(金码大厦东),北京市,352cc7fa1461238e58f6bed1,,352cc7fa1461238e58f6bed1
苏家坨北清路与稻香湖路交叉口西北角,海淀区,北京市,1,40.077401,116.18961,建行数据中心,北京市,665ddde4ce75cb7e09a8d446,,665ddde4ce75cb7e09a8d446
西三环北路105号首都师范大学内,海淀区,北京市,1,39.934742,116.314092,中国建设银行ATM(科原大厦西),北京市,dbf4d6eef74891546fa3cc73,,dbf4d6eef74891546fa3cc73
阜成路101号永兴花园饭店,海淀区,北京市,1,39.93113,116.293285,中国建设银行24小时自助银行,北京市,be06f5973277b41754bfff72,,be06f5973277b41754bfff72
北京市海淀区花园北路20号牡丹园北里6号楼,海淀区,北京市,1,39.986443,116.381227,中国建设银行24小时自助银行服务(牡丹园储蓄所),北京市,7f82edd5351bea920c0a703f,,d82d669759b14da6d518b740
北京市海淀区海淀路50号北大资源东楼,海淀区,北京市,1,39.992594,116.320789,中国建设银行24小时自助银行(北京北大南街支行),北京市,6ec25d4a3792164b94ec848f,,6ec25d4a3792164b94ec848f
紫竹院路100号院信弘大厦1层,海淀区,北京市,1,39.950594,116.30885,中国建设银行24小时自助银行服务(北京紫竹桥支行),北京市,a12baa40e1ead956e856fa43,,a12baa40e1ead956e856fa43
北京市海淀区王庄路1号清华同方科技广场A座1层,海淀区,北京市,1,40.005457,116.346096,中国建设银行ATM,北京市,c60883c358576b228605bfe8,,c60883c358576b228605bfe8
北四环西路99号西海国际中心,海淀区,北京市,1,39.97881,116.281759,中国建设银行CCB,北京市,,95533,cdbd98901c0960d652e5c5c4
北京市海淀区清华大学-财务处内,海淀区,北京市,1,40.011613,116.333926,中国建设银行24小时自助银行,北京市,302d8027f5f5dbfc363a71ba,,302d8027f5f5dbfc363a71ba
北京市海淀区友谊路104号,海淀区,北京市,1,40.08345,116.277776,中国建设银行ATM,北京市,,,67f9a49cff0d9dd18f55ec36
北京市海淀区复兴路69号卓展购物中心B1,海淀区,北京市,1,39.919786,116.286305,中国建设银行ATM(安正),北京市,eafb4dea76f4f8f0ca1b955d,,eafb4dea76f4f8f0ca1b955d
北京市海淀区中关村大街40号当代商城F1,海淀区,北京市,1,39.976695,116.327495,中国建设银行ATM(当代商城),北京市,2374c38cc7677657cb213d05,,2374c38cc7677657cb213d05
玉渊潭南路3号水科院大厦B座1层,海淀区,北京市,1,39.916962,116.337279,中国建设银行24小时自助银行,北京市,50fb64ff73a0e75de8f853a3,,50fb64ff73a0e75de8f853a3
北京市海淀区阜成路6号海军总医院外科楼南门1层,海淀区,北京市,1,39.928266,116.331175,中国建设银行ATM(海军总医院),北京市,2bcbf10d1b66598059bbbc05,,2bcbf10d1b66598059bbbc05
北京市海淀区金沟河路21号永辉超市1层,海淀区,北京市,1,39.924164,116.266037,中国建设银行ATM(金沟河路),北京市,df6185097f9711ea9f09f70b,,df6185097f9711ea9f09f70b
北京市海淀区圆明园西路2号中国农业大学西校区内,海淀区,北京市,1,40.035885,116.291227,中国建设银行ATM(绿苑西路),北京市,08b5778a429b7d67455726bb,,08b5778a429b7d67455726bb
海淀区国家图书馆内2楼,海淀区,北京市,1,39.949004,116.33073,中国建设银行ATM(国家图书馆),北京市,b0f059e13aa7b776bea24035,,b0f059e13aa7b776bea24035
金沟河路3号院819楼1楼,海淀区,北京市,1,39.924129,116.276216,中国建设银行24小时自助银行,北京市,,,17a7712a343201a4f2193738
成府路20-1号,海淀区,北京市,1,39.998761,116.359298,中国建设银行24小时自助银行服务(五道口储蓄所),北京市,28e700f1ef9ac101095cb340,,28e700f1ef9ac101095cb340
用友软件园北区17号楼,海淀区,北京市,1,40.077668,116.249933,中国建设银行ATM(北京永丰路支行),北京市,f297412e0393b074c92915ca,,f297412e0393b074c92915ca
北京市海淀区中关村东路107号,海淀区,北京市,1,39.981782,116.332388,中国建设银行海淀消费信贷中心,北京市,d1d29a78489b1c3d2dfaa77f,,d1d29a78489b1c3d2dfaa77f
海淀北二街6中国普天大厦,海淀区,北京市,1,39.989657,116.318306,中国建设银行ATM(中国普天大厦),北京市,,,4824d363cfd7e66e2ce67b37
阳光北里1-4号商业楼1栋,海淀区,北京市,1,40.043196,116.342616,中国建设银行24小时自助银行服务(安宁庄支行网点),北京市,f6192a0570167f1b0482c2a8,,161a0ed2ff6102505cd4fe6c
知春路17-7号致真大厦C座,海淀区,北京市,1,39.982771,116.357496,中国建设银行24小时自助银行服务,北京市,a76160fac7110d0c9a00504b,,a76160fac7110d0c9a00504b
北京市海淀区远大路1号世纪金源购物中心F1,海淀区,北京市,1,39.96447,116.291817,中国建设银行ATM(金源新燕莎MALL),北京市,b6a5cb551e81c1e8b21e361b,,b6a5cb551e81c1e8b21e361b
北京市海淀区西直门北大街32号枫蓝国际购物中心F1,海淀区,北京市,1,39.959477,116.363037,中国建设银行ATM(枫蓝国际购物中心),北京市,555f673f2306e017d92f2848,,555f673f2306e017d92f2848
北京市海淀区中关村南大街2号华宇时尚购物中心F1,海淀区,北京市,1,39.971422,116.330139,中国建设银行ATM(华宇时尚购物中心),北京市,0e9794b1dcc403a37069d36e,,0e9794b1dcc403a37069d36e
农大南路41号,海淀区,北京市,1,40.030853,116.302197,中国建设银行24小时自助银行(北京农大南路支行),北京市,1cea15a9d6640dc507fef56c,,1cea15a9d6640dc507fef56c
北京市海淀区复兴路51号凯德晶品购物中心LG层,海淀区,北京市,1,39.914181,116.304395,中国建设银行ATM(凯德晶品购物中心),北京市,7c3d353d3c8dcf701811d5de,,7c3d353d3c8dcf701811d5de
北太平庄路18号城建大厦A座1层,海淀区,北京市,1,39.974596,116.377554,中国建设银行24小时自助银行服务(北京北环支行),北京市,7342fcbcae2f90b8704b8755,,7342fcbcae2f90b8704b8755
北京市海淀区北三环中路40-1,海淀区,北京市,1,39.973278,116.370595,中国建设银行24小时自助银行(北三环支行),北京市,b97dd156f942a3b91811d5b1,,b97dd156f942a3b91811d5b1
北京市海淀区颐和园路5号治贝子园附近,海淀区,北京市,1,39.995011,116.320699,中国建设银行24小时自助银行(中关村北大街),北京市,43c31baa0df041aac9e33ccc,,43c31baa0df041aac9e33ccc
北京市海淀区西直门北大街32号枫蓝国际购物中心F1,海淀区,北京市,1,39.958252,116.363906,中国建设银行24小时自助银行(枫蓝国际购物中心),北京市,399292d4ff05736b80a00c8e,,a1e83b41c853e1dcab175af2
北京市海淀区西直门北大街23号,海淀区,北京市,1,39.959925,116.361375,中国建设银行24小时自助银行服务(明光村小区),北京市,06c8074feed2b6e390114ca3,,ea4efaaf4f358a55882fb584
北京市海淀区学院路甲38号长城电脑大厦底商,海淀区,北京市,1,39.987582,116.361206,中国建设银行24小时自助银行(校园南路),北京市,ab71f2412544fd625d0d0261,,ab71f2412544fd625d0d0261
中关村新科祥园8号,海淀区,北京市,1,39.987075,116.33003,中国建设银行24小时自助银行服务(中南路支行),北京市,b82e801f99934dd943ab9a8c,,b82e801f99934dd943ab9a8c
学院南路47-2号,海淀区,北京市,1,39.963668,116.346088,中国建设银行24小时自助银行(皂君庙储蓄所),北京市,244368ffeb226a82704b875e,,244368ffeb226a82704b875e
板井路世纪城六区1楼底商,海淀区,北京市,1,39.956241,116.292284,中国建设银行24小时自助银行服务(北京世纪城支行),北京市,,,9ce26ac10b6dfb1089f15daa
北京市海淀区远大路１号金源新燕莎ＭＡＬＬ1层,海淀区,北京市,1,39.964599,116.294085,中国建设银行24小时自助银行(金源支行),北京市,5cfadcd9d94b88869ff77945,,5cfadcd9d94b88869ff77945
春荫园6,海淀区,北京市,1,39.969286,116.289991,中国建设银行24小时自助银行(远大中路储蓄所),北京市,8c8e43f670c38ed2b426551b,,8c8e43f670c38ed2b426551b
复兴路3-2,海淀区,北京市,1,39.913951,116.340056,中国建设银行24小时自助银行服务(北京木樨地支行),北京市,5d8d4ac521ff153fabf0cd4f,,5d8d4ac521ff153fabf0cd4f
北京市海淀区复兴路33号翠微百货F1,海淀区,北京市,1,39.914215,116.309117,中国建设银行24小时自助银行(翠微百货),北京市,4edf9fbf24b2cfeacc06a45f,,4edf9fbf24b2cfeacc06a45f
北京市海淀区四季青路8号1层161-163号,海淀区,北京市,1,39.960015,116.278185,中国建设银行24小时自助银行(北京四季青支行),北京市,d6ee8724e2fa8e9ea8f0cd73,,d6ee8724e2fa8e9ea8f0cd73
永定路乙1号乐府商厦1号楼1层,海淀区,北京市,1,39.935064,116.269844,中国建设银行24小时自助银行(乐府江南支行),北京市,161a0ed2ff7502505cd4fe40,,161a0ed2ff7502505cd4fe40
复兴路甲36-4,海淀区,北京市,1,39.913115,116.270538,中国建设银行24小时自助银行(玉泉支行),北京市,108b1cea821125d23586f427,,108b1cea821125d23586f427
北京市海淀区田村路43号京粮广场F1,海淀区,北京市,1,39.93731,116.260139,中国建设银行24小时自助银行(京粮广场),北京市,79d3c286b586357817c8f6d7,,79d3c286b586357817c8f6d7
北京市海淀区永泰庄6号院,海淀区,北京市,1,40.03643,116.359226,中国建设银行24小时自助银行(北京龙岗路支行),北京市,f234d996946f079e8bb988ce,,f234d996946f079e8bb988ce
信息路19-1号,海淀区,北京市,1,40.037386,116.318504,中国建设银行24小时自助银行(上地储蓄所),北京市,08a773ba37ab3c5e373a718a,,08a773ba37ab3c5e373a718a
上地信息路28号信息大厦,海淀区,北京市,1,40.042051,116.31837,中国建设银行24小时自助银行(北京上地支行),北京市,1d69850b59627a587369d396,,246b1c8f138390eaf7b9160d
西三旗安宁庄路11号(西二旗大街附近),海淀区,北京市,1,40.060226,116.322918,中国建设银行24小时自助银行(北京西二旗支行),北京市,7aad5fc874204a9f4d2fdfca,,7aad5fc874204a9f4d2fdfca
北京市海淀区中关村东路18号,海淀区,北京市,1,39.99395,116.340561,中国建设银行24小时自助银行(北京保福寺支行),北京市,18a2bfa6c85eb49c95ca07b2,,18a2bfa6c85eb49c95ca07b2
华业大厦2202,海淀区,北京市,1,40.002279,116.34014,中国建设银行24小时自助银行(北京清华园支行),北京市,a9e1560e5446c7d12a02e114,,a9e1560e5446c7d12a02e114
北京市海淀区清华东路2号中国农业大学东校区南平房,海淀区,北京市,1,40.00868,116.359767,中国建设银行24小时自助银行(北京清华东路支行),北京市,397bd4a3b7a8b9544251c001,,397bd4a3b7a8b9544251c001
北京市海淀区万泉庄路15号万泉商务花园,海淀区,北京市,1,39.975736,116.307326,中国建设银行24小时自助银行(万泉商务花园),北京市,42a780845f707ad4f7b916fe,,42a780845f707ad4f7b916fe
北京市海淀区万柳蜂鸟家园2号楼一层,海淀区,北京市,1,39.970884,116.304028,中国建设银行24小时自助银行(万柳支行),北京市,abdee2e91d914ea017948e55,,abdee2e91d914ea017948e55
中关村大街27号中关村大厦,海淀区,北京市,1,39.983623,116.322955,中国建设银行24小时自助银行(中关村支行),北京市,c83ddd3ea154ed351e58000f,,c83ddd3ea154ed351e58000f
阜成路19,海淀区,北京市,1,39.93,116.324259,中国建设银行24小时自助银行服务(阜成路支行),北京市,49677eaa6f272d9013293569,,49677eaa6f272d9013293569
北京市海淀区增光路35号附近,海淀区,北京市,1,39.934201,116.328947,中国建设银行24小时自助银行服务(北京增光支行),北京市,,,2f036c022f65521063685831
首都体育馆南路主语国际中心5号楼1楼,海淀区,北京市,1,39.940687,116.331578,中国建设银行24小时自助银行(北京首体南路支行),北京市,6f0bbfb0d8d680e535b06c8b,,6f0bbfb0d8d680e535b06c8b
恩济里27楼,海淀区,北京市,1,39.934086,116.293236,中国建设银行24小时自助银行服务(恩济里储蓄所),北京市,0a46dc0fc0f16723316212b2,,0a46dc0fc0f16723316212b2
北京市海淀区金沟河东路9号金和嘉园底商,海淀区,北京市,1,39.924217,116.285823,中国建设银行24小时自助银行服务(紫金长安支行),北京市,544c46fb3c1cce14b11e36a7,,544c46fb3c1cce14b11e36a7
北京市海淀区玉渊潭南路10-2,海淀区,北京市,1,39.916962,116.320755,中国建设银行24小时自助银行(玉渊潭南路储蓄所),北京市,2cb2f24a47ea005b3586f435,,2cb2f24a47ea005b3586f435
太平路44号,海淀区,北京市,1,39.906336,116.273739,中国建设银行24小时自助银行服务(北京太平路支行),北京市,83c537ca1fab113933f71d5a,,83c537ca1fab113933f71d5a
北京市海淀区北三环中路43号,海淀区,北京市,1,39.976677,116.376905,中国建设银行24小时自助银行(冠城园储蓄所),北京市,440d10d7dfbf7183f503b827,,440d10d7dfbf7183f503b827
后屯南路26号,海淀区,北京市,1,40.047612,116.360747,中国建设银行24小时自助银行(北京小营东路支行),北京市,e1e736a9cc313c53744ff1ac,,e1e736a9cc313c53744ff1ac
北京市海淀区学院路30北京科技大学,海淀区,北京市,1,39.994906,116.365812,中国建设银行24小时自助银行(北四环中路辅路),北京市,be8052fe2aa45c04d8eced76,,be8052fe2aa45c04d8eced76
北京市海淀区圆明园西路2号中国农业大学西校区,海淀区,北京市,1,40.033969,116.288325,中国建设银行24小时自助银行(学苑五路),北京市,0b6d08a8b92de37efda77828,,68eebaaa57e3f41de91e97cc
龙背村路99号院1,海淀区,北京市,1,40.022846,116.277516,中国建设银行24小时自助银行(肖家河支行),北京市,692b2ce9b41b42765b10937a,,692b2ce9b41b42765b10937a
:北京市海淀区四道口路2号院1,海淀区,北京市,1,39.966044,116.352218,中国建设银行24小时自助银行(北京四道口支行),北京市,52dc09da38add052a5da390d,,52dc09da38add052a5da390d
北三环西路34号,海淀区,北京市,1,39.972619,116.334602,中国建设银行24小时自助银行(北三环西路支行),北京市,e9028067299b219fd7851fcd,,e9028067299b219fd7851fcd
北京市海淀区中关村南大街46号,海淀区,北京市,1,39.952905,116.335906,中国建设银行24小时自助银行(北京白石桥支行),北京市,f8153052c4d0efad16c905d0,,f8153052c4d0efad16c905d0
海淀区高梁桥斜街59号院2号楼(中国建设银行长河湾支行2楼),海淀区,北京市,1,39.950265,116.354638,中国建设银行24小时自助银行(北京长河湾支行),北京市,49efc071f1ff57f8018972fc,,89fd4ea30edd7839e4e965b2
西三环北路19号北外国际大厦1层东侧大厅,海淀区,北京市,1,39.960933,116.315144,中国建设银行24小时自助银行服务(北京外国语大学支行),北京市,f79b8089a7feb3d11b94c6e6,,dad061ab5247c71707fef55f
北京市海淀区苏州街3号大恒科技大厦,海淀区,北京市,1,39.988175,116.311846,中国建设银行24小时自助银行服务(北京硅谷支行),北京市,248eacab96251d3dd23ce3fe,,248eacab96251d3dd23ce3fe
北京市海淀区西三环北路2号北京外国语大学内,海淀区,北京市,1,39.961354,116.319487,中国建设银行ATM(北京外国语大学7号楼学生公寓南),北京市,3048a78738c894023586f4f9,,3048a78738c894023586f4f9
北京市海淀区北蜂窝路14-1号,海淀区,北京市,1,39.909348,116.335892,中国建设银行24小时自助银行(北京北窝蜂路支行),北京市,351592292dc0d7ffab059d18,,351592292dc0d7ffab059d18
北京市海淀区三里河路17号甘家口大厦F1,海淀区,北京市,1,39.93279,116.34024,中国建设银行24小时自助银行(北京市海淀区甘家口百货商场),北京市,b88defd4eec1c31e25d2bbc1,,b88defd4eec1c31e25d2bbc1
北京市海淀区复兴路12号底商,海淀区,北京市,1,39.911212,116.328271,中国建设银行24小时自助银行服务(北京金安支行),北京市,1ebbf6defcd4ed8b78f796f4,,881ced9c9b93b0bb9fe321f7
北洼西里18号,海淀区,北京市,1,39.94298,116.310314,中国建设银行24小时自助银行(北洼路支行),北京市,a5b70893c2fc0ccde81e97cc,,a5b70893c2fc0ccde81e97cc
北京市海淀区西四环北路160号,海淀区,北京市,1,39.9381,116.28258,中国建设银行24小时自助银行(北京定慧北桥支行),北京市,81290ae8c2b5cb51b23c81f8,,81290ae8c2b5cb51b23c81f8
闵庄南路9号广盛园,海淀区,北京市,1,39.972378,116.253707,中国建设银行24小时自助银行服务(闵庄南路支行),北京市,14bc8edfb6e612d5260bd08d,,14bc8edfb6e612d5260bd08d
北京市海淀区杏石口路中间建筑1区4号楼,海淀区,北京市,1,39.959944,116.2363,中国建设银行24小时自助银行(杏石口路),北京市,a63bd6d578101333f32d83a2,,a63bd6d578101333f32d83a2
北京市海淀区阜石路69号,海淀区,北京市,1,39.931312,116.237092,中国建设银行ATM(锦绣大地商务在线东北),北京市,c9888d1ce361e20972455bc2,,c9888d1ce361e20972455bc2
志新东路甲8号2号楼1层117号,海淀区,北京市,1,39.997796,116.376018,中国建设银行24小时自助银行(齐园路储蓄所),北京市,,,45a740c627882b4d990050c0
北京市海淀区文惠园北路22号,海淀区,北京市,1,39.960296,116.36833,中国建设银行24小时自助银行服务(小西天储蓄所),北京市,38e4803763403549373a7133,,38e4803763403549373a7133
北京市海淀区马甸西村月季园8号楼,海淀区,北京市,1,39.977114,116.380158,中国建设银行24小时自助银行(冠城园储蓄所),北京市,2c6f6521f70746eb82a12e15,,2c6f6521f70746eb82a12e15
海淀区知春路96号,海淀区,北京市,1,39.981549,116.33194,中国建设银行24小时自助银行(科南路储蓄所),北京市,6032a6ad7ef5672beb56fa1b,,f181148e19d1a5d6c61e513e
曙光花园中路11号北京农科大厦,海淀区,北京市,1,39.949096,116.294038,中国建设银行24小时自助银行(曙光花园储蓄所),北京市,3f9337d6c66b58cef62310b2,,3f9337d6c66b58cef62310b2
北京市海淀区车公庄西路38号院1,海淀区,北京市,1,39.937941,116.319018,中国建设银行24小时自助银行(花园村储蓄所),北京市,07610ce50e3e7ff6cac3dbfb,,b92d544586c1d5173c9a5e21
万丰路18号院5号1层101号,海淀区,北京市,1,39.893897,116.301913,中国建设银行24小时自助银行服务(北京橙色年代支行),北京市,c5ed7c9f6492008c49fc8d10,,c5ed7c9f6492008c49fc8d10
北京市门头沟区双峪路22号,门头沟区,北京市,1,39.941938,116.117257,中国建设银行(门头沟支行),北京市,a5ef680fb29e2dd7b9df8f04,(010)69844779,a5ef680fb29e2dd7b9df8f04
北京市门头沟区新桥南大街8号,门头沟区,北京市,1,39.938572,116.11312,中国建设银行(新桥支行),北京市,72aa251378d2af3a067ce881,(010)69843277,72aa251378d2af3a067ce881
门头沟区新桥大街86号,门头沟区,北京市,1,39.943209,116.110914,中国建设银行(新桥大街支行),北京市,ccec591f37cd46cd3b04b1f5,(010)69844242,ccec591f37cd46cd3b04b1f5
北京市门头沟区永定镇冯村永定B2032/2034号1-2层,门头沟区,北京市,1,39.91637,116.118267,中国建设银行(北京永定支行),北京市,bd82937c2a645b5b2efaa7b2,(010)69823415,bd82937c2a645b5b2efaa7b2
北京市门头沟区滨河居住区3号,门头沟区,北京市,1,39.935375,116.124045,中国建设银行(北京承泽苑支行),北京市,2488ec4e7c99b634b45f1ef2,(010)60868619,2488ec4e7c99b634b45f1ef2
北京市门头沟区新桥大街2号贸易大楼一层北侧,门头沟区,北京市,1,39.949305,116.106798,中国建设银行(中国建设银行股份有限公司北京门头沟贸易大楼支行),北京市,e8db3f3d0a72b70b40ab9a97,(010)69853359,e8db3f3d0a72b70b40ab9a97
北京市门头沟区桥东街10号,门头沟区,北京市,1,39.951204,116.108507,中国建设银行ATM(桥东街),北京市,eeccf33d50466f55eaf8530b,,eeccf33d50466f55eaf8530b
霁月园3,门头沟区,北京市,1,39.934523,116.115648,中国建设银行24小时自助银行(月季园路),北京市,480b24d01f154b8f9dec2b82,,480b24d01f154b8f9dec2b82
霁月园3号楼,门头沟区,北京市,1,39.937602,116.118441,中国建设银行24小时自助银行服务(月季园路),北京市,e0049ca6744a0e4ae3110318,,e0049ca6744a0e4ae3110318
北京市门头沟区永定镇冯村永定B2032.2034号,门头沟区,北京市,1,39.916428,116.118128,中国建设银行24小时自助银行服务(北京永定支行),北京市,5a62ce641306c16d250bd007,,5a62ce641306c16d250bd007
门头沟区新桥南大街8号,门头沟区,北京市,1,39.938527,116.113111,中国建设银行24小时自助银行(北京新桥支行),北京市,5c623eea42f3c37521022009,,5c623eea42f3c37521022009
双峪路22号,门头沟区,北京市,1,39.94185,116.11716,中国建设银行24小时自助银行(门头沟区支行),北京市,b91c12956560000141d63e67,,b91c12956560000141d63e67
河滩路甲2-14号,门头沟区,北京市,1,39.949378,116.107023,中国建设银行24小时自助银行(门头沟贸易大楼支行),北京市,1aae6bdc8d0fb95d8f1a89ed,,1aae6bdc8d0fb95d8f1a89ed
滨河居住区3,门头沟区,北京市,1,39.935482,116.12407,中国建设银行24小时自助银行服务(北京承泽苑支行),北京市,bfc1c745f61ec25c6e20b9b5,,bfc1c745f61ec25c6e20b9b5
新桥大街86号,门头沟区,北京市,1,39.943172,116.110877,中国建设银行24小时自助银行(新桥大街支行),北京市,7ff558061027cf3c8bdb7378,,7ff558061027cf3c8bdb7378
北京市房山区燕山迎风南路8号,房山区,北京市,1,39.727834,115.96795,中国建设银行(北京市房山区燕山储蓄所),北京市,,,0adce3e24a7ec06180a00cfd
北京市房山区良乡行宫园二里9号行宫园小区,房山区,北京市,1,39.754358,116.153425,中国建设银行(行宫园储蓄所),北京市,d82d6697efe0dfa5d418b7b2,(010)89352440,d82d6697efe0dfa5d418b7b2
北京市房山区拱辰北大街1号昊天假日酒店,房山区,北京市,1,39.749658,116.147148,中国建设银行(房山支行营业部),北京市,15ed53ce66bb83549222e0f5,,15ed53ce66bb83549222e0f5
北京市房山区西潞南大街5号同方写字楼1层,房山区,北京市,1,39.735833,116.142931,中国建设银行(北京昊天支行),北京市,e30828481708cbc1b34c49fc,(010)69369170,e30828481708cbc1b34c49fc
北京市房山区荷园东街1号院1号楼,房山区,北京市,1,39.72907,116.167607,中国建设银行(北京房山良乡大学城支行),北京市,24b281ca75e59bc3fda778a1,(010)69389112,24b281ca75e59bc3fda778a1
北京市房山区窦店镇大窦路甲8号,房山区,北京市,1,39.654401,116.075954,中国建设银行(窦店支行),北京市,,(010)80325768,965739a0bd98071db42655f7
北京市房山区城关南大街49号九洲兴达家园7号楼,房山区,北京市,1,39.697175,115.990559,中国建设银行(北京奉先支行),北京市,fe1bf575ffed01ab8b2fb52a,(010)81309858,fe1bf575ffed01ab8b2fb52a
燕山燕房路临111号,房山区,北京市,1,39.722016,115.983765,中国建设银行(富燕储蓄所),北京市,,(010)69348509,852fa5b54dec4c89e81e979f
北京市房山区长阳镇大宁山庄四区五号楼,房山区,北京市,1,39.815898,116.221303,中国建设银行(大宁山庄支行),北京市,074a84a4ac771241ad31e5f6,(010)80367399,074a84a4ac771241ad31e5f6
西潞园四里6号楼,房山区,北京市,1,39.739575,116.139247,中国建设银行(西潞园储蓄所),北京市,637df60ac806967240afe6f5,"(010)89353942,(010)89355314",637df60ac806967240afe6f5
北京市房山区燕化星城紫燕中路5号,房山区,北京市,1,39.716759,116.069061,中国建设银行(星城储蓄所),北京市,,(010)69338444,edd64ce1a60e99913fe231f8
北京市房山区燕山迎风街1号(燕化公司办公区对面),房山区,北京市,1,39.737473,115.963333,中国建设银行(房山区燕山支行),北京市,,,c8b036b4dfe0c374c2f1cfd6
北京市房山区长阳昊天北大街20号北京北亚骨科医院门诊楼内,房山区,北京市,1,39.765608,116.170809,中国建设银行ATM,北京市,e5268a7dc99cf688b2077d58,,e5268a7dc99cf688b2077d58
支行迎新街所,房山区,北京市,1,39.835165,115.801048,中国建设银行ATM,北京市,,,bafcdb1d1fc6877c6f3e1b0b
燕化星城小区紫燕中路5号,房山区,北京市,1,39.717036,116.06916,中国建设银行ATM(泳池路),北京市,,,fa7da3e881f4f06242d63ef8
北京市房山区大窦路中投汇豪大厦北30米,房山区,北京市,1,39.654588,116.075935,中国建设银行24小时自助银行服务(大窦路),北京市,,,eeb2bbb144b4048954bfff5d
北京市房山区东风街1号附近,房山区,北京市,1,39.763431,115.972707,中国建设银行24小时自助银行(东万路),北京市,,,5e4850f1499d6a2c902ca36e
北京市房山区东平街401医院附近,房山区,北京市,1,39.737934,116.073201,中国建设银行ATM(泳池路),北京市,,,5596d79e3fd98cc94302453a
北京市房山区良乡常庄良官公路韩建·瑞雪春堂旁,房山区,北京市,1,39.721686,116.155919,中国建设银行24小时自助银行,北京市,31c1a293d7af0505e5e96597,,31c1a293d7af0505e5e96597
北京市房山区大件路北京房桥家属楼东北,房山区,北京市,1,39.727272,116.039678,中国建设银行ATM(北京房桥家属楼),北京市,,,c0a472bad34f44b32b11d183
近郊房山区燕山迎风街1号(燕化公司办公区对面),房山区,北京市,1,39.737607,115.963106,中国建设银行24小时自助银行(北京燕山支行),北京市,,,645d05b2ad215885343a71dd
北京市房山区西大街2号院1华冠天地,房山区,北京市,1,39.707772,115.989892,中国建设银行ATM(华冠天地城关店),北京市,,,330091fea5d36761fbdc851e
行宫园二里10号,房山区,北京市,1,39.754479,116.153599,中国建设银行24小时自助银行服务,北京市,2b56aa67852d917f93114c28,,2b56aa67852d917f93114c28
加州广场d座,房山区,北京市,1,39.77489,116.173059,中国建设银行24小时自助银行(北京长阳支行),北京市,dc7784cb860be38efa0cad8f,,dc7784cb860be38efa0cad8f
拱辰大街21号,房山区,北京市,1,39.745903,116.148277,中国建设银行24小时自助银行(拱辰储蓄所),北京市,6d2576af1ad49b16f4eafcde,,6d2576af1ad49b16f4eafcde
拱辰北大街1号昊天假日酒店附近,房山区,北京市,1,39.749581,116.147156,中国建设银行24小时自助银行(北京房山支行),北京市,3a6ce0a9c5ee222551e5c533,,3a6ce0a9c5ee222551e5c533
北京市房山区燕山迎风南路8号,房山区,北京市,1,39.72783,115.968103,中国建设银行24小时自助银行(北京燕山迎风街支行),北京市,,,0ce65c2d6afe7c592d4733fd
北京市房山区燕山中国建设银行(燕房路南),房山区,北京市,1,39.722031,115.984135,中国建设银行24小时自助银行(北京房山富燕支行),北京市,,,6c6034733e23f5ad4e2fdf4a
北潞冠1-14号,房山区,北京市,1,39.74644,116.136191,中国建设银行24小时自助银行(北潞园储蓄所),北京市,e8c5e426c5fa4310095cb3f5,,e8c5e426c5fa4310095cb3f5
良乡西潞园小区,房山区,北京市,1,39.739611,116.139128,中国建设银行24小时自助银行(房山西潞园支行),北京市,e6209bd397b926623617dc6a,,e6209bd397b926623617dc6a
阎村镇百合路38号院5号楼,房山区,北京市,1,39.718638,116.084908,中国建设银行24小时自助银行(房山阎村支行),北京市,,,87276341b82c6fb2932ca3f4
北京市房山区岗北路北京燕化建筑安装工程公司,房山区,北京市,1,39.758733,115.975705,中国建设银行ATM(北京燕化建筑安装工程公司),北京市,,,9149587e7aae7443b34c496c
北京市房山区长虹东路申宝大厦1层,房山区,北京市,1,39.729332,116.167889,中国建设银行24小时自助银行(长虹东路辅路),北京市,,,875b363b7aaf04d64e2fdf98
西潞南大街5号同方写字楼,房山区,北京市,1,39.735871,116.142931,中国建设银行24小时自助银行(北京昊天支行),北京市,691305235aaa4b08725e80f5,,691305235aaa4b08725e80f5
长阳镇大宁山庄四区5号楼,房山区,北京市,1,39.81599,116.221246,中国建设银行24小时自助银行(大宁山庄支行),北京市,5913f02804f6bf8c09a8d4d9,,5913f02804f6bf8c09a8d4d9
北京市房山区明源路2号,房山区,北京市,1,39.754983,116.161077,中国建设银行24小时自助银行服务(送变电储蓄所),北京市,1f4075aee628a9722cb90882,,1f4075aee628a9722cb90882
南大街49号九洲兴达家园7号楼,房山区,北京市,1,39.697098,115.990567,中国建设银行24小时自助银行服务(奉先支行),北京市,09185c564135895df11937fd,,09185c564135895df11937fd
北京市通州区嘉创路百尚购物广场1层,通州区,北京市,1,39.809017,116.578032,中国建设银行(光谷支行),北京市,980bb81f2482a68926d2bb20,,980bb81f2482a68926d2bb20
北京市通州区马驹桥镇兴华中街222号,通州区,北京市,1,39.76153,116.554053,中国建设银行(北京马驹桥支行),北京市,56e88cba05338d65a4c7561d,(010)60595583,56e88cba05338d65a4c7561d
北京市通州区通胡大街25号院10号楼10-3号,通州区,北京市,1,39.919212,116.692154,中国建设银行(运河支行),北京市,0523a141753a4b1db23c8116,(010)80851348,0523a141753a4b1db23c8116
北京市通州区颐瑞西里18号楼1层群芳中三街145、147、149、151号,通州区,北京市,1,39.872224,116.686718,中国建设银行(北京群芳中三街支行),北京市,63a00b12ef6723072b3a9f19,(010)81517599,63a00b12ef6723072b3a9f19
通州区玉带河西街25号,通州区,北京市,1,39.908091,116.650602,中国建设银行(通州支行营业部),北京市,691305235dcf4a08725e8016,(010)69546921,691305235dcf4a08725e8016
北京市通州区云景东路51号,通州区,北京市,1,39.882819,116.671275,中国建设银行(云景里支行),北京市,7fa5567aaf851a76bd484223,(010)69552458,7fa5567aaf851a76bd484223
通朝大街323号,通州区,北京市,1,39.899051,116.639051,中国建设银行(北京杨庄路支行),北京市,db4e7fd8192f21523617dc1b,,db4e7fd8192f21523617dc1b
北京市通州区玉桥东路15-1到2层15,通州区,北京市,1,39.897042,116.691913,中国建设银行(北京玉桥东路支行),北京市,08eaabf481b492b632f71de7,(010)61581815,08eaabf481b492b632f71de7
北京市通州区瑞都景园北区2号楼一层商业01号,通州区,北京市,1,39.895096,116.661546,中国建设银行(瑞都国际支行),北京市,b533ea4a9611e9424f6d46c5,(010)81521260,b533ea4a9611e9424f6d46c5
北京市通州区乔庄北街196-198号,通州区,北京市,1,39.901007,116.687091,中国建设银行(北京玉桥支行),北京市,8eb48fa1b64dd2a6f32d8316,(010)81589702,8eb48fa1b64dd2a6f32d8316
北京市通州区如意园14－8、14－9,通州区,北京市,1,39.915833,116.674681,中国建设银行(北京鱼市口支行),北京市,a1418eb4752f8b7febe58216,(010)69552226,a1418eb4752f8b7febe58216
北京市通州区水仙西路87号,通州区,北京市,1,39.913526,116.70363,中国建设银行(玉带河东街支行),北京市,15d4ee20a75a7d552fb9081d,(010)80854202,15d4ee20a75a7d552fb9081d
北京市通州区新城南路果园47号雅景嘉园第三栋商业—8,通州区,北京市,1,39.89992,116.663813,中国建设银行(北京通州潞河支行),北京市,161a0ed2fc9b03505cd4fe16,(010)60520850,161a0ed2fc9b03505cd4fe16
次渠大街西口1号,通州区,北京市,1,39.808779,116.578217,中国建设银行24小时自助银行(北京光谷支行),北京市,2ad84b7c9ef4302e9e82ea81,,2ad84b7c9ef4302e9e82ea81
乔庄北街196-198号鑫隆批发城斜对面,通州区,北京市,1,39.901048,116.687034,中国建设银行24小时自助银行服务(玉桥储蓄所),北京市,1c1f70160301c73643ab9ac5,,1c1f70160301c73643ab9ac5
北京市通州区西关大街119号附近,通州区,北京市,1,39.911559,116.646441,中国建设银行24小时自助银行服务,北京市,,,88ef1919a818fce928d7abd5
北京市通州区玉带河西街25,通州区,北京市,1,39.908153,116.650466,中国建设银行24小时自助银行服务(北京通州支行),北京市,b533ea4a03467a414f6d4611,,b533ea4a03467a414f6d4611
北京市通州区云景东路51号,通州区,北京市,1,39.882751,116.671452,中国建设银行24小时自助银行(北京通州云景里支行),北京市,04ea02e25cc8633985420edc,,04ea02e25cc8633985420edc
新华东街126号北京上科华联商厦F1层,通州区,北京市,1,39.914297,116.675949,中国建设银行ATM(北京上科华联商厦),北京市,,,2cd34edb6b676af54151c038
水仙西路87号,通州区,北京市,1,39.913526,116.70363,中国建设银行24小时自助银行(玉带河东街支行),北京市,b623c931764ba67e32870a51,,b623c931764ba67e32870a51
群芳中三街145,通州区,北京市,1,39.872398,116.686408,中国建设银行24小时自助银行(北京群芳中三街支行),北京市,24be9353bd69ca07b21e3608,,24be9353bd69ca07b21e3608
北京市通州区通朝大街323,通州区,北京市,1,39.899003,116.639278,中国建设银行24小时自助银行(杨庄路支行),北京市,44a8cafd77c238f8fd0eb039,,44a8cafd77c238f8fd0eb039
通胡大街25号,通州区,北京市,1,39.919221,116.692224,中国建设银行24小时自助银行(北京通州运河支行),北京市,593850fb2e70ff5ddf1e5211,,593850fb2e70ff5ddf1e5211
北京市通州区如意园14-8、14-9,通州区,北京市,1,39.915778,116.674798,中国建设银行24小时自助银行服务(鱼市口储蓄所),北京市,,,c04b489b543fcdfa734b87e7
北京市通州区物资学院路3号院30号楼,通州区,北京市,1,39.929937,116.645736,中国建设银行24小时自助银行(北京物资学院路支行),北京市,118f7cf87be2416da8f0cdb8,,118f7cf87be2416da8f0cdb8
玉桥东路15号,通州区,北京市,1,39.897019,116.691934,中国建设银行24小时自助银行(北京玉桥东路支行),北京市,21535171a29b0b08a3acc4b7,,21535171a29b0b08a3acc4b7
新华南路210号,通州区,北京市,1,39.899943,116.664124,中国建设银行24小时自助银行服务(北京潞河支行),北京市,8dce0becdfcb31946c4760fa,,8dce0becdfcb31946c4760fa
通州区马驹桥镇兴华中街222号,通州区,北京市,1,39.761549,116.553945,中国建设银行24小时自助银行(北京马驹桥支行),北京市,9ee392b85f511b41bbbd631d,,9ee392b85f511b41bbbd631d
北京市顺义区石园大街石园北区85号楼1层,顺义区,北京市,1,40.118666,116.666221,中国建设银行(北京石园支行),北京市,,(010)89441428,24241b772feea0c4373a710c
北京市顺义区空港工业区B区裕民大街2号,顺义区,北京市,1,40.108176,116.563552,中国建设银行(北京空港支行),北京市,db1f39d42899ab6ff4c59c8a,,db1f39d42899ab6ff4c59c8a
北京市顺义区裕龙花园三区18号楼1层4~5号,顺义区,北京市,1,40.129682,116.677594,中国建设银行(北京裕龙支行),北京市,,(010)81487084,574e5111db8820097bf79612
北京市顺义区天柱东路33号院一区1号楼1至2层101、102、103,顺义区,北京市,1,40.067588,116.576224,中国建设银行(北京天竺支行),北京市,2be0d0981d9e368b3517dc6a,(010)64580791,2be0d0981d9e368b3517dc6a
北京市顺义区府前中街,顺义区,北京市,1,40.136828,116.660238,中国建设银行(北京顺义支行),北京市,15a93810255d3fbd15c8f6bc,,15a93810255d3fbd15c8f6bc
北京市顺义区安泰大街9号院19,顺义区,北京市,1,40.094929,116.545108,中国建设银行(后沙峪支行),北京市,145956bde5623726cd04ef3a,(010)56441327,145956bde5623726cd04ef3a
北京市顺义区三经路1号,顺义区,北京市,1,40.05577,116.62637,中国建设银行(首都机场支行),北京市,31dd4e44dc8130f00782c2cb,(010)64532078,31dd4e44dc8130f00782c2cb
北京市顺义区建新北区9号楼1楼,顺义区,北京市,1,40.131976,116.662177,中国建设银行(光明南街储蓄所),北京市,c3093deb609afd5871455bc7,(010)69448418,c3093deb609afd5871455bc7
北京市顺义区泰和宜园3号楼1层104、105、106,顺义区,北京市,1,40.182693,116.658464,中国建设银行(北京顺义新城支行),北京市,3c79a78327d5e85aca29159d,(010)58087261,3c79a78327d5e85aca29159d
北京市顺义区府前东街甲25号,顺义区,北京市,1,40.136538,116.665954,中国建设银行(北京顺义新顺东街支行),北京市,e93761f6ddd24f0c233bf2bc,(010)69448349,e93761f6ddd24f0c233bf2bc
北京市顺义区绿港家园二区12号楼101号,顺义区,北京市,1,40.140113,116.667138,中国建设银行(北京顺义东兴路支行),北京市,ea4a3dc9c3b536534e554757,(010)89420071,ea4a3dc9c3b536534e554757
北京市顺义区裕龙花园四区24号楼2门一层底商,顺义区,北京市,1,40.126509,116.677803,中国建设银行(北京顺义裕龙花园支行),北京市,fa01e9378bd2f14a764ff1bc,(010)89400533,fa01e9378bd2f14a764ff1bc
首都机场南平东里乙1号京林大厦附近,顺义区,北京市,1,40.051275,116.607674,中国建设银行京林大厦支行,北京市,,,24dd667e980e786f2b3a9ff6
北京市顺义区榆阳路7号西北60米,顺义区,北京市,1,40.069214,116.54865,中国建设银行24小时自助银行,北京市,,,5bde373eef33c7e02c473322
北京市顺义区仁和街道怡馨家园四号楼,顺义区,北京市,1,40.125332,116.657009,中国建设银行24小时自助银行(新顺南大街),北京市,,,212adb9c884e405e8a36ee16
北京市顺义区光明首都医科大学燕京医学院西,顺义区,北京市,1,40.133512,116.671344,中国建设银行ATM(大东路),北京市,eef2d5282cdcd5a73ae4a6bc,,eef2d5282cdcd5a73ae4a6bc
北京市顺义区石园大街,顺义区,北京市,1,40.118651,116.666148,中国建设银行24小时自助银行,北京市,,,e27711f2a4e7451a79dbd25a
北京市顺义区首都国际机场三号航站楼4层,顺义区,北京市,1,40.061909,116.620287,中国建设银行ATM(3号航站楼),北京市,c5534527af55e1efce04ef82,,c5534527af55e1efce04ef82
北京市顺义区府前西街1号鑫海韵通百货F2,顺义区,北京市,1,40.136579,116.656507,中国建设银行ATM(鑫海韵通百货),北京市,55d10123cdeb329852e5c5b9,,55d10123cdeb329852e5c5b9
府前中街7号,顺义区,北京市,1,40.136438,116.660114,中国建设银行ATM(北京顺义支行),北京市,,,fbb362739b0a94aeede4a55a
北京市顺义区北京市顺义区新顺南大街11号隆华购物中心F1,顺义区,北京市,1,40.133262,116.656909,中国建设银行ATM(隆华购物中心),北京市,09edfd5ffd65d563c9c3db22,,09edfd5ffd65d563c9c3db22
北京市顺义区泰和宜园3号,顺义区,北京市,1,40.182522,116.658458,中国建设银行24小时自助银行(北京顺义新城支行),北京市,dd37733498a247fb6b49f388,,dd37733498a247fb6b49f388
裕龙花园三区18-5,顺义区,北京市,1,40.12646,116.677715,中国建设银行24小时自助银行服务(裕龙花园储蓄所),北京市,5d38bf5f1cdccfa5a11de952,,5d38bf5f1cdccfa5a11de952
北京市顺义区顺西路121号西70米,顺义区,北京市,1,40.135737,116.646992,中国建设银行24小时自助银行服务(顺于路),北京市,d464013bcb2c3803f4eafc98,,d464013bcb2c3803f4eafc98
北京市顺义区天柱东路与天北路交叉口天柱东路33号院,顺义区,北京市,1,40.067426,116.576178,中国建设银行24小时自助银行(北京天竺支行),北京市,,,697aed9e5785813d1811d531
府前东街甲25号,顺义区,北京市,1,40.136569,116.665937,中国建设银行24小时自助银行(新顺东街储蓄所),北京市,7d513b9c559ca583bfa82252,,7d513b9c559ca583bfa82252
绿港家园二区12,顺义区,北京市,1,40.140263,116.66711,中国建设银行24小时自助银行服务(北京东兴路支行),北京市,3a0fbba83705c43f9ee32112,,3a0fbba83705c43f9ee32112
空港工业区B区裕民大街3号,顺义区,北京市,1,40.108133,116.563631,中国建设银行24小时自助银行(裕民大街),北京市,4cef69aca23dd9ec373a71d0,,4cef69aca23dd9ec373a71d0
北京市顺义区安泰大街9号院19,顺义区,北京市,1,40.094927,116.54492,中国建设银行24小时自助银行(后沙峪支行),北京市,7f308a34c60cbe4c5d17c3ce,,7f308a34c60cbe4c5d17c3ce
北京市顺义区三经路1号,顺义区,北京市,1,40.055922,116.626567,中国建设银行24小时自助银行(北京首都机场支行),北京市,312439aeed559b0fce04eff9,,312439aeed559b0fce04eff9
北京市昌平区东环路95号,昌平区,北京市,1,40.228443,116.246102,中国建设银行(昌平支行),北京市,8fde79cc97a5b0bf95ca070d,(010)69742953,8fde79cc97a5b0bf95ca070d
北京市昌平区回龙观镇龙锦苑六区14号楼1至2层1号,昌平区,北京市,1,40.088245,116.355897,中国建设银行(龙锦支行),北京市,aec5944f1e4d2a02250bd021,(010)89777117,aec5944f1e4d2a02250bd021
北京市昌平区回龙观镇定福黄庄75号北京碧水庄园物业管理大楼,昌平区,北京市,1,40.120881,116.289339,中国建设银行(昌平沙河支行),北京市,e93761f61eb00e71223bf25a,(010)69731302,e93761f61eb00e71223bf25a
北京市昌平区生命科学园西路创新大厦1层,昌平区,北京市,1,40.097029,116.284794,中国建设银行(生命园支行),北京市,d146b3889b74a5de7402691b,(010)69731152,d146b3889b74a5de7402691b
北京市昌平区顺沙路政府南侧,昌平区,北京市,1,40.182271,116.406749,中国建设银行(小汤山支行),北京市,12844b807483dfc82fb17e86,(010)61788801,12844b807483dfc82fb17e86
北京市昌平区南环路8号,昌平区,北京市,1,40.218106,116.243646,中国建设银行(南环路店),北京市,f239f44de6e8f688077ce8da,,f239f44de6e8f688077ce8da
北京市昌平区立汤路58号,昌平区,北京市,1,40.123487,116.42071,中国建设银行(北七家支行),北京市,6f352fe451c466cce5e96520,,6f352fe451c466cce5e96520
北京市昌平区立汤路186号北京龙德广场一层西北侧,昌平区,北京市,1,40.067045,116.421019,中国建设银行(北京天通苑支行),北京市,005861085f0af5db47e27480,(010)84815868,005861085f0af5db47e27480
北京市昌平区回龙观镇黄土东村209号,昌平区,北京市,1,40.066197,116.352661,中国建设银行(昌平西三旗支行),北京市,cc0849a0b8fbe05094031963,(010)82926217,cc0849a0b8fbe05094031963
昌平区建材城西路上奥世纪中心写字楼A座楼下,昌平区,北京市,1,40.062528,116.337239,中国建设银行(建材城西路支行),北京市,d8a642e0ff7528cbf822138e,,d8a642e0ff7528cbf822138e
北京市昌平区回龙观经济适用房文化居住区龙回苑小区商业配套楼一层,昌平区,北京市,1,40.093961,116.350418,中国建设银行(北京昌平回龙观支行),北京市,f9fd6062e9748b1f0f0e6b1b,(010)81732653,f9fd6062e9748b1f0f0e6b1b
昌平区昌平路380号院2号楼1-2层01-02号,昌平区,北京市,1,40.073773,116.327788,中国建设银行(北京昌平新龙城支行),北京市,4b4245e5f9c9830b04fef51d,(010)82984331,4b4245e5f9c9830b04fef51d
北京市昌平区水关新村甲1号,昌平区,北京市,1,40.21835,116.251049,中国建设银行(东关支行),北京市,6835e3a78580664ee311030d,(010)69748033,6835e3a78580664ee311030d
北京市昌平区天通苑东苑一区61号楼2门,昌平区,北京市,1,40.071004,116.439094,中国建设银行(天通东苑支行),北京市,4ea3f2f1c1b89cd7aecb6658,(010)81757384,4ea3f2f1c1b89cd7aecb6658
北京市昌平区天通苑北苑一区甲4号楼3门,昌平区,北京市,1,40.083395,116.420867,中国建设银行(北京昌平天通北苑支行),北京市,28e700f1ef7fc101095cb31d,(010)81778101,28e700f1ef7fc101095cb31d
北京市昌平区华北电力大学教五楼附近,昌平区,北京市,1,40.097305,116.320637,中国建设银行ATM,北京市,,,6a8352bd23a74412c26c14a0
北京市昌平区定福皇庄75号北京碧水庄园物业管理大楼1层,昌平区,北京市,1,40.120882,116.289591,中国建设银行ATM,北京市,3eda5f5002bdd6fc40afe6d9,,3eda5f5002bdd6fc40afe6d9
北京市昌平区回龙观西大街16号上品折扣F1,昌平区,北京市,1,40.084922,116.342308,中国建设银行24小时自动银行(上品折扣),北京市,fba290f5ebbb90dabe4842fa,,fba290f5ebbb90dabe4842fa
交通街57号,昌平区,北京市,1,40.24578,116.141102,中国建设银行ATM(交通街),北京市,9bc3ec66ef2283b26f3e1bcd,,9bc3ec66ef2283b26f3e1bcd
北京市昌平区府学路18号中国石油大学北京分部,昌平区,北京市,1,40.226248,116.254461,中国建设银行ATM(府学路),北京市,bcaebff84dee6654c9e33c0d,,bcaebff84dee6654c9e33c0d
北京市昌平区回龙观镇龙锦苑六区14号楼1至2层1号,昌平区,北京市,1,40.088242,116.355979,中国建设银行24小时自助银行(北京龙锦支行),北京市,ecf0962de0844dee45e27401,,ecf0962de0844dee45e27401
鼓楼南街新世纪商城1层,昌平区,北京市,1,40.224867,116.23987,中国建设银行ATM(鼓楼南街),北京市,a8561e6e1e51a77be60738b1,,a8561e6e1e51a77be60738b1
生命园路29号生命科学创新大厦1层,昌平区,北京市,1,40.097161,116.28454,中国建设银行24小时自助银行(生命园支行),北京市,6835e3a7859a664ee311031b,,6835e3a7859a664ee311031b
北京市昌平区立汤路186号龙德广场F1,昌平区,北京市,1,40.067007,116.421098,中国建设银行24小时自助银行(龙德广场),北京市,2bb80dfd86d8417a0b69d9ee,,2bb80dfd86d8417a0b69d9ee
北京市昌平区水关新村甲1号,昌平区,北京市,1,40.218384,116.25109,中国建设银行24小时自助银行(东关储蓄所),北京市,108b1cea82e325d23586f451,,108b1cea82e325d23586f451
北京市昌平区顺沙路辅路,昌平区,北京市,1,40.182271,116.406749,中国建设银行24小时自助银行服务,北京市,17c4f2bd9396981261685810,,17c4f2bd9396981261685810
立汤路58号1幢1层,昌平区,北京市,1,40.123635,116.420825,中国建设银行24小时自助银行服务,北京市,3414e86484899bc54151c093,,3414e86484899bc54151c093
八达岭奥特莱斯内,昌平区,北京市,1,40.242074,116.177238,中国建设银行ATM(八达岭奥特莱斯),北京市,abc1202ca622f0acaeb22a03,,abc1202ca622f0acaeb22a03
建材城西路87号院1号楼1层1001号,昌平区,北京市,1,40.062364,116.337376,中国建设银行24小时自助银行服务(北京建材城西路支行),北京市,1b8e9279ba5dbe1b276e9831,,1b8e9279ba5dbe1b276e9831
昌平区东小口镇天通北苑一区甲4号楼3门(近地铁5号线天通苑站),昌平区,北京市,1,40.08337,116.42101,中国建设银行24小时自助银行服务(北京天通北苑支行),北京市,ea4a3dc98279772e4e55471c,,ea4a3dc98279772e4e55471c
鼓楼东街68号78号,昌平区,北京市,1,40.229984,116.24088,中国建设银行24小时自助银行(昌平区东街储蓄所),北京市,61f634f6191fc5066b49f32c,,61f634f6191fc5066b49f32c
天通苑东苑1区61号楼2门,昌平区,北京市,1,40.071088,116.439157,中国建设银行24小时自助银行(昌平天通东苑支行),北京市,b533ea4a004d7b414f6d461c,,b533ea4a004d7b414f6d461c
北京市昌平区德外西三旗东回龙观黄土东村209号,昌平区,北京市,1,40.066192,116.352635,中国建设银行24小时自助银行(北京西三旗支行),北京市,4ce10ce6f5ac07a1441a3263,,4ce10ce6f5ac07a1441a3263
北京市昌平区东环路95号,昌平区,北京市,1,40.228542,116.24611,中国建设银行24小时自助银行(昌平支行营业部),北京市,59f004bb71a1cf3b6fa3ccd0,,59f004bb71a1cf3b6fa3ccd0
北京市昌平区昌平路３８０号院２,昌平区,北京市,1,40.073795,116.327786,中国建设银行24小时自助银行(北京昌平新龙城支行),北京市,e16536bbd094a6b251e5c5c3,,e16536bbd094a6b251e5c5c3
北京市昌平区龙回苑28号,昌平区,北京市,1,40.09387,116.350636,中国建设银行24小时自助银行(回龙观储蓄所),北京市,750368359a2e38af5e0d021b,,750368359a2e38af5e0d021b
北京市大兴区团河路48号院3号楼,大兴区,北京市,1,39.742129,116.359248,中国建设银行(团河路支行),北京市,290730e524a00365e9f85381,"(010)95533,(010)89249961",290730e524a00365e9f85381
北京市大兴区宏达北路16号北京科技园1号楼102室,大兴区,北京市,1,39.804779,116.51639,中国建设银行(隆庆街支行),北京市,7856e40e3675a8c3047ce853,"(010)53016387,(010)53016389",7856e40e3675a8c3047ce853
北京市大兴区兴政街25号,大兴区,北京市,1,39.733307,116.343111,中国建设银行(大兴支行),北京市,c733912b34af2a8c2cb17eb8,(010)69247312,c733912b34af2a8c2cb17eb8
北京经济技术开发区泰河园四里二区1号楼一层,大兴区,北京市,1,39.770029,116.510646,中国建设银行(北京博兴七路支行),北京市,72a0c8f6ce2b84cbca291595,(010)67814286,72a0c8f6ce2b84cbca291595
庑殿路,大兴区,北京市,1,39.824709,116.435953,中国建设银行,北京市,,,9c21dd2a2fa854ae260bd0e7
景园北街2号55幢,大兴区,北京市,1,39.786977,116.527603,中国建设银行(北京经济技术开发区支行),北京市,990877dba55120f1ab059dde,,990877dba55120f1ab059dde
北京市大兴区香园路和兴华大街交叉口郁花园三里,大兴区,北京市,1,39.777482,116.338326,中国建设银行(郁花园支行),北京市,65f790dc615709b290114cec,,65f790dc615709b290114cec
大兴区北环西路8号园林肯公园底商,大兴区,北京市,1,39.809868,116.500259,中国建设银行(北环西路支行),北京市,dcb5520cb72eca7a21022063,(010)67893646,dcb5520cb72eca7a21022063
北京市大兴区亦庄镇贵园东里53号楼1号,大兴区,北京市,1,39.801078,116.492789,中国建设银行(北京天宝北街支行),北京市,eaa562e92ce621b17f29bd4f,(010)67897721,eaa562e92ce621b17f29bd4f
北京市大兴区西红门宏旭路209号邮政银行旁边,大兴区,北京市,1,39.790973,116.338115,中国建设银行(宏旭支行),北京市,e10d62ed00e30513f4eafcc9,(010)60259505,e10d62ed00e30513f4eafcc9
北京市大兴区丽园路枣园小区1号2室,大兴区,北京市,1,39.756171,116.336843,中国建设银行(枣园支行),北京市,56f2f696ce8b60830aa8d455,(010)69255284,56f2f696ce8b60830aa8d455
北京市大兴区旧宫镇旧宫东路57号,大兴区,北京市,1,39.812308,116.456815,中国建设银行(北京红星支行),北京市,1020060fe3576aa61994c69c,(010)87966892,1020060fe3576aa61994c69c
大兴区黄村镇枣园东里34-1号,大兴区,北京市,1,39.762138,116.342571,中国建设银行(康庄储蓄所),北京市,d1469ee70c7b0b1f85330498,"(010)95533,(010)69253453",d1469ee70c7b0b1f85330498
北京市大兴区黄村镇狼垡二村商业街芦花路30号地上一层,大兴区,北京市,1,39.789711,116.298007,中国建设银行(北京大兴狼垡支行),北京市,88e74c9aac14f7c10782c2a4,,88e74c9aac14f7c10782c2a4
北京市大兴区西红门镇欣荣北大街20号,大兴区,北京市,1,39.800865,116.351623,中国建设银行(北京西红门支行),北京市,0ed20a153210659757bfffe4,,0ed20a153210659757bfffe4
北京市大兴区兴丰北路2段78号院130号,大兴区,北京市,1,39.754515,116.344586,中国建设银行(北京大兴滨河支行),北京市,373cf757014f85134354d73e,(010)69241244,373cf757014f85134354d73e
北京市大兴区金星路12号院2号楼1层,大兴区,北京市,1,39.768051,116.35745,中国建设银行(北京黄亦路支行),北京市,6898cbdb25016c6bed74f847,(010)89292450,6898cbdb25016c6bed74f847
乐园路22号院32,大兴区,北京市,1,39.770321,116.319751,中国建设银行(北京金星路支行),北京市,,(010)69259945,c59f4a8674063dab45572620
北京市大兴区黄村观音寺小区,大兴区,北京市,1,39.73446,116.356403,中国建设银行(北京大兴观音寺支行),北京市,a7c56ee0d0d3c2b3a3acc4ed,(010)69259850,a7c56ee0d0d3c2b3a3acc4ed
北京市大兴区黄村镇康庄路29号安装大厦1层,大兴区,北京市,1,39.763227,116.330242,中国建设银行(北京市大兴区新北区支行),北京市,161a0ed2fce903505cd4fee4,(010)60238378,161a0ed2fce903505cd4fee4
科创五街38号1层,大兴区,北京市,1,39.806569,116.539577,中国建设银行24小时自助银行(科创六街),北京市,8fef88d55a11f8d74d776e26,,8fef88d55a11f8d74d776e26
北京经济技术开发区景园北街2号BDA企业大道55幢,大兴区,北京市,1,39.787004,116.527678,中国建设银行24小时自助银行(北京经济技术开发区支行),北京市,7ab5a52fe20087ad4afd3fa9,,7ab5a52fe20087ad4afd3fa9
西红门镇北兴路2号星光梅地亚酒店,大兴区,北京市,1,39.778513,116.370504,中国建设银行ATM(星光梅地亚酒店),北京市,312aa3e03b6e6dd43904b1ff,,312aa3e03b6e6dd43904b1ff
北京市大兴区欣宁街15号北京荟聚中心F1,大兴区,北京市,1,39.794373,116.334208,中国建设银行ATM(北京荟聚中心),北京市,4a6df938f59ac6613a13fdd3,,4a6df938f59ac6613a13fdd3
富强路92,大兴区,北京市,1,39.742979,116.335202,中国建设银行24小时自助银行服务(兴华路储蓄所),北京市,e93761f6de054e0c223bf2ed,,e93761f6de054e0c223bf2ed
兴丰大街3段2号清源路口,大兴区,北京市,1,39.74313,116.349244,中国建设银行24小时自助银行(北京富强路支行),北京市,9a3641da57f7e5ba6ec02ca5,,9a3641da57f7e5ba6ec02ca5
欣荣北大街20号院一层,大兴区,北京市,1,39.800712,116.351689,中国建设银行24小时自助银行服务(北京西红门支行),北京市,b40ef401044dda8c0d3dda52,,b40ef401044dda8c0d3dda52
西鲍辛庄村委会附近,大兴区,北京市,1,39.66484,116.542433,中国建设银行裕农通普惠金融服务点,北京市,,,4fefbd0edcc607bc0b1cc7af
北京市大兴区宏达北路16号,大兴区,北京市,1,39.804656,116.516592,中国建设银行24小时自助银行(隆庆街支行),北京市,fc4e5fb35d15ade1a0acc45f,,fc4e5fb35d15ade1a0acc45f
北京市大兴区兴华路枣园小区1号2室,大兴区,北京市,1,39.756043,116.336924,中国建设银行24小时自助银行(北京大兴枣园支行),北京市,ed08269b66e1d923df1e522f,,ed08269b66e1d923df1e522f
金星路12院2,大兴区,北京市,1,39.767933,116.35754,中国建设银行24小时自助银行(北京黄亦路支行),北京市,8e361b9280599578f4e73b04,,8e361b9280599578f4e73b04
北京市大兴区福顺街与106国道交叉口东北200米,大兴区,北京市,1,39.529415,116.333405,中国建设银行24小时自助银行(北京新航城支行),北京市,,,9275c24153da78c4f7b916db
北环西路8号,大兴区,北京市,1,39.809829,116.500341,中国建设银行24小时自助银行服务(北环西路支行),北京市,,,f464085aedd4915afbdc8543
北京市大兴区亦庄泰河园四里二区(博兴七路东),大兴区,北京市,1,39.770269,116.510811,中国建设银行24小时自助银行(北京博兴七路支行),北京市,ef97ab3d664e5c58240bd07e,,ef97ab3d664e5c58240bd07e
北京市大兴区郁花园三里临7-38号,大兴区,北京市,1,39.777552,116.338325,中国建设银行24小时自助银行(郁花园支行),北京市,05cfef98535c6fe6babd63aa,,05cfef98535c6fe6babd63aa
北京市大兴区黄村观音寺住宅小区,大兴区,北京市,1,39.734413,116.356255,中国建设银行24小时自助银行(观音寺储蓄所),北京市,69f32a2b77ef4de4f11937fa,,69f32a2b77ef4de4f11937fa
北京市大兴区兴华大街三段3号百联清城购物中心F1,大兴区,北京市,1,39.744106,116.338353,中国建设银行ATM(百联清城国际购物中心),北京市,d11fc4f2017cf1dc6cc02c42,,d11fc4f2017cf1dc6cc02c42
康庄路26号华堂商场大兴店1层,大兴区,北京市,1,39.762281,116.342397,中国建设银行24小时自助银行(康庄支行),北京市,64404b17156da0ac4354d7e2,,64404b17156da0ac4354d7e2
北京市大兴区贵园东里52号楼东侧,大兴区,北京市,1,39.801076,116.492742,中国建设银行24小时自助银行(北京天宝北街支行),北京市,74320720be8b9b584d5547ff,,74320720be8b9b584d5547ff
北京市大兴区西红门镇宏旭路207～209号,大兴区,北京市,1,39.790882,116.338034,中国建设银行24小时自助银行(北京西红门支行),北京市,d33e48b616f9659b1811d5f3,,d33e48b616f9659b1811d5f3
北京市大兴区黄村镇狼垡二村商业街芦花路30号亿发购物中心F1,大兴区,北京市,1,39.789724,116.297827,中国建设银行24小时自助银行服务(亿发购物广场),北京市,dedd456e0d756c370aa8d4b6,,6350b1daafb4788f2b06ce74
北京市大兴区团河路48号院3号楼103/104,大兴区,北京市,1,39.742077,116.35922,中国建设银行24小时自助银行(北京大兴团河路支行),北京市,78adc5833671a03dc03644c4,,78adc5833671a03dc03644c4
北京市大兴区兴丰北路2段78号院130,大兴区,北京市,1,39.754527,116.344556,中国建设银行24小时自助银行(滨河支行),北京市,ab861bbc767ff551734b87ee,,ab861bbc767ff551734b87ee
北京市大兴区建行大兴支行,大兴区,北京市,1,39.733398,116.342971,中国建设银行24小时自助银行(北京大兴支行),北京市,bd0028e0be0290cb71455b35,,bd0028e0be0290cb71455b35
大兴区旧宫镇旧宫路57号,大兴区,北京市,1,39.812333,116.457005,中国建设银行24小时自助银行(北京红星支行),北京市,637df60ac8e9967241afe69c,,637df60ac8e9967241afe69c
康庄路29号,大兴区,北京市,1,39.763167,116.33039,中国建设银行24小时自助银行(新北区储蓄所),北京市,be54cde9ec3af05878f796e4,,be54cde9ec3af05878f796e4
乐园路22号院32,大兴区,北京市,1,39.770365,116.319757,中国建设银行24小时自助银行服务(北京金星路支行),北京市,53924c0e434085d60b69d9e6,,53924c0e434085d60b69d9e6
北京市怀柔区南大街22号,怀柔区,北京市,1,40.317507,116.637,中国建设银行(怀柔支行),北京市,07d673eebb01399cbbbd639f,,07d673eebb01399cbbbd639f
北京雁栖经济开发区内杨雁路与乐园大街交叉路口西南角,怀柔区,北京市,1,40.353323,116.690581,中国建设银行(北京雁栖支行),北京市,bdcf996c64c6d5ed96ca07cc,(010)60680858,bdcf996c64c6d5ed96ca07cc
北京市怀柔区青春路25号,怀柔区,北京市,1,40.327089,116.63659,中国建设银行(北京怀柔华利支行),北京市,480b24d0f47a94f19cec2b72,(010)69644547,480b24d0f47a94f19cec2b72
北京市怀柔区迎宾北路1号1层,怀柔区,北京市,1,40.328442,116.643552,中国建设银行(北京怀柔东园支行),北京市,b22ff51f6194068c38e4a645,(010)69641531,b22ff51f6194068c38e4a645
北京市怀柔区金台园2号,怀柔区,北京市,1,40.330901,116.650937,中国建设银行(北京怀柔金台园支行),北京市,2e0f2b5aca326c665d17c39a,"(010)61615198,(010)61615168",2e0f2b5aca326c665d17c39a
北京市怀柔区迎宾路于家园二区25号楼8号,怀柔区,北京市,1,40.337853,116.645755,中国建设银行(北京怀柔迎宾路支行),北京市,3c0ea7c54345489ffbf0cb39,(010)69646404,3c0ea7c54345489ffbf0cb39
北京市怀柔区府前街17号,怀柔区,北京市,1,40.322486,116.63798,中国建设银行(北京怀柔府前街支行),北京市,24d05508f03fa5af12882472,(010)69644657,24d05508f03fa5af12882472
商业街与迎宾路交叉口西北50米,怀柔区,北京市,1,40.321702,116.643658,中国建设银行24小时自助银行,北京市,,,d78cc3309d35adcad6b74e19
北京市怀柔区商业街9号附近,怀柔区,北京市,1,40.320726,116.639561,中国建设银行24小时自助银行,北京市,,,9bc13dfee668ee4507fef56a
北京市怀柔区桥梓镇茶坞铁路中学(茶坞火车站北),怀柔区,北京市,1,40.286175,116.565016,中国建设银行24小时自助银行(茶坞站北),北京市,,,bb1d38e4ec59cc4d0c0a7076
开放路70号,怀柔区,北京市,1,40.341952,116.654048,中国建设银行ATM(金泰苑小区东),北京市,,,e41bb750772c6aad250bd052
北京市怀柔区迎宾北路1,怀柔区,北京市,1,40.328487,116.643638,中国建设银行24小时自助银行(北京怀柔东园支行),北京市,79921e688ae0843f902ca35c,,79921e688ae0843f902ca35c
北京市怀柔区城关镇北园74号(二兴益超市向西100米),怀柔区,北京市,1,40.331463,116.64143,中国建设银行24小时自助银行(新村储蓄所),北京市,7fd72311cd361be15dbe86ba,,7fd72311cd361be15dbe86ba
北京市怀柔区青春路25-1号,怀柔区,北京市,1,40.32716,116.636728,中国建设银行24小时自助银行(北京怀柔华利营业厅),北京市,e6b848be3b04382031870a04,,e6b848be3b04382031870a04
南大街22,怀柔区,北京市,1,40.317328,116.637276,中国建设银行24小时自助银行服务(怀柔支行),北京市,56e88cbab31d531ba4c7562d,,56e88cbab31d531ba4c7562d
乐园大街14附近,怀柔区,北京市,1,40.353089,116.690497,中国建设银行24小时自助银行(雁栖支行),北京市,6534788a36ce492a8bb98829,,6534788a36ce492a8bb98829
北京市怀柔区金台园2号,怀柔区,北京市,1,40.331061,116.650953,中国建设银行24小时自助银行(北京怀柔金台园支行),北京市,1534562bc84a06c5735e80f1,,1534562bc84a06c5735e80f1
于家园25号楼8号,怀柔区,北京市,1,40.337871,116.6458,中国建设银行24小时自助银行服务(迎宾路储蓄所),北京市,c8e8f633b418746cab0dd872,,c8e8f633b418746cab0dd872
北京市平谷区文化南街19号,平谷区,北京市,1,40.140762,117.117704,中国建设银行(平谷支行),北京市,925c550fe54164b15a3ac82a,(010)69961711,925c550fe54164b15a3ac82a
东交路与金河北街交叉口西南50米,平谷区,北京市,1,40.068279,117.018928,中国建设银行(马坊支行),北京市,,95533,bc2928dba4810be8b35c6a9c
北京市平谷区兴谷街道谷丰路39号4-1至4-2腾龙源城西门,平谷区,北京市,1,40.162646,117.117954,中国建设银行(平谷兴谷支行),北京市,,(010)57931067,b279ad4d04a96e219cf7791c
北京市平谷区新开街26号,平谷区,北京市,1,40.148485,117.121858,中国建设银行(平谷新开街支行),北京市,4642844a21d904d9c9fa5fc9,"(010)69962145,(010)69961381",4642844a21d904d9c9fa5fc9
北京市平谷区平谷镇新平北路55楼10号,平谷区,北京市,1,40.152373,117.114128,中国建设银行(北京平谷伊园支行),北京市,dffd4642d19db0b23c9a5ec9,(010)69962873,dffd4642d19db0b23c9a5ec9
大华山西峪甲1号,平谷区,北京市,1,40.317284,117.108012,中国建设银行ATM(平关路),北京市,,,56bd1c8e0eca773ea8175ae0
平谷大街北50米,平谷区,北京市,1,40.164843,117.142839,中国建设银行ATM(平谷大街),北京市,,,6cfc93811da89d5f13293507
北京市平谷区文化南街19,平谷区,北京市,1,40.140771,117.117896,中国建设银行24小时自助银行服务(北京平谷支行),北京市,233080449d1f3cf723f01719,,233080449d1f3cf723f01719
北京市平谷区平谷镇太安街世纪隆购物中心,平谷区,北京市,1,40.153288,117.121509,中国建设银行24小时自助银行(金乡嘉园东),北京市,d2441b2bbc1b5bc1dc1e520f,,d2441b2bbc1b5bc1dc1e520f
兴谷街道谷丰路39号4-1至4-2腾龙源城西门附近,平谷区,北京市,1,40.162733,117.117957,中国建设银行24小时自助银行(北京平谷兴谷支行),北京市,d18f69ff4bd95e0b4d2fdfed,,d18f69ff4bd95e0b4d2fdfed
新平北路55号,平谷区,北京市,1,40.152357,117.114052,中国建设银行24小时自助银行(北京平谷伊园支行),北京市,9e90494087c553e3601c679a,,9e90494087c553e3601c679a
北京市密云区新中街85号,密云区,北京市,1,40.376591,116.857092,中国建设银行(北京密云支行),北京市,05dd7d5fbe1abd01ac080f90,(010)69046942,05dd7d5fbe1abd01ac080f90
北京市密云区花园路15号院5-1-2号,密云区,北京市,1,40.374356,116.863786,中国建设银行(北京阳光街支行),北京市,01c45beedaebd9631fe9991e,(010)61095184,01c45beedaebd9631fe9991e
北京市密云区鼓楼东大街19-1号,密云区,北京市,1,40.382906,116.864503,中国建设银行(新东路支行),北京市,e116be54b646ba78c91b9533,(010)69046943,e116be54b646ba78c91b9533
北京市密云区西门外大街10号,密云区,北京市,1,40.383031,116.839762,中国建设银行(北京果园新里北区支行),北京市,50f7d1461ef709c473210b90,(010)69041496,50f7d1461ef709c473210b90
北京市密云区沿湖小区,密云区,北京市,1,40.390013,116.85825,中国建设银行(北京市密云县沿湖储蓄所),北京市,7d5f3a0afbad954b2db90890,(010)69023401,7d5f3a0afbad954b2db90890
北京市密云区吉鼎商贸城(阳光街北),密云区,北京市,1,40.368388,116.843851,中国建设银行24小时自助银行服务(阳光街),北京市,89b1cc025dd51be7cafa5fc7,,3c1eccff8e70a46bc6effb6d
北京市密云区西田各庄镇沿村北京宝沃汽车有限公司,密云区,北京市,1,40.383228,116.761719,中国建设银行ATM(西统路),北京市,14a4dfad4344f8ca8d772762,,14a4dfad4344f8ca8d772762
北京市密云区康复路5(县医院门口),密云区,北京市,1,40.384824,116.853599,中国建设银行24小时自助银行(康复路),北京市,27613b4a10f290db4254d7fc,,27613b4a10f290db4254d7fc
北京市密云区新中街33号,密云区,北京市,1,40.390137,116.858366,中国建设银行24小时自助银行(密云沿湖支行),北京市,1bf85b255b56cca4a0a93490,,1bf85b255b56cca4a0a93490
花园路15号院5-1,密云区,北京市,1,40.374424,116.86373,中国建设银行24小时自助银行(北京阳光街支行),北京市,b7fc5ea63d939775c056ac32,,b7fc5ea63d939775c056ac32
密云区区区密云新南路71号,密云区,北京市,1,40.376491,116.85677,中国建设银行24小时自助银行服务(北京密云支行),北京市,5531a8ae2ba654a8b21e36c0,,5531a8ae2ba654a8b21e36c0
北京市密云区鼓楼东大街27号5,密云区,北京市,1,40.378955,116.851934,中国建设银行24小时自助银行服务(密云鼓楼南大街支行),北京市,946ce838a6b02c4c81a12eb8,,946ce838a6b02c4c81a12eb8
密云区西直门外大街62号中铝大厦1楼,密云区,北京市,1,40.383068,116.839852,中国建设银行24小时自助银行(北京果园新里北区支行),北京市,5c56edd6e7f1c95aa0d23090,,5c56edd6e7f1c95aa0d23090
兴云路与果园南街交叉口东北角,密云区,北京市,1,40.377403,116.828514,中国建设银行24小时自助银行(果园南街),北京市,,,9b725f6632d171c1774ff17e
北京市密云区果园北街5,密云区,北京市,1,40.380758,116.83686,中国建设银行24小时自助银行(北京密虹支行),北京市,ce2764809719ff0ba7c756da,,ce2764809719ff0ba7c756da
北京市密云区鼓楼东大街19-1号(密东广场),密云区,北京市,1,40.383082,116.864776,中国建设银行24小时自助银行服务(北京密云新东路支行),北京市,2d8cd2676f71e7321df74d1a,,2d8cd2676f71e7321df74d1a
北京市延庆区东外大街20号,延庆区,北京市,1,40.466961,115.98668,中国建设银行(北京延庆支行),北京市,7104ec550e1e8e7648cc4aee,(010)69144766,7104ec550e1e8e7648cc4aee
北京市延庆区新城街10号,延庆区,北京市,1,40.474575,115.991822,中国建设银行(北京市延庆县新城街储蓄所),北京市,37d60a4657b1ce601e1d1126,(010)69144276,37d60a4657b1ce601e1d1126
北京市延庆区东顺城街北口,延庆区,北京市,1,40.470273,115.981333,中国建设银行(北京市延庆县胜利街储蓄所),北京市,0a46dc0f8062275e30621226,(010)69146848,0a46dc0f8062275e30621226
延庆镇妫水南街19号1-2层112,延庆区,北京市,1,40.455784,115.988467,中国建设银行24小时自助银行(妫水南街支行),北京市,cde9e2c79ef7a2cae91e9788,,cde9e2c79ef7a2cae91e9788
东外大街37号附近,延庆区,北京市,1,40.468043,115.990568,中国建设银行24小时自助银行(金宸东),北京市,e4e1a47f5676c7e51ce999ea,,e4e1a47f5676c7e51ce999ea
