address,area,city,detail,lat,lng,name,province,street_id,telephone,uid
北京市东城区交道口东大街81号,东城区,北京市,1,39.947616,116.419896,中国银行(东城支行),北京市,a3e8341c803b7b954afd3fff,(010)64065202,a3e8341c803b7b954afd3fff
北京市东城区朝阳门内大街2号,东城区,北京市,1,39.929389,116.439611,中国银行(北京市分行),北京市,ef090382afa029ad43ab9a6a,,ef090382afa029ad43ab9a6a
北京市东城区东直门外大街46号天恒大厦1层,东城区,北京市,1,39.946255,116.443211,中国银行(东直门支行),北京市,bd5046e8eb9dcd3fd72ce25f,(010)84608509,bd5046e8eb9dcd3fd72ce25f
北京市东城区北三环东路36号北京环球贸易中心b栋一层,东城区,北京市,1,39.974832,116.417284,中国银行(安贞桥支行),北京市,5b25f446a6fd98ea102935ff,"(010)58256572,(010)58256571",5b25f446a6fd98ea102935ff
北京市东城区东直门南大街3号国华投资大厦首层,东城区,北京市,1,39.945181,116.439432,中国银行(国华大厦支行),北京市,bf29b702a91d9f9909b93aff,(010)84098082,bf29b702a91d9f9909b93aff
北京市东城区东安门大街19号,东城区,北京市,1,39.922011,116.416441,中国银行(东安门支行),北京市,69fcd6df1e16fb2fca2915c9,(010)65132214,69fcd6df1e16fb2fca2915c9
北京市东城区建国门内大街18号恒基中心4楼(近长安街),东城区,北京市,1,39.913669,116.434576,中国银行(恒基中心支行),北京市,c0922e0c8a245217240bd006,,c0922e0c8a245217240bd006
北京市东城区东长安街1号东方新天地SS02,东城区,北京市,1,39.915198,116.418468,中国银行(王府井支行),北京市,2a7a25ecf82b12636c3e1bc9,,2a7a25ecf82b12636c3e1bc9
北京市东城区广渠门内大街80号一层,东城区,北京市,1,39.899182,116.435027,中国银行(幸福大街支行),北京市,9f97b1c518ef4a06b74f5499,(010)51696567,9f97b1c518ef4a06b74f5499
东城区朝阳门北大街2号港澳中心1楼,东城区,北京市,1,39.938609,116.442279,中国银行(港澳中心支行),北京市,f843552032b12902dc1e52d5,,f843552032b12902dc1e52d5
北京市东城区安定门外大街191号,东城区,北京市,1,39.958051,116.413457,中国银行(安定门外支行),北京市,f4460918f2b3296ab11e36ff,(010)64400221,f4460918f2b3296ab11e36ff
北京市东城区朝阳门北大街7号五矿广场C座1层,东城区,北京市,1,39.937114,116.439647,中国银行(第五广场支行),北京市,4fc3161a6def52aa3b13fda1,(010)64088198,4fc3161a6def52aa3b13fda1
北京市东城区崇文门西大街1号,东城区,北京市,1,39.907674,116.422775,中国银行(北京崇文门支行),北京市,b1eb9220f714740a72210bb4,(010)65242762,b1eb9220f714740a72210bb4
北京市东城区和平里中街3号院裙房3-9号,东城区,北京市,1,39.963614,116.429687,中国银行(北京和平里支行),北京市,eaf159bb65f25f6858f6beb3,(010)84226911,eaf159bb65f25f6858f6beb3
北京市东城区金宝街89号金宝大厦1楼,东城区,北京市,1,39.921905,116.42659,中国银行(金宝街支行),北京市,25ec69fc4608557dc26c14c9,(010)85221381,25ec69fc4608557dc26c14c9
北京市东城区东花市大街98号,东城区,北京市,1,39.903192,116.437547,中国银行(北京东花市支行),北京市,b1c556e8c1bd8d0cb5265599,(010)67132367,b1c556e8c1bd8d0cb5265599
北京市东城区朝阳门内大街2号,东城区,北京市,1,39.929408,116.439219,中国银行(北京市分行信用卡处),北京市,ccc00cc91e0c7b368c1a895f,,ccc00cc91e0c7b368c1a895f
北京市东城区东长安街1号-西区2号楼南50米,东城区,北京市,1,39.915173,116.418503,中银理财,北京市,,,ad5827f5eb8c3065a3acc494
北京市东城区朝阳门内大街2号凯恒中心e座7层701-705,东城区,北京市,1,39.929142,116.439142,中银保险有限公司(北京分公司),北京市,812826eb30d24779ad045767,(010)85290888,812826eb30d24779ad045767
北京市东城区崇文门外大街9号正仁大厦东门2层,东城区,北京市,1,39.901422,116.424736,中国银行ATM(崇外大街支行),北京市,7c50293675519f5f93114cd2,,7c50293675519f5f93114cd2
北京市东城区北京市东城区金宝街88号金宝汇购物中心B1,东城区,北京市,1,39.921295,116.428039,中国银行ATM(金宝汇),北京市,69045e10a29da1032fe67bbd,,69045e10a29da1032fe67bbd
毛家湾胡同甲13号北京站F1层,东城区,北京市,1,39.909493,116.432836,中国银行ATM(北京站),北京市,a53295d23a68a92651e5c5ff,,a53295d23a68a92651e5c5ff
朝阳门内大街2号凯恒中心B座,东城区,北京市,1,39.929276,116.439682,中国银行24小时自助银行(北京市分行),北京市,a331c68be0c7461d85420eee,,a331c68be0c7461d85420eee
北京市东城区故宫博物院,东城区,北京市,1,39.925401,116.405044,中国银行ATM(故宫东门外),北京市,,,9387fe63c676a5ef09a8d4af
北京市东城区王府井大街2号华侨大厦1层,东城区,北京市,1,39.929753,116.417743,中国银行ATM(王府井大街),北京市,a34ae46095e47f81adb22a63,,a34ae46095e47f81adb22a63
北京市东城区胜古家园3号楼,东城区,北京市,1,39.974785,116.417241,中国银行24小时自助银行,北京市,586cf09eb906b369c2f1cf0a,,586cf09eb906b369c2f1cf0a
北京市东城区东长安街1号东方新天地第五街1层,东城区,北京市,1,39.908275,116.422536,中国银行24小时自助银行,北京市,,,77e5d8f782e9baddf942b212
北京市东城区交道口东大街81号,东城区,北京市,1,39.947491,116.419839,中国银行24小时自助银行(北京东城支行),北京市,64fc6b53240bb67fb04c4937,,64fc6b53240bb67fb04c4937
王府井大街50号天伦王朝酒店1层,东城区,北京市,1,39.924375,116.418509,中国银行ATM(天伦王朝酒店),北京市,409b86fff98d8431dbd8910f,,409b86fff98d8431dbd8910f
东直门南大街3号神华国华投资大厦,东城区,北京市,1,39.945222,116.439391,中国银行24小时自助银行服务(北京国华大厦支行),北京市,846a01c07d74e91dd13ce3a5,,846a01c07d74e91dd13ce3a5
王府井大街57号北京金茂万丽酒店1层,东城区,北京市,1,39.927563,116.41654,中国银行ATM(北京金茂万丽酒店),北京市,b3125ad3786377d0bda2402a,,b3125ad3786377d0bda2402a
北京市东城区和平里东街15号,东城区,北京市,1,39.956825,116.431561,中国银行24小时自助银行(和平里东街),北京市,de71dbf1fed939d5b11e36e9,,de71dbf1fed939d5b11e36e9
北京市东城区东安门大街19号中国银行(东安门支行),东城区,北京市,1,39.921773,116.416607,中国银行24小时自助银行(东安门支行),北京市,5791e6d5155978c26d20b958,,5791e6d5155978c26d20b958
北京市东城区东长安街1号-西区-2号楼东南50米,东城区,北京市,1,39.915278,116.418579,中国银行24小时自助银行服务(北京王府井支行),北京市,78d8f0291952acfac72ba16f,,78d8f0291952acfac72ba16f
东城区东直门外大街46号天恒大厦商业区106号,东城区,北京市,1,39.946277,116.44321,中国银行24小时自助银行(北京东直门支行),北京市,0a9ea66a7326681be6e965b8,,0a9ea66a7326681be6e965b8
北京市东城区和平里中街3,东城区,北京市,1,39.963653,116.429836,中国银行24小时自助银行服务(北京和平里支行),北京市,397fa1384604d869daeced1f,,397fa1384604d869daeced1f
东城区东花市大街98号,东城区,北京市,1,39.903341,116.437608,中国银行24小时自助银行(北京东花市支行),北京市,278d839211f7d01f95ca07cc,,278d839211f7d01f95ca07cc
北京市东城区金宝街89号金宝大厦首层1号单元,东城区,北京市,1,39.921946,116.426683,中国银行24小时自助银行服务(北京金宝街支行),北京市,2b2535f0371e3676715e8076,,2b2535f0371e3676715e8076
北京市东城区朝阳门北大街7号五矿广场C座,东城区,北京市,1,39.93718,116.439775,中国银行24小时自助银行服务(北京第五广场支行),北京市,90c333aa0a8bb9e4c1f1cfb0,,90c333aa0a8bb9e4c1f1cfb0
北京市东城区东华门大街54号,东城区,北京市,1,39.921443,116.410409,中国银行24小时自助银行服务(东华门大街),北京市,d821e9337fec6b2597031941,,d821e9337fec6b2597031941
交道口东大街81号,东城区,北京市,1,39.947528,116.41998,中国银行中小企业金融服务东城中心,北京市,4b2d121a032b0c89ede4a5b2,,4b2d121a032b0c89ede4a5b2
北京市朝阳门,东城区,北京市,1,39.929491,116.439254,北京中国银行股份有限公司北京市分行信用卡处咨询台,北京市,578129faaab95eba60180943,,578129faaab95eba60180943
"北京市西城区德外大街83号德胜国际中心B座一层03,09单元(德胜园区)",西城区,北京市,1,39.960498,116.38489,中国银行(德胜支行),北京市,a74481d674285c38f403b8be,(010)59307091,a74481d674285c38f403b8be
北京市西城区金融大街27号投资广场,西城区,北京市,1,39.918397,116.36515,中国银行(金融街支行),北京市,e56bf5e306087b440782c23e,(010)66211392,e56bf5e306087b440782c23e
北京市西城区金融大街7号英蓝国际金融中心1层,西城区,北京市,1,39.926211,116.364475,中国银行(金融中心支行),北京市,aa40108bed5ad115c5effb30,(010)66555033,aa40108bed5ad115c5effb30
北京市西城区阜成门外大街5号(近中复电讯),西城区,北京市,1,39.929496,116.358442,中国银行(北京西城支行),北京市,2b5852262803eb20c9c3db89,(010)68001383,2b5852262803eb20c9c3db89
北京市西城区车公庄大街9号院2号楼,西城区,北京市,1,39.93835,116.354233,中国银行(车公庄支行),北京市,15a9381026c93ebd14c8f630,,15a9381026c93ebd14c8f630
北京市西城区国英园1号楼一层,西城区,北京市,1,39.942705,116.3653,中国银行(北京西直门支行),北京市,f3c2373cf97a622fd32dd6b3,"(010)58562082,(010)58562080",f3c2373cf97a622fd32dd6b3
广安门南街36-1,西城区,北京市,1,39.883138,116.358006,中国银行(天缘公寓支行),北京市,96b672aac1e4b175ce04efe9,(010)63523582,96b672aac1e4b175ce04efe9
南新华街1号,西城区,北京市,1,39.905375,116.39033,中国银行(宣武支行),北京市,9e79c1b40f4671648f55ecb4,(010)63916146,9e79c1b40f4671648f55ecb4
北京市西城区南线阁街10号1层1-1,西城区,北京市,1,39.89457,116.360244,中国银行(广安门支行),北京市,74c933fb1b74995e9e82eae9,(010)63513172,74c933fb1b74995e9e82eae9
北京市西城区复兴门内大街158号远洋大厦G02B,西城区,北京市,1,39.911563,116.366505,中国银行(西长安街支行),北京市,5e53af1a59cd315f4151c03e,(010)66413837,5e53af1a59cd315f4151c03e
北京市西城区广安门外大街甲中设大厦178号,西城区,北京市,1,39.894749,116.345117,中国银行(莲花河支行),北京市,251374c9d10c3f3fa11de9e9,(010)63268090,251374c9d10c3f3fa11de9e9
北京市西城区黄寺大街甲24一层,西城区,北京市,1,39.968932,116.392662,中国银行(黄寺支行),北京市,37d60a4657b7ce601e1d1128,(010)82281580,37d60a4657b7ce601e1d1128
北京市西城区真武庙路头条1-2号,西城区,北京市,1,39.912299,116.358978,中国银行(复兴门支行),北京市,bcaebff842db6754c9e33c3e,(010)68013090,bcaebff842db6754c9e33c3e
北京市西城区月坛南街丙71号,西城区,北京市,1,39.919905,116.346356,中国银行(三里河支行),北京市,af1ae56b4e4578124207c13e,(010)68513638,af1ae56b4e4578124207c13e
西城区德外大街11号,西城区,北京市,1,39.965801,116.385423,中国银行(德外支行),北京市,0a46dc0f8064275e30621228,(010)82023130,0a46dc0f8064275e30621228
北京市西城区太平桥大街18号丰融国际大厦1层,西城区,北京市,1,39.92273,116.371632,中国银行(北京丰盛支行),北京市,728bef0dd1ddf48e130daa09,,728bef0dd1ddf48e130daa09
北京市西城区宣武门外大街20号海格国际大厦1层商业0104号,西城区,北京市,1,39.901201,116.381822,中国银行(庄胜广场支行),北京市,844a750e929bf1b9626858e6,(010)63018972,844a750e929bf1b9626858e6
北京市西城区莲花池东路106号汇融国际大厦一层,西城区,北京市,1,39.902243,116.334619,中国银行(北京西站北支行),北京市,8fde79cc97f5b0bf95ca07dd,(010)63957922,8fde79cc97f5b0bf95ca07dd
北京市西城区平安里西大街28号中海国际中心一层,西城区,北京市,1,39.93777,116.364178,中国银行(官园桥支行),北京市,3f826ed38a320d45d0f49e9a,(010)66256010,3f826ed38a320d45d0f49e9a
北京市西城区百万庄大街22号院1,西城区,北京市,1,39.933635,116.347191,中国银行(北京百万庄支行),北京市,c879fa010587a54ac909f030,(010)68353983,c879fa010587a54ac909f030
北京市西城区月坛南街59号新华大厦一层,西城区,北京市,1,39.919865,116.348977,中国银行(月坛支行),北京市,1020060fe0f56ba61894c63e,(010)88653141,1020060fe0f56ba61894c63e
北京市西城区复兴门内大街1号,西城区,北京市,1,39.914328,116.379041,中国银行(总行大厦),北京市,7593bf52adf2cc4c3586f4d4,(010)66596688,7593bf52adf2cc4c3586f4d4
北京市西城区新街口外大街12-4号,西城区,北京市,1,39.96578,116.377728,中国银行(新街口外大街),北京市,,,2576572b70001c67c909f05e
北京市西城区宣武门西大街127号1层,西城区,北京市,1,39.905724,116.367094,中国银行(大成大厦支行),北京市,bff8fa7d144ef0a0c8213d3e,(010)66422089,bff8fa7d144ef0a0c8213d3e
北京市西城区裕民路18-1号北环中心A座1层01/02室,西城区,北京市,1,39.978366,116.388995,中国银行(北京北三环支行),北京市,dc0f0adc6a5a0921f8221328,(010)82254951,dc0f0adc6a5a0921f8221328
北京市西城金融大街15号鑫茂大厦北楼一层中国银行,西城区,北京市,1,39.929592,116.358528,中国银行(金融中心支行营业部电费代收点),北京市,1b25fec83bd4765604fef579,95566,1b25fec83bd4765604fef579
民康胡同59号附近,西城区,北京市,1,39.928447,116.364474,中国银行民康-30号院,北京市,14dd21fd0d81ab321b94c6b4,,14dd21fd0d81ab321b94c6b4
北京市西城区西单北大街110号,西城区,北京市,1,39.919881,116.380767,中银保险有限公司(老佛爷百货店),北京市,c0c94ccd01db1f5925e0a079,(010)66059705,c0c94ccd01db1f5925e0a079
北京西城区宣外大街甲一号环球财讯中心D座3层,西城区,北京市,1,39.904291,116.379821,中银国际证券有限责任公司(上斜街),北京市,2af43fd07f5c0bd3a6da39f0,,2af43fd07f5c0bd3a6da39f0
北京市西城区国英园1-1,西城区,北京市,1,39.942708,116.365371,中国银行24小时自助银行服务(北京西直门支行),北京市,637df60a9261480c40afe613,,637df60a9261480c40afe613
西单北大街110号西单汇写字楼8层,西城区,北京市,1,39.920329,116.381484,中银城市发展基金,北京市,b252da76b7254ce7e60738b4,,b252da76b7254ce7e60738b4
宣武门内大街8号,西城区,北京市,1,39.908911,116.381743,中国银行银行卡中心,北京市,,,208839d26dd031c1882fb5e1
北京市西城区西单北大街133号北京君太百货F5,西城区,北京市,1,39.91608,116.379759,中国银行ATM(君太百货),北京市,565d986dc1fc17cec4f02542,,565d986dc1fc17cec4f02542
宣武门西大街127号大成大厦1层大厅,西城区,北京市,1,39.905823,116.367181,中国银行ATM(宣武门支行),北京市,d4034eb3f5942ef6c0364439,,d4034eb3f5942ef6c0364439
西交民巷甲19号,西城区,北京市,1,39.908251,116.400296,中国银行ATM(西交民巷),北京市,90f3c114c3f7fceb25d2bb1e,,90f3c114c3f7fceb25d2bb1e
金融大街19号富凯大厦A座1层,西城区,北京市,1,39.920524,116.366139,中国银行ATM(富凯大厦),北京市,a9df7dafd806af2da8175a83,,a9df7dafd806af2da8175a83
北京市西城区真武庙路1号中国职工之家饭店B座1层,西城区,北京市,1,39.911423,116.352109,中国银行ATM(真武庙路),北京市,2e00c5ddf0415462d7851f56,,2e00c5ddf0415462d7851f56
北京市西城区真武庙路头条1-2,西城区,北京市,1,39.912352,116.358896,中国银行24小时自助银行服务(复兴门支行),北京市,435d7aeaa188f24b5abbbc5c,,435d7aeaa188f24b5abbbc5c
北京市西城区复兴门内大街1号中银大厦5F,西城区,北京市,1,39.91397,116.379583,中国银行养老金业务部,北京市,21cbe919869fc021cd04effb,,21cbe919869fc021cd04effb
北京市西城区西单北大街131号西单大悦城B2,西城区,北京市,1,39.917411,116.379278,中国银行ATM(西单大悦城),北京市,5e206dbc6745037f1ee9995d,,5e206dbc6745037f1ee9995d
北京市西城区金融大街27号,西城区,北京市,1,39.918361,116.364953,中国银行贵金属销售交易中心,北京市,7b456753f6d2e4286268580f,,7b456753f6d2e4286268580f
民康胡同与王府仓胡同交叉口西南50米,西城区,北京市,1,39.926823,116.364632,中国银行24小时自助银行服务,北京市,,,fc7fe6cb7386d654d8d8918d
德胜门外大街11-4,西城区,北京市,1,39.965665,116.385408,中国银行24小时自助银行服务(北京德外支行),北京市,c7eca12b319a0c49e115f9c1,,c7eca12b319a0c49e115f9c1
北京市西城区车公庄大街9-10号,西城区,北京市,1,39.938585,116.354438,中国银行24小时自助银行服务(北京车公庄支行),北京市,0ce65c2d6bac7d592d473333,,0ce65c2d6bac7d592d473333
民丰胡同31号中水大厦217室,西城区,北京市,1,39.915248,116.378707,中银保险(北京分公司综合管理部),北京市,,,7edfa4891842e745afee7a01
复兴门内大街1号,西城区,北京市,1,39.914813,116.379261,中国银行24小时自助银行(民丰胡同),北京市,ecfba454f40c65b69cf779a9,,ecfba454f40c65b69cf779a9
北京市西城区展览馆路24号,西城区,北京市,1,39.932507,116.352671,中国银行24小时自助银行(外交学院家属宿舍东南),北京市,53750692d041e0146cc02c65,,53750692d041e0146cc02c65
金融大街27投资广场B座1层,西城区,北京市,1,39.918151,116.365253,中国银行24小时自助银行(金融街支行),北京市,bf27db1a596b11dd6e20b9eb,,bf27db1a596b11dd6e20b9eb
西城区右安门外大街2-1号迦南大厦1楼,西城区,北京市,1,39.884778,116.378729,中国银行24小时自助银行(北京丰台支行),北京市,28e700f1ef3fc101095cb3dd,,28e700f1ef3fc101095cb3dd
北京市西城区广安门外大街178号,西城区,北京市,1,39.894723,116.345136,中国银行24小时自助银行(北京朗琴园支行),北京市,4bb049d912c09547990050e8,,4bb049d912c09547990050e8
北京市西城区西单北大街110号老佛爷百货F1,西城区,北京市,1,39.920551,116.381314,中国银行24小时自助银行服务(老佛爷百货),北京市,b77ae9fe72d710ad5fbe86b2,,3de03c5342a898312cb908a9
太平桥大街18号丰融国际,西城区,北京市,1,39.922741,116.371631,中国银行24小时自助银行服务(北京丰盛支行),北京市,366283a9d39fe4af4557262e,,366283a9d39fe4af4557262e
北京市西城区新街口外大街12-4号,西城区,北京市,1,39.965923,116.377754,中国银行24小时自助银行(北京北太平庄支行),北京市,b6b973063483132e88db7381,,b6b973063483132e88db7381
北京市西城区南新华街1,西城区,北京市,1,39.905454,116.390356,中国银行24小时自助银行(北京宣武支行),北京市,cd9d05ddf8a1ffb685420ee6,,cd9d05ddf8a1ffb685420ee6
月坛南街59号新华大厦,西城区,北京市,1,39.919868,116.348977,中国银行24小时自助银行(北京月坛支行),北京市,5aac3dc458f22ba6b5147fe5,,5aac3dc458f22ba6b5147fe5
北京市西城区复兴门内大街158号远洋大厦,西城区,北京市,1,39.911706,116.366056,中国银行24小时自助银行(西长安街支行),北京市,40562fa1f58a8f912efaa7af,,40562fa1f58a8f912efaa7af
裕民路18-1北环中心1层,西城区,北京市,1,39.978567,116.388569,中国银行24小时自助银行(北京北三环支行),北京市,74304221df82e62a1ce999ab,,74304221df82e62a1ce999ab
北京市西城区德胜门外大街83号,西城区,北京市,1,39.960548,116.384872,中国银行24小时自助银行(北京德胜支行),北京市,abf74bc41ffc96e51a94c60c,,abf74bc41ffc96e51a94c60c
黄寺大街甲24-1号,西城区,北京市,1,39.968918,116.39267,中国银行24小时自助银行(北京黄寺支行),北京市,c85dcfce3f48763f2902e1e9,,c85dcfce3f48763f2902e1e9
宣武门外大街20号海格大厦一层,西城区,北京市,1,39.901153,116.381957,中国银行24小时自助银行(北京庄胜广场支行),北京市,bcd7956705bd14ebc6effb41,,bcd7956705bd14ebc6effb41
平安里西大街28,西城区,北京市,1,39.937684,116.364333,中国银行24小时自助银行服务(北京官园桥支行),北京市,954e909767b743b349fc8d5a,,2877846bdc0380569de3212f
百万庄大街22号院1号,西城区,北京市,1,39.933579,116.347137,中国银行24小时自助银行(北京百万庄支行),北京市,5c2dc21d115414046fc02c33,,5c2dc21d115414046fc02c33
北京市西城区阜成门外大街5,西城区,北京市,1,39.929528,116.358619,中国银行24小时自助银行服务(北京西城支行),北京市,22ceaf8b0fce760f5cbe86e0,,22ceaf8b0fce760f5cbe86e0
广安门南街36-1,西城区,北京市,1,39.883136,116.358007,中国银行24小时自助银行服务(北京天缘公寓支行),北京市,8cba4bb005219c84ad0457e8,,8cba4bb005219c84ad0457e8
南线阁10,西城区,北京市,1,39.894391,116.360091,中国银行24小时自助银行服务(广安门支行),北京市,e1b3d2ce31e06faf49fc8d49,,e1b3d2ce31e06faf49fc8d49
莲花池东路106号汇融大厦一层,西城区,北京市,1,39.90219,116.334425,中国银行24小时自助银行(北京西站北支行),北京市,5e190710eac34eaf5cd4fe82,,5e190710eac34eaf5cd4fe82
西单北大街131号大悦城写字楼7楼,西城区,北京市,1,39.917426,116.379015,中银三星人寿大悦城办公区,北京市,,,c9848abeb6fc3914130daa0c
北京市朝阳区望京北路9号叶青大厦A座,朝阳区,北京市,1,40.017774,116.474586,中国银行(望京支行),北京市,07f3c8b5ec8488636240a97a,(010)64392056,07f3c8b5ec8488636240a97a
酒仙桥路乙21号国宾大厦3-4段1层,朝阳区,北京市,1,39.978487,116.49583,中国银行(将台路支行),北京市,,(010)64376166,06c17c8c88613f60a3acc47c
朝阳区朝阳北路103号金泰国益大厦底商(青年路口),朝阳区,北京市,1,39.930105,116.523061,中国银行(朝阳北路支行),北京市,925c550f1798fab25a3ac843,"(010)85519306,(010)85519148",925c550f1798fab25a3ac843
朝阳路69号-1,朝阳区,北京市,1,39.923653,116.5383,中国银行(青年路支行),北京市,71cb82de517225e451e5c503,"(010)51388550,(010)51388506",71cb82de517225e451e5c503
北京市朝阳区阜通东大街宝能中心A座1层,朝阳区,北京市,1,39.993876,116.485297,中国银行(宝能中心支行),北京市,f79120d2e23252ac0869d9c7,(010)84765811,f79120d2e23252ac0869d9c7
北京市朝阳区华鼎世家306号楼1层,朝阳区,北京市,1,39.99962,116.480966,中国银行(望京园支行),北京市,5c2dc21d1fb116046fc02c4c,(010)64741403,5c2dc21d1fb116046fc02c4c
北京市朝阳区劲松五区518楼,朝阳区,北京市,1,39.889813,116.45777,中国银行(劲松支行),北京市,1ca13b79e5fc798da0acc400,"(010)67761272,(010)67722694",fa54eff3cb49cab85fbe8601
北京市朝阳区东三环中路20号乐成中心A座1层,朝阳区,北京市,1,39.900434,116.468811,中国银行(乐成中心支行),北京市,af91b19a0ca012c8bea24008,(010)67718372,af91b19a0ca012c8bea24008
朝阳北路常营丽景园1号配套商业1楼,朝阳区,北京市,1,39.930299,116.618876,中国银行(常营支行),北京市,4454f9626e512a3b33169b66,(010)57845475,4454f9626e512a3b33169b66
北京市朝阳区樱花园东街1号,朝阳区,北京市,1,39.980604,116.430949,中国银行(樱花东街支行),北京市,e4a96de42868cbfab2077d4e,(010)64442810,e4a96de42868cbfab2077d4e
北京市朝阳区曙光西里甲1号第三置业1层,朝阳区,北京市,1,39.966608,116.457877,中国银行(三元桥支行),北京市,d0b8923f5e54bae2b5f42f4c,(010)58221404,d0b8923f5e54bae2b5f42f4c
北京市朝阳区八里庄东里1号A区306号,朝阳区,北京市,1,39.921579,116.504979,中国银行(十里堡支行),北京市,901d2bfbcb97989d4f6d46c2,(010)65503181,901d2bfbcb97989d4f6d46c2
北京市朝阳区东三环北路霞光里18号佳程大厦A座1楼,朝阳区,北京市,1,39.962331,116.464497,中国银行(朝阳支行),北京市,b7021bf8f47132faf4e73b4c,(010)59207001,b7021bf8f47132faf4e73b4c
北京市朝阳区东大桥路甲8号尚都国际中心1层,朝阳区,北京市,1,39.9251,116.457841,中国银行(东大桥路支行),北京市,7388dffdf44887ebd3ff234c,(010)58700437,7388dffdf44887ebd3ff234c
北京市朝阳区广渠路28号珠江帝景1层,朝阳区,北京市,1,39.894815,116.484573,中国银行(大望路支行),北京市,c879fa01031ca74ac809f0b5,(010)58632972,c879fa01031ca74ac809f0b5
北京市朝阳区南磨房路37号华腾北塘商务大厦1层,朝阳区,北京市,1,39.890477,116.473524,中国银行(劲松东口支行),北京市,0ed20a1534c7679756bfffb5,(010)51909104,0ed20a1534c7679756bfffb5
北京市朝阳区东小口镇立汤路188号1号楼北方明珠大厦1层,朝阳区,北京市,1,40.06269,116.421248,中国银行(立汤南路支行),北京市,852cb13f8609774396ca0738,,852cb13f8609774396ca0738
北京市朝阳区干杨树北四环东路甲16号院8号楼1层底商,朝阳区,北京市,1,39.995613,116.425848,中国银行(惠新西街支行),北京市,2c0cf03779a75fcb283a9f57,(010)64911350,2c0cf03779a75fcb283a9f57
北京市朝阳区东三环南路辅路北京汽车大厦1层,朝阳区,北京市,1,39.876482,116.466949,中国银行(潘家园支行),北京市,4fc3161afbf9cca93b13fdb5,(010)87665483,4fc3161afbf9cca93b13fdb5
北京市朝阳区亮马桥路50号燕莎1楼,朝阳区,北京市,1,39.955711,116.47193,中国银行(燕莎中心支行),北京市,7388dffdba24c596d2ff23a7,(010)64651659,7388dffdba24c596d2ff23a7
北京市朝阳区建国门外大街24号,朝阳区,北京市,1,39.913776,116.446592,中国银行(建国门外支行),北京市,7576345f3c184b63bd4842f4,(010)65159101,7576345f3c184b63bd4842f4
北京市朝阳区安定路10号,朝阳区,北京市,1,39.981077,116.414474,中国银行(安定路支行),北京市,49a02a7af7d4ed3d2a201aa7,(010)84426031,49a02a7af7d4ed3d2a201aa7
北京市朝阳区星火西路19号楼一层,朝阳区,北京市,1,39.94336,116.507734,中国银行(星火西路支行),北京市,25ce7e69b25b256abfa82239,(010)85854706,25ce7e69b25b256abfa82239
北京市朝阳区东三环中路16号京粮大厦1层,朝阳区,北京市,1,39.905873,116.468968,中国银行(双井支行),北京市,8fa14fc3e031c86ef6eafcb5,(010)87720845,8fa14fc3e031c86ef6eafcb5
北京市朝阳区麦子店西路3号新恒基国际大厦1层,朝阳区,北京市,1,39.963703,116.473582,中国银行(霄云路支行),北京市,66279b3ffc683f75b13c816e,,66279b3ffc683f75b13c816e
北京市朝阳区安慧北里小区逸园28号楼,朝阳区,北京市,1,40.005359,116.419693,中国银行(逸园支行),北京市,881a28e7d3eedc39f842b2bc,(010)64893369,881a28e7d3eedc39f842b2bc
北京市朝阳区安苑路甲17号惠安轩一层,朝阳区,北京市,1,39.989829,116.42299,中国银行(安苑路支行),北京市,cc0849a0bb2ee3509403194c,,cc0849a0bb2ee3509403194c
北京市朝阳区东三环中路1号环球金融中心东楼E104-106室,朝阳区,北京市,1,39.92424,116.466369,中国银行(兆丰街支行),北京市,87f15660c8c16554b5f42f29,(010)85878387,87f15660c8c16554b5f42f29
小营北路55号,朝阳区,北京市,1,40.005337,116.42881,中国银行(小营北路支行),北京市,b43bb4d47ac60ced4f3a5978,(010)64896086,b43bb4d47ac60ced4f3a5978
北京市朝阳建国路88号SOHO现代城A座1层,朝阳区,北京市,1,39.913078,116.483671,中国银行(现代城支行),北京市,0523a141779f491db33c81b5,(010)85806316,0523a141779f491db33c81b5
东三环北路5号北京发展大厦,朝阳区,北京市,1,39.956928,116.467206,中国银行(发展大厦支行),北京市,c5d3cc1503ea90624c6d465f,(010)65908304,c5d3cc1503ea90624c6d465f
北京市朝阳区北土城西路7号国恒基业大厦,朝阳区,北京市,1,39.983466,116.393385,中国银行(北辰西路支行),北京市,41572e0051890ab4b45f1e4c,95566,41572e0051890ab4b45f1e4c
北京市朝阳区北辰东路8号院1号楼一层,朝阳区,北京市,1,39.997136,116.413136,中国银行(奥运村支行),北京市,f3d68576c09dd7ea6240a9cd,,f3d68576c09dd7ea6240a9cd
北京市朝阳区东四环中路82号金长安大厦A座一层,朝阳区,北京市,1,39.904573,116.497745,中国银行(百子湾支行),北京市,438ab38e90bbd5baa6da39aa,,438ab38e90bbd5baa6da39aa
北京市朝阳区安慧北里安园19号B座一层,朝阳区,北京市,1,40.00874,116.41554,中国银行(兰华国际支行),北京市,f37fc695ef4f8b96f822132f,"(010)64829123,(010)64829128",f37fc695ef4f8b96f822132f
朝阳区天力街1号楼-9号,朝阳区,北京市,1,39.903185,116.465168,中国银行(广渠门支行),北京市,a12baa40e0a0da56e956fab5,(010)58764961,a12baa40e0a0da56e956fab5
北京市朝阳区首开幸福广场幸福二村38号楼-3,朝阳区,北京市,1,39.94238,116.456299,中国银行(幸福广场支行),北京市,dffd631c996faac139221ca7,(010)84444390,dffd631c996faac139221ca7
北京市朝阳区雅宝路8号亚太大厦一二层,朝阳区,北京市,1,39.920848,116.44271,中国银行(雅宝路支行),北京市,3f3f0f874fe99c5c32870a00,(010)85662950,3f3f0f874fe99c5c32870a00
北京市朝阳区三里屯路5号,朝阳区,北京市,1,39.949744,116.461708,中国银行(使馆区支行),北京市,e1b2f9f62050ec0f96f08cb1,(010)84429022,e1b2f9f62050ec0f96f08cb1
北京市朝阳区建国门外大街甲6号中环世贸c座1层,朝阳区,北京市,1,39.912555,116.462891,中国银行(东长安街支行),北京市,3810c879112a2f8b9d09f7b5,(010)85679770,3810c879112a2f8b9d09f7b5
北京市朝阳区光华路15号院泰达时代中心一层,朝阳区,北京市,1,39.920084,116.476704,中国银行(光华路支行),北京市,735ef927f3afc5929c09f7a2,(010)65008312,735ef927f3afc5929c09f7a2
北京市朝阳区东四环中路58号远洋国际中心D座1层,朝阳区,北京市,1,39.918848,116.497846,中国银行(远洋天地支行),北京市,691305235b6a4808735e80b5,(010)85861394,691305235b6a4808735e80b5
工人体育场北路6号,朝阳区,北京市,1,39.938805,116.463813,中国银行(长虹桥支行),北京市,631c4157bb54036131f71d4c,,631c4157bb54036131f71d4c
北京市朝阳区朝阳北路177号,朝阳区,北京市,1,39.929081,116.486231,中国银行(金台路支行),北京市,24d05508ce19a7af1288244c,(010)65043714,24d05508ce19a7af1288244c
朝阳区东三环北路乙19号中青大厦C座,朝阳区,北京市,1,39.93596,116.4672,中国银行(白家庄支行),北京市,098d925eaded523b03ec01d2,"(010)85731911,(010)85731908,(010)85731909",098d925eaded523b03ec01d2
北京市朝阳区柳芳北里12号楼一层,朝阳区,北京市,1,39.961555,116.445944,中国银行(柳芳北里支行),北京市,fd007c5ee95fe26ca8f7294c,"(010)64664545,(010)84481242",fd007c5ee95fe26ca8f7294c
大柳树路世纪东方嘉园212号楼,朝阳区,北京市,1,39.881617,116.502172,中国银行(四方新区支行),北京市,24706d790251ff052b3a9ffd,(010)87356422,24706d790251ff052b3a9ffd
北京市朝阳区门外大街6号院26号首层商业用房,朝阳区,北京市,1,39.923758,116.461367,中国银行(新城国际支行),北京市,631c4157f938411c30f71da7,(010)65979351,631c4157f938411c30f71da7
北京市朝阳区安贞西里2区21楼,朝阳区,北京市,1,39.978369,116.401308,中国银行(五路居支行),北京市,0ce65c2d65497f592d47334c,(010)64440547,0ce65c2d65497f592d47334c
北京市朝阳区望京街8号院2号楼(B座)201室,朝阳区,北京市,1,39.999359,116.489043,中国银行(利星行广场支行),北京市,1794e098038a4e74b5f42fd4,,1794e098038a4e74b5f42fd4
北京市朝阳区安慧里三区六号楼一层,朝阳区,北京市,1,39.998415,116.414654,中国银行(北京安慧里支行),北京市,e96b4420187b2a5a83288aa1,(010)64911151,e96b4420187b2a5a83288aa1
北京市朝阳区静安里26号楼通成达大厦一层,朝阳区,北京市,1,39.965191,116.455309,中国银行(北京静安东街支行),北京市,97f0d790885b08ebc5effbe2,(010)64663519,97f0d790885b08ebc5effbe2
建外大街光华里8号楼中海广场1层,朝阳区,北京市,1,39.916361,116.463057,中国银行(世纪财富中心支行),北京市,fe0dc3ced3155e224107c162,,b9e5d0b8742479c180a12e80
北京市朝阳区朝阳北路235号楼复地国际公寓一层,朝阳区,北京市,1,39.929504,116.462771,中国银行(北京呼家楼支行),北京市,a9ccd5baafc221fd0aa8d471,,a9ccd5baafc221fd0aa8d471
北京市朝阳区西坝河南路1号金泰大厦内(近地铁13号线柳芳站),朝阳区,北京市,1,39.965894,116.440323,中国银行(西坝河南路支行),北京市,edd64ce1a5b29a913fe2314c,(010)64402905,edd64ce1a5b29a913fe2314c
南磨房路16号院甲1号楼1-2层101-102,朝阳区,北京市,1,39.889738,116.482408,中国银行(北京平乐园支行),北京市,fda9c32aadd0d20d210262f2,,fda9c32aadd0d20d210262f2
北京市朝阳区弘燕路南新园小区14号1层,朝阳区,北京市,1,39.873821,116.481175,中国银行(北京松榆里支行),北京市,67fbf1e495909c1b91114cc5,(010)67321789,67fbf1e495909c1b91114cc5
北京市朝阳区望京湖光中街1号鹏景阁大厦底商,朝阳区,北京市,1,40.003351,116.473557,中国银行(望京科技园支行),北京市,c21db9e575ec548300ff2d4c,(010)64741002,c21db9e575ec548300ff2d4c
安立路甲56号南楼首层,朝阳区,北京市,1,40.012848,116.414701,中国银行(北京亚运村支行),北京市,49a02a7ab5b8af402b201a4c,,49a02a7ab5b8af402b201a4c
北京市朝阳区八里庄北里219号1层,朝阳区,北京市,1,39.929553,116.505302,中国银行(北京红领巾桥支行),北京市,4ce10ce6f47904a1441a324c,(010)85918231,4ce10ce6f47904a1441a324c
北京市朝阳区建国路海航实业大厦1层,朝阳区,北京市,1,39.91331,116.472118,中国银行(北京丰树大厦支行),北京市,3ea467732eeff558873304cb,(010)85215091,3ea467732eeff558873304cb
北京市朝阳区东三环中路9号富尔大厦一层,朝阳区,北京市,1,39.920579,116.467199,中国银行(东三环中路支行),北京市,15a9381024523cbd15c8f6b5,(010)85910322,15a9381024523cbd15c8f6b5
北京市朝阳区新源里西20号1层,朝阳区,北京市,1,39.954348,116.456011,中国银行(北京新源里支行),北京市,66964065c2f54446f7e73b5e,"95566,(010)84243828",66964065c2f54446f7e73b5e
北京市朝阳区姚家园路105号1号楼,朝阳区,北京市,1,39.940865,116.500855,中国银行(北京姚家园路支行),北京市,f66bd49405927c9a2806cee8,,f66bd49405927c9a2806cee8
东三环中路33号,朝阳区,北京市,1,39.905365,116.461746,中国银行(北京广渠门支行),北京市,,,ef2d6eb49857de4a5e0d02a4
北京市朝阳区金台里甲9号铜牛大厦,朝阳区,北京市,1,39.921683,116.482634,中国银行(北京朝阳路支行),北京市,c21db9e537a316fe01ff2d80,(010)85991207,c21db9e537a316fe01ff2d80
北京市朝阳区建国门外大街1号国贸西楼三层,朝阳区,北京市,1,39.915226,116.46414,中国银行(国际贸易中心支行),北京市,a317b736e4882d34adcb664f,,a317b736e4882d34adcb664f
北京市朝阳区广渠路中水电国际大厦一楼,朝阳区,北京市,1,39.899753,116.508608,中国银行(北京广渠东路支行),北京市,7002e74aa45a29279cec2b3c,(010)57795253,7002e74aa45a29279cec2b3c
朝阳区东三环北路8号亮马河大厦2座办公楼2层,朝阳区,北京市,1,39.951205,116.471015,中国银行(北京亮马河大厦支行),北京市,7c5e480b848493b4adb22a4c,(010)65906474,7c5e480b848493b4adb22a4c
北京市朝阳东三环北路乙19号中青大厦C座1层,朝阳区,北京市,1,39.935627,116.467475,中国银行(白家庄支行电费代收点),北京市,dae97131491ffcb9bea240d2,(010)85731909,dae97131491ffcb9bea240d2
北京市朝阳区北辰西路8号院北辰世纪中心A座1层,朝阳区,北京市,1,40.007159,116.393956,中国银行(北京北辰世纪中心支行),北京市,663c716e05ccb65525e0a03f,(010)84377213,663c716e05ccb65525e0a03f
北京市朝阳区北四环中路27号,朝阳区,北京市,1,39.995815,116.393471,中国银行(北京北四环中路支行),北京市,a5dc6bb2f43c9152fb2213b2,,a5dc6bb2f43c9152fb2213b2
北京市朝阳区星火西路19号楼一层,朝阳区,北京市,1,39.943359,116.507736,中国银行(星火西路支行电费代收点),北京市,7ec9e1bd71661135afee7a07,(010)85854706,7ec9e1bd71661135afee7a07
北京市朝阳雅宝路8号亚太大厦,朝阳区,北京市,1,39.920481,116.442797,中国银行(雅宝路支行营业部电费代收点),北京市,23c19560cb5b1be4b54f5453,95566,23c19560cb5b1be4b54f5453
东三环中路39号院-23号建外SOHO东区B座,朝阳区,北京市,1,39.910777,116.467162,中国银行(柳芳北里支行)(装修中),北京市,,,54a73fed96a1b2ab80a00c63
北京市朝阳区工体北路13号世茂广场·工三F1,朝阳区,北京市,1,39.940369,116.456316,中国银行ATM(世茂广场·工三),北京市,5ad973f8fefe4cc231870a0c,,5ad973f8fefe4cc231870a0c
北京市朝阳区霄云路36号国航大厦9层0307室,朝阳区,北京市,1,39.965427,116.473898,中银三星,北京市,,,388fdd34cc05feefe6e9654e
北京市朝阳区霄云路36号,朝阳区,北京市,1,39.96257,116.470052,中银三星人寿保险公司(北京分公司),北京市,,,6f6aa1ad573d44cffda77847
北京市朝阳区东三环北路8号6号楼1层101室,朝阳区,北京市,1,39.951625,116.471121,中银国际证券(东三环北路证券营业部),北京市,,,2bb0910e76dc689fbadf8f68
北三环东路15号北京化工大学,朝阳区,北京市,1,39.977121,116.426588,中国银行ATM,北京市,64122add6c7d413101897292,,64122add6c7d413101897292
潘家园华威里28号,朝阳区,北京市,1,39.878991,116.464187,中国银行ATM,北京市,8b3be84bdd494eda8505bf69,,8b3be84bdd494eda8505bf69
北京市朝阳区酒仙桥路18号颐堤港M,朝阳区,北京市,1,39.975334,116.497646,中国银行ATM(颐堤港),北京市,40008a0c59d9d9481d1d11d1,,40008a0c59d9d9481d1d11d1
北京市朝阳区花家地南街8号楼1层,朝阳区,北京市,1,39.987463,116.471499,中国银行ATM(城市月光北),北京市,15fcc37e134eb2802b201add,,15fcc37e134eb2802b201add
姚家园路甲1-4号附近,朝阳区,北京市,1,39.946173,116.526063,中银保险车险理赔分中心,北京市,182aba2beb851c1b4bcc4ad3,,182aba2beb851c1b4bcc4ad3
北京市朝阳区建国门外大街1号国贸西楼F3,朝阳区,北京市,1,39.915116,116.464151,中国银行24小时自助银行(国贸西楼),北京市,7b4930e3638b21a43010afe3,,7b4930e3638b21a43010afe3
北京市朝阳区东三环南路76号北京古玩城B座,朝阳区,北京市,1,39.877883,116.468103,中国银行ATM(松榆南路),北京市,7d5f3a0a52954e352db908b7,,7d5f3a0a52954e352db908b7
北京市朝阳区慧忠北里309-6号第５大道精品休闲购物广场1层,朝阳区,北京市,1,40.010799,116.413443,中国银行ATM(大屯北路),北京市,0bbe56f962bcc825a2a93407,,0bbe56f962bcc825a2a93407
东直门外大街26号奥加饭店1层,朝阳区,北京市,1,39.946431,116.454672,中国银行ATM(奥加饭店),北京市,b7365c49979480d4ee74f841,,b7365c49979480d4ee74f841
北京市朝阳区北京市朝阳区广顺北大街33号凯德MALLF1,朝阳区,北京市,1,39.997974,116.475456,中国银行ATM(凯德MALL),北京市,9b4b54f682f9b20a4d2fdf8f,,9b4b54f682f9b20a4d2fdf8f
北京市朝阳区北四环东路108号华堂商场F1,朝阳区,北京市,1,39.994299,116.426831,中国银行ATM(华堂商场),北京市,05dbcd10186d2063ddee8bd3,,05dbcd10186d2063ddee8bd3
北京市朝阳区酒仙桥路乙21号,朝阳区,北京市,1,39.978487,116.49583,中国银行24小时自助银行,北京市,e1393b8ea437667c4f3a591f,,e1393b8ea437667c4f3a591f
北京市朝阳区雅宝路8号亚太大厦,朝阳区,北京市,1,39.920923,116.442742,中国银行24小时自助银行(雅宝路支行),北京市,d0aa8814eb5c2abea0acc4cf,,d0aa8814eb5c2abea0acc4cf
北京市朝阳区大屯路甲1号亚奥国际酒店1层,朝阳区,北京市,1,40.007188,116.378295,中国银行ATM(亚奥国际酒店),北京市,3fa77294e5b335f8d8d89184,,3fa77294e5b335f8d8d89184
北京市朝阳区将台路6号丽都广场1层,朝阳区,北京市,1,39.983823,116.485226,中国银行ATM(丽都广场支行),北京市,803708f199a30c790189724e,,803708f199a30c790189724e
亮马桥路50,朝阳区,北京市,1,39.955448,116.471527,中国银行ATM(雷格斯商务中心),北京市,91ec8298b42fc98632f71d16,,91ec8298b42fc98632f71d16
北京市朝阳区三里屯路19号三里屯太古里F1,朝阳区,北京市,1,39.941268,116.460391,中国银行24小时自助银行服务(三里屯太古里),北京市,db7903a3178e9e9af942b2da,,db7903a3178e9e9af942b2da
北四环中路华严北里8号院外国专家大厦1层,朝阳区,北京市,1,39.993268,116.3881,中国银行ATM(外国专家大厦),北京市,1d329a5d2b57aae24c3a5961,,1d329a5d2b57aae24c3a5961
北京市朝阳区北京市朝阳区东三环中路7号财富购物中心B1,朝阳区,北京市,1,39.923326,116.465274,中国银行ATM(财富购物中心),北京市,dc9b44ab9d291de3a8f729bb,,dc9b44ab9d291de3a8f729bb
北京市朝阳区朝阳门外大街8号蓝岛大厦F1,朝阳区,北京市,1,39.927867,116.456276,中国银行ATM(蓝岛大厦朝阳店东区),北京市,4780338284fe0b324d776e9e,,4780338284fe0b324d776e9e
北京市朝阳区金盏乡森林公园东1号斯普瑞斯奥特莱斯1层,朝阳区,北京市,1,40.016771,116.60193,中国银行ATM(斯普瑞斯奥莱商城),北京市,,,2f2e8f217e87bde1eb1e97a7
立汤路188号院1,朝阳区,北京市,1,40.062642,116.421337,中国银行24小时自助银行(北京立汤南路支行),北京市,923ffd003d486fc9d82f2885,,923ffd003d486fc9d82f2885
广渠东路3-1-3号,朝阳区,北京市,1,39.899754,116.508645,中国银行24小时自助银行服务(北京广渠东路支行),北京市,66c2be95c0e4524bb45f1efa,,86427fe7914b79062ffaa7ab
北京市朝阳区北京市朝阳区广顺北大街16号望京华彩商业中心F1,朝阳区,北京市,1,40.016387,116.474802,中国银行ATM(望京华彩商业中心),北京市,e8f98caba1b9f48832870a4d,,e8f98caba1b9f48832870a4d
北京市朝阳区建国门外大街22号北京赛特购物中心F3,朝阳区,北京市,1,39.913615,116.448041,中国银行ATM(北京赛特购物中心),北京市,027899a885f9fe1fb21e3635,,027899a885f9fe1fb21e3635
朝阳区东方东路19号,朝阳区,北京市,1,39.957367,116.470926,中国银行24小时自助银行服务(亮马桥外交公寓B区东),北京市,bd9d4be7599bbb69d518b783,,bd9d4be7599bbb69d518b783
朝阳北路177-1,朝阳区,北京市,1,39.929096,116.48643,中国银行24小时自助银行(金台路支行),北京市,d219bb1d53b2468bf50e774e,,d219bb1d53b2468bf50e774e
北京朝阳区建国门外大街1号中国国际贸易中心北区3层,朝阳区,北京市,1,39.917729,116.466526,中国银行ATM(中国国际贸易中心北区),北京市,0e0ceb2c38fb70edab175a74,,0e0ceb2c38fb70edab175a74
北京市朝阳区东四环南路9号北京燕莎奥特莱斯购物中心F1,朝阳区,北京市,1,39.884284,116.492435,中国银行ATM(燕莎奥特莱斯购物中心),北京市,e7524ad59e8ceb0fb8bd632d,,e7524ad59e8ceb0fb8bd632d
广渠门外大街天力街1号楼9号房,朝阳区,北京市,1,39.903235,116.465188,中国银行24小时自助银行(广渠门支行),北京市,29d8371f937885d3d1f49ecf,,29d8371f937885d3d1f49ecf
北京市朝阳区安定路10号,朝阳区,北京市,1,39.981063,116.414437,中国银行24小时自助银行(安贞桥支行),北京市,6deee308c6e6e51429fc482c,,6deee308c6e6e51429fc482c
北京市朝阳区金蝉南路北京联合大学生物化学工程学院南区北门,朝阳区,北京市,1,39.869892,116.513044,中国银行24小时自助银行(金蝉南路),北京市,0b3458e94c254943057ce860,,0b3458e94c254943057ce860
东三环南路17号京瑞大厦1层,朝阳区,北京市,1,39.875635,116.46653,中国银行24小时自助银行(潘家园支行),北京市,0e3d4735230494fdbe48429c,,0e3d4735230494fdbe48429c
安慧北里逸园28号,朝阳区,北京市,1,40.005299,116.419909,中国银行24小时自助银行(逸园支行),北京市,e39d0afc41786c8303ec0141,,e39d0afc41786c8303ec0141
麦子店西路3号新恒基国际大厦,朝阳区,北京市,1,39.963687,116.473637,中国银行24小时自助银行(霄云路支行),北京市,d6c1ddb90ed6b6b1eb56fac1,,d6c1ddb90ed6b6b1eb56fac1
麦子店街36号,朝阳区,北京市,1,39.953733,116.474697,中国银行24小时自助银行(龙宝大厦),北京市,92a548d8d01a9db42b11d11a,,92a548d8d01a9db42b11d11a
工人体育场北路6号凯富大厦1层,朝阳区,北京市,1,39.938349,116.463805,中国银行24小时自助银行(长虹桥支行),北京市,a759a679ffea8ff2a2046450,,a759a679ffea8ff2a2046450
建国路93号院万达广场8号楼1层101室,朝阳区,北京市,1,39.915694,116.477221,中国银行24小时自助银行(针织路支行),北京市,8953a3756bc398a45bf6be87,,8953a3756bc398a45bf6be87
北京市朝阳区工人体育场北路8号三里屯SOHOF1,朝阳区,北京市,1,39.938401,116.459809,中国银行24小时自助银行(三里屯SOHO),北京市,7369d6e4d6113eba1d580044,,7369d6e4d6113eba1d580044
北京市朝阳区建国门外大街乙12号双子座大厦F1,朝阳区,北京市,1,39.91355,116.456083,中国银行24小时自助银行(双子座大厦),北京市,3a2c0dafbc832ab4704b87d2,,3a2c0dafbc832ab4704b87d2
北京市朝阳区朝阳北路常营丽景园1号配套商业1楼,朝阳区,北京市,1,39.930241,116.618942,中国银行24小时自助银行(北京常营支行),北京市,eeb73c560a954704aecb6660,,eeb73c560a954704aecb6660
北京市朝阳区北京市朝阳区阜通东大街6号方恒购物中心F1,朝阳区,北京市,1,39.997103,116.490296,中国银行24小时自助银行(方恒购物中心),北京市,29e6591cf87c53309222e0bc,,b7c0fe4f7b5a85a13686f4cb
北京市朝阳区北苑路秋实街1号时代百货F1,朝阳区,北京市,1,40.048011,116.427879,中国银行24小时自助银行(易事达购物休闲广场),北京市,1d7dabbf7fc15c91774ff1fe,,0adce3e24bf6c36180a00c75
北京市朝阳区兰华国际大厦B座,朝阳区,北京市,1,40.008689,116.415598,中国银行24小时自助银行(北京兰华国际支行),北京市,159e0e2eb54b4cedb11e3635,,159e0e2eb54b4cedb11e3635
北京市朝阳区干杨树甲16号院8,朝阳区,北京市,1,39.995613,116.425799,中国银行24小时自助银行服务(惠新西街支行),北京市,ec538c973b8b765d52e5c5a0,,ec538c973b8b765d52e5c5a0
北京市朝阳区静安里26号楼通成达大厦,朝阳区,北京市,1,39.965183,116.455296,中国银行24小时自助银行(北京静安东街支行),北京市,687e3b1ff57f42fc7adbd2a3,,687e3b1ff57f42fc7adbd2a3
北京市朝阳区东三环北路霞光里18号佳程广场A座首层,朝阳区,北京市,1,39.962372,116.464583,中国银行24小时自助银行(北京朝阳支行),北京市,d9cc96c72a575cb0f2193764,,d9cc96c72a575cb0f2193764
东三环北路5号北京发展大厦,朝阳区,北京市,1,39.956894,116.467304,中国银行24小时自助银行(北京发展大厦支行),北京市,34ca08896084604588b988f9,,34ca08896084604588b988f9
北京市朝阳区八里庄北里220号,朝阳区,北京市,1,39.929503,116.505499,中国银行24小时自助银行服务(北京红领巾桥支行),北京市,f4efcd38913038b96e20b927,,f4efcd38913038b96e20b927
八里庄东里1号,朝阳区,北京市,1,39.92155,116.504924,中国银行24小时自助银行(北京十里堡支行),北京市,b979cc0899557bba774ff1fa,,b979cc0899557bba774ff1fa
北京市朝阳区朝阳北路103-2附近,朝阳区,北京市,1,39.93,116.523026,中国银行24小时自助银行(朝阳北路支行),北京市,,,46151024da890fb5601c67b8
北京市朝阳区星火西路19号,朝阳区,北京市,1,39.943445,116.507871,中国银行24小时自助银行(北京星火西路支行),北京市,6ebb89836d2a0126a10464e5,,6ebb89836d2a0126a10464e5
北京市朝阳区东三环中路9号富尔大厦1层,朝阳区,北京市,1,39.920545,116.467317,中国银行24小时自助银行(北京东三环中路支行),北京市,11c96c3a36b45cc32cfaa771,,11c96c3a36b45cc32cfaa771
北京市朝阳区金台里甲9号铜牛大厦,朝阳区,北京市,1,39.921784,116.482859,中国银行24小时自助银行服务(朝阳路支行),北京市,f7948ce73527277c42afe60e,,f7948ce73527277c42afe60e
北京市朝阳区朝阳北路235号复地国际公寓,朝阳区,北京市,1,39.92952,116.462935,中国银行24小时自助银行(北京呼家楼支行),北京市,e63aeed5950676551894c6c6,,e63aeed5950676551894c6c6
东四环中路82号金长安大厦A座1层,朝阳区,北京市,1,39.904448,116.497627,中国银行24小时自助银行(北京百子湾支行),北京市,4400499acdae656dfe0eb042,,4400499acdae656dfe0eb042
建国门外大街甲6号C座大堂,朝阳区,北京市,1,39.912695,116.462969,中国银行24小时自助银行(东长安街支行),北京市,e3c039824407124e14948efc,,e3c039824407124e14948efc
北京市朝阳区朝阳门外大街6号院26号楼,朝阳区,北京市,1,39.92377,116.461124,中国银行24小时自助银行服务(北京新城国际支行),北京市,43451d361fc360424afc8d59,,43451d361fc360424afc8d59
东三环中路1号渣打大厦,朝阳区,北京市,1,39.92425,116.466733,中国银行24小时自助银行(北京兆丰街支行),北京市,1cfcce33692a6568b8df8f20,,1cfcce33692a6568b8df8f20
北京市朝阳区东四环中路62号,朝阳区,北京市,1,39.918965,116.497792,中国银行24小时自助银行(远洋天地支行),北京市,f8311109d93bca3a213bf200,,f8311109d93bca3a213bf200
朝阳区西坝河南路1号院4-1号,朝阳区,北京市,1,39.965938,116.440484,中国银行24小时自助银行(北京西坝河南路支行),北京市,b5f9574e4d97d4a2d22dd6e7,,b5f9574e4d97d4a2d22dd6e7
北京市朝阳区樱花园东街1号,朝阳区,北京市,1,39.980731,116.430929,中国银行24小时自助银行服务(北京樱花东街支行),北京市,7aa4d74e3a419c6d0b69d9b0,,45d21860a47eb8bb8f55ece1
北京市朝阳区三丰胡同7号悠唐购物中心二期F1,朝阳区,北京市,1,39.927705,116.445332,中国银行ATM(北京朝阳悠唐皇冠假日酒店),北京市,97d0e76858cbbaac4afd3f1a,,97d0e76858cbbaac4afd3f1a
世纪东方嘉园209,朝阳区,北京市,1,39.881601,116.502165,中国银行24小时自助银行(四方新区支行),北京市,42789306680bcd01d518b780,,42789306680bcd01d518b780
东三环中路20号乐成中心b2层,朝阳区,北京市,1,39.900382,116.468823,中国银行24小时自助银行(北京乐成中心支行),北京市,e81c1db047ddee0b88f15da0,,e81c1db047ddee0b88f15da0
朝阳区广渠路28号院甲217号,朝阳区,北京市,1,39.894879,116.484522,中国银行24小时自助银行(北京大望路支行),北京市,005060a63295564521f01750,,005060a63295564521f01750
阜通东大街宝龙中心A座一层,朝阳区,北京市,1,39.99394,116.485201,中国银行24小时自助银行服务(北京宝能中心支行),北京市,91c13f93faef8e8720f017a6,,91c13f93faef8e8720f017a6
北京市朝阳区安立路甲56号九台2000家园A座,朝阳区,北京市,1,40.012445,116.4148,中国银行24小时自助银行(北京亚运村支行),北京市,800942a97445df03f822139c,,800942a97445df03f822139c
北四环中路27号A座1层,朝阳区,北京市,1,39.9959,116.393483,中国银行24小时自助银行(北四环中路支行),北京市,e71eb05eedab0a7cbda240d6,,e71eb05eedab0a7cbda240d6
三里屯西六街6号乾坤大厦1层,朝阳区,北京市,1,39.949827,116.461792,中国银行24小时自助银行(北京使馆区支行),北京市,3e1cf17fa63acf0ab54f5494,,3e1cf17fa63acf0ab54f5494
北京市朝阳区朝阳北路101号朝阳大悦城B1层,朝阳区,北京市,1,39.930396,116.525082,中国银行24小时自助银行(北京朝阳北路支行),北京市,5ff967176705faea2cb908c4,,5ff967176705faea2cb908c4
光华路15号院-2号铜牛国际大厦,朝阳区,北京市,1,39.91971,116.47751,中国银行24小时自助银行服务(北京朝阳支行),北京市,1b9a6905762ce4138605bf37,,1b9a6905762ce4138605bf37
朝阳区东三环北路乙19号中青大厦C座1楼(近长虹医院),朝阳区,北京市,1,39.936,116.467412,中国银行24小时自助银行(北京白家庄支行),北京市,dc2fcba3b38056212ce67b24,,dc2fcba3b38056212ce67b24
柳芳北里12号楼,朝阳区,北京市,1,39.961589,116.446152,中国银行24小时自助银行服务(柳芳北里支行),北京市,6c099f1770db4b2508b93a04,,6c099f1770db4b2508b93a04
北京市朝阳区安贞西里二区21号楼,朝阳区,北京市,1,39.978368,116.401378,中国银行24小时自助银行(北京五路居支行),北京市,844a750e9333f2b96268584e,,844a750e9333f2b96268584e
北京市朝阳区朝阳门外大街18号丰联广场F1,朝阳区,北京市,1,39.929853,116.445308,中国银行24小时自助银行服务(丰联广场),北京市,8c39090b30eb916b3a13fd9e,,8c39090b30eb916b3a13fd9e
华鼎世家306号楼1层,朝阳区,北京市,1,39.99974,116.480831,中国银行24小时自助银行(北京望京园支行),北京市,bee1e4aac806d8618733046f,,bee1e4aac806d8618733046f
望京北路9号叶青大厦A座2层,朝阳区,北京市,1,40.017692,116.474707,中国银行24小时自助银行(北京望京西路支行),北京市,4e08804f25249d3a1676434f,,4e08804f25249d3a1676434f
北京市朝阳区小营北路55号,朝阳区,北京市,1,40.005426,116.428864,中国银行24小时自助银行服务(北京小营北路支行),北京市,846f71dcc0665a5b2afc484e,,846f71dcc0665a5b2afc484e
朝阳区北辰西路8号院2北辰世纪中心A座一层,朝阳区,北京市,1,40.006968,116.39396,中国银行24小时自助银行服务(北京北辰世纪中心支行),北京市,88f01f11755f7a9ef8dc85ea,,88f01f11755f7a9ef8dc85ea
北京市朝阳区曙光西里甲1号第三置业1层,朝阳区,北京市,1,39.966474,116.457965,中国银行24小时自助银行(北京三元桥支行),北京市,654dc6f016528db8f4e73b93,,654dc6f016528db8f4e73b93
姚家园路105号院-1国兴·观湖国际1座,朝阳区,北京市,1,39.940871,116.500976,中国银行24小时自助银行(北京姚家园路支行),北京市,f4c2b9c51e85889c17b54b9d,,f4c2b9c51e85889c17b54b9d
朝阳路69号-1,朝阳区,北京市,1,39.923582,116.538342,中国银行24小时自助银行服务(北京青年路支行),北京市,566b97292ace81f783a12e54,,566b97292ace81f783a12e54
建国路108号海航实业大厦,朝阳区,北京市,1,39.913355,116.472136,中国银行24小时自助银行(北京海航实业大厦支行),北京市,4a5a99234a1ed4bad23ce3a3,,4a5a99234a1ed4bad23ce3a3
北京市朝阳区建国路81号华贸购物中心F1,朝阳区,北京市,1,39.914861,116.487677,中国银行24小时自助银行服务(华贸购物中心),北京市,58756969597aa448c929158a,,58756969597aa448c929158a
北京市朝阳区朝阳公园南路8号棕榈泉国际名苑商场,朝阳区,北京市,1,39.938378,116.485167,中国银行24小时自助银行(朝阳公园南路支行),北京市,a459c02390b86401cd04efb1,,a459c02390b86401cd04efb1
北三环东路8号静安中心大厦1层大厅,朝阳区,北京市,1,39.96585,116.446972,中国银行24小时自助银行(北京静安中心支行),北京市,e26f7350d2fd741ea4da394c,,e26f7350d2fd741ea4da394c
北京市朝阳区和平街十三区35号,朝阳区,北京市,1,39.9685,116.432149,中国银行24小时自助银行(和平东街支行),北京市,8408537f157f05de2cb96d99,,8408537f157f05de2cb96d99
北京市朝阳区西坝河东里77号楼底商,朝阳区,北京市,1,39.969899,116.452293,中国银行24小时自助银行(北三环东路辅路),北京市,c8b77c7272a3c02a3be4a676,,c8b77c7272a3c02a3be4a676
北京市朝阳区建国门外大街24号,朝阳区,北京市,1,39.913772,116.446702,中国银行24小时自助银行服务(北京建国门外支行),北京市,,,dad8d3a575c3a8753517dc79
南新园东路14号楼,朝阳区,北京市,1,39.873913,116.481155,中国银行24小时自助银行(北京松榆里支行),北京市,7934c4404d3aa8bdc6effb78,,7934c4404d3aa8bdc6effb78
北京市朝阳区京顺路111号比如世界购物中心F1,朝阳区,北京市,1,39.97362,116.467646,中国银行24小时自助银行(比如世界购物中心),北京市,b6707199c40e4286c9fa5fb6,,b6707199c40e4286c9fa5fb6
东三环北路8号北京亮马河大厦一层,朝阳区,北京市,1,39.951219,116.471058,中国银行24小时自助银行(亮马河大厦北),北京市,506c0f06b36b985108ccdd95,,506c0f06b36b985108ccdd95
北京市朝阳区新源里中街8号2附近,朝阳区,北京市,1,39.954407,116.456115,中国银行24小时自助银行服务(新源里支行),北京市,bb7d6a8309f79ca0b45f1edc,,bb7d6a8309f79ca0b45f1edc
北京市朝阳建国路88号SOHO现代城1层,朝阳区,北京市,1,39.913119,116.483785,中国银行24小时自助银行(北京朝阳路支行),北京市,3553f8b7289b5aadc72ba118,,3553f8b7289b5aadc72ba118
北京市朝阳区幸福二村38-3,朝阳区,北京市,1,39.942463,116.456173,中国银行24小时自助银行(北京幸福广场支行),北京市,2d668b344f5c74df841541e6,,2d668b344f5c74df841541e6
北土城西路7号国恒基业大厦,朝阳区,北京市,1,39.983465,116.393643,中国银行24小时自助银行(北京北辰西路支行),北京市,34e48508a1fcf39cd9d89182,,34e48508a1fcf39cd9d89182
南磨房路16号院甲1之1-2,朝阳区,北京市,1,39.889782,116.482433,中国银行24小时自助银行(北京平乐园支行),北京市,e3bda741feae2da4d13ce3e1,,e3bda741feae2da4d13ce3e1
北京市朝阳区劲松五区517号,朝阳区,北京市,1,39.889755,116.457728,中国银行24小时自助银行服务(劲松支行),北京市,b84a5d8d975319d11894c6e4,,1cea15a9d53c0ec506fef5b4
北京市朝阳区安慧里三区六号楼一层,朝阳区,北京市,1,39.998333,116.414579,24小时自助银行服务,北京市,28241eacbc29b5faa6da39f0,,6b27ddab6ae9b5edcafa5feb
北京市朝阳区朝阳北路101号朝阳大悦城B1,朝阳区,北京市,1,39.930396,116.525082,中国建设银行ATM(朝阳大悦城),北京市,b388f9fd005a4f41b25c6aa8,,a6d77426b67eb977276e98ac
南四环西路186号汉威广场三区5号楼一层北侧,丰台区,北京市,1,39.829426,116.302316,中国银行(丰科路支行),北京市,,(010)83817705,410ee716c92270085cd4fea8
北京市丰台区草桥东路8号院7号楼,丰台区,北京市,1,39.854402,116.366309,中国银行(草桥支行),北京市,6835e3a785d0664ee31103dd,,6835e3a785d0664ee31103dd
北京市丰台区西三环南路14号院1号楼首科大厦一层,丰台区,北京市,1,39.883704,116.32119,中国银行(北京丰台支行),北京市,15e1e85e6edd3cde581093e7,(010)53256988,15e1e85e6edd3cde581093e7
北京市丰台区魏家村南路21号院5号楼1楼,丰台区,北京市,1,39.887591,116.273712,中国银行(青塔支行),北京市,7bd462e29b35e61c2e47337e,,7bd462e29b35e61c2e47337e
北京市丰台区南四环西路188号六区9号楼1楼,丰台区,北京市,1,39.83,116.294956,中国银行(总部基地支行),北京市,ea4a3dc98257772e4e55473a,(010)51189997,ea4a3dc98257772e4e55473a
北京市丰台区警备东路6号二区,丰台区,北京市,1,39.798948,116.425926,中国银行(北京东高地支行),北京市,b930348e7cb628848f55ecf7,(010)67975764,b930348e7cb628848f55ecf7
北京市丰台区南三环东路23号,丰台区,北京市,1,39.864875,116.434159,中国银行(方庄中心支行),北京市,4bb049d93f81fa3a99005026,(010)59763751,4bb049d93f81fa3a99005026
北京市丰台区顺八条8号院3区3号楼首开·福茂F1-F2,丰台区,北京市,1,39.85208,116.433973,中国银行(首开福茂),北京市,dbf8f5537e862fa7f1193720,,dbf8f5537e862fa7f1193720
北京市丰台区南四环西路188号16区20号楼一层,丰台区,北京市,1,39.83213,116.297106,中国银行(北京科丰桥南支行),北京市,ec2da2f0b7b4518dbb17e7c0,(010)67160241,ec2da2f0b7b4518dbb17e7c0
北京市丰台区诺德中心11(北京汽车博物馆南),丰台区,北京市,1,39.832218,116.307455,中国银行(北京总部基地东区支行),北京市,,,274618d32ca4c6caad31e574
丰台区东大街19号,丰台区,北京市,1,39.865328,116.299897,中国银行(东大街支行),北京市,750368359a6438af5e0d02dd,"(010)63832009,(010)63831998",750368359a6438af5e0d02dd
北京市丰台区科学城恒富街2号院5号楼,丰台区,北京市,1,39.840964,116.299185,中国银行(北京科技园区支行),北京市,1649e2828afc64bcc4effb62,(010)63797041,1649e2828afc64bcc4effb62
北京市丰台区王佐镇福宫路68号,丰台区,北京市,1,39.810526,116.162595,中国银行(北京南宫支行),北京市,b489fd3f6d208f8d0b1cc749,(010)83064207,b489fd3f6d208f8d0b1cc749
丰台区芳城园一区16-1号,丰台区,北京市,1,39.875178,116.437866,中国银行(北京方庄支行),北京市,7f9afaaa723e767e87154105,"(010)67657447,(010)67656766",7f9afaaa723e767e87154105
北京市丰台区马家堡东路12号(奇迹广场对面),丰台区,北京市,1,39.857025,116.393133,中国银行(北京角门支行),北京市,9845d357efd7e1add13ce3bc,,9845d357efd7e1add13ce3bc
北京市丰台区蒲方路1号附3号,丰台区,北京市,1,39.872104,116.443443,中国银行(北京芳星园支行),北京市,6b073a947f34b19a9122e041,"(010)67671266,(010)67617918",6b073a947f34b19a9122e041
右安门外大街2-1号,丰台区,北京市,1,39.874792,116.372847,中国银行(北京右安门支行),北京市,a4df9519dd0b99bf6140a940,(010)83516396,a4df9519dd0b99bf6140a940
北京市丰台区西四环南路46号国润商务大厦B座首层,丰台区,北京市,1,39.87622,116.288534,中国银行(北京丰台路支行),北京市,9ee7cc78f11dbc7016c905dd,"(010)95566,(010)83659648",9ee7cc78f11dbc7016c905dd
北京市丰台区广安路辅路,丰台区,北京市,1,39.895375,116.326495,中国银行(西站支行),北京市,,,12d87305d2390840acee7a72
紫芳园三区2号楼1楼,丰台区,北京市,1,39.868572,116.445592,中国银行(方庄东区支行),北京市,f633606ac0ca71300a69d981,"(010)87660906,(010)87660656",f633606ac0ca71300a69d981
北京市丰台区草桥东路8号院7号楼,丰台区,北京市,1,39.854376,116.36648,中国银行(草桥支行)电费代收点,北京市,9f455aff5a2f918dede4a5de,,9f455aff5a2f918dede4a5de
西三环南路14号院1,丰台区,北京市,1,39.883625,116.321086,中国银行24小时自助银行服务(北京丰台支行),北京市,c9a72c2a0f5e77892811d1e9,,b5a1cdce634258f74251c058
北京市丰台区沙子口路祥龙赵公口长途客运汽车站,丰台区,北京市,1,39.860726,116.416653,中国银行ATM,北京市,7dda15a1d36a28730482c219,,7dda15a1d36a28730482c219
北京市丰台区马家堡东路106号院1号楼月桂树酒店一层大厅,丰台区,北京市,1,39.849055,116.393505,中国银行ATM(月桂树酒店),北京市,0c5dd654dca3e43f6268582e,,0c5dd654dca3e43f6268582e
北京市丰台区海鹰路甲1号中行海鹰大厦,丰台区,北京市,1,39.835449,116.293684,中国银行测试中心,北京市,53fc9ed5fa583496c7f50deb,,53fc9ed5fa583496c7f50deb
北京市丰台区永外大街12号北京南站二层,丰台区,北京市,1,39.87139,116.384355,中国银行ATM(北京南站),北京市,cc0db833c8f3d8b38af15d04,,cc0db833c8f3d8b38af15d04
南四环西路188号六区9号楼,丰台区,北京市,1,39.830077,116.294524,中国银行24小时自助银行(北京总部基地支行),北京市,82b505ba3b85b9c3e5073826,,82b505ba3b85b9c3e5073826
丰台区科学城恒富街2号院5号楼,丰台区,北京市,1,39.841118,116.299163,中国银行24小时自助银行服务(丰台支行),北京市,07f3c8b5ef2b8b636240a9dd,,07f3c8b5ef2b8b636240a9dd
北京市丰台区顺八条8号院3区3号楼首开·福茂F1,丰台区,北京市,1,39.852431,116.434356,中国银行24小时自助银行服务,北京市,,,b9d42c23b073266e5d0d021d
北京市丰台区海鹰路1号,丰台区,北京市,1,39.83554,116.293681,中国银行客户服务中心(海鹰路店),北京市,c31d8369fb2f3be0eedfca6b,,c31d8369fb2f3be0eedfca6b
南四环西路188号十六区20号楼1层,丰台区,北京市,1,39.83213,116.297106,中国银行24小时自助银行(北京科丰桥南支行),北京市,55bd74315d10d82f09b93ae6,,55bd74315d10d82f09b93ae6
北京市丰台区东大街19号,丰台区,北京市,1,39.865193,116.299913,中国银行24小时自助银行(东大街支行),北京市,973c6cf17b069f78adcb6651,,973c6cf17b069f78adcb6651
北京市丰台区角门北路甲８北京市鑫华鑫星商场1层,丰台区,北京市,1,39.856967,116.393068,中国银行24小时自助银行(角门支行),北京市,f757e6eee4037b17260bd0d3,,f757e6eee4037b17260bd0d3
芳城园一区16号楼首层,丰台区,北京市,1,39.87518,116.437785,中国银行24小时自助银行(北京方庄支行),北京市,2a7a25ec47daf11d6d3e1bb5,,2a7a25ec47daf11d6d3e1bb5
西四环南路46号国润大厦复楼1层,丰台区,北京市,1,39.876229,116.288097,中国银行24小时自助银行(北京丰台路支行),北京市,48861bdf72ebba2f6ca3cc70,,48861bdf72ebba2f6ca3cc70
魏家村南路21号院5号楼,丰台区,北京市,1,39.887708,116.273688,中国银行24小时自助银行(北京青塔支行),北京市,3ebcf443dd0ae7a02fb17efc,,3ebcf443dd0ae7a02fb17efc
蒲方路1-3,丰台区,北京市,1,39.872112,116.44365,中国银行24小时自助银行服务(北京左安门支行),北京市,ba4a3468b7984ac6e956fa94,,ba4a3468b7984ac6e956fa94
北京市丰台区南三环东路辅路23号天创盛方中心1层,丰台区,北京市,1,39.864845,116.433514,中国银行24小时自助银行(北京方庄中心支行),北京市,d6df91c1094f2b14f7b916c3,,d6df91c1094f2b14f7b916c3
东高地南街5号,丰台区,北京市,1,39.798877,116.426063,中国银行24小时自助银行(北京东高地支行),北京市,00645596bce61dc1bd484246,,00645596bce61dc1bd484246
丰台区草桥东路8号院7号楼,丰台区,北京市,1,39.854344,116.366289,中国银行24小时自助银行(北京草桥支行),北京市,e19375ed6fb7580802294fc5,,e19375ed6fb7580802294fc5
五圈路诺德中心11号楼1层,丰台区,北京市,1,39.83221,116.307396,中国银行24小时自助银行(总部基地东区支行),北京市,,,3f881e5e488a47e7fb2d618f
北京市丰台区方庄路16号,丰台区,北京市,1,39.868527,116.445592,中国银行24小时自助银行服务(北京方庄东区支行),北京市,51e3517fc2f6e5e6430245d4,,51e3517fc2f6e5e6430245d4
四方景园二区2号,丰台区,北京市,1,39.864177,116.448488,中国银行24小时自助银行服务(北京成寿寺支行),北京市,ef9c8722a865460bb817e730,,ef9c8722a865460bb817e730
右安门外大街2-1号,丰台区,北京市,1,39.874534,116.372624,中国银行24小时自助银行服务(右安门支行),北京市,498e28551e60c32a8bdb737f,,498e28551e60c32a8bdb737f
王佐镇福宫路68号,丰台区,北京市,1,39.810643,116.162914,中国银行24小时自助银行服务(北京南宫支行),北京市,96894d114b1b2b09c03644c4,,96894d114b1b2b09c03644c4
北京市丰台区海鹰路1号,丰台区,北京市,1,39.835789,116.293873,中行海鹰大厦,北京市,cd9d05ddf8c3ffb685420e04,,cd9d05ddf8c3ffb685420e04
北京市石景山区石景山路20号中铁建设大厦1层,石景山区,北京市,1,39.912131,116.228194,中国银行(北京银河大街支行),北京市,ef088aafd85778249a005023,(010)57832052,ef088aafd85778249a005023
石景山区杨庄北区51-2号,石景山区,北京市,1,39.933435,116.203777,中国银行(杨庄东路支行),北京市,606ab0d039ddd1540f3ddaac,,606ab0d039ddd1540f3ddaac
北京市石景山区八角西街57号,石景山区,北京市,1,39.920575,116.205145,中国银行(石景山支行),北京市,18c1e42c6b7dc5461b11d5c5,,18c1e42c6b7dc5461b11d5c5
北京市石景山区鲁谷小区七星园1号楼1层,石景山区,北京市,1,39.90426,116.222537,中国银行(北京鲁谷支行),北京市,a26b024c4267087bb45f1eea,,a26b024c4267087bb45f1eea
鲁谷路35号冠辉国际1层,石景山区,北京市,1,39.910103,116.233807,中国银行ATM,北京市,7630113e480c1fe045572648,,7630113e480c1fe045572648
北京市石景山区石景山路乙18号万达广场F1,石景山区,北京市,1,39.911963,116.230907,中国银行24小时自助银行(万达广场),北京市,d7fd2ad3fb0b0c540bccddd8,,d7fd2ad3fb0b0c540bccddd8
石景山区石景山路20号中铁建设大厦一、二层商业部分,石景山区,北京市,1,39.912009,116.228213,中国银行24小时自助银行(北京银河大街支行),北京市,e66873dc25b82d32abf0cd41,,e66873dc25b82d32abf0cd41
北京市石景山区八角西街57号,石景山区,北京市,1,39.920627,116.204998,中国银行24小时自助银行(北京石景山支行),北京市,ba474e2e42a9d0d42a02e10e,,ba474e2e42a9d0d42a02e10e
鲁谷小区七星园1号楼1层,石景山区,北京市,1,39.904175,116.222794,中国银行24小时自助银行(北京鲁谷支行),北京市,15a9381026b13ebd14c8f6d8,,15a9381026b13ebd14c8f6d8
北京市海淀区上地十街1号院6号楼,海淀区,北京市,1,40.059362,116.308347,中国银行(上地支行),北京市,b31f5ce73bf57b8a7ec87639,(010)62410888,b31f5ce73bf57b8a7ec87639
北京市海淀区西四环北路158,海淀区,北京市,1,39.939487,116.282684,中国银行(玲珑路支行),北京市,f690d9272060df810ab93a46,,f690d9272060df810ab93a46
北京市海淀区北四环西路58号理想国际大厦1层,海淀区,北京市,1,39.990373,116.316175,中国银行(海淀支行),北京市,b292b3aae5552255bf484295,(010)82607378,b292b3aae5552255bf484295
海淀大街8号中钢国际广场A座3层,海淀区,北京市,1,39.987864,116.319981,中国银行(中关村支行营业部),北京市,08fc93dfc0e4ffef9a68b4b4,"(010)62687060,(010)62687068,(010)62687066",08fc93dfc0e4ffef9a68b4b4
北京市海淀区信息路15-2号1层104室,海淀区,北京市,1,40.043652,116.315897,中国银行(北京上地信息路支行),北京市,0893fc17fee2b5a8a6da39e1,(010)62974862,0893fc17fee2b5a8a6da39e1
北京市海淀区清华东路17号金码大厦A座1层,海淀区,北京市,1,40.007539,116.359928,中国银行(清华东路支行),北京市,79d782136b52c67fd618b73b,,79d782136b52c67fd618b73b
北京市海淀区中关村东路1号院创新大厦a座108室,海淀区,北京市,1,40.001525,116.33787,中国银行(清华园支行),北京市,5211d219d642fd587dc87641,"(010)62770950,(010)62702158,(010)62770949",5211d219d642fd587dc87641
北京市海淀区颐和园路1-3北京资源燕园宾馆西楼1层,海淀区,北京市,1,39.993419,116.312175,中国银行(北大支行),北京市,d146b3889ba2a5de74026941,,d146b3889ba2a5de74026941
北京市海淀区翠微路甲10号建筑大厦一层,海淀区,北京市,1,39.91939,116.309316,中国银行(翠微支行),北京市,1cea15a9d6500dc506fef5a0,(010)68254832,1cea15a9d6500dc506fef5a0
知春路6号锦秋.国际大厦A区首层01,海淀区,北京市,1,39.981732,116.355512,中国银行(大运村支行),北京市,cac5fc76137b0ef32cb96d41,"(010)82800275,(010)82800273",cac5fc76137b0ef32cb96d41
北京市海淀区知春路100号,海淀区,北京市,1,39.981756,116.331531,中国银行(知春路支行),北京市,eb367503126a261b00ec0141,(010)62543822,eb367503126a261b00ec0141
北京市海淀区永泰东里41号楼首层南段,海淀区,北京市,1,40.040874,116.362477,中国银行(北京小营支行),北京市,4f2bb48195d5b8ef24e0a078,(010)62908435,4f2bb48195d5b8ef24e0a078
北京市海淀区中关村南大街2号数码大厦A座2层,海淀区,北京市,1,39.972055,116.329711,中国银行(科技会展中心支行),北京市,0fd504b6bc5fa3461e1d1183,,bb1d38e4eb68cd4d0c0a7041
小营西路27号金领时代大厦1层,海淀区,北京市,1,40.04199,116.33919,中国银行(北京清河支行),北京市,c6fdcc5c1a59c6683a04b196,(010)82729720,c6fdcc5c1a59c6683a04b196
北京市海淀区北四环西路9号一层,海淀区,北京市,1,39.992828,116.340332,中国银行(银谷大厦支行),北京市,fd13a3f268b110fab1077d41,(010)62800270,fd13a3f268b110fab1077d41
北京市海淀区马连洼北路169号,海淀区,北京市,1,40.038609,116.275095,中国银行(国际金融研修院),北京市,b48caa57abc1133ad5b74e7c,95566,b48caa57abc1133ad5b74e7c
海淀区学院南路红联村文慧院北路4号院,海淀区,北京市,1,39.96152,116.368212,中国银行(文慧园支行),北京市,d5464cf8a1118d57fda77841,"(010)62276864,(010)62276865",d5464cf8a1118d57fda77841
北京市海淀区富海大厦1层,海淀区,北京市,1,39.959381,116.3419,中国银行(皂君庙支行),北京市,6835e3a7854c664ee3110341,(010)62136909,6835e3a7854c664ee3110341
北京市海淀区花园东路10号高德大厦1层,海淀区,北京市,1,39.988502,116.376702,中国银行(北极寺支行),北京市,cb4fd146d0d73c419d9d6841,(010)82030635,cb4fd146d0d73c419d9d6841
北京市海淀区交大东路41号院1号楼一楼,海淀区,北京市,1,39.950625,116.356023,中国银行(高粱桥支行),北京市,08f1f1f5a29a39ca88db7341,,08f1f1f5a29a39ca88db7341
北京市海淀区复兴路甲38号,海淀区,北京市,1,39.913034,116.267298,中国银行(永定路支行),北京市,0ed20a1533ac649756bfffa0,,0ed20a1533ac649756bfffa0
北京市海淀区阜成路73号裕惠大厦一层,海淀区,北京市,1,39.930778,116.304981,中国银行(航天桥支行),北京市,b14eea1a0fa8f3461cf74d5e,,b14eea1a0fa8f3461cf74d5e
北京市海淀区学院路30号北京科技大学,海淀区,北京市,1,39.995385,116.364292,中国银行(科大支行),北京市,d1469ee7b3274a6284330441,,d1469ee7b3274a6284330441
双清路清华大学北区紫荆学生服务中心一楼,海淀区,北京市,1,40.015588,116.334704,中国银行(紫荆公寓支行),北京市,35dabffeb45e7ee8eddfcaea,(010)62770915,35dabffeb45e7ee8eddfcaea
北京市海淀区学院路39号,海淀区,北京市,1,39.984387,116.359883,中国银行(北京学院路支行),北京市,8d2e1bd7ffb997c7fbf0cb29,(010)62308302,8d2e1bd7ffb997c7fbf0cb29
北京市海淀区首体南路9号主语商务中心7号楼,海淀区,北京市,1,39.938771,116.330909,中国银行(主语城支行),北京市,60767f3f268a5ba1b23c814e,(010)68790492,60767f3f268a5ba1b23c814e
板井路世纪金源大饭店C区1层,海淀区,北京市,1,39.958762,116.28739,中国银行(世纪城支行),北京市,92e5c0f332643a0b901fc970,(010)88461461,92e5c0f332643a0b901fc970
北京市海淀区中关村南大街34中关村科技发展大厦1层,海淀区,北京市,1,39.954201,116.331512,中国银行(中关村南大街支行),北京市,8fde79cc9769b0bf95ca0741,"(010)62140798,(010)95566",8fde79cc9769b0bf95ca0741
北京市海淀区紫竹院路116号嘉豪国际中心B座1层,海淀区,北京市,1,39.953587,116.299306,中国银行(四季青支行),北京市,3a0a78bdd2a814fa63180941,,3a0a78bdd2a814fa63180941
科学院南路2号1层,海淀区,北京市,1,39.990068,116.331854,中国银行(科学城支行),北京市,d219bb1d54bb458bf50e7741,(010)82861916,d219bb1d54bb458bf50e7741
北京市海淀区农大南路1号硅谷亮城5号楼101-102室,海淀区,北京市,1,40.033386,116.317814,中国银行(上地硅谷亮城支行),北京市,e56bf5e346ee3b390782c25f,(010)62667633,e56bf5e346ee3b390782c25f
北京市海淀区西三环北路89号国际财经中心1层,海淀区,北京市,1,39.941534,116.315898,中国银行(西三环支行),北京市,1eeed54638a717f2b5147f41,,1eeed54638a717f2b5147f41
北京市海淀区莲花池西路16号金鑫大厦一层,海淀区,北京市,1,39.897073,116.30258,中国银行(莲花池西路支行),北京市,92e60c040130dac66f3e1b37,(010)63922599,92e60c040130dac66f3e1b37
北京市海淀区远大路1号世纪金源购物中心F1,海淀区,北京市,1,39.965273,116.292722,中国银行(北京远大路支行),北京市,2d584d753f96895fb1077d38,,2d584d753f96895fb1077d38
北京市海淀区高梁桥斜街甲18号,海淀区,北京市,1,39.952103,116.344338,中国银行(宿舍),北京市,0115988e51096bc11894c6b1,,0115988e51096bc11894c6b1
北京市海淀区紫竹院路88号F座一层,海淀区,北京市,1,39.94957,116.311585,中国银行(车道沟支行),北京市,fc767524ae1014fa4e776e41,(010)88552753,fc767524ae1014fa4e776e41
北京市海淀区万寿路西街甲11院7号1层,海淀区,北京市,1,39.918861,116.290071,中国银行(北京西翠路支行),北京市,c7eca12b5800d537e015f9a0,(010)68234520,c7eca12b5800d537e015f9a0
北京市海淀区北蜂窝路5号院3-4号楼裙房首层,海淀区,北京市,1,39.910362,116.335269,中国银行(木樨地支行),北京市,108b1ceafae9fdac3486f4a0,(010)68571706,108b1ceafae9fdac3486f4a0
北京市海淀区西三环北路72号院世纪经贸大厦B座一层,海淀区,北京市,1,39.935584,116.317369,中国银行(北京西三环北路支行),北京市,96f7420bfbb271a82a02e138,,96f7420bfbb271a82a02e138
北京市海淀区苏州街72号,海淀区,北京市,1,39.971736,116.314504,中国银行(万泉河支行),北京市,2a07fdf27d1461605d17c316,(010)82659293,2a07fdf27d1461605d17c316
北京市海淀区首都体育馆南路6号新世纪日航饭店写字楼一楼,海淀区,北京市,1,39.942601,116.33511,中国银行(新世纪饭店支行),北京市,a3f21eeea01989442fb17e41,"(010)68491309,(010)68491321",a3f21eeea01989442fb17e41
北京市海定区畅茜园雪芳里7号楼1层101-1,海淀区,北京市,1,39.934738,116.250435,中国银行(田村支行),北京市,49be8424e5fc533b7c29bd81,(010)56847422,49be8424e5fc533b7c29bd81
北京市海淀区长春桥路5号新起点嘉园c座一层,海淀区,北京市,1,39.96673,116.309951,中国银行(苏州桥支行),北京市,863ce324a34dc248ab0dd8f6,,863ce324a34dc248ab0dd8f6
香山路73号,海淀区,北京市,1,40.01234,116.267565,中国银行(北京香山支行),北京市,a9be25788ba3058dc1f1cf33,95566,a9be25788ba3058dc1f1cf33
万柳中路6号院1号楼,海淀区,北京市,1,39.975661,116.303484,中国银行(万柳中路支行),北京市,c8596ae2895bcd9afbf0cbab,(010)61934006,c8596ae2895bcd9afbf0cbab
北京市海淀区万柳中路29号院2号楼底商,海淀区,北京市,1,39.966976,116.303481,中国银行(北京万柳支行),北京市,9ad22efa5b076cd4e812e49f,,9ad22efa5b076cd4e812e49f
北京市海淀区复兴路17号国海广场A座2层,海淀区,北京市,1,39.913972,116.320539,中国银行(北京长安支行),北京市,a03ce2398bd0b3053be4a67a,(010)63975312,a03ce2398bd0b3053be4a67a
北京市海淀区中关村北大街127-1号北大科技园创新中心1层,海淀区,北京市,1,40.003841,116.320905,中国银行(北京中关村北大街支行),北京市,43b7e889054cd96959f6be9a,(010)82535404,43b7e889054cd96959f6be9a
北京市海淀区王庄路1号清华同方科技广场B座一层,海淀区,北京市,1,40.004961,116.345483,中国银行(北京中关村科技园区支行),北京市,426a6f50c36fa7d1a6da3998,(010)82379174,426a6f50c36fa7d1a6da3998
新街口外大街19号北京师范大学,海淀区,北京市,1,39.968386,116.372795,中国银行24小时自助银行(励耘学苑西),北京市,,,31325e8ec5cd5bd5c7f50d22
北京市海淀区上地西路8号,海淀区,北京市,1,40.056634,116.306204,中国银行银行卡中心(上地西路),北京市,b458c6a6cf5adb87df1e5296,,b458c6a6cf5adb87df1e5296
东北旺西路8号文思海辉大厦一六楼,海淀区,北京市,1,40.050827,116.290206,中国银行场外服务中心(文思海辉大厦),北京市,,,353ab7538a218bb76fc02c64
北四环西路9号银谷大厦15层1502号,海淀区,北京市,1,39.992878,116.340432,中银国际证券(北四环西路营业部),北京市,948f35569090e8aca8f0cd97,(010)82525116,948f35569090e8aca8f0cd97
学院南路39号,海淀区,北京市,1,39.964693,116.348748,中国银行ATM,北京市,bc4fd93f364d74bc9d82ea25,,bc4fd93f364d74bc9d82ea25
北京市海淀区高粱桥斜街44号北京交通大学东校区内,海淀区,北京市,1,39.951888,116.353959,中国银行24小时自助银行(广通苑西),北京市,8aaf28efb8f970729c95dea6,,88b32cfde14d619f25d2bb64
北京市海淀区高粱桥斜街甲13号,海淀区,北京市,1,39.956156,116.344198,中国银行24小时自助银行服务(高梁桥斜街),北京市,12119d8950c7b2bf1df74d36,,12119d8950c7b2bf1df74d36
西翠路17号,海淀区,北京市,1,39.92174,116.289238,中国银行ATM,北京市,e5b704339b5ca1baa1a9347e,,e5b704339b5ca1baa1a9347e
上地西路8号院B座五层,海淀区,北京市,1,40.057014,116.306228,中行-授信执行部,北京市,,,0ceddd5f1d13feebbbbd6390
北京市海淀区永丰路299号,海淀区,北京市,1,40.041245,116.27523,中国银行数据中心,北京市,692cba732c5328088b2fb59f,,692cba732c5328088b2fb59f
北京市海淀区北京市海淀区翠微路12号印象城F1,海淀区,北京市,1,39.918003,116.309978,中国银行ATM(印象城),北京市,4ed72af22f2f6d4af70e775a,,4ed72af22f2f6d4af70e775a
北京市海淀区上园村3号北京交通大学内,海淀区,北京市,1,39.957144,116.348314,中国银行ATM(交大逸夫楼),北京市,8b011a20849ec9989ee3214e,,8b011a20849ec9989ee3214e
海淀区白石桥路44号(湖北大厦),海淀区,北京市,1,39.953449,116.331795,中国银行ATM(体育场路),北京市,4380867be3e27ef00d3dda51,,4380867be3e27ef00d3dda51
北京市海淀区巴沟路2号北京华联万柳购物中心F1,海淀区,北京市,1,39.979564,116.301384,中国银行ATM(北京华联),北京市,4746c9234740f148bd484243,,4746c9234740f148bd484243
畅茜园雪芳里7号楼,海淀区,北京市,1,39.934871,116.250531,中国银行ATM(田村支行),北京市,e6ee2fd274cb1e482b11d140,,e6ee2fd274cb1e482b11d140
北京市海淀区中关村南大街乙12号院1号,海淀区,北京市,1,39.966327,116.3298,中国银行24小时自助银行,北京市,6c194258bf68aa0f04026f57,,6c194258bf68aa0f04026f57
北京市海淀区北蜂窝路5号院-3号楼附近,海淀区,北京市,1,39.910313,116.335063,中国银行24小时自助银行,北京市,,,35d0c60c5ba4a8ef4207c1e7
北京市北四环西路58号理想国际大厦,海淀区,北京市,1,39.990402,116.316167,中国银行24小时自助银行服务(北京海淀支行),北京市,76be16a1a6676df0a1d230a0,,76be16a1a6676df0a1d230a0
北京市海淀区北三环西路38号北京双安商场F1,海淀区,北京市,1,39.972495,116.332911,中国银行ATM(北京双安商场),北京市,5f8705b72e7f1b01ae080f29,,5f8705b72e7f1b01ae080f29
北京市海淀区双清路30号清华大学内,海淀区,北京市,1,40.016407,116.333553,中国银行24小时自助银行服务,北京市,4915824131429c013ce23168,,4915824131429c013ce23168
坡上村12号国际关系学院办公楼,海淀区,北京市,1,40.009696,116.293203,中国银行24小时自助银行服务,北京市,,,c3d3a18dbf0f9cbdfa42b225
北京市海淀区板井路69-6世纪金源大酒店C区首层,海淀区,北京市,1,39.958661,116.287421,中国银行24小时自助银行(北京世纪城支行),北京市,c7eca12b319b0c49e115f9c0,,c7eca12b319b0c49e115f9c0
北京市海淀区西三环北路87号,海淀区,北京市,1,39.941649,116.316002,中国银行24小时自助银行(北京西三环支行),北京市,c950db07a732ee6afa22135f,,c950db07a732ee6afa22135f
北京市海淀区军科南门西侧1层(香山路73附近),海淀区,北京市,1,40.012418,116.267573,中国银行24小时自助银行服务(北京军科支行),北京市,31f9101bdd6e16b926e0a06c,,31f9101bdd6e16b926e0a06c
北京市海淀区苏州街72号,海淀区,北京市,1,39.971657,116.314585,中国银行24小时自助银行服务(北京万泉河支行),北京市,4cfd60254a935426250bd018,(010)82659293,4cfd60254a935426250bd018
阜成路73号裕惠大厦A座1层,海淀区,北京市,1,39.930709,116.305004,中国银行24小时自助银行服务(北京航天桥支行),北京市,108b1ceafac8fdac3586f443,,108b1ceafac8fdac3586f443
北京市海淀区信息路38号,海淀区,北京市,1,40.032021,116.320469,中国银行24小时自助银行(信息路),北京市,50f85ecc88302355a8059d90,,50f85ecc88302355a8059d90
北京市海淀区远大路1号-J-1013号,海淀区,北京市,1,39.964446,116.297507,中国银行ATM(世纪金源购物中心),北京市,a2fbfe2e800e3f6383a00c18,,a2fbfe2e800e3f6383a00c18
文慧园北路4号院1,海淀区,北京市,1,39.961471,116.368213,中国银行24小时自助银行(文慧园支行),北京市,a572db713f33562dc51e51cd,,a572db713f33562dc51e51cd
北京市海淀区学院路39号北航唯实大厦,海淀区,北京市,1,39.984374,116.359699,中国银行24小时自助银行(校园南路),北京市,0a15c7ec3df0b682ed74f8c0,,0a15c7ec3df0b682ed74f8c0
北京市海淀区紫竹院路116号嘉豪国际中心B座1层,海淀区,北京市,1,39.953607,116.299307,中国银行24小时自助银行(四季青支行),北京市,15a9381025183fbd14c8f643,,533923ed35e61b8982a12ecb
花园东路10号高德大厦A段1层103号,海淀区,北京市,1,39.988564,116.376594,中国银行24小时自助银行(北极寺支行),北京市,866999786197f1fc6b49f3d3,,866999786197f1fc6b49f3d3
科学院南路2号融科大厦A座1层,海淀区,北京市,1,39.989864,116.331566,中国银行24小时自助银行(科学城支行),北京市,47b16ea7a50e49aae115f904,,47b16ea7a50e49aae115f904
北京市海淀区小营西路25号的金领时代大厦一层,海淀区,北京市,1,40.042033,116.339223,中国银行24小时自助银行(北京清河支行),北京市,98c8e85cbb386f71593ac875,,98c8e85cbb386f71593ac875
北京市海淀区上地信息路15号,海淀区,北京市,1,40.043727,116.315828,中国银行24小时自助银行(北京上地信息路支行),北京市,47a226ed64a237a13f9a5efa,,47a226ed64a237a13f9a5efa
海淀区学院路30号北京科技大学,海淀区,北京市,1,39.995372,116.364298,中国银行24自助银行服务(北京科大支行),北京市,c5a97295b80258b0a3acc49e,,c5a97295b80258b0a3acc49e
王庄路1清华同方科技广场B座1层,海淀区,北京市,1,40.004961,116.345514,中国银行24小时自助银行(北京中关村科技园区支行),北京市,31f7f87df6ffef6c8605bf1b,,31f7f87df6ffef6c8605bf1b
北京市海淀区学清路甲38号金码大厦A座,海淀区,北京市,1,40.00748,116.35993,中国银行24小时自助银行(北京清华东路支行),北京市,4cad8232ecdd989d2d4733fe,,4cad8232ecdd989d2d4733fe
北京市海淀区中关村东路1号院创新大厦A座108室,海淀区,北京市,1,40.001524,116.337913,中国银行24小时自助银行(北京清华园支行),北京市,300a532f21ad2d2f4bfc8d9c,,300a532f21ad2d2f4bfc8d9c
北京市海淀区中关村北大街127-1号创新中心1楼105室,海淀区,北京市,1,40.003842,116.320977,中国银行24小时自助银行(北京中关村支行),北京市,480b24d0580408f29dec2b96,,14820f127339b74517b54b3a
中关村北大街144号附近,海淀区,北京市,1,39.994506,116.322918,中国银行24小时自助银行(中关村北大街),北京市,6982c056086b1a906f3e1bc7,,6982c056086b1a906f3e1bc7
知春路102号,海淀区,北京市,1,39.981752,116.331385,中国银行24小时自助银行(北京知春路支行),北京市,e6ee2fd2cce1c6362b11d151,,e6ee2fd2cce1c6362b11d151
北京市海淀区首体南路6号新世纪日航饭店写字楼1层,海淀区,北京市,1,39.942596,116.33511,中国银行24小时自助银行(新世纪饭店支行),北京市,b388f9fd6c23933fb35c6a5e,,b388f9fd6c23933fb35c6a5e
北京市海淀区西翠路5号,海淀区,北京市,1,39.906866,116.289394,中国银行24小时自助银行服务(北京太平路支行),北京市,79cceb360e42ad891f5800a3,,79cceb360e42ad891f5800a3
西三环北路72号世纪经贸大厦B座2区,海淀区,北京市,1,39.935641,116.317406,中国银行24小时自助银行(西三环北路支行),北京市,ea4a3dc917f5ea2d4f554795,,ea4a3dc917f5ea2d4f554795
海淀区复兴路甲38-7号,海淀区,北京市,1,39.9131,116.267235,中国银行24小时自助银行(北京永定路支行),北京市,7640c7ce3a3677a33913fdaf,,82c5388b633bbda4c9e33c2c
莲花池西路16号金鑫大厦,海淀区,北京市,1,39.897022,116.30245,中国银行24小时自助银行(北京莲花池西路支行),北京市,b3702039647b221b9a005098,,b3702039647b221b9a005098
北京市海淀区永泰东里41,海淀区,北京市,1,40.040872,116.362478,中国银行24小时自助银行服务(北京小营支行),北京市,f1094aa785091964c356ac8c,,f1094aa785091964c356ac8c
海淀区颐和园路1-3号,海淀区,北京市,1,39.993465,116.312172,中国银行24小时自助银行服务(北京北大支行),北京市,77f4e578850261759de32182,,b4cb1165c7a3418249fc8d1c
中关村南大街34中关村科技发展大厦C座,海淀区,北京市,1,39.954244,116.331524,中国银行24小时自助银行服务(北京中关村南大街支行),北京市,9b8933687396aadc81288a69,,9b8933687396aadc81288a69
北京市海淀区交大东路41号院1,海淀区,北京市,1,39.950617,116.356121,中国银行24小时自助银行(北京高梁桥支行),北京市,fa835ce2bc1d33b6e812e440,,fa835ce2bc1d33b6e812e440
万泉河路115号新起点嘉园C座1层,海淀区,北京市,1,39.966742,116.309922,中国银行24小时自助银行服务(苏州桥支行),北京市,f9fd606282bc54610f0e6b5e,,f9fd606282bc54610f0e6b5e
北京市海淀区万柳中路29号院2号楼底商,海淀区,北京市,1,39.966889,116.303027,中国银行24小时自助银行(北京万柳支行),北京市,7dbcaf100d6408cd6240a9cf,,7dbcaf100d6408cd6240a9cf
北京市海淀区中关村大街59号中国人民大学,海淀区,北京市,1,39.978814,116.317016,中国银行24小时自助银行(中国人民大学知行4层东),北京市,56bc81284d8f4ae13be4a6e2,,21d52534e7eca9cf25e0a041
复兴路17号电子大厦A座2层,海淀区,北京市,1,39.913953,116.320672,中国银行24小时自助银行服务(北京长安支行),北京市,619411c933fd8f65a4c756a7,,619411c933fd8f65a4c756a7
北京市海淀区学清路8号科技财富中心1层大厅,海淀区,北京市,1,40.021948,116.359527,中国银行24小时自助银行(北京学清路支行),北京市,9fbfeef2cb5df445ede4a56c,,9fbfeef2cb5df445ede4a56c
农大南路1号院5号楼101-102号,海淀区,北京市,1,40.033394,116.317811,中国银行24小时自助银行(北京上地硅谷亮城支行),北京市,15a93810e6387ec014c8f65f,,15a93810e6387ec014c8f65f
北京市海淀区中关村南大街5号北京理工大学校内,海淀区,北京市,1,39.965152,116.323834,中国银行ATM(北京理工大学外国专家公寓南),北京市,,,4ec605c4549ce4a45e17c393
大柳树路17号富海中心2号富海大厦101,海淀区,北京市,1,39.959741,116.341911,中国银行24小时自助银行(北京皂君庙支行),北京市,7cc3b37fcd724ede4c6d465b,,7cc3b37fcd724ede4c6d465b
北京市海淀区万柳中路6号院1号,海淀区,北京市,1,39.975707,116.303383,中国银行24小时自助银行(万柳中路支行),北京市,0f4c97bd66cf42f935b06c94,,0f4c97bd66cf42f935b06c94
海淀大街8号中钢国际大厦3层,海淀区,北京市,1,39.987975,116.320125,中国银行24小时自助银行(中钢国际大厦),北京市,325089789d468652b11e3651,,325089789d468652b11e3651
上地十街1号院1辉煌国际,海淀区,北京市,1,40.059044,116.308351,中国银行24小时自助银行(北京上地支行),北京市,3810c879d7406df69c09f75f,,3810c879d7406df69c09f75f
北四环西路9号银谷大厦1层,海淀区,北京市,1,39.992736,116.341124,中国银行24小时自助银行(北京银谷大厦支行),北京市,b703e96b4642b3fa8f1a8943,,b703e96b4642b3fa8f1a8943
紫竹院路88号F座1层,海淀区,北京市,1,39.949581,116.311556,中国银行24小时自助银行(北京车道沟支行),北京市,acd10807375df6617dc876fb,,acd10807375df6617dc876fb
北京市海淀区大柳树富海中心3,海淀区,北京市,1,39.95869,116.341972,自助银行服务,北京市,59772735f0fe5f7a9703196d,,59772735f0fe5f7a9703196d
北京市门头沟区滨河路蓝龙家园6号楼1层,门头沟区,北京市,1,39.953463,116.112797,中国银行(北京门头沟支行),北京市,e35b46d444e71f793a04b1bf,(010)69843926,e35b46d444e71f793a04b1bf
门头沟区滨河路蓝龙家园6号楼1层,门头沟区,北京市,1,39.953456,116.112772,中国银行24小时自助银行(北京门头沟支行),北京市,3f1a6fe630b9cda788fc06ff,,3f1a6fe630b9cda788fc06ff
北京市房山区良乡镇良乡拱辰北大街3号,房山区,北京市,1,39.75056,116.148076,中国银行(房山支行),北京市,65b4b040918e68bf76026956,(010)89356347,65b4b040918e68bf76026956
北京市房山区长政南街2号院1号楼,房山区,北京市,1,39.769296,116.220947,中国银行(北京长阳支行),北京市,65eb1c097cbb74f7ae31e514,,65eb1c097cbb74f7ae31e514
涞宝路,房山区,北京市,1,39.605203,115.697488,中国银行绿化基地,北京市,,,d2afc3d4c8b092116fa3cced
北大街17号,房山区,北京市,1,39.709958,115.991363,中国银行24小时自助银行(北京城关北街支行),北京市,,,b7021bf8ebc631faf4e73bfd
北京市通州区兴华南街327号,通州区,北京市,1,39.758801,116.549545,中国银行(北京马驹桥支行),北京市,1db9fc1c9820a13bad0457f3,(010)59948699,1db9fc1c9820a13bad0457f3
北京市通州区光机电一体化产业中心光联工业园联东商务中心1层,通州区,北京市,1,39.816614,116.562015,中国银行(光机电支行),北京市,,(010)81501106,34059f97e046925471455b1d
九棵树中街9号京通罗斯福广场2层,通州区,北京市,1,39.894759,116.664775,中国银行(北京通州九棵树支行),北京市,,,9d2b5402ad442876ed74f88f
北京市通州区车站路44号,通州区,北京市,1,39.910575,116.669148,中国银行(北京通州支行),北京市,3b5373161cfb3b7d71455bf1,(010)80506514,3b5373161cfb3b7d71455bf1
北京市通州区京洲园194号,通州区,北京市,1,39.883654,116.649271,中国银行(北京通州梨园支行),北京市,6bce1076fcaa5e3d56bfff81,(010)80877557,6bce1076fcaa5e3d56bfff81
梨园镇砖厂南里40号华远好天地,通州区,北京市,1,39.875957,116.702967,中国银行(华远好天地中心店),北京市,6e62cb1bad62762a72210b97,,6e62cb1bad62762a72210b97
中关村科技园通州园光机电一体化产业基地嘉创路2号,通州区,北京市,1,39.812881,116.570645,中国银行24小时自助银行,北京市,7b9cbf566dbbe2f64c776e5f,,7b9cbf566dbbe2f64c776e5f
北京市通州区乔庄南路,通州区,北京市,1,39.875928,116.702905,中国银行24小时自助银行服务,北京市,,,b25efc2046e9432514c8f680
车站路44号,通州区,北京市,1,39.910637,116.669202,中国银行24小时自助银行(通州区支行),北京市,f9fd6062e8728a1f0f0e6b11,,f9fd6062e8728a1f0f0e6b11
潞西路,通州区,北京市,1,39.819368,116.572935,中国银行24小时自助银行(福润达西),北京市,249659dec57aeeec9b68b4bb,,249659dec57aeeec9b68b4bb
北京市通州区梨园镇九棵树中街9号京通罗斯福广场F1,通州区,北京市,1,39.894735,116.664801,中国银行24小时自助银行(京通罗斯福广场),北京市,d1cb5c9ec77b3a351b11d539,,d1cb5c9ec77b3a351b11d539
北京市通州区兴华南街430号,通州区,北京市,1,39.758823,116.54939,中国银行24小时自助银行服务(北京马驹桥支行),北京市,17d0727fa08fd8323310af10,,17d0727fa08fd8323310af10
北京市通州区京洲园194,通州区,北京市,1,39.883744,116.649336,中国银行24小时自助银行(北京通州梨园支行),北京市,f41d5b6dcc049b59eee4a553,,f41d5b6dcc049b59eee4a553
东渠路联东商务中心,通州区,北京市,1,39.816746,116.562212,中国银行24小时自助银行(北京光机电支行),北京市,3ad41e03ea5178773be4a63a,,3ad41e03ea5178773be4a63a
杨庄路甲66号,通州区,北京市,1,39.901655,116.638889,北京通州中银富登村镇银行,北京市,eb0953ccff473ea21894c6e7,(010)52998518,eb0953ccff473ea21894c6e7
北京市顺义区府前西街4号,顺义区,北京市,1,40.136048,116.656899,中国银行(顺义支行),北京市,4fc3161af8f6cfa93b13fdbc,(010)69420847,4fc3161af8f6cfa93b13fdbc
北京市顺义区天竺空港经济开发区天柱路30号,顺义区,北京市,1,40.070443,116.572491,中国银行(天柱路支行),北京市,4573bf4376f685e57f29bdf3,(010)80480759,4573bf4376f685e57f29bdf3
北京市顺义区天竺空港工业区A区天柱路20号,顺义区,北京市,1,40.076604,116.569939,中国银行(北京空港支行),北京市,0a9e106080e913605bf6be2b,(010)80414992,0a9e106080e913605bf6be2b
北京市顺义区石园南大街16号联通大厦一层,顺义区,北京市,1,40.114089,116.674795,中国银行(北京林河开发区支行),北京市,ad5e7faa4c5deb65a1a93492,"(010)89491851,(010)89491852",ad5e7faa4c5deb65a1a93492
北京市顺义区天竺镇府前一街38号,顺义区,北京市,1,40.067827,116.572636,中国银行(天竺支行),北京市,c61bd305c204fc68c37da28a,(010)64582751,c61bd305c204fc68c37da28a
北京市顺义区顺成大街21号,顺义区,北京市,1,40.17716,116.660018,中国银行(北京马坡支行),北京市,a74481d69625be46f403b8b5,(010)69401794,a74481d69625be46f403b8b5
首都机场南平东里乙1号京林大厦1层,顺义区,北京市,1,40.05136,116.608421,中国银行(机场南路支行),北京市,101bc61bc91e1ea3c52ba18a,"95566,(010)64586830",101bc61bc91e1ea3c52ba18a
北京市顺义区府前东街9号,顺义区,北京市,1,40.136174,116.672024,中国银行(顺义东兴支行),北京市,0ed20a1533c8649756bfffbc,"(010)69440511,(010)69444661",0ed20a1533c8649756bfffbc
双河大街99号北京汽车产业研发基地1层,顺义区,北京市,1,40.104084,116.637532,中国银行(顺义汽车城支行),北京市,,(010)56385521,0f6d9591a5f5c5f682a12e2f
北京市顺义区天竺府前大街13号北京明豪戴斯酒店1层,顺义区,北京市,1,40.068491,116.587408,中国银行ATM(府右街),北京市,5aa10f3ee6233280d52ce219,,5aa10f3ee6233280d52ce219
首都机场二纬路09,顺义区,北京市,1,40.052808,116.625514,中国银行24小时自助银行(二纬路),北京市,d9283eca5494e6bc2806ceb8,,d9283eca5494e6bc2806ceb8
物流园六街,顺义区,北京市,1,40.130123,116.601027,中国银行ATM(物流园六街),北京市,108b1cea98991fd23486f4af,,108b1cea98991fd23486f4af
裕民大街4号,顺义区,北京市,1,40.107061,116.563182,中国银行24小时自助银行(北京空港万科支行),北京市,a4eb8dbf0180382bc2f1cf9f,,48eb0058111797ad2ee67b81
北京市顺义区顺成大街21,顺义区,北京市,1,40.177268,116.659941,中国银行24小时自助银行(北京马坡支行),北京市,ffd6d4030e9f708f16b54bb4,,ffd6d4030e9f708f16b54bb4
北京市市顺义区北京首都国际机场北京首都国际机场3号航站楼C区F3,顺义区,北京市,1,40.065398,116.621287,中国银行ATM(3号航站楼C区),北京市,,,8a86875271793a922a02e176
北京市顺义区航安路中国国际航空公司公寓,顺义区,北京市,1,40.064174,116.597942,中国银行24小时自助银行(北京首都机场支行),北京市,43b7e889925f446a59f6be8a,,43b7e889925f446a59f6be8a
胜利小区41487号,顺义区,北京市,1,40.142877,116.661314,中国银行24小时自助银行(便民街),北京市,7541b6ac8a1d0ddd7adbd2ea,,7541b6ac8a1d0ddd7adbd2ea
北京市顺义区双河大街99号,顺义区,北京市,1,40.104293,116.638126,中国银行24小时自助银行(北京顺义汽车城支行),北京市,f3408b8c3bc4e80aa20464ab,,f3408b8c3bc4e80aa20464ab
北京市顺义区南彩镇彩园工业区2号长久物流,顺义区,北京市,1,40.149357,116.702354,中国银行24小时自助银行(彩园工业区长久物流),北京市,f4a33da9c5d9ef773110afb1,,f4a33da9c5d9ef773110afb1
后沙峪镇古城村村委会东200米中家鑫园温泉酒店1层,顺义区,北京市,1,40.110104,116.510863,中国银行24小时自助银行(中家鑫园温泉酒店),北京市,40fe6217763325bc0f0e6b3a,,40fe6217763325bc0f0e6b3a
府前西街4号,顺义区,北京市,1,40.135952,116.656828,中国银行24小时自助银行(顺义支行),北京市,7bfa08fca3fac87f24d2bbbc,,7bfa08fca3fac87f24d2bbbc
北京市顺义区天竺镇裕翔路99号欧陆时尚购物中心F1,顺义区,北京市,1,40.073225,116.553754,中国银行24小时自助银行服务(欧陆时尚购物中心),北京市,fd13a3f2a9aa5187b1077d5b,,fd13a3f2a9aa5187b1077d5b
北京市顺义区天竺镇府前一街38号,顺义区,北京市,1,40.067847,116.572504,中国银行24小时自助银行(北京天竺支行),北京市,bb57b71a96f0aa3c9c09f7fa,,bb57b71a96f0aa3c9c09f7fa
石园南大街16号,顺义区,北京市,1,40.114268,116.674683,中国银行24小时自助银行(北京林河开发区支行),北京市,cd9d05dd8fd362b585420e11,,cd9d05dd8fd362b585420e11
顺义区南平东里乙1号首都机场,顺义区,北京市,1,40.051378,116.608415,中国银行24小时自助银行服务(北京机场南路支行),北京市,7aea43b7de9262f87d29bd8a,,7aea43b7de9262f87d29bd8a
北京市昌平区育知西路风雅园二区8号楼,昌平区,北京市,1,40.088365,116.329649,中国银行(回龙观支行),北京市,dffd631cd6d6ebbc38221c63,(010)81718351,dffd631cd6d6ebbc38221c63
北京市昌平区回龙观东大街龙跃苑二区36号楼南段F0136号,昌平区,北京市,1,40.083938,116.35629,中国银行(回龙观东区支行),北京市,631c4157b881006131f71d63,(010)80752973,631c4157b881006131f71d63
昌平区东小口镇天通苑5区14号楼2门,昌平区,北京市,1,40.072138,116.422718,中国银行(北京天通苑支行),北京市,d82d669759544da6d518b71d,(010)84845093,d82d669759544da6d518b71d
北京市昌平区南环路57号,昌平区,北京市,1,40.218837,116.23629,中国银行(昌平支行),北京市,12c78aeb8732d5d6c1f1cf28,(010)69742986,12c78aeb8732d5d6c1f1cf28
北京市昌平区沙河巩华城大街76号,昌平区,北京市,1,40.134604,116.274406,中国银行(沙河支行),北京市,cac5fc7613ad0ef32cb96d1b,(010)69736977,cac5fc7613ad0ef32cb96d1b
北京市昌平区建材城西路新龙大厦1楼,昌平区,北京市,1,40.064559,116.334876,中国银行(北京西三旗支行),北京市,d13d706d27e4ec46626858fd,(010)82929185,d13d706d27e4ec46626858fd
城南街道南环东路24号,昌平区,北京市,1,40.21891,116.25845,中国银行(北京昌平东环路支行),北京市,9ffb4e33678e8bc8fa0cad40,(010)69712445,9ffb4e33678e8bc8fa0cad40
北京市昌平区北七家镇定泗路238号达华会馆一层,昌平区,北京市,1,40.123851,116.470408,中国银行(北京北七家支行),北京市,878a9995cc2a84bddc1e5209,(010)80147697,878a9995cc2a84bddc1e5209
北京市昌平区黄平路19号院1号楼c座1层,昌平区,北京市,1,40.071867,116.354081,中国银行(北京回龙观南区支行),北京市,2ef32479cd855baa4afd3f3d,,2ef32479cd855baa4afd3f3d
北京市昌平区南环路57号北60米,昌平区,北京市,1,40.218782,116.23606,中银理财,北京市,,,9d284ad1489176d39900502f
北京市昌平区八达岭奥特莱斯2层,昌平区,北京市,1,40.241009,116.175769,中国银行ATM,北京市,974bc594afe08515901fc92d,,974bc594afe08515901fc92d
昌平区风雅园二区8号楼,昌平区,北京市,1,40.088318,116.329771,中国银行24小时自助银行(回龙观支行),北京市,35debf290583de44a6da3963,,35debf290583de44a6da3963
北京市昌平区延寿镇昭陵环陵路定陵博物馆,昌平区,北京市,1,40.300006,116.234621,中国银行24小时自助银行(环陵路),北京市,,,a12baa4022c7982be856fa50
北京市昌平区黄平路19号龙旗购物中心F1,昌平区,北京市,1,40.071966,116.354675,中国银行24小时自助银行(龙旗购物中心),北京市,,,2e622416e48a71724151c0ed
北京市昌平区沙河巩华城大街76号,昌平区,北京市,1,40.134509,116.274417,中国银行24小时自助银行服务(北京沙河支行),北京市,7d5f3a0afb34954b2cb9081b,,7d5f3a0afb34954b2cb9081b
北京市昌平区龙跃苑二区10,昌平区,北京市,1,40.083935,116.356383,中国银行24小时自助银行(北京回龙观东区支行),北京市,341c35de0ca872bee6073863,(010)80752973,341c35de0ca872bee6073863
北京市昌平区府学路27号中国政法大学(近梅二宿舍楼),昌平区,北京市,1,40.22865,116.254161,中国银行24小时自助银行(府学路),北京市,7ebc1b59f500df2f29fc48bb,,7ebc1b59f500df2f29fc48bb
北京市昌平区南环路57号,昌平区,北京市,1,40.218847,116.236332,中国银行24小时自助银行(昌平支行),北京市,bff8fa7d157bf1a0c8213d0d,,bff8fa7d157bf1a0c8213d0d
北京市昌平区三一产业园1楼取款机,昌平区,北京市,1,40.226154,116.255524,中国银行ATM(亢山社区卫生服务站西南),北京市,4c50b3689f853bb76b49f3b0,,4c50b3689f853bb76b49f3b0
建材城西路87号院8号楼,昌平区,北京市,1,40.064561,116.334819,中国银行24小时自助银行(北京西三旗支行),北京市,97ee4cc6bca65c6f0f0a7018,,97ee4cc6bca65c6f0f0a7018
北京市昌平区北七家镇定泗路238号达华会馆1层,昌平区,北京市,1,40.123829,116.470189,中国银行24小时自助银行(北京北七家支行),北京市,089602885f0d280c38221c3b,,089602885f0d280c38221c3b
天通苑五区14号楼2门,昌平区,北京市,1,40.072088,116.422664,中国银行24小时自助银行(北京天通苑支行),北京市,36d4ef2f7102d45bf82d61fe,,36d4ef2f7102d45bf82d61fe
府学路5号,昌平区,北京市,1,40.218779,116.258654,中国银行24小时自助银行(北京昌平东环路支行),北京市,c776293a26f8a77c2b06ce4a,,c776293a26f8a77c2b06ce4a
"北京市经济技术开发区荣京东街3号一,二层2-201号",大兴区,北京市,1,39.800407,116.517634,中国银行(经济技术开发区支行),北京市,d219bb1d54ec458bf40e7798,(010)67825908,d219bb1d54ec458bf40e7798
北京市大兴区宏达北路10号北京万源商务中心,大兴区,北京市,1,39.807526,116.514157,中国银行(宏达北路支行),北京市,bb1d38e4eb3fcd4d0d0a7098,(010)67888361,bb1d38e4eb3fcd4d0d0a7098
经济技术开发区天华西路天华园二里2区19号大雄商业中心,大兴区,北京市,1,39.805394,116.501173,中国银行(天华支行),北京市,e6ee2fd25b0a71352b11d13e,,e6ee2fd25b0a71352b11d13e
北京市大兴区黄村镇兴业路中段三合南里22号楼1层,大兴区,北京市,1,39.737795,116.333198,中国银行(兴业路支行),北京市,f3c2373c39a42252d22dd6ed,(010)69246749,f3c2373c39a42252d22dd6ed
北京市经济技术开发区文化园西路8号院27号楼,大兴区,北京市,1,39.809722,116.499984,中国银行(亦庄文化园支行),北京市,0b23d7da4376a15eb1077d57,(010)87163078,0b23d7da4376a15eb1077d57
北京市大兴区黄村镇兴丰大街三段199号,大兴区,北京市,1,39.733551,116.34572,中国银行(大兴支行),北京市,373cf7572b1deb6e4354d7ed,"(010)69246990,(010)81291631",373cf7572b1deb6e4354d7ed
北京市大兴区永大路1号院8号楼110-111号,大兴区,北京市,1,39.695514,116.32818,中国银行(天河西路支行),北京市,f757e6eee3217a17260bd0ed,,f757e6eee3217a17260bd0ed
北京市大兴区兴华大街13号院4-3,大兴区,北京市,1,39.771577,116.337459,中国银行(北京大兴金星路支行),北京市,,(010)80222903,be9d991ae88cc2218bfc065c
北京市大兴区西红门镇欣荣北大街45号,大兴区,北京市,1,39.796319,116.350167,中国银行(欣荣北大街支行),北京市,49b541c75b6d2c40882fb5db,(010)80253771,49b541c75b6d2c40882fb5db
北京市大兴区旧桥路1号院3号楼108号,大兴区,北京市,1,39.812219,116.460403,中国银行(旧宫支行),北京市,24082f1eb9e7d00ef603b8aa,,24082f1eb9e7d00ef603b8aa
福顺街附近,大兴区,北京市,1,39.528696,116.333309,中国银行(大兴国际机场支行),北京市,,95566,e5ad89cdd506b1ff6d20b962
北兴路2号院20,大兴区,北京市,1,39.78048,116.370771,中国银行(北京大兴开发区支行),北京市,,(010)60213230,e80ea1de91edb332f942b26e
北京市大兴区旧宫镇小红门路39号永辉超市(旧宫店)1层,大兴区,北京市,1,39.819516,116.461227,中国银行ATM,北京市,437a11063e2c582d40ab9a73,,437a11063e2c582d40ab9a73
黄村印刷学院分院,大兴区,北京市,1,39.749625,116.338624,中国银行24小时自助银行,北京市,41847fcc631485eb4d55476a,,41847fcc631485eb4d55476a
荣京东街3号国荣世纪大厦,大兴区,北京市,1,39.80041,116.517646,中国银行24小时自助银行(北京经济技术开发区支行),北京市,750368359aaf38af5f0d0298,,750368359aaf38af5f0d0298
北京市大兴区永源路15号北京建筑大学大兴校区基础教学楼D座附近,大兴区,北京市,1,39.7555,116.289691,中国银行ATM(自强路),北京市,,,7ca6aee70c83ac1907fef5d3
北京市大兴区西红门镇宏旭路19-21号,大兴区,北京市,1,39.790986,116.337509,中国银行24小时自助银行服务(北京宏旭路支行),北京市,d991e116aea909551f3894e4,,d991e116aea909551f3894e4
北京市大兴区西红门镇欣荣北大街45号院4号楼1-7商铺,大兴区,北京市,1,39.796304,116.350297,中国银行24小时自助银行(欣荣北大街支行),北京市,0fa36cc9f8155cc5fda778fd,,0fa36cc9f8155cc5fda778fd
北京市大兴区欣宁街15号北京荟聚中心F1,大兴区,北京市,1,39.794143,116.331853,中国银行ATM(北京荟聚中心),北京市,825e6a116a58a97ec7f50dad,,825e6a116a58a97ec7f50dad
北京市大兴区兴华大街13号院4-3号,大兴区,北京市,1,39.771514,116.337464,中国银行24小时自助银行服务(北京大兴金星路支行),北京市,d5feea678dc18fec8f55ec62,,d5feea678dc18fec8f55ec62
大兴区天华园二里二区19号,大兴区,北京市,1,39.805409,116.501139,中国银行24小时自助银行(天华支行),北京市,8ab0dfc470b2b716d9eced9c,,8ab0dfc470b2b716d9eced9c
北京市大兴区旧桥路1号院3,大兴区,北京市,1,39.812174,116.460413,中国银行24小时自助银行(旧宫支行),北京市,152b858c44f89c0e4f3a59f8,,152b858c44f89c0e4f3a59f8
兴业路中段三合南里22号楼1层,大兴区,北京市,1,39.737639,116.333112,中国银行24小时自助银行(北京黄村兴业路支行),北京市,8eb48fa1b630d2a6f32d83ed,,8eb48fa1b630d2a6f32d83ed
文化园西路8号,大兴区,北京市,1,39.809598,116.499728,中国银行24小时自助银行(北京亦庄文化园支行),北京市,,,6c6139c03b41baab9d95deaa
宏达北路10,大兴区,北京市,1,39.807585,116.514127,中国银行24小时自助银行(北京宏达北路支行),北京市,7d5f3a0a55a34b352db908bd,,7d5f3a0a55a34b352db908bd
北京市大兴区北兴路(东段)2号院20号,大兴区,北京市,1,39.780567,116.371211,中国银行24小时自助银行(北京大兴开发区支行),北京市,f320e01c91f9019986420ee4,,f320e01c91f9019986420ee4
兴丰大街三段199,大兴区,北京市,1,39.733702,116.34563,中国银行24小时自助银行(北京大兴支行),北京市,a1418eb475528b7febe582ed,,a1418eb475528b7febe582ed
近郊雁栖大街49号,怀柔区,北京市,1,40.368085,116.682693,中国银行(雁栖支行),北京市,9d4fdbd8bee60db4adb22a85,(010)61667814,9d4fdbd8bee60db4adb22a85
北京市怀柔区开放路33号,怀柔区,北京市,1,40.33011,116.650695,中国银行(怀柔支行),北京市,f4460918f224296ab11e3672,(010)69644897,f4460918f224296ab11e3672
北京市怀柔区青春路14-3号,怀柔区,北京市,1,40.322461,116.637387,中国银行(北京怀柔府西支行),北京市,09185c5640a4885df1193772,(010)69641777,09185c5640a4885df1193772
北京市怀柔区北大街45号,怀柔区,北京市,1,40.342606,116.644155,中国银行(怀柔北大街支行),北京市,638cc9561e624fc421022031,(010)89685997,638cc9561e624fc421022031
北京市怀柔区府前街5号,怀柔区,北京市,1,40.322805,116.641793,中国银行(怀柔府前街支行),北京市,dbf4d6eeb381d5296fa3cc39,(010)69644055,dbf4d6eeb381d5296fa3cc39
北京市怀柔区南大街6号,怀柔区,北京市,1,40.318779,116.6421,中国银行(北京怀柔南大街支行),北京市,81547a2c370d192a4d2fdf86,(010)69680151,81547a2c370d192a4d2fdf86
北京市怀柔区福田戴姆勒汽车有限公司西门,怀柔区,北京市,1,40.354889,116.636929,中国银行ATM(塞班假日南),北京市,a1418eb49b6ce502ebe582d3,,a1418eb49b6ce502ebe582d3
北京市怀柔区渤海镇慕田峪长城风景区慕田峪长城国家级旅游景区内,怀柔区,北京市,1,40.42366,116.550314,中国银行24小时自助银行,北京市,45e1939fe2426e01d5b74e12,,45e1939fe2426e01d5b74e12
北京市怀柔区龙山街道迎宾路府前街小区东南,怀柔区,北京市,1,40.321459,116.643561,中国银行24小时自助银行,北京市,852dd168631d8a8c2811d1f0,,852dd168631d8a8c2811d1f0
北京市怀柔区雁栖大街49号,怀柔区,北京市,1,40.36815,116.682885,中国银行ATM(怀柔雁栖支行),北京市,1450e932dd7438bac1f1cfa9,,1450e932dd7438bac1f1cfa9
北京市怀柔区北大街,怀柔区,北京市,1,40.342222,116.646617,中国银行24小时自助银行服务,北京市,adb74e809c884fc7ad0457d3,,adb74e809c884fc7ad0457d3
青春路14-3号,怀柔区,北京市,1,40.32254,116.637415,中国银行ATM(北京怀柔府西支行),北京市,443858f6ca1235c7f7b916ef,,443858f6ca1235c7f7b916ef
北京市怀柔区府前街5号,怀柔区,北京市,1,40.322769,116.641852,中国银行24小时自助银行服务(北京怀柔府前街支行),北京市,52f2c5e40dc0e67a89f15db1,,52f2c5e40dc0e67a89f15db1
北京市怀柔区南大街6,怀柔区,北京市,1,40.318782,116.642098,中国银行24小时自助银行(康馨家园南),北京市,8ee3ec0fe54b9238adcb6643,,8ee3ec0fe54b9238adcb6643
北京市怀柔区北大街45,怀柔区,北京市,1,40.342646,116.644256,中国银行24小时自助银行(北京怀柔北大街支行),北京市,0af2dc31e94f6c2ba6da3938,,0af2dc31e94f6c2ba6da3938
北京市怀柔区开放路33号,怀柔区,北京市,1,40.329891,116.650747,中国银行24小时自助银行(北京怀柔支行),北京市,8ab0dfc471c4b616d8eced72,,8ab0dfc471c4b616d8eced72
北京市平谷区林荫北街11号,平谷区,北京市,1,40.147847,117.111786,中国银行(平谷支行),北京市,606289fd1174374da20464c9,(010)69961798,606289fd1174374da20464c9
北京市平谷区新平北路51号,平谷区,北京市,1,40.152442,117.117465,中国银行(新平北路支行),北京市,308de6ecd95ef680f82213d0,(010)89979576,308de6ecd95ef680f82213d0
北京市平谷区新开西路北100米,平谷区,北京市,1,40.148821,117.109872,中国银行平谷库房,北京市,,,c04216f909f9196cb45f1ec5
林荫北街11号,平谷区,北京市,1,40.147802,117.111751,中国银行24小时自助银行,北京市,0a46dc0f830b265e306212c9,,0a46dc0f830b265e306212c9
北京市密云区鼓楼南大街24号,密云区,北京市,1,40.377213,116.852508,中国银行(密云支行),北京市,93d8b6bb1542214b43afe6d6,(010)69043884,93d8b6bb1542214b43afe6d6
北京市密云区西门外大街6号,密云区,北京市,1,40.383172,116.840823,中国银行(密云城西支行),北京市,69fcd6df1fd1fa2fcb291590,(010)69044857,69fcd6df1fd1fa2fcb291590
北京市密云区鼓楼东大街34号,密云区,北京市,1,40.381734,116.85402,中国银行(密云鼓楼东大街支行),北京市,d6df91c1b283f26af6b91690,(010)69044815,d6df91c1b283f26af6b91690
北京市密云区古北水镇星巴克(古北咖啡店),密云区,北京市,1,40.651919,117.275778,中国银行ATM(司水路),北京市,,,37e8cd201e6d201bad0457e6
西门外大街6号,密云区,北京市,1,40.383111,116.840952,中国银行24小时自助银行服务(北京密云城西支行),北京市,6848127d4a6b21afc42ba184,,6848127d4a6b21afc42ba184
北京市密云区鼓楼东大街34号,密云区,北京市,1,40.381736,116.85392,中国银行24小时自助银行(北京密云鼓楼东大街支行),北京市,d5d449dc592cbac31fe9991c,,d5d449dc592cbac31fe9991c
鼓楼南大街24号,密云区,北京市,1,40.377303,116.852408,中国银行24小时自助银行(北京密云支行),北京市,beabdbf41efe42987169d390,,beabdbf41efe42987169d390
北京市延庆区S216(京藏高速辅路),延庆区,北京市,1,40.363318,116.014755,中国银行,北京市,4737bccfcc31c802ca1b9504,95566,4737bccfcc31c802ca1b9504
北京市延庆区庆园街12号,延庆区,北京市,1,40.477128,115.987179,中国银行(延庆支行),北京市,c5ddcc08dd1eeec6d8131826,(010)69182402,c5ddcc08dd1eeec6d8131826
北京市延庆区妫水南街19号,延庆区,北京市,1,40.453787,115.990696,中国银行(妫水南街支行),北京市,8022ff311136243ed2f49e0e,95566,8022ff311136243ed2f49e0e
北京市延庆区高塔街64号,延庆区,北京市,1,40.471853,115.991587,中国银行(延庆高塔街支行),北京市,cc0849a0b9c4e15094031926,(010)69140547,cc0849a0b9c4e15094031926
北京市延庆区庆园街12号,延庆区,北京市,1,40.477108,115.98704,中国银行24小时自助银行(北京延庆支行),北京市,5c56edd6e05fc85aa1d23026,,5c56edd6e05fc85aa1d23026
北京市延庆区妫水南街19号,延庆区,北京市,1,40.453745,115.990722,中国银行24小时自助银行服务(北京延庆妫水南街支行),北京市,,,fe53673d45dcab15a1a93431
延庆镇高塔街64号,延庆区,北京市,1,40.471869,115.99174,中国银行24小时自助银行(北京延庆高塔街支行),北京市,4b0b280b1025a8860c0a70cd,,4b0b280b1025a8860c0a70cd
