address,area,city,detail,lat,lng,name,province,street_id,telephone,uid
北京市东城区崇文门外大街90号,东城区,北京市,1,39.901213,116.425594,中国工商银行(崇文门外大街支行),北京市,fc7675244b9b7b874e776ecb,(010)67114823,fc7675244b9b7b874e776ecb
北京市东城区张自忠路10号华人一品大厦1层,东城区,北京市,1,39.939357,116.418112,中国工商银行(北京平安支行),北京市,cc788fde61b6c18888fc0665,(010)64078708,cc788fde61b6c18888fc0665
东安门大街甲64号附近,东城区,北京市,1,39.921372,116.414488,中国工商银行,北京市,0a633a446fc210f417c8f692,95588,0a633a446fc210f417c8f692
北京市东城区建国门内大街乙18号院1号楼1层,东城区,北京市,1,39.913227,116.430288,中国工商银行(北京中电财支行),北京市,b869b18dc8552c0ed42ce246,"(010)65218062,(010)65218057",b869b18dc8552c0ed42ce246
北京市东城区柳罐胡同甲2号,东城区,北京市,1,39.911695,116.440193,中国工商银行(北京站支行),北京市,cd9d05ddfb88feb685420ec9,"(010)65238692,(010)65263920,(010)65263921",cd9d05ddfb88feb685420ec9
北京市东城区和平里北街14号一层,东城区,北京市,1,39.965124,116.432535,中国工商银行(和平里北街支行),北京市,c8e8f63317a59112ab0dd8cc,(010)84216097,c8e8f63317a59112ab0dd8cc
东长安街1号东方广场E3座1层,东城区,北京市,1,39.916141,116.423552,中国工商银行(北京东长安街支行),北京市,24d05508ea8ccbd2128824de,(010)85181650,24d05508ea8ccbd2128824de
北京市东城区东直门外新中街甲2号,东城区,北京市,1,39.946405,116.4458,中国工商银行(北京东直门支行),北京市,dc0f0adc6a070921f82213ff,(010)51203011,dc0f0adc6a070921f82213ff
工人体育场北路66号瑞士公寓1楼,东城区,北京市,1,39.939256,116.443902,中国工商银行(北京工体北路支行),北京市,71768acfdabe715b9d95de2d,(010)64015062,71768acfdabe715b9d95de2d
北京市东城区南竹杆胡同6号北京INN三号楼底商,东城区,北京市,1,39.927568,116.438243,中国工商银行(北京朝内大街支行),北京市,5e2cae62d3de79b5077ce800,(010)65175651,5e2cae62d3de79b5077ce800
北京市东城区安定路甲28号,东城区,北京市,1,39.97718,116.414485,中国工商银行(北京安贞支行),北京市,3a0a78bdd31215fa631809ff,(010)64449287,3a0a78bdd31215fa631809ff
北京市东城区东四北大街474号,东城区,北京市,1,39.932697,116.424111,中国工商银行(北京东四头条支行),北京市,56e88cbaf18c1166a5c756a1,(010)64015172,56e88cbaf18c1166a5c756a1
东城区朝内大街188号中信建投证券大厦1楼,东城区,北京市,1,39.930182,116.430925,中国工商银行(东四支行),北京市,0adce3e24578c16180a00cff,"(010)65178343,(010)65178351",0adce3e24578c16180a00cff
北京市东城区夕照寺街光明中街66号,东城区,北京市,1,39.890812,116.444526,中国工商银行(夕照寺支行),北京市,e889a744b2d163b58705bf9e,(010)67114840,e889a744b2d163b58705bf9e
北京市东城区雍和宫大街52号,东城区,北京市,1,39.949839,116.423332,中国工商银行(北新桥支行),北京市,7d5f3a0afc58944b2cb908ff,"(010)64046112,(010)64068919,(010)64013629",7d5f3a0afc58944b2cb908ff
安定门外大街9号,东城区,北京市,1,39.966786,116.413857,中国工商银行(北京地坛支行),北京市,50f7d1461f0208c472210bff,(010)84122100,50f7d1461f0208c472210bff
香河园街1号10号楼第一二层,东城区,北京市,1,39.95493,116.444543,中国工商银行(万国城支行),北京市,b1c556e83786130fb52655a1,(010)64675041,b1c556e83786130fb52655a1
北京市东城区美术馆后街76号,东城区,北京市,1,39.933887,116.415982,中国工商银行(北京隆福支行),北京市,,,a12eb1ca0a9ac65ebadf8f08
北京市东城区景山前街4号故宫景运门,东城区,北京市,1,39.924803,116.406137,中国工商银行(自动柜员机店),北京市,,,8ae8bed1a027af62705e8077
北京市东城区左安门内大街110号左安漪园小区5号楼1楼,东城区,北京市,1,39.87972,116.446642,中国工商银行(北京龙潭支行),北京市,08fc93df23c41e919a68b49e,(010)87196816,08fc93df23c41e919a68b49e
北京市东城区台基厂大街10号松鹤楼菜馆,东城区,北京市,1,39.909668,116.418264,中国工商银行(台基厂分理处),北京市,,95588,1e50fb3908279f23cc06a4ab
北京市东城区东直门北大街9号石油大厦B座一层,东城区,北京市,1,39.949041,116.439007,中国工商银行(北京石油大厦支行),北京市,,"(010)59982188,(010)59982187",4a06f97b9a52a1378ab9888f
北京市东城区东四十条24号青蓝大厦二楼,东城区,北京市,1,39.939244,116.436083,中国工商银行(北京海运仓支行),北京市,,(010)64013032,55a75884adc720451d1d11c8
北京市东城区东交民巷甲23号,东城区,北京市,1,39.909118,116.414074,中国工商银行(北京正义路支行),北京市,5e53af1accd7a25c4151c026,(010)65239839,5e53af1accd7a25c4151c026
北京市东城区东打磨厂街2号,东城区,北京市,1,39.905173,116.423326,中国工商银行(北京新世界支行),北京市,435d7aea75b02e355bbbbc9e,(010)67087764,435d7aea75b02e355bbbbc9e
北京市东城区前门东大街16号楼,东城区,北京市,1,39.906506,116.409438,中国工商银行(北京正阳门支行),北京市,befdb2928aad85e186154199,"(010)67016132,(010)67015791",befdb2928aad85e186154199
北京市东城区体育馆西路甲11号天坛公园,东城区,北京市,1,39.890429,116.430872,中国工商银行(北京体育馆路支行),北京市,b533ea4a01ce78414e6d4699,(010)67114843,b533ea4a01ce78414e6d4699
北京市东城区交道口东大街6号楼一层,东城区,北京市,1,39.946853,116.419029,中国工商银行(东城安定门支行),北京市,78bd50f753a35a5b31870aff,(010)64061822,78bd50f753a35a5b31870aff
北京市东城区朝阳门北大街21号首层,东城区,北京市,1,39.93231,116.438864,中国工商银行(北京电信大楼支行),北京市,631c4157b9e5016131f71dff,(010)59503979,631c4157b9e5016131f71dff
北京市东城区东四南大街147号,东城区,北京市,1,39.924217,116.423948,中国工商银行(北京东四南支行),北京市,53d1553a06323a78f8dc85f2,(010)65229037,53d1553a06323a78f8dc85f2
灯市口大街75号,东城区,北京市,1,39.92504,116.41894,中国工商银行(北京灯市口支行),北京市,05dd7d5fbfefbc01ad080fff,"(010)85116650,(010)65282676",05dd7d5fbfefbc01ad080fff
北京市东城区朝阳门南小街12号首层,东城区,北京市,1,39.923898,116.433212,中国工商银行(北京禄米仓支行),北京市,2a7a25ecf81912636c3e1bff,(010)65270035,2a7a25ecf81912636c3e1bff
东城区金宝街18号,东城区,北京市,1,39.921377,116.435518,中国工商银行(北京王府井支行),北京市,1be69776cf3fe8b317b54bee,(010)65272100,1be69776cf3fe8b317b54bee
东城区安定门内大街292号,东城区,北京市,1,39.948505,116.415049,中国工商银行(北京交道口支行),北京市,25ec69fc463a557dc26c14ff,(010)64029718,25ec69fc463a557dc26c14ff
北京市东城区东四南大街147号,东城区,北京市,1,39.924319,116.423835,中国工商银行(北京东四南支行),北京市,,"(010)65256042,(010)65122355",a0d89006f60f96769868b478
东华门大街20号,东城区,北京市,1,39.921373,116.411402,中国工商银行(北京东华门支行),北京市,dbf4d6eee23caa546ea3cc87,(010)65125921,dbf4d6eee23caa546ea3cc87
东城区新中街68号聚龙花园7号楼1楼(近工人体育馆),东城区,北京市,1,39.935272,116.447037,中国工商银行(北京新中街支行),北京市,41572e00533808b4b45f1eff,(010)65535238,41572e00533808b4b45f1eff
北京市东城区建国门外北大街8号华润大厦1层,东城区,北京市,1,39.919354,116.440832,中国工商银行(北京华润大厦支行),北京市,550fd5f90cb2f07a931fc926,(010)65179225,550fd5f90cb2f07a931fc926
北京市东城区王府井大街138号一层,东城区,北京市,1,39.919234,116.418073,中国工商银行(北京新东安支行),北京市,8e96d243973dc4bfc51b75e5,"(010)65125938,(010)65137525,(010)65128309",8e96d243973dc4bfc51b75e5
北京市东城区东花市北里西区23号,东城区,北京市,1,39.905388,116.434213,中国工商银行(北京东花市支行),北京市,d92dd49b56bb538b4f6d4684,(010)67110663,d92dd49b56bb538b4f6d4684
北京市东城区天坛东路74-2号,东城区,北京市,1,39.883137,116.428124,中国工商银行(北京天坛东路支行),北京市,9a6374c2ed290302b54f542b,(010)67179302,9a6374c2ed290302b54f542b
北京市东城区广渠门内大街17号,东城区,北京市,1,39.9001,116.444494,中国工商银行(北京广渠门支行),北京市,d82d66975ed74ea6d418b79e,,d82d66975ed74ea6d418b79e
东城区东直门内大街19号乾元大厦一层,东城区,北京市,1,39.94749,116.431865,中国工商银行(北京东直门内大街支行),北京市,610852115bda11dcc51b75d8,(010)84063742,610852115bda11dcc51b75d8
北京市东城区王府井大街237号,东城区,北京市,1,39.921198,116.417361,中国工商银行(北京王府井金街支行),北京市,7d5f3a0afc6a944b2cb908c9,"(010)65125929,(010)65125936,(010)65251290",7d5f3a0afc6a944b2cb908c9
北京市东城区安德路47-5号,东城区,北京市,1,39.958072,116.407072,中国工商银行(北京和平里支行安德公路储蓄所),北京市,cc788fde07292f8a88fc06ff,"(010)84124439,(010)84124438",cc788fde07292f8a88fc06ff
北京市东城区永定门外大街86号鑫企旺写字楼1层,东城区,北京市,1,39.873717,116.407034,中国工商银行(北京崇文支行永定门分理处),北京市,b3aa435d4ded850b14764399,,b3aa435d4ded850b14764399
北京市东城区黄寺大街8号,东城区,北京市,1,39.966678,116.40621,中国工商银行(黄寺分理处)(不对外开放),北京市,69fcd6df1e24fb2fca2915ff,(010)66794789,69fcd6df1e24fb2fca2915ff
李村南里甲13号,东城区,北京市,1,39.872629,116.420719,工商银行离退休服务中心,北京市,,,222b2e8c902cdc7cec74f8bf
北京市东城区东四十条24号,东城区,北京市,1,39.939283,116.436449,中国工商银行(北京东城支行营业室),北京市,2983592c8b4f681117b54bf8,,2983592c8b4f681117b54bf8
北京市东城区朝阳门北大街22号中国石化大厦326室,东城区,北京市,1,39.95505,116.427818,中国工商银行(北京和平里支行营业室),北京市,72e57fd7dcf4adaff8dc85ff,(010)64030707,72e57fd7dcf4adaff8dc85ff
北京市东城区珠市口东大街15号,东城区,北京市,1,39.899376,116.411551,中国工商银行(北京珠市口支行营业部),北京市,9977eab67015aa8be60738c7,"(010)67075165,(010)67075162,(010)67197786",9977eab67015aa8be60738c7
北京市东城区东直门南小街113号,东城区,北京市,1,39.941442,116.432076,中国工商银行24小时自助银行(东直门南小街),北京市,3120140ae942bd1b28201ada,,3120140ae942bd1b28201ada
珠市口东大街15号,东城区,北京市,1,39.899258,116.411501,工商银行24小时自助银行服务(国瑞城花市ATM),北京市,24c47d03f3682e6bf723109d,,24c47d03f3682e6bf723109d
安定门外大街2号,东城区,北京市,1,39.974711,116.415398,中国工商银行ATM,北京市,00c24c3f308e8e8e4c3a5996,,00c24c3f308e8e8e4c3a5996
北京市东城区建国门内大街9号,东城区,北京市,1,39.91592,116.435081,中国工商银行自助银行,北京市,d868cd07552e7b7847e274bc,,d868cd07552e7b7847e274bc
王府井东街8号澳门中心1层,东城区,北京市,1,39.920818,116.419686,中国工商银行ATM(澳门中心),北京市,1f2dccfd77dc9343932ca389,,1f2dccfd77dc9343932ca389
北京市东城区王府井大街138号北京apmF1,东城区,北京市,1,39.919285,116.41799,中国工商银行24小时自助银行(apm),北京市,ed46dac8f05081ec36b06cf2,,ed46dac8f05081ec36b06cf2
北京市东城区王府井大街241号北京穆斯林大厦1层,东城区,北京市,1,39.920053,116.416571,中国工商银行ATM(北京市百货大楼),北京市,b47db14972c0f5fc6f4760a7,,b47db14972c0f5fc6f4760a7
北京市东城区天坛南里12号天坛普华医院B座大厅内,东城区,北京市,1,39.881844,116.411423,中国工商银行ATM(天坛普华医院),北京市,f9a210b5711662ff2fb17e5e,,f9a210b5711662ff2fb17e5e
珠市口东大街4-18号,东城区,北京市,1,39.89884,116.41963,中国工商银行24小时自助银行服务,北京市,,,1dc0cb47c9bc1196eee4a56a
安定门内大街292,东城区,北京市,1,39.948658,116.415077,中国工商银行24小时自助银行(北京交道口支行),北京市,38e480371cefea37363a71bd,,38e480371cefea37363a71bd
永定门外大街86号,东城区,北京市,1,39.873792,116.406998,中国工商银行ATM(永定门分理处),北京市,40aca8532287f7e99222e0e5,,40aca8532287f7e99222e0e5
东城区建国门内大街18号恒基商城底商,东城区,北京市,1,39.913308,116.434343,中国工商银行ATM(恒基燕莎百货东南),北京市,900b5c4a4149b6f5b34c49c1,,900b5c4a4149b6f5b34c49c1
北京市东城区北新桥炮局胡同21号,东城区,北京市,1,39.952226,116.428559,中国工商银行离行式自助银行(北京分行珠市口支行炮局胡同),北京市,e4c52a04afdb2d2d07fef5a0,,e4c52a04afdb2d2d07fef5a0
香河园街1号院10号,东城区,北京市,1,39.954925,116.444764,中国工商银行24小时自助银行(万国城支行),北京市,035e11e10a5f5e0021f017bc,,035e11e10a5f5e0021f017bc
东四北大街130,东城区,北京市,1,39.941713,116.423892,中国工商银行24小时自助银行(十二条储蓄所),北京市,3f9337d63f48c7cdf623108d,,3f9337d63f48c7cdf623108d
北京站东街甲10,东城区,北京市,1,39.911375,116.440521,中国工商银行24小时自助银行(北京站支行),北京市,f290f7b88b418702725e8088,,f290f7b88b418702725e8088
建国门内大街乙18号院1号楼1层,东城区,北京市,1,39.913385,116.430241,中国工商银行24小时自助银行(英大国际大厦东北),北京市,96200a49a6a3edef3a221c4a,,96200a49a6a3edef3a221c4a
南锣鼓巷95号,东城区,北京市,1,39.943182,116.409373,中国工商银行24小时自助银行服务(南锣鼓巷),北京市,76d7815f1e86c9b0260bd0fc,,76d7815f1e86c9b0260bd0fc
北京市东城区体育馆路甲11,东城区,北京市,1,39.890339,116.43103,中国工商银行24小时自助银行(北京体育馆路支行),北京市,5c0b9fcf601566475d0d0257,,5c0b9fcf601566475d0d0257
北京市东城区安德里北街18,东城区,北京市,1,39.963383,116.408833,中国工商银行24小时自助银行(安德里北街),北京市,0962c342b60e0ab39fec2b5c,,0962c342b60e0ab39fec2b5c
东城区海运仓B57,东城区,北京市,1,39.942725,116.439158,中国工商银行离行式自助服务区(北京分行东城支行海运仓B57),北京市,21874e79717893fa1e38949b,,21874e79717893fa1e38949b
王府井大街241号北京穆斯林大厦1层,东城区,北京市,1,39.920968,116.417396,中国工商银行24小时自助银行(北京王府井金街支行),北京市,522ce95eaf13cf2f2102204d,,522ce95eaf13cf2f2102204d
北京市东城区东华门大街20号,东城区,北京市,1,39.921398,116.411576,中国工商银行附行式自助银行(北京分行王府井支行东华门),北京市,,,5555f7ca9e9fb0a23f9a5eee
新中街68号7号楼首层,东城区,北京市,1,39.935129,116.447133,中国工商银行24小时自助银行(北京新中街支行),北京市,fdb100720650624e28b97ce6,,fdb100720650624e28b97ce6
金宝街18号,东城区,北京市,1,39.921404,116.435468,中国工商银行24小时自助银行(鄂尔多斯艾力东),北京市,874f4769247dedf54d2fdfa1,,874f4769247dedf54d2fdfa1
帅府园1号,东城区,北京市,1,39.919606,116.423361,中国工商银行离行式自助服务区(北京分行王府井支行协和医院),北京市,,,a281982759dadf004bfd3f8f
建国门北大街8号华润大厦,东城区,北京市,1,39.919242,116.440785,中国工商银行24小时自助银行(华润大厦分理处),北京市,6731e83193ea1e6617948e04,,6731e83193ea1e6617948e04
交道口南大街69号,东城区,北京市,1,39.942115,116.414801,中国工商银行24小时自助银行(交道口南大街),北京市,8d86ec91714b73b2fa42b24b,,59711c25b95bf941c51b7511
北京市东城区东长安街1号东方广场E3座1层,东城区,北京市,1,39.916193,116.423397,中国工商银行24小时自助银行(北京东长安街支行),北京市,5f894e55a8b932e4b35c6afd,,6b3ec68530f6c0d0932ca317
北京市东城区南竹杆胡同6号,东城区,北京市,1,39.927431,116.438314,中国工商银行24小时自助银行(北京朝内大街支行),北京市,0a48f84525cfa912343a7119,,0a48f84525cfa912343a7119
北京市东城区北京站街9号湖南大厦一层,东城区,北京市,1,39.912984,116.432988,中国工商银行24小时自助银行(湖南大厦西南),北京市,b939925c16f3fdc9c9e33cb6,,b939925c16f3fdc9c9e33cb6
左安门内大街110号,东城区,北京市,1,39.879794,116.4465,中国工商银行24小时自助银行(龙潭支行),北京市,fcc71b7f1dc95d1921026290,,fcc71b7f1dc95d1921026290
北京东城区光明楼中街5号,东城区,北京市,1,39.891381,116.44455,中国工商银行离行式自助服务区(北京分行崇文支行物美光明店),北京市,,,42c6b9ec855c7c1571210b59
北京市东城区夕照寺街丙11号,东城区,北京市,1,39.893979,116.446651,中国工商银行24小时自助银行服务(光明中街),北京市,20fd939a998fb083455726e2,,20fd939a998fb083455726e2
北京市东城区崇文门外大街90-2号,东城区,北京市,1,39.901383,116.425833,中国工商银行24小时自助银行(崇文门外大街支行),北京市,e731cda117f6f23dc51b75a7,,e731cda117f6f23dc51b75a7
北桥湾18,东城区,北京市,1,39.899928,116.414105,中国工商银行离行式自助银行(北京分行珠市口支行北桥湾),北京市,,,b2f990a6dec61c88ede4a5a4
北京市东城区交道口东大街6号一层,东城区,北京市,1,39.946929,116.419264,中国工商银行24小时自助银行(北京安定门支行),北京市,d94097d282c6490b0b1cc753,,d94097d282c6490b0b1cc753
外馆东街51号凯景铭座,东城区,北京市,1,39.966726,116.41357,中国工商银行24小时自助银行(北街地坛支行),北京市,69b9815ffe1c2961c42ba123,,69b9815ffe1c2961c42ba123
北京市东城区安定门外大街59号,东城区,北京市,1,39.963608,116.413037,中国工商银行离行式自助服务区(北京分行东城支行安定门外大街),北京市,6486b62d20295a346f4760f3,,6486b62d20295a346f4760f3
鼓楼东大街160附近,东城区,北京市,1,39.94707,116.40739,中国工商银行24小时自助银行(鼓楼东大街),北京市,2659b8646bb6ec48e215f9e2,,2659b8646bb6ec48e215f9e2
北京市东城区安德路47号5,东城区,北京市,1,39.958004,116.407134,中国工商银行24小时自助银行服务(北京安德公路储蓄所),北京市,640c40eabf42867c9ff7793a,,640c40eabf42867c9ff7793a
灯市口大街75号中科大厦1层,东城区,北京市,1,39.92504,116.41894,中国工商银行24小时自助银行(灯市口支行),北京市,,,dd2eae25825bfff611882474
北京市东城区东四西大街155号,东城区,北京市,1,39.931117,116.418072,中国工商银行离行式自助服务区(北京分行东城支行东四西大街),北京市,63d629b93955705dc61b7549,,63d629b93955705dc61b7549
朝阳门北大街5号,东城区,北京市,1,39.937499,116.438947,中国工商银行离行式自助服务区(北京分行东城支行五矿大厦),北京市,0c6eab577c4c144eae31e5fd,,0c6eab577c4c144eae31e5fd
北京市东城区朝阳门内大街188号鸿安国际大厦,东城区,北京市,1,39.930124,116.430906,中国工商银行24小时自助银行服务(东四支行),北京市,,,d27132468e0a7b11882fb5bd
前门东大街16号,东城区,北京市,1,39.906493,116.409279,中国工商银行24小时自助银行(北京正阳门支行),北京市,,,e6c265d1a03a8955d813189e
夕照寺中街66号,东城区,北京市,1,39.890763,116.444513,中国工商银行24小时自助银行(夕照寺支行),北京市,0abb59c162246cb12b06ce73,,0abb59c162246cb12b06ce73
北京东城绿景馨园东区13-113-1号,东城区,北京市,1,39.896073,116.446931,中国工商银行离行式自助服务区(北京分行崇文支行歌华有线崇文),北京市,cf041e941c35e0a46849f367,,cf041e941c35e0a46849f367
北京市东城区安定门东大街28号雍和大厦A座一层,东城区,北京市,1,39.955068,116.427995,中国工商银行24小时自助银行服务(北京分行和平里支行),北京市,c42c77e09ba71e6e07fef582,,c42c77e09ba71e6e07fef582
东直门内大街19,东城区,北京市,1,39.952871,116.432225,中国工商银行24小时自助银行(北京东直门内大街支行),北京市,489aeb44842e839c077ce88a,,489aeb44842e839c077ce88a
东城区和平里北街14号民委新闻出版大楼一层,东城区,北京市,1,39.965083,116.432977,中国工商银行24小时自助银行服务(北京分行和平里北街支行),北京市,16dcef7f9fb97dfe1a94c661,,37cb633c641626b4c7f025a0
北京市东城区新中街甲2号,东城区,北京市,1,39.946574,116.445968,中国工商银行24小时自助银行服务(北京分行东城支行东直门支行),北京市,f758fdf93821c4ff25d2bbbe,,f758fdf93821c4ff25d2bbbe
东城区安定路甲28号,东城区,北京市,1,39.977252,116.414294,中国工商银行24小时自助银行服务(北京安贞支行),北京市,7fd7231197f6c19f5cbe86ff,,7fd7231197f6c19f5cbe86ff
北京市东城区雍和宫大街52号,东城区,北京市,1,39.950117,116.42326,中国工商银行24小时自助银行服务(北京分行东城支行北新桥支行),北京市,,,4a152d0030a8dc15f4b916d6
北京市东城区新中街68号7号楼首层,东城区,北京市,1,39.935157,116.447115,中国工商银行24小时自助银行(北京分行东城支行新中街支行),北京市,a9a0d458c5d0919917b54b82,,a9a0d458c5d0919917b54b82
东城区东四南大街147号,东城区,北京市,1,39.92423,116.423946,中国工商银行24小时自助银行(北京东四南支行),北京市,7bd96513df6cbc00081cc7a5,,7bd96513df6cbc00081cc7a5
东交民巷23,东城区,北京市,1,39.908986,116.414639,中国工商银行24小时自助银行服务(北京分行珠市口支行东交民巷),北京市,e3f3cde22f87792845572695,,e3f3cde22f87792845572695
北京市东城区朝阳门内南小街12号首层,东城区,北京市,1,39.924151,116.433172,中国工商银行24小时自助银行服务(北京分行东城支行朝内小街),北京市,743b34be8f84c8836fc02c0b,,004c6ceb935480c621022036
北京市东城区张自忠路10号,东城区,北京市,1,39.939467,116.41809,中国工商银行24小时自助银行服务(北京分行东城支行平安支行),北京市,d4981004cf17413bc9c3dbe4,,d4981004cf17413bc9c3dbe4
王府井大街138号新东安广场F3层,东城区,北京市,1,39.920806,116.418625,中国工商银行24小时自助银行(新东安广场),北京市,2b2e40804de32529f4b916fe,,0dc9f69268646712bbbd63a6
东花市北里西区23号楼B座1层北侧,东城区,北京市,1,39.905961,116.434398,中国工商银行24小时自助银行服务(北京分行崇文支行东花市路),北京市,0766843fa40f9ee52b06ce74,,0766843fa40f9ee52b06ce74
北京市东城区朝阳门北大街21号,东城区,北京市,1,39.932271,116.438864,中国工商银行24小时自助银行(北京电信大楼支行),北京市,1eeed5465123ce8cb5147fc0,,1eeed5465123ce8cb5147fc0
北京市东城区东四十条24号,东城区,北京市,1,39.939091,116.436367,中国工商银行24小时自助银行服务(北京分行东城支行东四十条),北京市,c535ffa1b5856b9642d63e2e,,c535ffa1b5856b9642d63e2e
北京市东城区台基厂大街10-1号,东城区,北京市,1,39.909701,116.418348,中国工商银行24小时自助银行(台基厂分理处),北京市,b533ea4a03607a414f6d463b,,b533ea4a03607a414f6d463b
北京市东城区美术馆后街82.84号,东城区,北京市,1,39.933851,116.416663,中国工商银行24小时自助银行(北京分行东城支行美术馆后街),北京市,f374a7f718626a4632f71d5a,,f374a7f718626a4632f71d5a
东四北大街303-7号,东城区,北京市,1,39.936091,116.423458,中国工商银行24小时自助银行服务(北京市药品监督管理局东城分局东),北京市,c93c3631f456a508eee4a5eb,,c93c3631f456a508eee4a5eb
东打磨厂街2号,东城区,北京市,1,39.905272,116.423285,中国工商银行24小时自助银行服务(北京分行崇文支行东打么厂新世界),北京市,,,71b03bb7a2caf425f50e77c8
天坛东路74号,东城区,北京市,1,39.883245,116.428067,中国工商银行24小时自助银行服务(北京分行崇文支行天坛东路),北京市,dadbd9471d04eb3bf4b91652,,dadbd9471d04eb3bf4b91652
天桥南大街1,东城区,北京市,1,39.891902,116.404644,中国工商银行24小时自助银行服务(北京分行珠市口支行天桥南大街),北京市,33b70d476a6063aafa42b26d,,33b70d476a6063aafa42b26d
北京市西城区复兴门南大街2号天银大厦B座,西城区,北京市,1,39.910382,116.36456,中国工商银行(分行营业部),北京市,763ef21047603b5f47572683,(010)66410055,763ef21047603b5f47572683
北京市西城区地安门外大街31号,西城区,北京市,1,39.944021,116.402148,中国工商银行(鼓楼支行),北京市,fd13a3f2695611fab1077d28,(010)64011349,fd13a3f2695611fab1077d28
北京市西城区西便门东里甲1号,西城区,北京市,1,39.904563,116.361429,中国工商银行,北京市,5c210256b7340bcfdfee8ba6,95588,5c210256b7340bcfdfee8ba6
北京市西城区,西城区,北京市,1,39.887144,116.394594,中国工商银行,北京市,,,1e43447ae97acbbdbd48427f
北京市西城区广内大街306号菜百新世纪商场二层,西城区,北京市,1,39.894774,116.366343,中国工商银行(北京菜百支行),北京市,cead59e69919921f08ccdd0a,(010)63533584,cead59e69919921f08ccdd0a
北京市西城区复兴门外大街A2号,西城区,北京市,1,39.912456,116.358008,中国工商银行(北京复外支行),北京市,d82d6697ef5cdfa5d518b716,"(010)68569290,(010)68569287,(010)68569291",d82d6697ef5cdfa5d518b716
北京市西城区复兴门内大街55号,西城区,北京市,1,39.913863,116.37119,中国工商银行(北京复内支行),北京市,19466a1543c223d6f02d8329,(010)66107232,19466a1543c223d6f02d8329
金融大街7号英蓝国际金融中心2层206,西城区,北京市,1,39.926149,116.364378,中国工商银行(英蓝中心支行),北京市,c8e8f633b4da746cab0dd830,(010)58369216,c8e8f633b4da746cab0dd830
北京市西城区西单北大街129号3号楼1-2层及9号楼1-2层,西城区,北京市,1,39.918236,116.379939,中国工商银行(北京西单支行),北京市,b1f28e668e6cec9048cc4aa3,"(010)66037062,(010)66030562",b1f28e668e6cec9048cc4aa3
北京市西城区月坛南街26号,西城区,北京市,1,39.919431,116.346924,中国工商银行(北京三里河支行),北京市,d6ee87244a2656e0a8f0cd30,(010)68524551,d6ee87244a2656e0a8f0cd30
金融大街甲5号,西城区,北京市,1,39.926375,116.366002,中国工商银行(金融大街),北京市,,95588,679950ffa56680d5b6147f36
北京市西城区西单灵境胡同42号兆金大厦首层,西城区,北京市,1,39.920554,116.383822,中国工商银行(北京灵境支行),北京市,504d6113a91c26cd46572670,"(010)66031054,(010)66064157,(010)66038455",504d6113a91c26cd46572670
北京市西城区西单北大街6号1层,西城区,北京市,1,39.9244,116.380408,中国工商银行(甘石桥支行),北京市,3e2129492f12a23e60180920,(010)66056819,3e2129492f12a23e60180920
北京市西城区宣武门内大街6号西单美爵酒店南侧,西城区,北京市,1,39.909326,116.38127,中国工商银行(北京长安支行),北京市,dffd631cd9f1eabc38221c3e,"(010)66054909,(010)66038530,(010)66011148",dffd631cd9f1eabc38221c3e
北京市西城区真武庙路四条8号院2号楼商业102-1号,西城区,北京市,1,39.908431,116.353559,中国工商银行(真武庙支行),北京市,b703e96b0730f2878e1a898c,"(010)68011992,(010)68016740",b703e96b0730f2878e1a898c
北京市西城区广安门外大街305号八区15-17号楼105室,西城区,北京市,1,39.899152,116.343152,中国工商银行(北京广外支行),北京市,3810c879fda543f69c09f738,(010)51930041,3810c879fda543f69c09f738
宣武门西大街57号,西城区,北京市,1,39.907807,116.377367,中国工商银行(新华社储蓄所),北京市,7599908e4616675703ff2d5a,(010)63073047,7599908e4616675703ff2d5a
北京市西城区西四东大街99号,西城区,北京市,1,39.930314,116.380417,中国工商银行(北京西四支行),北京市,f757e6eee3627a17260bd030,"(010)66176292,(010)66175634,(010)66120281",f757e6eee3627a17260bd030
西城区,西城区,北京市,1,39.891236,116.404559,中国工商银行(北京天桥支行),北京市,64ff3be1651fd1bb90114ce6,(010)83133722,64ff3be1651fd1bb90114ce6
阜成门北大街6-2号,西城区,北京市,1,39.935703,116.36381,中国工商银行-24小时自助银行,北京市,a23d7795610153942fb9087c,,0ac3e049bfa1e6006b49f397
北京市西城区白云路10号,西城区,北京市,1,39.904645,116.349355,中国工商银行(白云路支行),北京市,53cebd50536be5602a02e11d,,53cebd50536be5602a02e11d
西城区莲花池东路100号,西城区,北京市,1,39.902272,116.336617,中国工商银行(自动柜员机店),北京市,557df684926a6b8fd2f49e41,95588,557df684926a6b8fd2f49e41
西城区广安门外红居街10号楼1层,西城区,北京市,1,39.891976,116.34343,中国工商银行(北京红莲支行),北京市,12f537bba59ae4fbf82d6172,,12f537bba59ae4fbf82d6172
西城区西直门内大街143号,西城区,北京市,1,39.947094,116.374578,中国工商银行(新街口支行),北京市,161a0ed29035e72e5dd4febf,,161a0ed29035e72e5dd4febf
西城区南礼士路头条1号,西城区,北京市,1,39.915359,116.357974,中国工商银行-24小时自助银行,北京市,0d0fe9d0fd03cb12b9bd634b,,0d0fe9d0fd03cb12b9bd634b
北京市西城区百万庄大街9号院1号楼一层,西城区,北京市,1,39.934221,116.357808,中国工商银行(北京融城支行),北京市,33feb092b7083ba5b4265523,"(010)68316725,(010)68316205",33feb092b7083ba5b4265523
阜成门北大街6-2号,西城区,北京市,1,39.935635,116.363831,中国工商银行(北京官园支行),北京市,060f5e53523661aa091cc7b3,(010)66090012,060f5e53523661aa091cc7b3
西城区西便门内大街69-1号,西城区,北京市,1,39.902645,116.359339,中国工商银行(天宁寺支行),北京市,beabdbf41e1942987069d3e9,(010)83116247,beabdbf41e1942987069d3e9
北京市西城区德胜门内大街176-1号1幢等2幢,西城区,北京市,1,39.946916,116.385769,中国工商银行(北京柳荫街支行),北京市,,(010)63949576,669fe6343408e113902ca36e
北京市西城区安德路108号,西城区,北京市,1,39.957611,116.395906,中国工商银行(北京安德路支行),北京市,,(010)62016172,15e34a0556bedaab970319c0
北京市西城区复兴门内大街55号,西城区,北京市,1,39.913965,116.371573,中国工商银行(北京中海凯旋支行),北京市,e889a74453f382cb8705bfba,"(010)66010928,(010)66011238",e889a74453f382cb8705bfba
北京市西城区太平桥大街8号院2号楼1至2层12,西城区,北京市,1,39.927912,116.371538,中国工商银行(北京白塔寺支行),北京市,0d2a2f23a044d9911f389424,(010)59352973,0d2a2f23a044d9911f389424
北京市西城区南纬路33号,西城区,北京市,1,39.88727,116.398605,中国工商银行(珠市口东经路支行),北京市,,(010)63013836,ac77d9dba0ae52a25bf6be2c
北京市西城区虎坊路15号1-2层,西城区,北京市,1,39.891276,116.390719,中国工商银行(北京虎坊路支行),北京市,e3082848bd2811bfb34c49e6,"(010)51250066,(010)51250213",e3082848bd2811bfb34c49e6
北京市西城区广安门内大街116-2号,西城区,北京市,1,39.894798,116.373516,中国工商银行(北京菜市口支行),北京市,15a93810c4c15cc014c8f624,(010)83531571,15a93810c4c15cc014c8f624
北京市西城区西便门外大街四号院6号楼首层,西城区,北京市,1,39.90929,116.359476,中国工商银行(北京西便门支行),北京市,923ffd00d8f88cb7d92f283e,(010)86096829,923ffd00d8f88cb7d92f283e
北京市西城区手帕口南街1号院1-1,西城区,北京市,1,39.893435,116.347121,中国工商银行(北京朗琴园支行),北京市,8d96925c91f81045c1f1cfe9,"(010)63368371,(010)63368376",8d96925c91f81045c1f1cfe9
北京市西城区鸭子桥路24号(中铁商务大厦一层),西城区,北京市,1,39.879592,116.3539,中国工商银行(北京青年湖支行),北京市,dbf4d6ee40d3482a6fa3cce9,(010)63364683,dbf4d6ee40d3482a6fa3cce9
北京市西城区教场口街9号院乙9-8号,西城区,北京市,1,39.960988,116.386449,中国工商银行(北京地安门支行),北京市,4cf8d24e3b53c4e49cf77928,,4cf8d24e3b53c4e49cf77928
北京市西城区德胜门外大街77号德胜国际中心D座,西城区,北京市,1,39.961834,116.38518,中国工商银行(总行电子银行中心),北京市,2ff39909ee936f2dd0ff2324,,2ff39909ee936f2dd0ff2324
德胜门东滨河路1号,西城区,北京市,1,39.956147,116.399763,中国工商银行(地安门六铺炕支行),北京市,9d18c7dac7f6759c095cb304,(010)82286658,d03f5a48aa31de0f6d20b9b7
西城区新街口外大街甲18-1号,西城区,北京市,1,39.961395,116.378084,中国工商银行(北京积水潭支行),北京市,87248d9654ec91b32806ce30,(010)62011924,87248d9654ec91b32806ce30
北京市西城区北三环中路乙6号伦洋大厦一、二层,西城区,北京市,1,39.974278,116.396135,中国工商银行(北京安华桥西支行),北京市,dffd464246762db13d9a5ea1,(010)58572792,dffd464246762db13d9a5ea1
北京市西城区平安里西大街31号航天金融大厦一层东侧,西城区,北京市,1,39.938963,116.374266,中国工商银行(北京赵登禹路支行),北京市,75036835f490dad15f0d02a4,(010)66250971,75036835f490dad15f0d02a4
太平桥大街11号丰汇时代大厦1层,西城区,北京市,1,39.921726,116.371992,中国工商银行(北京金融街支行),北京市,b648fbf3e6d19a21d72ce241,(010)58362182,24d05508f0eba5af1288243e
北京市西城区宣武门外大街1号1层109号,西城区,北京市,1,39.904604,116.380401,中国工商银行(北京宣武门支行),北京市,e4d3d8a6fa4433eeb320a89e,(010)63032199,e4d3d8a6fa4433eeb320a89e
北京市西城区育新街47号清芷园1号楼,西城区,北京市,1,39.878176,116.379166,中国工商银行(北京清芷园支行),北京市,,(010)83505909,e1b0cdf40e7a97b10f0e6b23
北京市西城区菜市口大街1号院1号楼,西城区,北京市,1,39.893744,116.380141,中国工商银行(北京福地广场支行),北京市,c009f4b7adb2ca494251c0d6,(010)63163683,c009f4b7adb2ca494251c0d6
北京市西城区右安门内大街15号,西城区,北京市,1,39.887434,116.369914,中国工商银行(北京樱桃园支行),北京市,3f2830423b9a8bd616c90537,"(010)63570786,(010)63570794,(010)63522204,(010)63573738",3f2830423b9a8bd616c90537
西城区展览馆路48-2号,西城区,北京市,1,39.92952,116.351422,中国工商银行(北京阜外大街支行),北京市,550fd5f9ffbe6379931fc930,(010)88389534,550fd5f9ffbe6379931fc930
北京市西城区金融大街4号金益大厦内,西城区,北京市,1,39.928059,116.367004,中国工商银行(北京阜成门支行),北京市,6f986aad8802dad671455b83,(010)63134529,6f986aad8802dad671455b83
西城区金融大街8号,西城区,北京市,1,39.924708,116.367184,中国工商银行(北京金树街支行),北京市,1bad1fde7bf35cb5d0ff2347,(010)58315072,1bad1fde7bf35cb5d0ff2347
北京市西城区车公庄大街9号,西城区,北京市,1,39.938554,116.354065,中国工商银行(北京车公庄支行),北京市,9161b5b4a2dc0acf9ee3214f,"(010)88312263,(010)88312172,(010)88312260",9161b5b4a2dc0acf9ee3214f
金融大街29号,西城区,北京市,1,39.917333,116.365906,中国工商银行(北京复兴门支行),北京市,6113ef77a7a97f148e77273e,(010)66006157,6113ef77a7a97f148e77273e
北京市西城区枣林前街70号(中环广场大厦),西城区,北京市,1,39.888715,116.358969,中国工商银行(北京中环广场支行),北京市,373cf7572a19ea6e4354d7e9,(010)83970241,373cf7572a19ea6e4354d7e9
北京市西城区白广路7号,西城区,北京市,1,39.890317,116.365217,中国工商银行(北京白广路支行),北京市,08fc93dfc0d4ffef9a68b484,(010)63543047,08fc93dfc0d4ffef9a68b484
北京市西城区西什库大街爱民巷小区三号楼,西城区,北京市,1,39.936434,116.386468,中国工商银行(新街口爱民里支行),北京市,7d34f344202d790deb1e9772,"(010)66531921,(010)66178331,(010)66183622",7d34f344202d790deb1e9772
北新华街29号昌盛大厦一层,西城区,北京市,1,39.910142,116.389812,中国工商银行(北京和平门内支行),北京市,b630e2c65125b56fdb13180b,(010)57385301,b630e2c65125b56fdb13180b
北京市西城区佟麟阁路75号,西城区,北京市,1,39.908592,116.37494,中国工商银行(北京新文化街支行),北京市,4420764633f5fb16dfee8b8c,(010)66021640,4420764633f5fb16dfee8b8c
北京市西城区宣武门西大街丙121号,西城区,北京市,1,39.905846,116.369056,中国工商银行(北京长椿街支行),北京市,,"(010)59721970,(010)59721984",42b06685b1c01c37f22d8307
北京市西城区琉璃厂西街24号,西城区,北京市,1,39.901584,116.389968,中国工商银行(北京西琉璃厂支行),北京市,,(010)63030757,407a049aaeeef0453a13fd9b
北京市西城区骡马市大街8号楼一层,西城区,北京市,1,39.895236,116.389658,中国工商银行(北京琉璃厂支行),北京市,6deee3086bb63a6a29fc48e6,"(010)63159085,(010)63032071",6deee3086bb63a6a29fc48e6
纸坊东街2号经济日报社底商,西城区,北京市,1,39.884104,116.379243,中国工商银行(北京陶然亭支行),北京市,3be122e152f9a8521ef74de6,(010)83525009,3be122e152f9a8521ef74de6
北京市西城区珠市口西大街147号,西城区,北京市,1,39.896506,116.397472,中国工商银行(北京大栅栏支行),北京市,ffd6d4030e4d708f17b54be6,(010)63132032,ffd6d4030e4d708f17b54be6
北京市西城区车公庄大街1-3号富通大厦首层,西城区,北京市,1,39.93857,116.360599,中国工商银行(北京西直门支行),北京市,8d96925c90bf1145c1f1cf30,"(010)68333051,(010)68366526",8d96925c90bf1145c1f1cf30
西城区广外马连道街6号院4-5号楼底商,西城区,北京市,1,39.892384,116.333477,中国工商银行(北京马连道支行),北京市,b2998c4d56c5b51ec42ba1c7,(010)63344945,b2998c4d56c5b51ec42ba1c7
北京市西城区白纸坊西街17号院10号楼一层103号,西城区,北京市,1,39.884061,116.364388,中国工商银行(北京白纸坊支行),北京市,a7c56ee0afd7c3b3a3acc4e9,(010)83510343,a7c56ee0afd7c3b3a3acc4e9
北京市西城区百万庄大街16号一层,西城区,北京市,1,39.933588,116.348538,中国工商银行(北京百万庄东口支行),北京市,89fd4ea339f60744e4e9659a,"(010)68999820,(010)68999817",89fd4ea339f60744e4e9659a
北京市西城区黑窑厂街18号楼首层,西城区,北京市,1,39.887338,116.388363,中国工商银行(北京南横街东口支行),北京市,14076deea7f6edf402294fe6,(010)83550319,14076deea7f6edf402294fe6
北京市西城区旧鼓楼外大街六铺炕一区1号,西城区,北京市,1,39.95863,116.399788,中国工商银行(北京鼓楼外大街支行),北京市,112fedaec062bca4223bf247,(010)82080680,112fedaec062bca4223bf247
北京市西城区德胜门外大街13号合生财富广场,西城区,北京市,1,39.965062,116.385032,中国工商银行(北京德胜科技园支行),北京市,d24e48eb72e0a5b4afee7a28,(010)62012907,d24e48eb72e0a5b4afee7a28
北京市西城区西直门南小街葱店胡同2号院1号楼一层,西城区,北京市,1,39.943538,116.365175,中国工商银行(新街口西直门内支行),北京市,,(010)66113297,a9cca078adc29f421b94c613
北京市西城区红莲南路57号中国文化大厦一层,西城区,北京市,1,39.883365,116.338573,中国工商银行(北京马连道茶城支行),北京市,87248d9657ab90b32806cee9,(010)63354191,87248d9657ab90b32806cee9
北京市西城区西直门内大街143号附近,西城区,北京市,1,39.947109,116.374409,中国工商银行(新街口支行营业部电费代收点),北京市,da69a775b1110419f50e77a1,,da69a775b1110419f50e77a1
北京市西城区棉花胡同52号,西城区,北京市,1,39.944272,116.382899,中国工商银行(北京新街口支行棉花胡同储蓄所),北京市,eb367503138d271b00ec0128,(010)83226786,eb367503138d271b00ec0128
北京市西城区复兴门外大街2号,西城区,北京市,1,39.911842,116.360344,工商银行ATM,北京市,606789daba64d6b645e2746a,,606789daba64d6b645e2746a
北京市西城区复兴门内大街55号,西城区,北京市,1,39.914308,116.371263,中国工商银行总行大厦,北京市,,,3cfc41a2e7c3aca303ff2d1c
北京市西城区西单北大街110号老佛爷百货F5,西城区,北京市,1,39.920041,116.381072,中国工商银行ATM(老佛爷百货),北京市,16615dfeed65f3a0b320a8a9,,16615dfeed65f3a0b320a8a9
北京市西城区德胜门外大街77号德胜国际中心D座,西城区,北京市,1,39.961797,116.385109,中国工商银行(北京地安门支行营业室),北京市,,"(010)82067096,(010)82067286",d71d2b505a162976f1193739
北京市西城区广外南滨河路3号,西城区,北京市,1,39.893383,116.354131,中国工商银行(北京广安门支行营业室),北京市,550fd5f9fef96279931fc9e9,"(010)63284630,(010)63442049",550fd5f9fef96279931fc9e9
北京市西城区西便门外大街4-4号,西城区,北京市,1,39.90927,116.35945,中国工商银行24小时自助银行服务(北京西便门支行),北京市,eca7af76c919a5b229fc4823,,eca7af76c919a5b229fc4823
北京市西城区金融大街8,西城区,北京市,1,39.924688,116.36709,中国工商银行-24小时自助银行(北京金树街支行),北京市,6ac1caa1f8191bae08f5eb76,,6ac1caa1f8191bae08f5eb76
六铺炕街3号-水对外,西城区,北京市,1,39.960487,116.398644,中国工商银行离行式自助服务区(北京分行地安门支行六铺炕街3号),北京市,,,abf5057b8c471318f7c59c77
北京市西城区复兴门内大街55号,西城区,北京市,1,39.913958,116.370948,工总行公司,北京市,0d3f5ff31e0983e5e6073805,,0d3f5ff31e0983e5e6073805
北京市西直门外大街甲143号,西城区,北京市,1,39.94482,116.339805,中国工商银行ATM,北京市,0c06b5c73bd6a61703ec01d4,,0c06b5c73bd6a61703ec01d4
动物园地铁站B2层,西城区,北京市,1,39.944249,116.344719,中国工商银行ATM,北京市,127dfa4d6215437dfda778be,,127dfa4d6215437dfda778be
马连道路16号(明日五洲酒店),西城区,北京市,1,39.883398,116.333821,中国工商银行ATM,北京市,35ddc2aecd6c03c22fb90873,,35ddc2aecd6c03c22fb90873
广安门南街70号佑安大酒店1层,西城区,北京市,1,39.877435,116.359458,中国工商银行自助银行,北京市,b05bde12d51e43ec601809c8,,b05bde12d51e43ec601809c8
北京市西城区金融街街道太平桥大街11号丰汇时代大厦1层工商银行小企业部大厦,西城区,北京市,1,39.921783,116.371592,工商银行小企业部大厦,北京市,,,c0caaf82b1f28c971811d576
北京市西城区西什库大街8号门诊楼1F层,西城区,北京市,1,39.938846,116.387384,中国工商银行ATM(门诊楼),北京市,7e4a7f2173179e732d473304,,7e4a7f2173179e732d473304
宣武门西大街丙121号,西城区,北京市,1,39.905708,116.368997,中国工商银行24小时自助银行(长椿街支行),北京市,,,f02c891de5b21e8b71210bdd
宣武门内大街4号华滨国际大酒店1层,西城区,北京市,1,39.910949,116.382548,中国工商银行ATM(油坊胡同),北京市,b72e40ddd94c7356ad31e533,,b72e40ddd94c7356ad31e533
北京市西城区西单北大街133号北京君太百货B1,西城区,北京市,1,39.915374,116.379366,中国工商银行ATM(君太百货),北京市,4a2a1eca6544bec6e856fad5,,4a2a1eca6544bec6e856fad5
北京市西城区手帕口南街1号院1号楼底商(天虹商场南),西城区,北京市,1,39.893466,116.347193,中国工商银行24小时自助银行(朗琴园支行),北京市,36829ded6eec3c1b0f0e6b87,,36829ded6eec3c1b0f0e6b87
太平桥大街96号,西城区,北京市,1,39.919455,116.370546,中国工商银行24小时自助银行,北京市,613ac502dac88f9b7f29bdf8,,613ac502dac88f9b7f29bdf8
北京市西城区广安门内大街116-2号,西城区,北京市,1,39.894817,116.373351,中国工商银行24小时自助银行,北京市,3fdd28f4dd51a54228d7aba1,,3fdd28f4dd51a54228d7aba1
北京市西城区月坛南街三里河北街12号,西城区,北京市,1,39.921312,116.346367,中国工商银行24小时自助银行,北京市,,,9f411ea3c5389b8e744ff141
北京市西城区西单北大街8号,西城区,北京市,1,39.924567,116.380261,中国工商银行24小时自助银行服务,北京市,acccd2adfaa8708abbbd636a,,acccd2adfaa8708abbbd636a
复兴门内大街28号凯晨世贸中心B1楼,西城区,北京市,1,39.912115,116.371705,中国工商银行ATM(复兴门内大街),北京市,14c7fab88d54432133f71d41,,14c7fab88d54432133f71d41
北京市西城区,西城区,北京市,1,39.957592,116.395878,中国工商银行24小时自助银行服务,北京市,4cf2bc839e59b109a8175ae5,,4cf2bc839e59b109a8175ae5
北京市西城区宝产胡同7,西城区,北京市,1,39.941052,116.378538,中国工商银行24小时自助银行服务(新街口南大街),北京市,69ae2c631fb97149da2f2842,,69ae2c631fb97149da2f2842
宣武门外大街12号庄胜崇光百货新馆1层,西城区,北京市,1,39.901805,116.381582,中国工商银行ATM(庄胜崇光百货),北京市,1bf85b25ac2b15daa1a93472,,1bf85b25ac2b15daa1a93472
金融大街37号百盛购物中心北京复兴门店北楼1层,西城区,北京市,1,39.914466,116.36535,中国工商银行ATM(百盛购物中心),北京市,f6cbd921f4dafad982288a27,,f6cbd921f4dafad982288a27
槐柏树街17-1号附近,西城区,北京市,1,39.903009,116.36353,中国工商银行ATM(槐柏树街北里),北京市,df287f81eaf3f56a28201a67,,df287f81eaf3f56a28201a67
北京市西城区枣林前街70号,西城区,北京市,1,39.888688,116.35907,中国工商银行ATM(中环广场支行),北京市,f1ea492eda2401d36cc02c75,,f1ea492eda2401d36cc02c75
葱店胡同2-6号,西城区,北京市,1,39.943375,116.365228,中国工商银行24小时自助银行服务(西直门内支行),北京市,d6badf985be113f87069d334,,d6badf985be113f87069d334
琉璃厂西街24号,西城区,北京市,1,39.901626,116.38979,中国工商银行24小时自助银行服务,北京市,,,efc7d79deb49d3124afd3fd9
南纬路33,西城区,北京市,1,39.887194,116.398745,中国工商银行24小时自助银行(南纬路),北京市,f879d9d6e8f586be2afc48c1,,f879d9d6e8f586be2afc48c1
北京市西城区宣武门西大街18号国华商场F1,西城区,北京市,1,39.904896,116.370602,中国工商银行ATM(国华商场宣武门店),北京市,7372a17ab1033d0a94ec849e,,7372a17ab1033d0a94ec849e
北京市西城区棉花胡同甲52,西城区,北京市,1,39.944291,116.382873,中国工商银行ATM(北京棉花胡同储蓄所),北京市,53cebd50c264741f2a02e113,,53cebd50c264741f2a02e113
后英房胡同9号,西城区,北京市,1,39.951004,116.370335,中国工商银行离行式自助服务区(北京分行新街口支行后英房胡同),北京市,56b3a520c833517fce04ef3a,,56b3a520c833517fce04ef3a
北京市西城区德胜门内大街176-1,西城区,北京市,1,39.947026,116.385816,中国工商银行24小时自助银行(德胜门内大街),北京市,5c0a510dc32ee597734b8740,,5c0a510dc32ee597734b8740
北京市西城区阜成门内大街288号,西城区,北京市,1,39.929355,116.368934,中国工商银行24小时自助银行(阜成门内大街),北京市,3abcee66d212fa7222f01730,,3abcee66d212fa7222f01730
太平桥大街金融街购物中心,西城区,北京市,1,39.921212,116.369027,中国工商银行离行式自助服务区(北京金融街支行金融街购物中心),北京市,bc97acb07c126f80c4f50d0c,,bc97acb07c126f80c4f50d0c
宣武门外大街甲1号,西城区,北京市,1,39.904602,116.380487,中国工商银行24小时自助银行(宣武门外大街),北京市,515d94ed3cd8b9bdad045790,,515d94ed3cd8b9bdad045790
北京西城区南横东街8号都城大厦,西城区,北京市,1,39.889383,116.390202,中国工商银行离行式自助服务区(北京分行宣武支行陶然亭支行),北京市,4285a386521205898bdb73e2,,4285a386521205898bdb73e2
北京西城区永定门内西街5号,西城区,北京市,1,39.879872,116.399307,中国工商银行离行式自助服务区(北京分行宣武支行菜市口支行),北京市,,,311bc130125428d73a04b193
北京市西城区永安路95号首都医科大学附属北京友谊医院F1层,西城区,北京市,1,39.891836,116.40009,中国工商银行ATM(首都医科大学附属北京友谊医院),北京市,f58c881d2eda04bcb42655f1,,f58c881d2eda04bcb42655f1
北京市西城区百万庄大街24号,西城区,北京市,1,39.933682,116.344943,中国工商银行离行式自助服务区(北京市分行南礼士路支行南礼士路支行),北京市,,,a20cd3e5914a55f7da2f2874
北京市西城区三里河三巷1号1层大厅,西城区,北京市,1,39.91951,116.346824,中国工商银行24小时自助银行(北京三里河支行),北京市,729cc49ec0b2e9340bf5eb43,,729cc49ec0b2e9340bf5eb43
百万庄大街26号,西城区,北京市,1,39.933658,116.343034,中国工商银行离行式自助银行(北京市分行南礼士路支行南礼士路支行),北京市,,,f6849182da9dc027b34c499b
北京市西城区红莲南路57号中国文化大厦,西城区,北京市,1,39.883332,116.338362,中国工商银行24小时自助银行服务(北京马连道茶城支行),北京市,0dbaa183ac4cb830c6effb1e,,0dbaa183ac4cb830c6effb1e
鼓楼西大街191,西城区,北京市,1,39.953721,116.388443,中国工商银行24小时自助银行(鼓楼西大街),北京市,3862003068aebc3332f71ddf,,3862003068aebc3332f71ddf
太平桥大街16号,西城区,北京市,1,39.92338,116.371753,中国工商银行离行式自助银行(北京市分行南礼士路支行南礼士路支行),北京市,19ade8bde534dff959f6beb0,,19ade8bde534dff959f6beb0
北京市西城区京畿道小区西门5号楼北侧,西城区,北京市,1,39.915941,116.373704,中国工商银行离行式自助服务区(北京分行长安支行京畿道小区),北京市,7b51504ab618518638e4a6d9,,7b51504ab618518638e4a6d9
西城区大觉胡同50号,西城区,北京市,1,39.940923,116.370346,中国工商银行离行式自助服务区(北京分行新街口支行大觉胡同),北京市,aa259f233a240212c9fa5f2e,,aa259f233a240212c9fa5f2e
北京市西城区宣武门内大街6号西单美爵酒店,西城区,北京市,1,39.90941,116.381225,中国工商银行24小时自助银行服务(长安支行),北京市,,,1577afc5e0bf675d0682c2a7
前门西大街41,西城区,北京市,1,39.907248,116.396824,中国工商银行离行式自助服务区(北京分行珠市口支行前门西大街),北京市,7648c1b08a9301ba3904b15c,,7648c1b08a9301ba3904b15c
西单北大街129-1号,西城区,北京市,1,39.918196,116.380108,中国工商银行24小时自助银行(西单支行),北京市,68215e6c7aaee8495a3ac8dd,,68215e6c7aaee8495a3ac8dd
西城区南横东街8号都城大厦1楼,西城区,北京市,1,39.889092,116.39041,中国工商银行24小时自助银行(南横东街支行),北京市,3e79957c4899a74ba80dd832,,3e79957c4899a74ba80dd832
北京市西城区陶然亭地铁站(4号线),西城区,北京市,1,39.884652,116.380909,中国工商银行离行式自助服务区(北京分行宣武支行陶然亭支行),北京市,52d19db3c0a7b464631c6731,,434ce82baf93d59196ca07ef
虎坊路15号,西城区,北京市,1,39.891306,116.391016,中国工商银行24小时自助银行(北京虎坊路支行),北京市,02a38aca37215b2226d2bb32,,02a38aca37215b2226d2bb32
金融大街4号,西城区,北京市,1,39.928044,116.367048,中国工商银行网点自助服务区(北京分行阜成门支行),北京市,f5d627ecd957b68ac26c1443,,f5d627ecd957b68ac26c1443
西城成方街32号(人总行大厅),西城区,北京市,1,39.914137,116.366781,中国工商银行离行式自助服务区(北京复兴门支行中国人民总行),北京市,863847604b6abf5ae215f941,,863847604b6abf5ae215f941
北京市西城区西便门东里甲1号,西城区,北京市,1,39.904502,116.36151,中国工商银行24小时自助银行服务(广安门北滨河路),北京市,fe44ac8c920070de5abbbcd2,,fe44ac8c920070de5abbbcd2
北京市西城区月坛南街38号,西城区,北京市,1,39.919528,116.344211,中国工商银行附行式自助银行(北京市分行南礼士路支行三里河),北京市,db6d39a98e39304f42d63e55,,db6d39a98e39304f42d63e55
金融大街29号中国移动大厦北门1层营业厅,西城区,北京市,1,39.917282,116.365957,中国工商银行离行式自助银行(北京复兴门支行移动大厦),北京市,c17f4614e8bd6021c3364440,,c17f4614e8bd6021c3364440
北京市西城区车公庄大街9-11号,西城区,北京市,1,39.938485,116.354191,中国工商银行24小时自助银行(车公庄支行),北京市,3d9751fe5719a8760482c23d,,3d9751fe5719a8760482c23d
金融大街17号,西城区,北京市,1,39.922357,116.366057,中国工商银行离行式自助银行(北京市分行南礼士路支行南礼士路支行),北京市,d7f8eed750a9725f9222e0bd,,d7f8eed750a9725f9222e0bd
北京市西城区右安门内西街乙６,西城区,北京市,1,39.878741,116.366818,中国工商银行24小时自助银行(右安门内西街),北京市,1c4a2ef75f1dc9f4b13c8143,,1c4a2ef75f1dc9f4b13c8143
西城区鸭子桥路24号中铁大厦1楼,西城区,北京市,1,39.879601,116.353902,中国工商银行24小时自助银行(北京青年湖支行),北京市,2e1e59f55f4887461ee9991a,,2e1e59f55f4887461ee9991a
北京市西城区西直门内大街143号,西城区,北京市,1,39.947078,116.374486,中国工商银行24小时自助银行(北京新街口支行营业室),北京市,9f9f588951626ddb6240a967,,9f9f588951626ddb6240a967
北京市西城区德胜门外大街77号德胜国际中心D座一层,西城区,北京市,1,39.961334,116.386336,中国工商银行24小时自助银行(德外支行),北京市,a2703d4687c20cfec1f1cf8b,,a2703d4687c20cfec1f1cf8b
北京市西城区北三环中路乙6号伦洋大厦,西城区,北京市,1,39.97426,116.396427,中国工商银行24小时自助银行(安华桥西支行),北京市,45c88c827914fa58b11e36a4,,45c88c827914fa58b11e36a4
复兴门大街28号,西城区,北京市,1,39.912284,116.370939,中国工商银行离行式自助服务区(北京分行长安支行凯晨大厦),北京市,965e1e1e83786316d2f49e85,,965e1e1e83786316d2f49e85
北京市西城区佟麟阁路75号,西城区,北京市,1,39.908621,116.374843,中国工商银行24小时自助银行(长安新文化街支行),北京市,6fb1e1370ccf21a283a00c49,,6fb1e1370ccf21a283a00c49
西城区广宁伯街1号,西城区,北京市,1,39.920534,116.369611,中国工商银行离行式自助服务区(北京分行宣武支行白广路支行),北京市,337bf355c94f56d0aa059d50,,337bf355c94f56d0aa059d50
北京市西城区西单北大街129号,西城区,北京市,1,39.918468,116.379852,中国工商银行附行式自助银行(北京分行长安支行西单智能),北京市,,,369468382239ef27f7c59c7a
北新华街126号,西城区,北京市,1,39.90755,116.390747,中国工商银行24小时自助银行(长安支行营业室),北京市,4cf32e02fe22486cb8bd6313,,4cf32e02fe22486cb8bd6313
地铁六号线北海北站,西城区,北京市,1,39.939517,116.392861,中国工商银行离行式自助服务区(北京分行新街口支行地铁六号线北海北站),北京市,bc88cc04ad8b063e4251c0e5,,bc88cc04ad8b063e4251c0e5
地铁六号线平安里站H口内,西城区,北京市,1,39.938339,116.376726,中国工商银行离行式自助服务区(北京分行新街口支行地铁六号线平安里站),北京市,99a7f3d046161c052e473376,,99a7f3d046161c052e473376
宣武门外大街8-1号,西城区,北京市,1,39.905575,116.386236,中国工商银行24小时自助银行(北京和平门支行),北京市,f3023ac9a526955e14b54bff,,f3023ac9a526955e14b54bff
二龙路乙33号国税大厅1层,西城区,北京市,1,39.917879,116.372245,中国工商银行ATM(北京市西城区国家税务局),北京市,ab311cb72cfd174b9ee321d7,,ab311cb72cfd174b9ee321d7
西黄城根北街前毛家湾1号,西城区,北京市,1,39.935904,116.383315,中国工商银行24小时自助银行(西黄城根北街),北京市,3f9e1c388414faeaf33cba2a,,3f9e1c388414faeaf33cba2a
西四北大街288,西城区,北京市,1,39.930263,116.380132,中国工商银行24小时自助银行(西四支行),北京市,588635fe0197b88132f71d6a,,588635fe0197b88132f71d6a
西城区半步桥44号,西城区,北京市,1,39.879028,116.375008,中国工商银行离行式自助服务区(北京分行宣武支行陶然亭支行),北京市,,,d2369160ae7a8af2aa059d6a
北京市西城区太平街甲6富力·摩根中心B座(南纬路),西城区,北京市,1,39.887,116.394871,中国工商银行24小时自助银行(北京南纬路支行),北京市,017c6e1ab73b71c4aa059d7a,,017c6e1ab73b71c4aa059d7a
木樨地南里(公安大学),西城区,北京市,1,39.907517,116.343083,中国工商银行离行式自助服务区(北京分行西客站支行木樨地南里（公安大学）),北京市,9e167cb02253f540afee7a5a,,9e167cb02253f540afee7a5a
金融街29号一层,西城区,北京市,1,39.917366,116.365953,中国工商银行网点自助服务区(北京分行复兴门支行金融街),北京市,4ec44103365d7e6bf219371a,,4ec44103365d7e6bf219371a
北京市西城区白云路1号,西城区,北京市,1,39.911482,116.346654,中国工商银行离行式自助服务区(北京市分行南礼士路支行南礼士路支行),北京市,d3b4bac336a2e899744ff130,,d3b4bac336a2e899744ff130
北京市西城区西便门内大街69-1,西城区,北京市,1,39.902568,116.359342,中国工商银行24小时自助银行(天宁寺支行),北京市,9994eea8975c0f32d3ff2345,,9994eea8975c0f32d3ff2345
阜成门北大街6-2号,西城区,北京市,1,39.935783,116.363806,中国工商银行附行式自助银行(北京分行地安门支行阜成门北大街),北京市,3d1955fd719e622ef4b91654,,3d1955fd719e622ef4b91654
北京市西城区百万庄大街9号院1号楼一层A-101、102、103,西城区,北京市,1,39.934127,116.357729,中国工商银行24小时自助银行(百万庄大街),北京市,113f7779c36b4d4f6c47601d,,113f7779c36b4d4f6c47601d
西便门内大街85号中国五洲工程设计集团有限公司,西城区,北京市,1,39.900621,116.35924,中国工商银行离行式自助服务区(北京分行广安门支行西便门内大街),北京市,109943d97952f2bebadf8f2e,,109943d97952f2bebadf8f2e
马连道路6号院45号,西城区,北京市,1,39.892353,116.333413,中国工商银行24小时自助银行(马连道支行),北京市,8ab0dfc407f76868d8eced5e,,8ab0dfc407f76868d8eced5e
德胜门东滨河路1号,西城区,北京市,1,39.956216,116.399708,中国工商银行24小时自助银行(北京分行地安门支行东滨河路1号),北京市,0e71eae568155d675bf6be68,,0e71eae568155d675bf6be68
德胜门外大街77号,西城区,北京市,1,39.961693,116.385173,中国工商银行24小时自助银行(北京分行地安门支行德外大街77号),北京市,538fbca07146da665cbe86f9,,538fbca07146da665cbe86f9
六铺炕一区1号,西城区,北京市,1,39.95869,116.399811,中国工商银行24小时自助银行服务(北京分行地安门支行六铺炕一区),北京市,225ae2d6e7fc631f36b06cd5,,225ae2d6e7fc631f36b06cd5
新街口外大街甲18-1号,西城区,北京市,1,39.961434,116.378082,中国工商银行24小时自助银行(北京积水潭支行),北京市,49d959381b4aa043c61e5133,,49d959381b4aa043c61e5133
北京市西城区北新华街29号,西城区,北京市,1,39.910125,116.389812,中国工商银行24小时自助银行服务(北京分行长安支行和平门内),北京市,32e040e5653532db2fb9083e,,02c928d61a92a65d3904b15a
太平桥大街96号,西城区,北京市,1,39.919393,116.370564,中国工商银行24小时自助银行服务(北京分行长安支行中海凯旋),北京市,6730d51362db69465b10932e,,6aece2f25daf05674c6d46c4
新文化街159号,西城区,北京市,1,39.909958,116.370972,中国工商银行24小时自助银行服务(北京分行长安支行新文化街),北京市,679276a1ff0411e6d23ce379,,679276a1ff0411e6d23ce379
北京市西城区阜成门内大街284号,西城区,北京市,1,39.927875,116.371563,中国工商银行24小时自助银行(白塔寺支行),北京市,aef850481a8a641c59bbbc47,,aef850481a8a641c59bbbc47
地安门西大街丁28,西城区,北京市,1,39.93916,116.391212,中国工商银行24小时自助银行服务(地安门西大街储蓄所),北京市,b9e5d0b8348739bc81a12e28,,b9e5d0b8348739bc81a12e28
平安里西大街31号,西城区,北京市,1,39.938851,116.374216,中国工商银行24小时自助银行(赵登禹路支行),北京市,e3a7fd13b6dc392c29b97cad,,e3a7fd13b6dc392c29b97cad
地安门外大街31号,西城区,北京市,1,39.943966,116.401891,中国工商银行24小时自助银行(北京分行地安门支行地外大街),北京市,9b86f5ac5156365f744ff136,,9b86f5ac5156365f744ff136
北京市西城区爱民里小区3号楼,西城区,北京市,1,39.936241,116.386531,中国工商银行24小时自助银行(爱民里储蓄所),北京市,6913052389cc1675725e8013,,6913052389cc1675725e8013
骡马市大街8号,西城区,北京市,1,39.895196,116.389624,中国工商银行24小时自助银行服务(北京分行宣武支行琉璃厂支行),北京市,,,0fcae7007491d7a7a2d23079
北京市西城区黑窑厂街18号楼首层,西城区,北京市,1,39.887432,116.388273,中国工商银行24小时自助银行服务(北京分行珠市口支行南横东街),北京市,3c45b85df8e406882b3a9fc2,,3c45b85df8e406882b3a9fc2
椿树园小区6号楼1层,西城区,北京市,1,39.901093,116.385162,中国工商银行24小时自助银行(前青厂胡同),北京市,f688987abca1dfd1c61b752c,,f688987abca1dfd1c61b752c
珠市口西大街147,西城区,北京市,1,39.896505,116.397472,中国工商银行24小时自助银行(北京分行珠市口支行珠市口西大街),北京市,eb4e0e7da9b07b87f942b2f1,,eb4e0e7da9b07b87f942b2f1
菜市口大街1号1层101,西城区,北京市,1,39.893764,116.380231,中国工商银行24小时自助银行服务(福地广场支行),北京市,,,de389d7a4d609d4ed8d891bd
右安门内大街15,西城区,北京市,1,39.887526,116.369989,中国工商银行24小时自助银行(北京樱桃园支行),北京市,ac3f2eb34ce75092bb17e722,,ac3f2eb34ce75092bb17e722
复兴门外大街A2号,西城区,北京市,1,39.912506,116.358361,中国工商银行24小时自助银行服务(北京分行长安支行复外支行),北京市,1a8804ebb5ffa0e9e4e96582,,1a8804ebb5ffa0e9e4e96582
白云路10号,西城区,北京市,1,39.904491,116.349219,中国工商银行24小时自助银行服务(北京分行西客站支行白云路),北京市,f2f862d5e0d53d5c85420e13,,f2f862d5e0d53d5c85420e13
北京市西城区百万庄大街16号,西城区,北京市,1,39.933699,116.34846,中国工商银行24小时自助银行(北京市分行南礼士路支行百万庄东口),北京市,,,f22f3ba9837bfee9d6b74ea9
北京市西城区真武庙路四条8号院2号楼商业102-1单元,西城区,北京市,1,39.908528,116.353553,中国工商银行24小时自助银行服务(北京市分行南礼士路支行真武庙),北京市,f2a1dd349cd7fece28d7ab80,,f2a1dd349cd7fece28d7ab80
北京市西城区复兴门外大街11号楼下,西城区,北京市,1,39.91354,116.355423,中国工商银行24小时自助银行(北京市分行南礼士路支行南礼士路支行),北京市,be6d3d9d9618a1dbbfa822da,,be6d3d9d9618a1dbbfa822da
西城区木樨地北里甲8号,西城区,北京市,1,39.911794,116.344067,中国工商银行24小时自助银行(北京市分行南礼士路支行南礼士路支行),北京市,e4c4a7c05e9a288554bfff4c,,b44599f9e71a33f3c26c14fa
复兴门南大街2,西城区,北京市,1,39.910314,116.364722,中国工商银行24小时自助银行服务(北京市分行营业部),北京市,ba8b9ec5db2a56539e82ea86,,ba8b9ec5db2a56539e82ea86
北京市西城区车公庄大街乙1号,西城区,北京市,1,39.938865,116.360596,中国工商银行24小时自助银行(北京市分行南礼士路支行西直门),北京市,,,2dc0eacc319333b3eb12e447
北京市西城区白云路10号,西城区,北京市,1,39.904395,116.34924,中国工商银行24小时自助银行(白云观街),北京市,6113ef777f64a76a8e772770,,6113ef777f64a76a8e772770
展览馆路1号北京建筑大学,西城区,北京市,1,39.940795,116.350198,中国工商银行24小时自助银行服务(展览路街道文兴街社区东北),北京市,7aea43b7df3863f87c29bd30,,7aea43b7df3863f87c29bd30
北京市西城区展览馆路48-2号,西城区,北京市,1,39.929506,116.351489,中国工商银行24小时自助银行(阜外大街支行),北京市,15a93810e6547ec015c8f6b3,,15a93810e6547ec015c8f6b3
西直门南大街11北京大学人民医院,西城区,北京市,1,39.943279,116.361057,中国工商银行24小时自助银行(北京大学人民医院科研教学楼东南),北京市,f7d676e569a46ff30f0e6b01,,f7d676e569a46ff30f0e6b01
北京市西城区广安门外大街305号八区15~17号楼105室,西城区,北京市,1,39.89901,116.343094,中国工商银行24小时自助银行服务(北京分行广安门支行广外大街),北京市,2deef837d88be4ce932ca39d,,2deef837d88be4ce932ca39d
广外红居街10号,西城区,北京市,1,39.892049,116.343411,中国工商银行24小时自助银行(北京分行西客站支行广外红居街),北京市,923ffd00371555c9d92f2850,,9fbc3541fa9a3e4f250bd095
白纸坊西街17号院中国工商银行(北京白纸坊支行)附近,西城区,北京市,1,39.883941,116.364529,中国工商银行24小时自助银行服务(北京白纸坊支行),北京市,64eae10772492fe6d618b7b0,,64eae10772492fe6d618b7b0
金融大街27投资广场B座1层,西城区,北京市,1,39.918151,116.365253,中国银行24小时自助银行(金融街支行),北京市,bf27db1a596b11dd6e20b9eb,,bf27db1a596b11dd6e20b9eb
北京市朝阳区安翔北路11,朝阳区,北京市,1,40.000714,116.387176,中国工商银行,北京市,,,38cd517efe5be6ae2b201a21
北京市朝阳区安贞路辅路,朝阳区,北京市,1,39.976444,116.407764,中国工商银行ATM(安贞路),北京市,ebd774a0bdda6490df1e52bf,,ebd774a0bdda6490df1e52bf
北京市朝阳区建国门外大街1号北京国贸商城1期3层,朝阳区,北京市,1,39.915022,116.463955,中国工商银行(国贸支行),北京市,53142b3d3275378c7e29bd10,"(010)65051651,(010)65358023",53142b3d3275378c7e29bd10
北京市朝阳区广顺北大街33号院1号楼1层101室(福码大厦1楼),朝阳区,北京市,1,40.000276,116.474259,中国工商银行(广顺支行),北京市,5d7863170b9b7208581093e8,,beabdbf4bdc9a5e67169d3b4
北京市朝阳区安慧北里秀园15号,朝阳区,北京市,1,40.004959,116.420147,中国工商银行(北京安慧支行),北京市,c61bd305c34bff68c27da24d,(010)64899897,c61bd305c34bff68c27da24d
北京市朝阳区东三环北路丙2号天元港中心1层,朝阳区,北京市,1,39.96138,116.46607,中国工商银行(北京燕莎支行),北京市,50fb64ff7cb5e45de9f8534c,"(010)65932271,(010)84417537",50fb64ff7cb5e45de9f8534c
北京市朝阳区建国门外大街1号国贸写字楼1座1层,朝阳区,北京市,1,39.915184,116.46514,中国工商银行(建外大街储蓄所),北京市,79196a39a52dad38b7265593,(010)65055297,79196a39a52dad38b7265593
北京市朝阳区东大桥路8号2楼1105室,朝阳区,北京市,1,39.924672,116.457894,中国工商银行(北京尚都支行),北京市,435d7aea75e32e355abbbc4d,"(010)58692879,(010)58692080",435d7aea75e32e355abbbc4d
北京市朝阳区朝阳北路常营丽景园甲4号楼1层101号,朝阳区,北京市,1,39.930699,116.61698,中国工商银行(北京常营支行),北京市,2073cdeb2e94400602294f38,(010)57845274,2073cdeb2e94400602294f38
北京市朝阳区朝阳门外大街17号祥业大厦底商,朝阳区,北京市,1,39.930561,116.4466,中国工商银行(北京祥普支行),北京市,22e1140729ba25b4d5b74e4c,"(010)65803199,(010)65803179,(010)65803189",22e1140729ba25b4d5b74e4c
北京市朝阳区麦子店街41号,朝阳区,北京市,1,39.952754,116.47522,中国工商银行(麦子店支行),北京市,4ce10ce6b8af48a0441a321d,"95588,(010)65920120",4ce10ce6b8af48a0441a321d
北京市朝阳区建国路88号SOHO现代城D座1层,朝阳区,北京市,1,39.913239,116.481431,中国工商银行(北京现代城支行),北京市,f5e3bcae08d33cc15f17c3b5,(010)85893750,f5e3bcae08d33cc15f17c3b5
北京市朝阳区慧忠北里407号楼,朝阳区,北京市,1,40.009824,116.410692,中国工商银行(亚运村支行营业部),北京市,b1c556e837cb130fb426556c,(010)64863524,b1c556e837cb130fb426556c
北京市朝阳区北土城西路11号城建开发大厦1-2层,朝阳区,北京市,1,39.983409,116.391131,中国工商银行(北京马甸支行),北京市,75036835fe6ddcd15e0d02d1,(010)62054154,75036835fe6ddcd15e0d02d1
北京市朝阳区南湖东园101号一层,朝阳区,北京市,1,40.010296,116.473476,中国工商银行(北京南湖东园支行),北京市,55fa2c0bc7ae1f2d1ce9997a,(010)64751706,55fa2c0bc7ae1f2d1ce9997a
亮马桥路52号燕莎友谊商城1层,朝阳区,北京市,1,39.954493,116.469631,中国工商银行(自动柜员机店),北京市,28e7381f2d9909ae59bbbc58,,28e7381f2d9909ae59bbbc58
北京市朝阳区建国门外大街8号北京国际财源中心,朝阳区,北京市,1,39.91352,116.459191,中国工商银行(北京永安里支行),北京市,0219efdbb26ab1c08a36ee82,,0219efdbb26ab1c08a36ee82
北京市朝阳区樱花东街5号新化信,朝阳区,北京市,1,39.978856,116.430847,中国工商银行(北京香河园支行),北京市,14076deea05ceef402294f4c,(010)64418775,14076deea05ceef402294f4c
北京市朝阳区双桥路1036号康惠园3号院2号楼1楼至2楼101号102号,朝阳区,北京市,1,39.912084,116.584472,中国工商银行(北京双桥路支行),北京市,351fc125bec36eaa34b06c53,(010)65478676,6cf8b77a08811ddf130daafc
北京市朝阳区安苑路20号世纪兴源大厦一层,朝阳区,北京市,1,39.989157,116.418502,中国工商银行(北京惠新支行),北京市,881a28e728a50147f942b24d,"(010)64928272,(010)84896312",881a28e728a50147f942b24d
北京市朝阳区安定路中段33号化信大厦首层,朝阳区,北京市,1,39.981651,116.413001,中国工商银行(北京化信支行),北京市,00f1c7fb22e9321fc056ac4d,(010)64442449,00f1c7fb22e9321fc056ac4d
北京市朝阳区育慧北路8号院三区3号,朝阳区,北京市,1,40.000515,116.43683,中国工商银行(世纪村支行),北京市,b292b3aa7b09bc56be48424c,(010)84629239,b292b3aa7b09bc56be48424c
北京市朝阳区惠新西街安外小关东里14号,朝阳区,北京市,1,39.984106,116.423453,中国工商银行(北京安华支行),北京市,5cdd65c1ac58fcb430169bca,(010)64433166,5cdd65c1ac58fcb430169bca
北京市朝阳区左家庄中街6号院9号楼1层115号房间,朝阳区,北京市,1,39.961165,116.448193,中国工商银行(北京柳芳支行),北京市,61085211de0d9cdfc41b758b,(010)64611816,61085211de0d9cdfc41b758b
北京市朝阳区南湖西园甲205号楼1层09、10、11、15,朝阳区,北京市,1,40.002091,116.463636,中国工商银行(北京京城支行),北京市,46e86fdd243d8012d13ce3df,(010)52039080,46e86fdd243d8012d13ce3df
北京市朝阳区大屯路甲38号风林绿洲小区F14号,朝阳区,北京市,1,40.006131,116.388458,中国工商银行(北京大屯路支行),北京市,,"(010)64837083,(010)64836990,(010)64871128",d991e116b03f0b551f38947a
北京市朝阳区酒仙桥南十里居15号院13号,朝阳区,北京市,1,39.964077,116.49811,中国工商银行(北京南十里居支行),北京市,81d6a5094aaece406e20b94d,(010)84509208,81d6a5094aaece406e20b94d
北京市朝阳区西坝河中里34号楼1幢等3幢,朝阳区,北京市,1,39.968024,116.44687,中国工商银行(北京西坝河支行),北京市,8a039e58ff69b273c51e5106,(010)64610169,8a039e58ff69b273c51e5106
北京市朝阳区广渠门外大街22号楼西侧,朝阳区,北京市,1,39.898818,116.463176,中国工商银行(北京广渠路支行),北京市,4ce10ce6f40604a1451a32b5,"(010)67783934,(010)67730892",4ce10ce6f40604a1451a32b5
北京市朝阳区潘家园南里27号人卫酒店东侧,朝阳区,北京市,1,39.881582,116.454256,中国工商银行(左安门支行),北京市,af1ae56b4cc87a124307c1b5,(010)67776881,af1ae56b4cc87a124307c1b5
北京市朝阳区红松园北里2号内14号楼,朝阳区,北京市,1,39.972326,116.56049,中国工商银行(北京东坝支行),北京市,060f5e53147b23d7081cc743,(010)65493553,060f5e53147b23d7081cc743
高碑店乡康家沟118号,朝阳区,北京市,1,39.936556,116.507953,中国工商银行(石佛营支行),北京市,1fe496faa842b995f7e73b79,95588,1fe496faa842b995f7e73b79
东坝南二街京奥家园186幢商铺1-2号,朝阳区,北京市,1,39.966883,116.552024,中国工商银行(北京京奥嘉园支行),北京市,04bdf4a37d78ad32354aaecf,(010)52085957,04bdf4a37d78ad32354aaecf
朝阳区和平街11区38号一层,朝阳区,北京市,1,39.973484,116.425133,中国工商银行(北京北三环支行),北京市,eef2d5282dadd6a73be4a64d,(010)64280539,eef2d5282dadd6a73be4a64d
北京市朝阳区北苑东路广华居17号楼一层,朝阳区,北京市,1,40.039057,116.447729,中国工商银行(北京青年城支行),北京市,ba4346aeaaedac07095cb389,(010)84952070,ba4346aeaaedac07095cb389
北京市朝阳区红军营南路天乐园1号A1一层,朝阳区,北京市,1,40.03947,116.41924,中国工商银行(亚运村媒体村支行),北京市,2c0bd6c5c9fa27aa43ab9a7a,(010)84929831,2c0bd6c5c9fa27aa43ab9a7a
北京市朝阳区北沙滩甲1号中科电大厦一、二层,朝阳区,北京市,1,40.007921,116.377383,中国工商银行(北京北沙滩支行),北京市,cac5fc76710bec8d2db96dac,,cac5fc76710bec8d2db96dac
北京市朝阳区宵云路36号国航大厦一层,朝阳区,北京市,1,39.962225,116.469986,中国工商银行(北京国航大厦支行),北京市,07f3c8b5ecbb88636240a94d,(010)84475236,07f3c8b5ecbb88636240a94d
北京市朝阳区新源里16号院2号楼首层,朝阳区,北京市,1,39.954138,116.456472,中国工商银行(北京新源里支行),北京市,3be122e15153ab521ef74d4c,(010)64641749,3be122e15153ab521ef74d4c
北京市朝阳区将台西路芳园里37号楼1层,朝阳区,北京市,1,39.977048,116.4907,中国工商银行(北京将台路支行),北京市,fbc25962c9a96ade6cc02c7f,(010)64372586,fbc25962c9a96ade6cc02c7f
北京市朝阳区朝阳路八里庄西里100号,朝阳区,北京市,1,39.921204,116.50011,中国工商银行(北京八里庄支行),北京市,b9e5d0b836143bbc80a12eb5,(010)85860649,b9e5d0b836143bbc80a12eb5
北京市朝阳区朝阳北路199号摩码大厦0104、0105、0106室,朝阳区,北京市,1,39.92959,116.479491,中国工商银行(北京金台北里支行),北京市,2d34b8687c07d2328e1a898b,(010)85992297,2d34b8687c07d2328e1a898b
北京市朝阳区西大望路甲2号航空大厦1层,朝阳区,北京市,1,39.920715,116.484823,中国工商银行(北京大望路支行),北京市,cdef4edf5962f13028d7abc2,(010)65079878,cdef4edf5962f13028d7abc2
姚家园路六里屯北里18号楼A座1层,朝阳区,北京市,1,39.937034,116.481654,中国工商银行(北京甜水园支行),北京市,b533ea4a019d78414f6d464c,(010)65046332,b533ea4a019d78414f6d464c
"北京市朝阳区东三环北路甲26号楼1层101,102,103",朝阳区,北京市,1,39.933461,116.469126,中国工商银行(北京团结湖支行),北京市,,"(010)65901332,(010)65901328",77356814ca8f2682abf0cd59
北京市朝阳区和平街10区5号楼和平街商场,朝阳区,北京市,1,39.970443,116.430594,中国工商银行(北京和平街支行),北京市,d6df91c1b176f36af7b916ff,(010)64212777,d6df91c1b176f36af7b916ff
朝阳门外市场街20号中保大厦首层,朝阳区,北京市,1,39.926531,116.44699,中国工商银行(北京日坛路支行),北京市,e889a744b28263b58605bf4d,(010)85636026,e889a744b28263b58605bf4d
北京市朝阳区朝外头条35号,朝阳区,北京市,1,39.92629,116.442879,中国工商银行(北京朝阳门支行),北京市,7590cefcd009a0c7c4f50d1c,(010)85615373,7590cefcd009a0c7c4f50d1c
北京市朝阳区双桥温泉北里2号楼,朝阳区,北京市,1,39.897642,116.613765,中国工商银行(北京双桥新村支行),北京市,43b7e889937c476a59f6bea9,(010)85391303,43b7e889937c476a59f6bea9
北京市朝阳区东三环南路辅路农光南里1号龙辉大厦2楼(近劲松洋华堂),朝阳区,北京市,1,39.886114,116.468349,中国工商银行(北京潘家园支行),北京市,bf29b702abd39d9908b93ab5,"(010)67328199,(010)67303509",bf29b702abd39d9908b93ab5
北京市朝阳区武圣东里52号楼,朝阳区,北京市,1,39.883236,116.474587,中国工商银行(北京武圣里支行),北京市,bcaebff84c566554c8e33cb5,"(010)67323011,(010)67305625",bcaebff84c566554c8e33cb5
朝阳区西大望路59号A-109号楼,朝阳区,北京市,1,39.895535,116.483567,中国工商银行(北京西大望路支行),北京市,4fc3161a6a6e5daa3a13fd26,(010)58620294,4fc3161a6a6e5daa3a13fd26
北京市朝阳区管庄路54号,朝阳区,北京市,1,39.921625,116.598218,中国工商银行(北京东苇路支行),北京市,,"(010)65761679,(010)65754128",24c672c97f4de4145e17c3f1
北京市朝阳区望京西园3区315号楼1层,朝阳区,北京市,1,40.003985,116.482144,中国工商银行(北京望京新城支行),北京市,a5b3dacfe514ec8515764380,(010)84713054,a5b3dacfe514ec8515764380
北京市朝阳区望京中环南路9号望京大厦内B座首层(近花家地街),朝阳区,北京市,1,39.991877,116.476527,中国工商银行(北京四元桥支行),北京市,ea4a3dc985a9742e4e55474c,(010)64729493,ea4a3dc985a9742e4e55474c
北京市朝阳区酒仙桥路4号,朝阳区,北京市,1,39.991092,116.49735,中国工商银行(望京大山子支行),北京市,,(010)64372971,b650d8850e2599c4fa0cad85
北京市朝阳区清河营东路1号院4号楼一层,朝阳区,北京市,1,40.054265,116.443011,中国工商银行(北京福熙大道支行),北京市,,(010)64696295,19bd75c95731991d0ab93a3f
北京市朝阳区东小口镇立汤路188号北方明珠大厦1楼,朝阳区,北京市,1,40.063804,116.421479,中国工商银行(北京天通苑支行),北京市,083a55fa3e601079246e987a,"(010)58608121,(010)58608102",083a55fa3e601079246e987a
北京市朝阳区林萃东路2号院甲3号楼首层F110区域,朝阳区,北京市,1,40.015192,116.387942,中国工商银行(北京国奥村支行),北京市,95e957af95b184dd29d7abee,(010)84374005,95e957af95b184dd29d7abee
北京市朝阳区北辰东路8号北辰汇欣大厦A座1层,朝阳区,北京市,1,40.000912,116.410414,中国工商银行(北京北辰路支行),北京市,d6c20476040ef7618c55ecc0,"(010)64993963,(010)84980594",d6c20476040ef7618c55ecc0
北京市朝阳区林萃西里三号路林萃西里26号楼1层,朝阳区,北京市,1,40.019305,116.378695,中国工商银行(亚运村林萃路支行),北京市,480b24d0ca6d96f19cec2b7f,"(010)82721800,(010)82721300",480b24d0ca6d96f19cec2b7f
朝阳区驼房营西里甲3号楼1楼,朝阳区,北京市,1,39.971042,116.509388,中国工商银行(北京酒仙桥支行),北京市,fa7da3e8e4da9f1f42d63ed5,(010)84305223,fa7da3e8e4da9f1f42d63ed5
北京市朝阳区夏家园12号楼地上1层,朝阳区,北京市,1,39.976176,116.45824,中国工商银行(北京半岛国际支行),北京市,31f9101bdc4f15b926e0a04d,"(010)84411279,(010)84411531,(010)84419590",31f9101bdc4f15b926e0a04d
朝阳区十里堡甲3号A座首层,朝阳区,北京市,1,39.921478,116.507933,中国工商银行(北京十里堡支行),北京市,341c35de0d0271bee70738b5,(010)65561503,341c35de0d0271bee70738b5
北京市朝阳区星火西路19号底商一层,朝阳区,北京市,1,39.943903,116.507615,中国工商银行(北京星火西路支行),北京市,dc27f8d2490d79c897ec8411,(010)85855014,dc27f8d2490d79c897ec8411
北京市朝阳区朝阳路69号,朝阳区,北京市,1,39.923746,116.53809,中国工商银行(朝阳高碑店支行),北京市,cba3571520f9043cab0dd8ac,(010)65566841,cba3571520f9043cab0dd8ac
朝阳区青年路西里5号院15号楼首层,朝阳区,北京市,1,39.934114,116.523192,中国工商银行(北京青年路支行),北京市,6bba48e794e13ec82fb96d02,(010)85519011,6bba48e794e13ec82fb96d02
北京市朝阳区金台西路2号人民日报社西门,朝阳区,北京市,1,39.925633,116.476493,中国工商银行(北京金台路支行),北京市,,,867a8fe96379f996cafa5f1b
北京市朝阳区建国路77号华贸中心3座1楼,朝阳区,北京市,1,39.915326,116.488738,中国工商银行(北京华贸中心支行),北京市,3118ab1369ac7f9141d63e3d,,3118ab1369ac7f9141d63e3d
北京市朝阳区和平街13区甲3号煤炭大厦向东200米路北,朝阳区,北京市,1,39.968344,116.435349,中国工商银行(青年沟路储蓄所),北京市,a74481d6975dbd46f503b84d,95588,a74481d6975dbd46f503b84d
芍药居北里30号楼,朝阳区,北京市,1,39.989651,116.440217,中国工商银行(北京芍药居支行),北京市,bf701d40db28978d128824b0,(010)84618401,bf701d40db28978d128824b0
北京市朝阳区广和南里二条16号院,朝阳区,北京市,1,39.891482,116.457087,中国工商银行(北京劲松路支行),北京市,b59e9fe3c86b36ddf70e775d,"(010)67734652,(010)67758971",b59e9fe3c86b36ddf70e775d
北京市朝阳区西大望南路周庄嘉园东里32号楼1层,朝阳区,北京市,1,39.869468,116.48344,中国工商银行(北京南新园支行),北京市,b7021bf8f40e32faf5e73bb5,,b7021bf8f40e32faf5e73bb5
北京市朝阳区广渠路甲40号九龙花园,朝阳区,北京市,1,39.898734,116.474065,中国工商银行(北京九龙山支行),北京市,e48d8359d584d1681b94c613,"(010)67720366,(010)67757063",e48d8359d584d1681b94c613
广渠路23号院5号,朝阳区,北京市,1,39.899767,116.494627,中国工商银行(北京大郊亭支行),北京市,edc8365fde33c5b4ae045784,,edc8365fde33c5b4ae045784
东直门外大街22号楼东侧,朝阳区,北京市,1,39.946596,116.45629,中国工商银行(朝阳幸福三村支行),北京市,c0491fb209e562fe8433047e,95588,c0491fb209e562fe8433047e
首都机场2号航站楼1楼国际出港大厅,朝阳区,北京市,1,40.086699,116.600001,中国工商银行(北京望京支行新空港分),北京市,f25c1f8bc6a9bfe1b45f1ea9,,f25c1f8bc6a9bfe1b45f1ea9
朝阳区首都机场南路14号机场宿舍区小花园,朝阳区,北京市,1,40.056451,116.601369,中国工商银行(北京首都机场南支行),北京市,33fbfa83838da5c10bf5eb71,"(010)64563996,(010)64576574",33fbfa83838da5c10bf5eb71
北京市朝阳区光华路4号东方梅地亚中心C座102、103、105、106单元,朝阳区,北京市,1,39.917855,116.479711,中国工商银行(北京东方梅地亚支行),北京市,5d4f38fabd291a57f60e7731,"(010)85718171,(010)85718161",5d4f38fabd291a57f60e7731
北京市朝阳区朝阳门北大街22号中国石化大厦326室,朝阳区,北京市,1,39.930951,116.442965,中国工商银行(北京中石化大厦支行),北京市,66345fd26f0c75a515b54b57,(010)59960711,66345fd26f0c75a515b54b57
北京市朝阳区紫南家园108号楼1层101~102号,朝阳区,北京市,1,39.883589,116.503541,中国工商银行(北京世纪东方城支行),北京市,4401ef7c2aea6967b45f1e27,(010)87357163,4401ef7c2aea6967b45f1e27
北京市朝阳区山水文园东园北门,朝阳区,北京市,1,39.873698,116.48907,中国工商银行(九龙山山水文园支行),北京市,bf0c6df5f9978699eb1e9741,(010)87388104,bf0c6df5f9978699eb1e9741
北京市朝阳区秋实东街清友园19号楼,朝阳区,北京市,1,40.047093,116.432723,中国工商银行(亚运村北苑家园支行),北京市,e116be54c082247bc91b957a,(010)84967553,e116be54c082247bc91b957a
北京市朝阳区十里堡路一号恒泰大厦A座一层101室,朝阳区,北京市,1,39.93388,116.508685,中国工商银行(北京八里庄北里支行),北京市,669775d0a24eee5bfd0eb04d,"(010)85839059,(010)85810811",669775d0a24eee5bfd0eb04d
北京市朝阳区高碑店北路5号商业楼,朝阳区,北京市,1,39.920253,116.527853,中国工商银行(九龙山高碑店北路支行),北京市,,(010)85779151,849188c4003edee349fd3fa1
北京市朝阳区弘善家园310号楼1层101号底商,朝阳区,北京市,1,39.874854,116.457946,中国工商银行(北京华威南路弘善支行),北京市,34744195ea64da4ff33cba48,(010)67608922,34744195ea64da4ff33cba48
利泽中园105号,朝阳区,北京市,1,40.017707,116.480078,中国工商银行(北京望京科技园区支行),北京市,,(010)64390921,a2c21b2c92ea613787330491
朝阳区科学园南里东街2号,朝阳区,北京市,1,40.003948,116.391525,中国工商银行(北京科学园南路支行),北京市,a3f21eee377a14472eb17ea1,(010)64830768,a3f21eee377a14472eb17ea1
北京市朝阳建国路110号,朝阳区,北京市,1,39.913304,116.471433,中国工商银行(北京商务中心区支行),北京市,060f5e53143123d7091cc7b5,,060f5e53143123d7091cc7b5
北京市朝阳区外馆东街51号凯景铭座一层,朝阳区,北京市,1,39.968629,116.410245,中国工商银行(北京和平北路东口支行),北京市,,(010)84123118,4482d48423f9a3b33fe23125
北京市朝阳区东三环南路58号富顿中心2号楼1层101号,朝阳区,北京市,1,39.891299,116.468742,中国工商银行(北京东三环南路支行),北京市,f4460918f07d2b6ab01e36b5,(010)58672705,f4460918f07d2b6ab01e36b5
北京市朝阳区吕营大街十八里店南桥观筑庭园801号楼103-203号,朝阳区,北京市,1,39.845582,116.476669,中国工商银行(北京十八里店南桥支行),北京市,40ef815d8cfe5654d9d891d7,"(010)87641837,(010)87641897",40ef815d8cfe5654d9d891d7
建国路110号,朝阳区,北京市,1,39.913239,116.471475,中国工商银行-24小时自助银行(北京商务中心区支行),北京市,fc3bc8885688f887cac3db94,,fc3bc8885688f887cac3db94
北京市朝阳区工体北路2号西北100米,朝阳区,北京市,1,40.009841,116.410571,中国工商银行(亚运村支行营业部电费代收点),北京市,62388011ff5dbbf4c92915cb,,62388011ff5dbbf4c92915cb
北京市朝阳区西坝河西里2号,朝阳区,北京市,1,39.972908,116.446124,中国工商银行(北京望京支行香河园储蓄所),北京市,6deee3086a1c396a29fc484c,(010)64226615,6deee3086a1c396a29fc484c
北京市朝阳区惠新东街甲6号中国石化大厦一层,朝阳区,北京市,1,39.990559,116.431038,中国工商银行(北京中石化小营大厦支行),北京市,6d029e5e991570573913fd52,,6d029e5e991570573913fd52
潘家园华威里26号,朝阳区,北京市,1,39.879133,116.463235,广西大厦工行ATM(广西大厦),北京市,818a13f2c3e2d49795ca07a6,,818a13f2c3e2d49795ca07a6
北京市朝阳区工体北路13号世茂广场·工三F1,朝阳区,北京市,1,39.941374,116.456032,中国工商银行ATM(世茂广场·工三),北京市,9117e56d4d559dec8bb988cf,,9117e56d4d559dec8bb988cf
北京市朝阳区酒仙桥路甲10号星城国际大厦,朝阳区,北京市,1,39.985372,116.497087,中国工商银行(北京望京支行营业室),北京市,a4c482e75d3577913c9a5ea3,(010)64371674,a4c482e75d3577913c9a5ea3
北京市朝阳门外大街1号金麒大厦1层,朝阳区,北京市,1,39.929405,116.454926,中国工商银行(北京朝阳支行营业部),北京市,08fc93dfd44dc3ef9b68b40d,"(010)65991155,(010)65993727,(010)65993588",08fc93dfd44dc3ef9b68b40d
北京市朝阳区苏园南里5,朝阳区,北京市,1,39.976506,116.495983,中国工商银行24小时自助银行(酒仙桥路),北京市,6ba92472dc07e9f2deee8b98,,6ba92472dc07e9f2deee8b98
北京市朝阳区甘露园南里18号楼底商,朝阳区,北京市,1,39.922964,116.521094,中国工商银行24小时自助银行(甘露园储蓄所),北京市,a5097bfa38c45563f13cbaa9,,a5097bfa38c45563f13cbaa9
朝阳区和平里北街丙14号,朝阳区,北京市,1,39.96848,116.435502,中国工商银行24小时自助银行(北京青年沟路储蓄所),北京市,8978ed4ad6e500a7b33c81e3,,8978ed4ad6e500a7b33c81e3
八里庄西里100号,朝阳区,北京市,1,39.921286,116.500066,中国工商银行24小时自助银行服务(北京分行朝阳支行八里庄西里),北京市,0c211d575d14de19441a32f3,,0c211d575d14de19441a32f3
西大望路59号院-2-1,朝阳区,北京市,1,39.895581,116.483558,中国工商银行24小时自助银行(北京西大望路支行),北京市,2ac87c3783721b08b9df8f69,,2ac87c3783721b08b9df8f69
北京市朝阳区天辰东路7号国家会议中心F1,朝阳区,北京市,1,40.006019,116.397013,中国工商银行ATM,北京市,9342fb4002242b38b05c6ace,,9342fb4002242b38b05c6ace
西大望路17号八王坟长途汽车站内,朝阳区,北京市,1,39.908438,116.484906,中国工商银行ATM,北京市,d72a03ac5047e38371455b07,,d72a03ac5047e38371455b07
机场西路8号首都机场宾馆大堂内,朝阳区,北京市,1,40.076522,116.59534,中国工商银行ATM,北京市,931b4039e6cef521901fc927,,931b4039e6cef521901fc927
北京市朝阳区建国门外大街1号北京国贸饭店F1,朝阳区,北京市,1,39.9173,116.465996,中国工商银行ATM,北京市,a29126a3a26035a2a1046437,,a29126a3a26035a2a1046437
北京市朝阳区花家地东路3号,朝阳区,北京市,1,39.989983,116.484837,中国工商银行ATM,北京市,bf7cb612fb33e902a8f0cd91,,bf7cb612fb33e902a8f0cd91
北京市朝阳区樱花园东街2号中日友好医院B栋F1,朝阳区,北京市,1,39.980412,116.432692,中国工商银行24小时自助银行,北京市,,,91f5794bc86f10a6ede4a5f4
太阳宫地铁站内,朝阳区,北京市,1,39.978886,116.454009,中国工商银行24小时自助银行,北京市,e9638c45a032dc17f90cadbd,,e9638c45a032dc17f90cadbd
朝阳区北辰西路8号院1号楼,朝阳区,北京市,1,40.00787,116.394518,中国工商银行自助银行,北京市,6f643f8c9e771c678433040a,,6f643f8c9e771c678433040a
建国门外大街1号国贸大厦-三期2层,朝阳区,北京市,1,39.918028,116.465098,中国工商银行自助银行,北京市,a229fb7598c49262b05c6a32,,a229fb7598c49262b05c6a32
北京市朝阳区建国门外大街8号财源国际中心,朝阳区,北京市,1,39.913513,116.459407,中国工商银行ATM(永安里支行),北京市,5a524102fb8075cec4f50d62,,5a524102fb8075cec4f50d62
北京市朝阳区东四环中路193号红星美凯龙世博建材设计中心F1,朝阳区,北京市,1,39.89498,116.494181,中国工商银行ATM(红星美凯龙),北京市,169c745d3083e631ad045725,,b4852dcc3379ff2e8f1a89b2
来广营西路5号,朝阳区,北京市,1,40.029156,116.427893,中国工商银行ATM(来广营西路),北京市,,,b391db45442a2df1581093d5
北京市朝阳建国路88号SOHO现代城1层,朝阳区,北京市,1,39.913306,116.481502,中国工商银行24小时自助银行,北京市,d14056b46cf48d6fddee8b41,,5f5067735d6b557688db738a
鼓楼外大街19号北京歌华开元大酒店1层,朝阳区,北京市,1,39.971631,116.400074,中国工商银行ATM(鼓楼外大街),北京市,,,aa323038e2275bf629fc48c3
北京市朝阳区高碑店北路5-3附近,朝阳区,北京市,1,39.920173,116.527961,中国工商银行24小时自助银行,北京市,,,26b205de05bc2295c1f1cf9a
北京市朝阳区弘善路辅路,朝阳区,北京市,1,39.874697,116.4581,中国工商银行24小时自助银行,北京市,,,a38d2aac161cb0bb7ab55cd2
朝阳区安立路101号名人大厦一层,朝阳区,北京市,1,40.001815,116.412928,中国工商银行24小时自助银行,北京市,9d97d740829391ef990050df,,9d97d740829391ef990050df
定福庄南里1号,朝阳区,北京市,1,39.921399,116.569927,中国工商银行24小时自助银行(北京定福庄支行),北京市,be0e843d4890f83efbdc85d8,,be0e843d4890f83efbdc85d8
北京市朝阳区立汤路188号万优汇,朝阳区,北京市,1,40.063868,116.421515,中国工商银行ATM(北京天通苑支行),北京市,,,542a8d3f1a9ba6d63b221cc3
北京市朝阳区安慧里四区中国化工大厦,朝阳区,北京市,1,39.995655,116.417946,中国工商银行ATM(中国化工大厦),北京市,2a3e2c65c4573ab0be4842bc,,2a3e2c65c4573ab0be4842bc
北京市朝阳区建国门外大街1号国贸商城1期F1,朝阳区,北京市,1,39.915271,116.46513,中国工商银行ATM(国贸商城一期),北京市,3f809839e9999258b1077da8,,3f809839e9999258b1077da8
建国门外大街甲12号新华保险大厦,朝阳区,北京市,1,39.913445,116.453647,中国工商银行ATM(新华保险大厦),北京市,eb367503491dfd6501ec01b7,95588,eb367503491dfd6501ec01b7
北京市朝阳区建国门外大街22号北京赛特购物中心F2,朝阳区,北京市,1,39.913626,116.448033,中国工商银行ATM(赛特购物中心),北京市,83ec8fa33126c71d5cbe863f,,83ec8fa33126c71d5cbe863f
北京市朝阳区科学园南里东街4号附近,朝阳区,北京市,1,40.006049,116.388421,中国工商银行24小时自助银行(北京大屯路支行),北京市,5dcc870045f70cb480a00c9b,,5dcc870045f70cb480a00c9b
北京市朝阳区建国路128号,朝阳区,北京市,1,39.911957,116.470558,中国工商银行ATM(中航工业大厦北),北京市,80384115a1e3527a00ff2dea,,80384115a1e3527a00ff2dea
北京市朝阳区林萃西里26号楼首层,朝阳区,北京市,1,40.019345,116.378305,中国工商银行24小时自助银行服务,北京市,eb145d19a9bfc181badf8fea,,eb145d19a9bfc181badf8fea
北京市朝阳区北苑路秋实街1号易事达购物休闲广场F1,朝阳区,北京市,1,40.048231,116.428369,中国工商银行ATM(易事达购物休闲广场),北京市,6769a933856c3e92fa42b212,,6769a933856c3e92fa42b212
北京市朝阳区科荟前街3号东门,朝阳区,北京市,1,40.01414,116.378964,中国工商银行24小时自助银行(白庙路),北京市,0ce65c2d65787f592d47337f,,0ce65c2d65787f592d47337f
东四环中路与广渠路交叉口西150米,朝阳区,北京市,1,39.899698,116.494964,中国工商银行24小时自助银行(广渠路),北京市,e56497fd1b5c4ba6f82d6146,,e56497fd1b5c4ba6f82d6146
东土城路14号,朝阳区,北京市,1,39.958209,116.439726,中国工商银行24小时自助银行(北京建材经贸大厦西),北京市,9556031984e9c1739cf77968,,9556031984e9c1739cf77968
北京市朝阳区平乐园100号(北京市双龙南里204号北25米)北京工业大学内,朝阳区,北京市,1,39.879627,116.487892,中国工商银行24小时自助银行(日新路),北京市,9fdf92603c2e9b0fed74f8f6,,9fdf92603c2e9b0fed74f8f6
燕翔西路9号,朝阳区,北京市,1,40.053139,116.601496,中国工商银行24小时自助银行(首都机场南储蓄所),北京市,5211d219ad7124267dc87673,,5211d219ad7124267dc87673
北京市朝阳区裕民路12号中国国际科技会展中心C座,朝阳区,北京市,1,39.979455,116.388765,中国工商银行ATM(元辰鑫国际酒店北),北京市,da3c571f957040cdab0dd864,,da3c571f957040cdab0dd864
朝阳区首都机场南路3号南,朝阳区,北京市,1,40.058413,116.599779,中国工商银行网点自助服务区(北京分行望京支行首都机场支行),北京市,,,654823047d0c15b540ab9a1b
北京市朝阳区东苇路辅路,朝阳区,北京市,1,40.012801,116.57051,中国工商银行离行式自助服务区(北京分行望京支行郁金香花园),北京市,05d05ce756ad4e9cdb2f283c,,05d05ce756ad4e9cdb2f283c
北京市朝阳区管庄北京市朝阳区第二实验小学管庄高部校区,朝阳区,北京市,1,39.921552,116.598202,中国工商银行24小时自助银行(管庄储蓄所),北京市,23116913a168bc83734b8750,,23116913a168bc83734b8750
广华居17,朝阳区,北京市,1,40.039002,116.447801,中国工商银行24小时自助银行(北京青年城支行),北京市,80448cef68d76b9d4e2fdf37,,80448cef68d76b9d4e2fdf37
育慧北路8号院三区3,朝阳区,北京市,1,40.000514,116.436679,中国工商银行24小时自助银行(世纪村支行),北京市,7524cb4fb213753404026f4f,,7524cb4fb213753404026f4f
北京市朝阳区林萃东路2号院甲3号楼首层F110区域,朝阳区,北京市,1,40.015115,116.38786,中国工商银行24小时自助银行(北京国奥村支行),北京市,9e18c41c80d70191acb22aa2,,9e18c41c80d70191acb22aa2
慧忠北里407号楼,朝阳区,北京市,1,40.009978,116.410719,中国工商银行24小时自助银行(亚运村支行营业部),北京市,c1653405cffc7779ab175a75,,c1653405cffc7779ab175a75
驼房营西里甲3,朝阳区,北京市,1,39.971042,116.509459,中国工商银行24小时自助银行(北京酒仙桥支行),北京市,28e700f1842fae7c095cb3c8,,28e700f1842fae7c095cb3c8
望京花家地甲一号,朝阳区,北京市,1,39.983459,116.478879,中国工商银行离行式自助服务区(北京分行望京支行法制日报社),北京市,1b06ae0698fc7762c9c3db8b,,1b06ae0698fc7762c9c3db8b
夏家园12号楼,朝阳区,北京市,1,39.976349,116.457787,中国工商银行网点自助服务区(北京分行望京支行夏家园),北京市,5f9863001315e2c4102935fe,,5f9863001315e2c4102935fe
北京市朝阳区宵云路36号国航大厦,朝阳区,北京市,1,39.962253,116.470117,中国工商银行24小时自助银行(国航大厦支行),北京市,7bc8a173d9f514f828d7ab74,,7bc8a173d9f514f828d7ab74
十里堡北里1号,朝阳区,北京市,1,39.933914,116.508646,中国工商银行24小时自助银行(八里庄北里支行),北京市,e6ee2fd277ca1d482b11d143,,e6ee2fd277ca1d482b11d143
青年路西里5号院15号楼首层,朝阳区,北京市,1,39.934215,116.523181,中国工商银行24小时自助银行(青年路支行),北京市,c7eca12b31410c49e015f99e,,c7eca12b31410c49e015f99e
北京市朝阳区朝阳路69号,朝阳区,北京市,1,39.923481,116.539653,中国工商银行网点自助服务区(北京分行朝阳支行朝阳路),北京市,4d8726753522272b8bfc06ea,,4d8726753522272b8bfc06ea
北京市朝阳区建国路77号华贸购物中心3座1楼(近现代城),朝阳区,北京市,1,39.915424,116.48869,中国工商银行24小时自助银行(北京华贸中心支行),北京市,42a9ad0f4dd41ad7eee4a563,,42a9ad0f4dd41ad7eee4a563
十里堡北里恒泰大厦B座1层,朝阳区,北京市,1,39.929656,116.479559,中国工商银行24小时自助银行(北京金台北里支行),北京市,a47ba5cac590a949ae080f91,,a47ba5cac590a949ae080f91
团结湖路5号,朝阳区,北京市,1,39.937809,116.47343,中国工商银行24小时自助银行(团结湖路),北京市,7ab674a6dcde4ccd4107c146,,7ab674a6dcde4ccd4107c146
北京市朝阳区建国路,朝阳区,北京市,1,39.914923,116.479043,中国工商银行离行式自助服务区(九龙山支行建国路万达广场新世界彩璇百货),北京市,c1a6b1c2b8ed02ff24e0a077,,c1a6b1c2b8ed02ff24e0a077
北京市朝阳区和平街十区5号楼,朝阳区,北京市,1,39.970393,116.430532,中国工商银行24小时自助银行(北京和平街支行),北京市,f86dea2dcee2937d2b201aeb,,e2fbaccb457f4ad51329350b
对外经济贸易大学0,朝阳区,北京市,1,39.985466,116.435389,中国工商银行离行式自助服务区(北京分行望京支行外经贸),北京市,e445b351cb7fc98972455b7e,,e445b351cb7fc98972455b7e
北京市朝阳区西坝河中里34号楼1幢等3幢,朝阳区,北京市,1,39.967999,116.446918,中国工商银行24小时自助银行(西坝河中街),北京市,6e93ca29d25c13b96140a948,,06bbafbf6c3ed224c17da230
安苑路20号世纪兴源大厦,朝阳区,北京市,1,39.98902,116.418399,中国工商银行24小时自助银行(北京惠新支行),北京市,5b25f446e09ad6eb1029351d,,5b25f446e09ad6eb1029351d
北京市朝阳区十八里店,朝阳区,北京市,1,39.869459,116.466764,中国工商银行离行式自助服务区(九龙山支行程田古玩城),北京市,302b5d2f914e6c76bb17e7d6,,302b5d2f914e6c76bb17e7d6
北京市朝阳区东三环南路58号富顿中心一层,朝阳区,北京市,1,39.891049,116.468885,中国工商银行24小时自助银行(北京东三环南路支行),北京市,89aa57522540baed081cc7da,,89aa57522540baed081cc7da
十八里店南桥观筑庭园801号楼103、203号,朝阳区,北京市,1,39.84566,116.476734,中国工商银行24小时自助银行(北京十八里店南桥支行),北京市,3936af595568195a1e1d11b0,,3936af595568195a1e1d11b0
北京市朝阳区京通苑30号楼P1底商,朝阳区,北京市,1,39.91819,116.602007,中国工商银行网点自助服务区(北京分行朝阳支行朝阳路),北京市,c02c81fa3b71fffbae080f04,,c02c81fa3b71fffbae080f04
北京市朝阳区北四环东路97号2号楼B座,朝阳区,北京市,1,39.99617,116.431988,中国工商银行离行式自助服务区(北京联合大学),北京市,74150588d17d83f5a0acc4cc,,74150588d17d83f5a0acc4cc
北沙滩甲1号中科电大厦1层,朝阳区,北京市,1,40.007936,116.377321,中国工商银行24小时自助银行(北京北沙滩支行),北京市,382a53395215767329fc48a4,,382a53395215767329fc48a4
北京市朝阳区安翔北路(中国科学院科学园小区内),朝阳区,北京市,1,40.000802,116.387349,中国工商银行24小时自助银行(安翔北路),北京市,8251a4445ca43603eaf853d3,,8251a4445ca43603eaf853d3
北京市朝阳区东直门外大街20号附近,朝阳区,北京市,1,39.946598,116.456348,中国工商银行24小时自助银行(东直门外大街),北京市,,,465593998f2c8b0af6c59c7d
北京市市辖区朝阳区亮马桥路40号,朝阳区,北京市,1,39.957947,116.48,中国工商银行离行式自助银行(北京分行朝阳支行亮马桥路),北京市,f4617dfd0087729cb05c6a6c,,f4617dfd0087729cb05c6a6c
新源里16号院2,朝阳区,北京市,1,39.954158,116.456415,中国工商银行24小时自助银行(北京新源里支行),北京市,e55f67af58c078fe75e5b6f9,,e55f67af58c078fe75e5b6f9
北京市朝阳区酒仙桥路10号,朝阳区,北京市,1,39.985261,116.497028,中国工商银行24小时自助银行(北京望京支行),北京市,6b1bbf824878bdc6c036447e,,6b1bbf824878bdc6c036447e
青年路西里5号院15号楼首层,朝阳区,北京市,1,39.934189,116.523331,中国工商银行附行式自助银行(北京分行朝阳支行青年路),北京市,1fbc65f584557dfca8175a9b,,1fbc65f584557dfca8175a9b
北京市朝阳区西大望路6号华贸中心,朝阳区,北京市,1,39.915856,116.487335,中国工商银行离行式自助服务区(北京市分行营业部西大望路),北京市,6761a2d7c4cbe819d7851fb5,,6761a2d7c4cbe819d7851fb5
樱花园东街5号,朝阳区,北京市,1,39.978942,116.430967,中国工商银行24小时自助银行(北京香河园支行),北京市,750368354cb772d25f0d028f,,750368354cb772d25f0d028f
安定路中段33号化信大厦,朝阳区,北京市,1,39.981646,116.412949,中国工商银行24小时自助银行(北京化信支行),北京市,19e7e7d3b791f0c786420e7b,,19e7e7d3b791f0c786420e7b
外馆斜街51号凯景铭座底商(近安外大街),朝阳区,北京市,1,39.968687,116.410347,中国工商银行24小时自助银行(北京和平北路东口支行),北京市,192dabecd1b1b46f14b54b17,,192dabecd1b1b46f14b54b17
北京市朝阳区朝阳门南大街8号,朝阳区,北京市,1,39.926374,116.442323,中国工商银行附行式自助银行(北京分行朝阳支行朝阳门南大街),北京市,f2f9dd1b4faa5d7106026f45,,f2f9dd1b4faa5d7106026f45
朝阳门外市场街20号中保大厦1层,朝阳区,北京市,1,39.926651,116.447047,中国工商银行24小时自助银行(日坛路支行),北京市,12433a7998419bc443024509,,12433a7998419bc443024509
北京市朝阳区工人体育场北路15-1号,朝阳区,北京市,1,39.939812,116.454781,中国工商银行24小时自助银行(幸福村储蓄所),北京市,701e9038c36a7e21d33ce338,,701e9038c36a7e21d33ce338
紫南家园108号楼,朝阳区,北京市,1,39.883725,116.503624,中国工商银行24小时自助银行(北京世纪东方城支行),北京市,b4e46002a70fc7ccd1f49efe,,b4e46002a70fc7ccd1f49efe
北京市朝阳区山水米兰商业街4号楼03商业A-26,朝阳区,北京市,1,39.873527,116.489303,中国工商银行24小时自助银行(北京山水文园支行),北京市,26857f1ca38235f93062120c,,26857f1ca38235f93062120c
北京市朝阳区潘家园南里27号伊东·漪龙台大厦,朝阳区,北京市,1,39.881634,116.454302,中国工商银行24小时自助银行(左安门支行),北京市,b31fbce29a7ca43dd7851f2c,,2dae5a4756408f17c7effb7e
首都机场货运路0,朝阳区,北京市,1,40.110317,116.590733,中国工商银行离行式自助银行(北京分行望京支行飞行校验中心),北京市,cb33935f7af5b37af5c59c85,,cb33935f7af5b37af5c59c85
北京市朝阳区双桥路3号,朝阳区,北京市,1,39.914121,116.582558,中国工商银行离行式自助服务区(北京分行朝阳支行双桥路),北京市,,,399a4582bc27e465167643ed
北京市朝阳区广顺北大街33号院1号楼1层101室,朝阳区,北京市,1,40.00026,116.47424,中国工商银行24小时自助银行(北京广顺支行),北京市,2ccee09977e9e986260bd024,,2ccee09977e9e986260bd024
北苑家园青友园19号楼,朝阳区,北京市,1,40.04712,116.43262,中国工商银行24小时自助银行(北京北苑家园支行),北京市,dffd4642d021b3b23c9a5e75,,dffd4642d021b3b23c9a5e75
北京市朝阳区惠新东街甲6号中石化集团公司小营办公楼一层,朝阳区,北京市,1,39.990656,116.431073,中国工商银行24小时自助银行(北京中石化小营大厦支行),北京市,c75f2847583357e7d6b74e91,,c75f2847583357e7d6b74e91
安慧北里秀园15号海亚大厦,朝阳区,北京市,1,40.00496,116.420441,中国工商银行24小时自助银行(安慧分理处),北京市,33a99d6ac77ae97bcf06a47b,,f2f15ffb43439588631c674f
北辰东路8号(汇欣大厦1层),朝阳区,北京市,1,40.000855,116.410532,中国工商银行24小时自助银行(北辰路支行),北京市,0884ea64ce606aae4d55470a,,0884ea64ce606aae4d55470a
北京市朝阳区朝阳路89号附近,朝阳区,北京市,1,39.923748,116.537956,中国工商银行24小时自助银行服务(北京分行朝阳支行朝阳路),北京市,,,ddceef609560aa9943024511
北京市朝阳区十里堡甲3号西单商场F1,朝阳区,北京市,1,39.921444,116.508032,中国工商银行24小时自助银行(北京十里堡支行),北京市,9fbfeef28a34b538ece4a580,,9fbfeef28a34b538ece4a580
光华路4号东方梅地亚中心C座1层,朝阳区,北京市,1,39.917836,116.479807,中国工商银行24小时自助银行(北京东方梅地亚支行),北京市,96337db4739f0a0ad418b7fd,,96337db4739f0a0ad418b7fd
延静里东街乙5号楼,朝阳区,北京市,1,39.923458,116.490969,中国工商银行24小时自助银行(合成小区东),北京市,4932a4c8160904b30d0a7080,,36f1fd5204a5e8a62b11d15c
芍药居北里30号楼,朝阳区,北京市,1,39.989706,116.440446,中国工商银行网点自助服务区(北京分行望京支行芍药居北里),北京市,b13272fa4775ad8d4302458d,,b13272fa4775ad8d4302458d
北京市朝阳区左家庄中街6号院9号楼1层,朝阳区,北京市,1,39.961131,116.448124,中国工商银行24小时自助银行(柳芳支行),北京市,a010c4689929ee86081cc726,,a010c4689929ee86081cc726
北京市朝阳区小关东里14号附行式自助银行,朝阳区,北京市,1,39.983929,116.423548,中国工商银行24小时自助银行(北京安华支行),北京市,9b1f98921b8afdeb28201a7b,,9b1f98921b8afdeb28201a7b
西坝河西里2-1,朝阳区,北京市,1,39.972916,116.446114,中国工商银行24小时自助银行(北京望京香河园储蓄所),北京市,b55af2590d5237372bb97c9c,,b55af2590d5237372bb97c9c
建国门南大街10,朝阳区,北京市,1,39.910335,116.443778,中国工商银行离行式自助服务区(北京分行珠市口支行建国门南大街),北京市,03269952aba019ebf5231058,,03269952aba019ebf5231058
北京市朝阳区平乐园村100号北京工业大学,朝阳区,北京市,1,39.88383,116.48792,中国工商银行24小时自助银行(北工大社区卫生服务中心西南),北京市,fd13a3f26bc213fab0077db4,,fd13a3f26bc213fab0077db4
潘家园南里17楼,朝阳区,北京市,1,39.879366,116.451932,中国工商银行离行式自助银行(北京分行崇文支行潘家园南里肿瘤医院),北京市,3c026841a60f225db1077d9e,,3c026841a60f225db1077d9e
机场南路14号,朝阳区,北京市,1,40.056574,116.601357,中国工商银行24小时自助银行(北京分行望京支行首都机场支行),北京市,,,919018d21537fcb071210bc8
红松园北里甲2号,朝阳区,北京市,1,39.972371,116.560407,中国工商银行24小时自助银行服务(北京分行望京支行红松园北里),北京市,de58e45dc81096d86f476012,,de58e45dc81096d86f476012
东坝乡京奥家园186幢1-2号,朝阳区,北京市,1,39.966871,116.552054,中国工商银行24小时自助银行服务(京奥嘉园支行),北京市,f757e6eee5b37817260bd043,,f757e6eee5b37817260bd043
北京市朝阳区常营丽景园甲4号楼1层101,朝阳区,北京市,1,39.930533,116.616969,中国工商银行24小时自助银行(北京常营支行),北京市,b77d5a491e59d040d42ce252,,b77d5a491e59d040d42ce252
双桥路康惠园小区3号院2号楼底商,朝阳区,北京市,1,39.912152,116.584011,中国工商银行24小时自助银行服务(北京双桥路支行),北京市,f03d8edab91b46da6fa3ccd4,,f03d8edab91b46da6fa3ccd4
酒仙桥路甲4号宏源大厦,朝阳区,北京市,1,39.991134,116.496916,中国工商银行24小时自助银行服务(北京大山子支行),北京市,0342626888011cb14151c01c,,f03438f24da03080601c6764
朝阳区南湖西园甲205号楼一层,朝阳区,北京市,1,40.002141,116.463656,中国工商银行24小时自助银行服务(北京分行望京支行南湖西园),北京市,29897d0355397ea94d776ed0,,29897d0355397ea94d776ed0
朝阳区望京西园三区315楼底商,朝阳区,北京市,1,40.004433,116.481829,中国工商银行24小时自助银行服务(北京分行望京支行望京西园三区),北京市,,,3c0139a1358d89f36ca3cc09
朝阳区南湖东园101号,朝阳区,北京市,1,40.010335,116.473287,中国工商银行24小时自助银行服务(北京南湖东园支行),北京市,06d2dffd132942f688f15d75,,06d2dffd132942f688f15d75
望京利泽中园105号楼,朝阳区,北京市,1,40.017705,116.480127,中国工商银行24小时自助银行(北京分行望京支行望京利泽中园),北京市,53b92c9ebc514f826018091f,,53b92c9ebc514f826018091f
望京中环南路9号望京大厦A座,朝阳区,北京市,1,39.991902,116.476464,中国工商银行24小时自助银行(北京四元桥支行),北京市,0dc3d82db1886e1274e5b6bc,,0dc3d82db1886e1274e5b6bc
北京市朝阳区广华居17号楼一层101室、18号楼一层101室,朝阳区,北京市,1,40.039312,116.447721,中国工商银行24小时自助银行(北京亚运村支行青年城支行),北京市,12098f811f37035f30169b57,,12098f811f37035f30169b57
北京市朝阳区天乐园1-2,朝阳区,北京市,1,40.0393,116.419226,中国工商银行24小时自助银行服务(北京媒体村支行),北京市,4642844a266507d9c9fa5f75,,4642844a266507d9c9fa5f75
科学园南里东街2,朝阳区,北京市,1,40.003863,116.391362,中国工商银行24小时自助银行服务(北京大屯路支行),北京市,06d2dffd46cd9f8888f15d0c,,06d2dffd46cd9f8888f15d0c
朝阳区夏家园12号楼地上一层,朝阳区,北京市,1,39.976431,116.457998,中国工商银行24小时自助银行(北京分行望京支行夏家园),北京市,553613f21877a73ca5da39a3,,553613f21877a73ca5da39a3
朝阳区南十里居13号,朝阳区,北京市,1,39.964105,116.498091,中国工商银行24小时自助银行服务(北京分行望京支行南十里居),北京市,37d60a46555acc601e1d114f,,97410940e9bb4cb5fa0cadb6
东三环北路丙2号天元港中心1层,朝阳区,北京市,1,39.961347,116.466496,中国工商银行24小时自助银行(北京燕莎支行),北京市,04bdf4a3f2571c31354aae9d,,04bdf4a3f2571c31354aae9d
麦子店街41,朝阳区,北京市,1,39.952771,116.47522,中国工商银行24小时自助银行服务(北京麦子店支行),北京市,e74311145b02c34d5cbe8644,,e74311145b02c34d5cbe8644
朝阳区八里庄北里128号华业玫瑰郡底商,朝阳区,北京市,1,39.936675,116.507933,中国工商银行24小时自助银行服务(北京分行朝阳支行石佛营东里),北京市,c1bfa8fde9dffc418605bf1d,,c1bfa8fde9dffc418605bf1d
星火西路19号楼底商一层,朝阳区,北京市,1,39.943078,116.507597,中国工商银行24小时自助银行服务(北京分行朝阳支行星火西路),北京市,c9b912ea6a01ae0e882fb508,,c9b912ea6a01ae0e882fb508
建国路77号,朝阳区,北京市,1,39.915577,116.488832,中国工商银行24小时自助银行服务(北京市分行华贸中心支行建国路),北京市,17c41e74096c6c1fca09f025,,17c41e74096c6c1fca09f025
北京市朝阳区西大望路甲2号南侧,朝阳区,北京市,1,39.920538,116.484972,中国工商银行24小时自助银行服务(北京市分行大望路支行西大望路),北京市,1540950d52c726e8ae0457fa,,1540950d52c726e8ae0457fa
北京市朝阳区东三环双井北里2号楼底商,朝阳区,北京市,1,39.903764,116.468704,中国工商银行24小时自助银行(北京分行九龙山支行双花园),北京市,23d2b4e31500bc0f89f15dfb,,23d2b4e31500bc0f89f15dfb
姚家园路18号,朝阳区,北京市,1,39.937155,116.475074,中国工商银行24小时自助银行服务(团结湖北三条),北京市,16827fc9c11c8d7643e1921b,,16827fc9c11c8d7643e1921b
朝阳门外大街1号金麒大厦1层,朝阳区,北京市,1,39.929217,116.455233,中国工商银行24小时自助银行(北京朝阳支行),北京市,71a7df82a399a5be6f4760a1,,71a7df82a399a5be6f4760a1
六里屯北里18号楼A座,朝阳区,北京市,1,39.93715,116.481566,中国工商银行24小时自助银行服务(北京分行朝阳支行六里屯北里),北京市,b5ee3c0001dbea9d61685857,,4ad1a6218e3be52ee8e582f0
东大桥路8号,朝阳区,北京市,1,39.924808,116.457944,中国工商银行24小时自助银行(北京市分行尚都支行东大桥路),北京市,b7af4e3e66233d8f8bf15d35,,b7af4e3e66233d8f8bf15d35
金台里甲25号楼,朝阳区,北京市,1,39.927298,116.484263,中国工商银行24小时自助银行服务(北京分行朝阳支行金台里),北京市,436d0ab5cd96be409d9d68af,,4c4b2a354efc6184e5e96587
安定路五路居化信大厦33号,朝阳区,北京市,1,39.981476,116.413224,中国工商银行24小时自助银行(北京分行亚运村支行安定路),北京市,44cb01c1a073a6cb9322e021,,44cb01c1a073a6cb9322e021
北京市朝阳区芍药居小区北里30号楼,朝阳区,北京市,1,39.989794,116.44022,中国工商银行24小时自助银行(北京分行望京支行芍药居北里),北京市,b957666ae85a74cfab059db7,,b957666ae85a74cfab059db7
左家庄北里35号楼,朝阳区,北京市,1,39.961959,116.451687,中国工商银行24小时自助银行服务(北京分行朝阳支行左家庄北里),北京市,3f2c5c8678978bb18505bf3f,,3f2c5c8678978bb18505bf3f
北三环东路西坝河东里14号,朝阳区,北京市,1,39.971095,116.453775,中国工商银行24小时自助银行服务(北京国展支行),北京市,b8775249caf66f457ec87619,,b8775249caf66f457ec87619
"北京市朝阳区安贞西里二区21号楼首层(安华桥向北200米-300米路东,中国科技馆东门东北方马路东)",朝阳区,北京市,1,39.978624,116.40143,中国工商银行24小时自助银行服务(北京亚运村双北桥支行),北京市,9f4e6d1509d437e4d813189e,,dda40eb35f2fd7a90782c2ae
北土城西路11号城建开发大厦1层,朝阳区,北京市,1,39.983376,116.391302,中国工商银行24小时自助银行(北京马甸支行),北京市,5ffb1816508c83216f476027,,5ffb1816508c83216f476027
北京市朝阳区朝阳门外大街17号北京祥业大厦,朝阳区,北京市,1,39.930534,116.446716,中国工商银行24小时自助银行(工人体育场南路西小区西南),北京市,fa7da3e869a4281c42d63e27,,fa7da3e869a4281c42d63e27
朝外市场街20号,朝阳区,北京市,1,39.926363,116.447006,中国工商银行24小时自助银行(北京市分行日坛路支行朝外市场街),北京市,6e0a41859eb0c9b5eee4a54f,,6e0a41859eb0c9b5eee4a54f
双桥温泉北路2号楼,朝阳区,北京市,1,39.897662,116.613766,中国工商银行24小时自助银行服务(北京分行朝阳支行双桥温泉北路),北京市,,,d3c79a91a895d2b2a11de990
北京市朝阳区垡头金蝉南里14号楼一层底商7~9号,朝阳区,北京市,1,39.867627,116.510705,中国工商银行24小时自助银行服务(北京分行九龙山支行翠城支行),北京市,9e178d7edc54bb5ba80dd84b,,9e178d7edc54bb5ba80dd84b
北京市朝阳区广渠门外大街22号,朝阳区,北京市,1,39.89878,116.463062,中国工商银行24小时自助银行服务(北京广渠路支行),北京市,44b035cdbf34905e4557262d,,44b035cdbf34905e4557262d
北京市朝阳区农光南里１号楼,朝阳区,北京市,1,39.886136,116.468295,中国工商银行24小时自助银行(北京分行九龙山支行潘家园支行),北京市,011220f69e083bf8921fc92c,,011220f69e083bf8921fc92c
北京市朝阳区周庄嘉园东里32号楼一层,朝阳区,北京市,1,39.869521,116.48358,中国工商银行24小时自助银行服务(北京分行九龙山支行南新园支行),北京市,2ac0334609aa045d75e5b664,,2ac0334609aa045d75e5b664
北京市朝阳区广和南里二条16号院3号楼底商,朝阳区,北京市,1,39.891274,116.457115,中国工商银行24小时自助银行服务(北京分行九龙山支行劲松路支行),北京市,ea46f792747bce84fd0eb084,,ea46f792747bce84fd0eb084
北京市朝阳区广渠路甲40号,朝阳区,北京市,1,39.898623,116.474139,中国工商银行24小时自助银行(北京分行九龙山支行),北京市,f6b008a6b65ed67a06fef5e6,,f6b008a6b65ed67a06fef5e6
十里河大羊坊路民航空管楼A座,朝阳区,北京市,1,39.871193,116.466741,中国工商银行24小时自助银行服务(北京分行方庄支行十里河支行),北京市,447e706ce9ecdd2636b06c8f,,447e706ce9ecdd2636b06c8f
武圣东里52号楼,朝阳区,北京市,1,39.883231,116.474546,中国工商银行24小时自助银行服务(北京武圣里支行),北京市,5cba5fdb04f42a2be8e582f4,,5cba5fdb04f42a2be8e582f4
北京市朝阳区华威里27号长安大饭店1层,朝阳区,北京市,1,39.877569,116.464648,中国工商银行24小时自助银行(九龙山支行),北京市,,,cf17f8cdce96e12bca09f0e5
北京市朝阳区百子湾路32号院1号楼3号商铺,朝阳区,北京市,1,39.905707,116.478995,中国工商银行24小时自助银行服务(北京九龙山支行百子湾),北京市,f98d3b5f773e4aa8c3364436,,f98d3b5f773e4aa8c3364436
北京市朝阳区和平街11区38号楼,朝阳区,北京市,1,39.973412,116.424989,中国工商银行24小时自助银行服务(北京分行和平里北三环支行),北京市,09a0cb9cba281d40ca1b9595,,09a0cb9cba281d40ca1b9595
北京市丰台区桥南新华街七里11号楼南侧,丰台区,北京市,1,39.848575,116.293723,中国工商银行(桥南支行),北京市,5977641506c2668e4bcc4a5f,(010)63716225,8cba4bb0051a9c84ad0457dd
角门路18号,丰台区,北京市,1,39.841686,116.381044,中国工商银行(北京公益桥支行),北京市,fd86bc12a9e0bcc2f4231013,(010)87581091,fd86bc12a9e0bcc2f4231013
北京市丰台区中国工商银行(七里庄地铁站北),丰台区,北京市,1,39.875374,116.301386,中国工商银行贵金属销售回购中心,北京市,024d60f851916e9301897262,,024d60f851916e9301897262
北京市丰台区科学城海鹰路1号院7号楼,丰台区,北京市,1,39.836081,116.295084,中国工商银行(北京科技园支行),北京市,a9d1227acce24b04d4b74e9a,(010)63751838,a9d1227acce24b04d4b74e9a
北京市丰台区马家堡东路94号楼一、二层,丰台区,北京市,1,39.852954,116.393335,中国工商银行(洋桥支行),北京市,b292b3aa7a8cbf56be4842d3,(010)87260224,b292b3aa7a8cbf56be4842d3
丰管路16号-11号,丰台区,北京市,1,39.863683,116.314969,中国工商银行(丰益桥支行),北京市,3be122e152c4a8521ef74ddd,(010)83833096,3be122e152c4a8521ef74ddd
北京市丰台区广安路9号院10号楼商业一层,丰台区,北京市,1,39.896525,116.330079,中国工商银行(北京太平桥支行),北京市,3b4c0d3de59f0bc04f6d46d1,(010)63464034,3b4c0d3de59f0bc04f6d46d1
北京市丰台区石榴庄西街232号联宏大厦一楼,丰台区,北京市,1,39.848121,116.420805,中国工商银行(北京彩虹城支行),北京市,98f8438e5259a8be15c9054d,"(010)87800801,(010)87800633",98f8438e5259a8be15c9054d
北京市丰台区万丰路西局欣园北区5号楼,丰台区,北京市,1,39.8754,116.301491,中国工商银行(北京万丰路支行),北京市,53349ee3658e2110230262a4,(010)83674301,53349ee3658e2110230262a4
北京市丰台区万芳路万芳园二区15号楼1层06-07号(近北京小学分校),丰台区,北京市,1,39.850787,116.320669,中国工商银行(北京万年花城支行),北京市,49d95938a2b1793dc61e5150,(010)83683123,49d95938a2b1793dc61e5150
北京市丰台区嘉和路嘉园三里3号楼,丰台区,北京市,1,39.851583,116.37297,中国工商银行(北京镇国寺支行),北京市,4919e80925bcc65e0b5cb37f,(010)59260496,4919e80925bcc65e0b5cb37f
北京市丰台区青塔西路5号1~2层,丰台区,北京市,1,39.899531,116.270754,中国工商银行(北京青塔支行),北京市,56e88cba06738c65a4c756dd,(010)68671492,56e88cba06738c65a4c756dd
丰台区莲花池西里9号首层,丰台区,北京市,1,39.897288,116.314863,中国工商银行(北京六里桥支行),北京市,ddc015f0237620341e580017,(010)63984971,ddc015f0237620341e580017
北京市丰台区方庄南路15号,丰台区,北京市,1,39.85724,116.444982,中国工商银行(北京方成支行),北京市,ea4faaff1d45cd2fb1077d20,,ea4faaff1d45cd2fb1077d20
北京市丰台区宋庄路政馨园1区1号楼底商工商银行天宝酒店,丰台区,北京市,1,39.855189,116.438839,中国工商银行(北京南三环支行),北京市,d305db1f0a769543932ca33e,"(010)87688672,(010)87688677,(010)87688671",d305db1f0a769543932ca33e
北京市丰台区怡海花园富润园6号楼101,丰台区,北京市,1,39.8379,116.307297,中国工商银行(北京怡海花园支行),北京市,,(010)63725296,435d7aea741d2d355abbbc3b
北京市丰台区方庄路紫芳园6区5号楼1层,丰台区,北京市,1,39.865352,116.450629,中国工商银行(南方庄支行),北京市,2529c340d954863988fc06c5,,2529c340d954863988fc06c5
北京市丰台区南大红门路1号四营门东高地60食堂,丰台区,北京市,1,39.811768,116.419079,中国工商银行(北京航天支行),北京市,4893c05a457bdd324c6d466e,(010)67991338,4893c05a457bdd324c6d466e
北京市丰台区丽泽路1号院18号楼,丰台区,北京市,1,39.877114,116.347896,中国工商银行(丰台丽泽支行),北京市,7854ddb8df04f52754bfff75,"(010)59260486,(010)59260485,(010)59260489",7854ddb8df04f52754bfff75
北京市丰台区文体路19号,丰台区,北京市,1,39.857157,116.292443,中国工商银行(北京丰台支行),北京市,,(010)63815968,d3c2cda4d82430fe25d2bb94
鲁谷大街51号重兴嘉园4号楼,丰台区,北京市,1,39.896245,116.238128,中国工商银行(重兴园支行),北京市,3f826ed35e33d13bd0f49e97,,3f826ed35e33d13bd0f49e97
北京市丰台区云岗南区西里2号,丰台区,北京市,1,39.815468,116.166174,中国工商银行(云岗网点支行),北京市,4ce10ce6f58b07a1441a323e,(010)68741715,4ce10ce6f58b07a1441a323e
丰台区开阳路1号瀚海花园大厦首层,丰台区,北京市,1,39.874867,116.38011,中国工商银行(北京南站支行),北京市,15ed53ce4bf7ec299222e034,"(010)83973128,(010)83973129",15ed53ce4bf7ec299222e034
北京市丰台区右安门外大街1号楼底商,丰台区,北京市,1,39.873754,116.370372,中国工商银行(北京玉林支行),北京市,dffd4642d189b0b23c9a5edd,"(010)63055947,(010)63053674,(010)63054786",dffd4642d189b0b23c9a5edd
南大红门路1号四营门三角地60食堂,丰台区,北京市,1,39.811758,116.419035,中国工商银行-24小时自助银行,北京市,7196d0cf7afcc8fd88fc06a6,,7196d0cf7afcc8fd88fc06a6
北京市丰台区正阳大街正阳北里16-18号,丰台区,北京市,1,39.854788,116.293109,中国工商银行(丰台正阳支行),北京市,,(010)63822225,3b1dbfb064a9b92cc0364479
北京市丰台区长兴路12号中体奥园一区1号楼,丰台区,北京市,1,39.841599,116.198517,中国工商银行(北京陈庄支行),北京市,2a1ea9d771072bf68c55ec0e,(010)83805731,2a1ea9d771072bf68c55ec0e
北京市丰台区镇岗塔路金角综合楼,丰台区,北京市,1,39.818568,116.169803,中国工商银行(丰台云岗支行),北京市,,(010)68741715,6bb4c93c0295407deddfca33
北京市丰台区蒲黄榆五巷甲6号,丰台区,北京市,1,39.871759,116.423799,中国工商银行(蒲黄榆支行),北京市,75d0881a4d648a4c3a04b11d,(010)67621991,75d0881a4d648a4c3a04b11d
蒲芳路32号中国工商银行,丰台区,北京市,1,39.87156,116.43201,中国工商银行(个人贷款中心),北京市,f58cba9c9b8c25768c1a893e,95588,f58cba9c9b8c25768c1a893e
北京市丰台区南苑新华路6号,丰台区,北京市,1,39.813644,116.401283,中国工商银行(北京南苑支行),北京市,09185c56417b895df1193737,,09185c56417b895df1193737
北京市丰台区靛厂路26号院14楼1层,丰台区,北京市,1,39.895162,116.290495,中国工商银行(北京千禧支行),北京市,4cb49ce872ee9ddaaecb664f,(010)88189850,4cb49ce872ee9ddaaecb664f
朱家坟五里2号,丰台区,北京市,1,39.8146,116.197246,中国工商银行(朱家坟支行),北京市,edd64ce1a64099913fe2313e,(010)83876305,edd64ce1a64099913fe2313e
北京市丰台区永外果园43号骏景园北区第二栋1楼2号(珠江骏景北区东一门旁),丰台区,北京市,1,39.861985,116.403249,中国工商银行(北京南中轴路支行),北京市,7aea43b7de5862f87c29bdd0,(010)87806287,7aea43b7de5862f87c29bdd0
北京市丰台区方庄芳城东里9号楼商业用房首层,丰台区,北京市,1,39.872061,116.448909,中国工商银行(北京东方庄支行),北京市,67e1e4daa6ba1f81d1f49e35,(010)87620982,67e1e4daa6ba1f81d1f49e35
北京市丰台区方庄蒲芳路32号,丰台区,北京市,1,39.871534,116.431938,中国工商银行(北京芳群园支行),北京市,08fc93df22121d919b68b4d0,"(010)87637842,(010)87636038,(010)87636036",08fc93df22121d919b68b4d0
丰台区南大红门路11号,丰台区,北京市,1,39.804808,116.424945,中国工商银行(北京东高地支行),北京市,87248d9672f7ffce2806ce30,(010)67063710,87248d9672f7ffce2806ce30
北京市丰台区丰台南路新发地风格与林苑甲9号,丰台区,北京市,1,39.829134,116.343444,中国工商银行(北京新发地支行),北京市,591b7ed950e3b079f842b289,"(010)83725182,(010)83725236",591b7ed950e3b079f842b289
北京市丰台区东幸福街6号,丰台区,北京市,1,39.85757,116.291282,中国工商银行(北京幸福街支行),北京市,750ec16566c65a2b4c3a59dd,(010)63823645,750ec16566c65a2b4c3a59dd
北京市丰台区梅市口路12号,丰台区,北京市,1,39.886997,116.275773,中国工商银行(北京岳各庄支行),北京市,a3f21eee458de6392fb17ed0,(010)83810295,a3f21eee458de6392fb17ed0
程庄南里1,丰台区,北京市,1,39.858323,116.273238,中国工商银行(北京程庄路支行),北京市,6deee3086b8b3a6a29fc48dd,(010)83654046,6deee3086b8b3a6a29fc48dd
北京市丰台区大灰厂东路槐树岭四号院创成大厦,丰台区,北京市,1,39.867679,116.175098,中国工商银行(丰台槐树岭支行),北京市,cc0849a087c78f2d94031922,(010)83803091,cc0849a087c78f2d94031922
北京市丰台区赵公口路19号,丰台区,北京市,1,39.860531,116.420438,中国工商银行(北京赵公口支行),北京市,befdb292897b86e1871541d3,(010)67262206,befdb292897b86e1871541d3
北京市丰台区,丰台区,北京市,1,39.866117,116.420053,中国工商银行(北京东铁匠营支行),北京市,fa835ce279fe7cb7e812e41d,(010)67211896,fa835ce279fe7cb7e812e41d
北京市丰台区西罗园北路12号,丰台区,北京市,1,39.870179,116.394317,中国工商银行(北京马家堡支行),北京市,855b25faee14c240364aaeec,"(010)67221135,(010)87291442,(010)87201884",855b25faee14c240364aaeec
北京市丰台区星河苑2号院22号楼,丰台区,北京市,1,39.843677,116.37685,中国工商银行(北京星河苑支行),北京市,52c68d3a98783c76102935bd,(010)67588057,52c68d3a98783c76102935bd
北京市丰台区镇国寺北街草桥欣园一区6号楼,丰台区,北京市,1,39.85204,116.362757,中国工商银行(北京恋日嘉园支行),北京市,50fb64ff7322e75de9f853dd,"(010)87584122,(010)87584961",50fb64ff7322e75de9f853dd
北京市丰台区小屯路美域家园北区3号楼101-5号,丰台区,北京市,1,39.882033,116.258261,中国工商银行(丰台小屯路支行),北京市,022c1315f005bbd801ec01bc,(010)68649212,022c1315f005bbd801ec01bc
北京市丰台区卢沟桥南里21号,丰台区,北京市,1,39.852866,116.237315,中国工商银行(北京阀东路支行),北京市,d4034eb38a822ff6c0364433,"(010)83892997,(010)83200050",d4034eb38a822ff6c0364433
长辛店大街122号,丰台区,北京市,1,39.831499,116.215046,中国工商银行(北京长辛店支行),北京市,5c13aacece2c327c43ab9a16,"(010)83875803,(010)83871157,(010)83871158",5c13aacece2c327c43ab9a16
北京市丰台区文西路云岗南区西里2号,丰台区,北京市,1,39.815471,116.166134,中国工商银行(丰台云岗北区支行),北京市,3046fd963ee70662a11de9ef,(010)68741911,3046fd963ee70662a11de9ef
北京市丰台区北京西站南路76-5号中新佳园二区18号商业配套楼1楼,丰台区,北京市,1,39.884677,116.328151,中国工商银行(北京西客站南路支行),北京市,4f4faa75d3c64b6b46e27482,(010)59561480,4f4faa75d3c64b6b46e27482
丰台区南三环西路16号搜宝商务中心3号楼1楼(右安南桥东南),丰台区,北京市,1,39.861396,116.3751,中国工商银行(北京搜宝商务中心支行),北京市,a5ef680ff2136daab8df8f8c,"(010)87576396,(010)87576395",a5ef680ff2136daab8df8f8c
北京市丰台区汽车博物馆东路6号院1号楼1层2单元102号,丰台区,北京市,1,39.833255,116.309889,中国工商银行(丰台科技园东区支行),北京市,,(010)83816254,48c176e357077b8c3517dc03
北京市丰台区蒲方路方庄小区芳城园三区18号楼,丰台区,北京市,1,39.872218,116.440918,中国工商银行(北京方庄支行营业部),北京市,7bfa08fca30ec87f25d2bbd0,,7bfa08fca30ec87f25d2bbd0
长辛店二七北厂宿舍,丰台区,北京市,1,39.838821,116.218392,中国工商银行(辛店网点附行式自助银行),北京市,,,ba6b5073eda01e27f02d830f
北京市丰台区分钟寺地铁站内,丰台区,北京市,1,39.858164,116.460876,中国工商银行ATM,北京市,f4f63697091514df54bfffc8,,f4f63697091514df54bfffc8
北京市丰台区二老庄96号,丰台区,北京市,1,39.823965,116.194239,中国工商银行自助银行,北京市,,,1217cc7d876621605a3ac896
北京市丰台区西三环南路甲27号居然之家F1,丰台区,北京市,1,39.877737,116.3167,中国工商银行ATM(居然之家),北京市,,,82887a9a7828540303ec0144
商业街甲1-1二七厂职工技校北,丰台区,北京市,1,39.837368,116.204466,中国工商银行ATM(陈庄储蓄所),北京市,fa7da3e881baf06242d63e3e,,fa7da3e881baf06242d63e3e
北京市丰台区方庄南路15号楼1至2层111、112,丰台区,北京市,1,39.85726,116.445063,中国工商银行24小时自助银行,北京市,7c913b981d35379508f5eb18,,7c913b981d35379508f5eb18
万泉寺村7街附近,丰台区,北京市,1,39.865467,116.346096,中国工商银行职工宿舍-西区,北京市,790b3d7ad7767967128824a0,,790b3d7ad7767967128824a0
菜户营东街甲88号院1楼豪苑大厦B座底商,丰台区,北京市,1,39.876584,116.354395,中国工商银行24小时自助银行服务(北京益民分理处),北京市,d421b19280134b4f84330484,,d421b19280134b4f84330484
丰台路79号,丰台区,北京市,1,39.86048,116.288854,中国工商银行ATM(北京北大地支行),北京市,6ee01020b8cc9bef52e5c5dd,,6ee01020b8cc9bef52e5c5dd
鲁谷大街51,丰台区,北京市,1,39.896168,116.238201,中国工商银行24小时自助银行服务(北京重兴园支行),北京市,55f7f7e6d3dcc39875e5b6ce,,55f7f7e6d3dcc39875e5b6ce
北京市丰台区六圈路18号附近,丰台区,北京市,1,39.824942,116.299648,中国工商银行24小时自助银行(九号路),北京市,,,3e3493aeb05b0d503913fd27
北京市丰台区大成路7,丰台区,北京市,1,39.896072,116.276077,中国工商银行24小时自助银行(大成路),北京市,d1556f79bbcbd609c42ba1c8,,d1556f79bbcbd609c42ba1c8
南三环西路16号3号楼102号,丰台区,北京市,1,39.86129,116.375152,中国工商银行24小时自助银行(搜宝商务中心支行),北京市,2cc3c8e822f0a5d64d2fdfdd,,2cc3c8e822f0a5d64d2fdfdd
角门路18号,丰台区,北京市,1,39.841525,116.380888,中国工商银行24小时自助银行(公益桥支行),北京市,81f8ddfca98d3c51b320a805,,81f8ddfca98d3c51b320a805
马家堡东路94号楼,丰台区,北京市,1,39.852951,116.393336,中国工商银行24小时自助银行(北京洋桥支行),北京市,f395f5f496e96749ae080f91,,f395f5f496e96749ae080f91
北京市丰台区南大红门路东高地社区中国邮政旁,丰台区,北京市,1,39.812022,116.423472,中国工商银行24小时自助银行(东高地南街),北京市,606ab0d069a7a1290e3dda49,,606ab0d069a7a1290e3dda49
北京市丰台区靛厂路26号院14号楼,丰台区,北京市,1,39.895223,116.290783,中国工商银行24小时自助银行(北京千禧支行),北京市,09f14abe93f469ef2b201a1c,,09f14abe93f469ef2b201a1c
北京市丰台区西局欣园北区5号楼,丰台区,北京市,1,39.875394,116.30138,中国工商银行24小时自助银行(北京万丰路支行),北京市,a3857197c079b89332f71d7f,,a3857197c079b89332f71d7f
北京市丰台区新发地风格与林苑甲9号楼底商,丰台区,北京市,1,39.829002,116.343465,中国工商银行24小时自助银行(北京新发地支行),北京市,05dd7d5fff09fc7cac080f98,,05dd7d5fff09fc7cac080f98
北京市丰台区梅市口路12号院4号院一层,丰台区,北京市,1,39.887024,116.275894,中国工商银行24小时自助银行服务(北京岳各庄支行),北京市,fe3b0bc02260564090114cf3,,fe3b0bc02260564090114cf3
小屯路149号,丰台区,北京市,1,39.881712,116.258184,中国工商银行24小时自助银行(北京小屯路支行),北京市,5bb5b6c3a1d814ebb1077de1,,5bb5b6c3a1d814ebb1077de1
北京市丰台区镇岗塔路,丰台区,北京市,1,39.818021,116.170386,中国工商银行24小时自助银行(镇岗塔路),北京市,,,9e956423b9da732488db73f0
蒲黄榆路36号,丰台区,北京市,1,39.868663,116.428997,中国工商银行离行式自助服务区(北京分行方庄支行蒲黄榆路),北京市,ee91d203d6bcb86b08ccdd1d,,ee91d203d6bcb86b08ccdd1d
蒲黄榆一号院,丰台区,北京市,1,39.871322,116.427625,中国工商银行离行式自助服务区(北京分行方庄支行蒲黄榆),北京市,,,72709c69158ee1962d4733bf
北京市丰台区定安西里四号楼,丰台区,北京市,1,39.866057,116.420195,中国工商银行24小时自助银行(东铁匠营支行),北京市,3a6c78df07b955dab1077dfc,,3a6c78df07b955dab1077dfc
北京市丰台区西罗园北路12-3附近,丰台区,北京市,1,39.870106,116.394245,中国工商银行24小时自助银行(马家堡支行),北京市,b9b282e6832f34d6ed74f811,,b9b282e6832f34d6ed74f811
星河苑2号院22号楼,丰台区,北京市,1,39.843789,116.376926,中国工商银行附行式自助银行(北京分行丰台支行星河苑),北京市,402d2a1428ac273d7069d399,,402d2a1428ac273d7069d399
六里桥莲花池西里7号,丰台区,北京市,1,39.89732,116.314983,中国工商银行24小时自助银行(北京六里桥支行),北京市,d82d669759914da6d418b7a0,,d82d669759914da6d418b7a0
怡海花园富润园101-A,丰台区,北京市,1,39.837965,116.3075,中国工商银行24小时自助银行(怡海花园支行),北京市,,,7d5f3a0abcbed4362db90898
西四环中路113号,丰台区,北京市,1,39.88921,116.279293,中国工商银行离行式自助银行(北京分行翠微路支行西四环中路13号),北京市,ebc6c2019f08f4aedd1e521c,,ebc6c2019f08f4aedd1e521c
长兴路12号中体奥林匹克花园附近,丰台区,北京市,1,39.841591,116.198514,中国工商银行24小时自助银行(北京陈庄支行),北京市,0396820039c1b007a80dd869,,0396820039c1b007a80dd869
左安门外方庄路10号(二中院),丰台区,北京市,1,39.870977,116.445896,中国工商银行离行式自助服务区(北京分行方庄支行二中院),北京市,069810a6a59abf44bbbd63c1,,069810a6a59abf44bbbd63c1
紫芳园六区5号楼1层1单元103室,丰台区,北京市,1,39.86525,116.45073,中国工商银行24小时自助银行(北京南方庄支行),北京市,56b58be7ca881bb315a19015,,56b58be7ca881bb315a19015
蒲方路5号,丰台区,北京市,1,39.872217,116.440443,中国工商银行24小时自助银行(方庄支行营业部),北京市,74da28283eb43084abf72939,,74da28283eb43084abf72939
嘉园三里3,丰台区,北京市,1,39.851651,116.37289,中国工商银行24小时自助银行(北京镇国寺支行),北京市,0f01bfdd4f222a36c06c1459,,0f01bfdd4f222a36c06c1459
丰台马家堡嘉园小区2里,丰台区,北京市,1,39.85147,116.371867,中国工商银行附行式自助银行(北京分行丰台支行镇国寺),北京市,,,fa8efbeefff14bf21d580089
北京市丰台区星河苑2号院22,丰台区,北京市,1,39.843684,116.377119,中国工商银行24小时自助银行(北京星河苑支行),北京市,3bc4d186997601571a11d5bf,,3bc4d186997601571a11d5bf
北京市丰台区广安路9号院1号楼底商,丰台区,北京市,1,39.896312,116.329858,中国工商银行24小时自助银行(太平桥支行),北京市,c10d6d0b24d6119f17b54bab,,c10d6d0b24d6119f17b54bab
西四环南路69号,丰台区,北京市,1,39.861228,116.288948,中国工商银行24小时自助银行(西四环南路辅路),北京市,9decfcca6f53b0a488f15d28,,9decfcca6f53b0a488f15d28
北京市丰台区长辛店大街122号,丰台区,北京市,1,39.831588,116.214899,中国工商银行24小时自助银行(北京长辛店支行),北京市,bff8fa7d154ef1a0c8213d3e,,bff8fa7d154ef1a0c8213d3e
北京市丰台区云岗南区西里2号,丰台区,北京市,1,39.815515,116.166015,中国工商银行网点自助服务区(北京分行丰台支行云岗支行),北京市,,,5a08971705129006b2077d60
方庄芳城东里9号楼商业用房首层,丰台区,北京市,1,39.872208,116.448887,中国工商银行24小时自助银行服务(北京分行方庄支行东方庄支行),北京市,375df4b65d63b4bfc2f1cf35,,375df4b65d63b4bfc2f1cf35
北京市丰台区蒲黄榆五巷银行宿舍,丰台区,北京市,1,39.87188,116.423961,中国工商银行24小时自助银行(北京分行方庄支行蒲黄榆支行),北京市,c684106430cec1d84302457b,,c684106430cec1d84302457b
赵公口路19号,丰台区,北京市,1,39.860517,116.420438,中国工商银行24小时自助银行服务(北京分行方庄支行赵公口支行),北京市,8f883f1e85df7c4f9d82ea6d,,8f883f1e85df7c4f9d82ea6d
北京市丰台区铁匠营横六条12号,丰台区,北京市,1,39.860757,116.431645,中国工商银行24小时自助银行服务(铁匠营储蓄所),北京市,55d0c500e75287f0be484245,,da36ef25bc3ebc17f33cbaf4
玉林小区1号楼,丰台区,北京市,1,39.873678,116.370582,中国工商银行24小时自助银行(北京分行丰台支行玉林),北京市,2aeb6cbb1c66bd59d42ce233,,2aeb6cbb1c66bd59d42ce233
开阳路1号,丰台区,北京市,1,39.874555,116.380285,中国工商银行24小时自助银行服务(北京分行崇文支行开阳路),北京市,,,0961d308185ea1b49ff779dc
永外果园43号骏景园北区第二幢1层02号,丰台区,北京市,1,39.861999,116.403218,中国工商银行24小时自助银行服务(北京分行方庄支行南中轴路支行),北京市,,,568732447a2d707109a8d4d9
西罗园二区7号楼,丰台区,北京市,1,39.863886,116.398486,中国工商银行24小时自助银行服务(北京分行方庄支行木樨园),北京市,94db2642f306f28a220220f7,,94db2642f306f28a220220f7
政馨园一区1号楼东侧,丰台区,北京市,1,39.85534,116.438863,中国工商银行24小时自助银行服务(北京分行方庄支行南三环支行),北京市,6252c8219ae6b00521f017e6,,a499a21959211143f72310d3
北京市丰台区光彩路51号,丰台区,北京市,1,39.848101,116.420888,中国工商银行24小时自助银行服务(北京分行方庄支行彩虹城支行),北京市,d6953c79f5c1e86e16c9056b,,d6953c79f5c1e86e16c9056b
东高地60食堂,丰台区,北京市,1,39.811776,116.419143,中国工商银行24小时自助银行(北京分行方庄支行航天支行),北京市,b2e4ab5b28515881c9fa5fa1,,b2e4ab5b28515881c9fa5fa1
南大红门路11号南大红门路11号,丰台区,北京市,1,39.80458,116.424926,中国工商银行24小时自助银行服务(北京分行方庄支行东高地支行),北京市,4edeeb9d10308cf22cb908f1,,4edeeb9d10308cf22cb908f1
北京市丰台区南苑新华路6号,丰台区,北京市,1,39.81363,116.401035,中国工商银行24小时自助银行服务(北京南苑支行),北京市,bcaebff84dd06654c9e33c37,,bcaebff84dd06654c9e33c37
丽泽路1号院18号楼,丰台区,北京市,1,39.877001,116.347842,中国工商银行24小时自助银行(北京丽泽支行),北京市,50010b8b0c872ffe4557269b,,50010b8b0c872ffe4557269b
北京市丰台区中新佳园二区18号商业配套楼一层,丰台区,北京市,1,39.88466,116.328016,中国工商银行24小时自助银行服务(北京分行西客站支行中新佳园),北京市,770cba870a9ed0ff96ca0799,,770cba870a9ed0ff96ca0799
北京市丰台区广安路小井966号,丰台区,北京市,1,39.884002,116.298779,中国工商银行24小时自助银行服务(北京分行西客站支行广安路小井),北京市,3f4125e6fce9b25b4354d7e2,,3f4125e6fce9b25b4354d7e2
丰管路16号卡普酒店(丰益桥店)附近,丰台区,北京市,1,39.863711,116.314992,中国工商银行24小时自助银行(北京丰益桥支行),北京市,2fd2beab123713527adbd2dd,,2fd2beab123713527adbd2dd
丰台区草桥东路16号楼底商,丰台区,北京市,1,39.851476,116.366466,中国工商银行24小时自助银行服务(北京分行丰台支行恋日嘉园支行),北京市,dd4a2463e5aa2f6d9703190a,,dd4a2463e5aa2f6d9703190a
草桥欣园一区6号楼,丰台区,北京市,1,39.852067,116.362878,中国工商银行24小时自助银行服务(北京分行丰台支行恋日嘉园),北京市,d64662cb5dbaf4792b11d13d,,d64662cb5dbaf4792b11d13d
丰台区正阳北里16~18号楼底商,丰台区,北京市,1,39.854673,116.293191,中国工商银行24小时自助银行服务(北京分行丰台支行正阳支行),北京市,,,a0dc98f87e7e09cf2b201a98
桥南新华街七里11号楼南侧,丰台区,北京市,1,39.848601,116.293704,中国工商银行24小时自助银行服务(北京分行丰台支行桥南),北京市,549c2a87da52faa86e20b98b,,549c2a87da52faa86e20b98b
海鹰路1号院7号楼底商,丰台区,北京市,1,39.836014,116.295089,中国工商银行24小时自助银行(北京分行丰台支行科技园),北京市,905ed25639122fdd00ec013d,,905ed25639122fdd00ec013d
青塔西路5号,丰台区,北京市,1,39.899955,116.270725,中国工商银行24小时自助银行服务(北京分行西客站支行青塔西路),北京市,63a42972e752ea6eab059d6b,,63a42972e752ea6eab059d6b
北京市丰台区程庄南里1号楼东侧一层,丰台区,北京市,1,39.858434,116.273258,中国工商银行24小时自助银行(北京程庄路支行),北京市,5e53af1a5ea8305f4151c0dd,,5e53af1a5ea8305f4151c0dd
北京市丰台区卢沟桥南里乙1号,丰台区,北京市,1,39.852986,116.237378,中国工商银行24小时自助银行服务(阀东路储蓄所),北京市,8cba4bb005689c84ad045733,,8cba4bb005689c84ad045733
长辛店朱家坟五里2号,丰台区,北京市,1,39.814699,116.197077,中国工商银行24小时自助银行服务(北京朱家坟支行),北京市,a3e8341c81787a954afd3f3e,,a3e8341c81787a954afd3f3e
槐树岭201所院内,丰台区,北京市,1,39.867478,116.175181,中国工商银行24小时自助银行(北京分行丰台支行槐树岭),北京市,dcbbcbe50c879356ede4a527,,dcbbcbe50c879356ede4a527
方庄蒲方路32号,丰台区,北京市,1,39.871558,116.432011,中国工商银行24小时自助银行服务(北京分行方庄支行芳群园支行),北京市,9cb23178ee9f1eee704b8726,,c9f5dc34e9708a933ce23113
北京市石景山区杨庄路15号,石景山区,北京市,1,39.928891,116.200479,中国工商银行(北辛安支行),北京市,d991e116ae9a09551f3894d7,(010)68874795,d991e116ae9a09551f3894d7
北京市石景山区八角中里北四门,石景山区,北京市,1,39.919255,116.212096,中国工商银行,北京市,,95588,535fb19c2c61fee7c5effb4c
北京市石景山区海特花园44号楼一层,石景山区,北京市,1,39.940139,116.197451,中国工商银行(苹果园支行),北京市,55fa2c0bc50b1d2d1ce999d7,95588,55fa2c0bc50b1d2d1ce999d7
北京市石景山区金顶街1区,石景山区,北京市,1,39.932762,116.168297,中国工商银行,北京市,8ee01f4be3638d7916c905f3,95588,8ee01f4be3638d7916c905f3
北京市石景山区鲁谷大街鲁谷四小区1号楼,石景山区,北京市,1,39.909109,116.234979,中国工商银行(北京黄楼支行),北京市,3f01e1236ff7f420d23ce3bb,,3f01e1236ff7f420d23ce3bb
石景山区金顶北路68号,石景山区,北京市,1,39.933772,116.175708,中国工商银行(北京金顶街支行),北京市,2c0bd6c5cb5f25aa43ab9ad7,(010)88720692,2c0bd6c5cb5f25aa43ab9ad7
北京市石景山区政达路2号CRD银座A座,石景山区,北京市,1,39.910871,116.233777,中国工商银行(北京石景山支行政达路支行),北京市,0ed25f2d27a2bf7f9e82eaec,"(010)68873100,(010)68812112",0ed25f2d27a2bf7f9e82eaec
北京市石景山区八角西街66号,石景山区,北京市,1,39.915199,116.205856,中国工商银行(北京八角支行),北京市,,"(010)68862358,(010)68878847",7f71096d15e5762eb020a8d5
北京市石景山区八角西街60号,石景山区,北京市,1,39.914679,116.205794,中国工商银行(北京八角支行),北京市,d985395f14150c07ddee8b22,(010)68862359,d985395f14150c07ddee8b22
高井路8号,石景山区,北京市,1,39.943983,116.146044,中国工商银行(北京高井支行),北京市,d6c5d991f0d87ae830169bd7,(010)88953778,d6c5d991f0d87ae830169bd7
北京市石景山区八大处路甲1号(北京军区总医院京西医院大院内),石景山区,北京市,1,39.954349,116.204429,中国工商银行(北京四平台支行),北京市,,"(010)66398263,(010)66396595",52cfc01b5ccf10d4d618b701
北京市石景山区鲁谷路74号瑞达大厦1层,石景山区,北京市,1,39.909099,116.251641,中国工商银行(北京远洋山水支行),北京市,a9c343ca8d708e510869d989,(010)88702906,a9c343ca8d708e510869d989
北京市石景山区八角东路12号建西苑小区南里10号楼,石景山区,北京市,1,39.922803,116.21399,中国工商银行(北京游乐场支行),北京市,b9e5d0b8377b38bc81a12e5c,"95588,(010)58971042",b9e5d0b8377b38bc81a12e5c
北京市石景山区古城南路8号,石景山区,北京市,1,39.916724,116.19926,中国工商银行(北京古城东街支行),北京市,680fb703ac77c7e08ab98881,(010)68878183,680fb703ac77c7e08ab98881
北京市石景山区莲石东路玉泉西里二区38号楼D106室,石景山区,北京市,1,39.903402,116.244037,中国工商银行(北京莲石东路支行),北京市,88a56a51417bfc814e2fdf09,"(010)68681307,(010)68659686",88a56a51417bfc814e2fdf09
海淀区复兴路83号院九洲大厦1楼,海淀区,北京市,1,39.91501,116.259813,中国工商银行(北京玉泉路支行),北京市,0ceecf9fd670a11cb5147fe9,(010)68133262,0ceecf9fd670a11cb5147fe9
北京市石景山区八角西街55号,石景山区,北京市,1,39.921182,116.205007,中国工商银行(石景山八角北支行),北京市,,(010)68862359,556308783b9afbc72cb9085b
北京市石景山区鲁谷大街51,石景山区,北京市,1,39.896815,116.23742,中国工商银行24小时自助银行服务,北京市,9494ef3a82cf4a95a6da39c5,,9494ef3a82cf4a95a6da39c5
石景山区绍家坡驻军1号,石景山区,北京市,1,39.951949,116.181114,中国工商银行自助银行,北京市,54a5dd9fdc89d6cab35c6aee,,54a5dd9fdc89d6cab35c6aee
北京市石景山区阜石路165号当代商城(鼎城店)F1,石景山区,北京市,1,39.931747,116.202636,中国工商银行ATM(当代商城),北京市,26b539319551ee85b6147f15,,26b539319551ee85b6147f15
晋元庄5号,石景山区,北京市,1,39.933843,116.216205,中国工商银行24小时自助银行服务(晋元庄路),北京市,,,0bf363f16e576781c61b759a
北京市石景山区金顶北街68-1号,石景山区,北京市,1,39.933555,116.175787,中国工商银行24小时自助银行,北京市,,,9bcc0a483422ba1532870ad5
海特花园44,石景山区,北京市,1,39.939941,116.197527,中国工商银行24小时自助银行(北京苹果园支行),北京市,091ef21f3621385282a00c56,,091ef21f3621385282a00c56
北京市石景山区京原路5号,石景山区,北京市,1,39.906266,116.216829,中国工商银行24小时自助银行服务,北京市,cb5bf321450d4307f82d614f,,cb5bf321450d4307f82d614f
八角东街53号,石景山区,北京市,1,39.919308,116.212081,中国工商银行24小时自助银行(八角路),北京市,d5be7fe33e147b4bd42ce224,,d5be7fe33e147b4bd42ce224
复兴街与广宁路交叉口北50米,石景山区,北京市,1,39.93214,116.15225,中国工商银行24小时自助银行(复兴街),北京市,cc410cf9391bf1d3eedfca9c,,cc410cf9391bf1d3eedfca9c
北京市石景山区石景山路5号,石景山区,北京市,1,39.914296,116.252885,中国工商银行离行式自助服务区(北京分行石景山支行石景山区石景山路),北京市,a4cf6b3aeb5b8536eb1e977c,,a4cf6b3aeb5b8536eb1e977c
北京市石景山区石景山路甲16号,石景山区,北京市,1,39.912214,116.240214,中国工商银行离行式自助服务区(北京分行石景山支行石景山区石景山路),北京市,6b5b7ac789db54d324d2bbad,,6b5b7ac789db54d324d2bbad
北京市石景山区玉泉西里二区38号,石景山区,北京市,1,39.903578,116.243707,中国工商银行24小时自助银行服务(北京莲石东路支行),北京市,72b0776f015f843f96f08c15,,72b0776f015f843f96f08c15
鲁谷路74号,石景山区,北京市,1,39.909232,116.251602,中国工商银行24小时自助银行(北京远洋山水支行),北京市,c5a5fffc8c9142d0cf06a444,,c5a5fffc8c9142d0cf06a444
北京市石景山杨庄路8号,石景山区,北京市,1,39.928442,116.202505,中国工商银行离行式自助服务区(北京分行石景山支行石景山区杨庄路),北京市,66ad98c584f04d537fc87660,,66ad98c584f04d537fc87660
北京市石景山区八角东路12号建西苑小区南里10号楼,石景山区,北京市,1,39.92282,116.213889,中国工商银行24小时自助银行(北京游乐场支行),北京市,a06d6474915b8f5d2d4733be,,a06d6474915b8f5d2d4733be
北京市石景山区八角西街66号,石景山区,北京市,1,39.914976,116.206112,中国工商银行网点自助服务区(北京分行石景山支行石景山区八角西街),北京市,c68a6e403e0d62aaf8f0cbdf,,c68a6e403e0d62aaf8f0cbdf
北京市石景山区苹果园一区7号楼一层,石景山区,北京市,1,39.936072,116.198265,中国工商银行24小时自助银行(实兴大街),北京市,75d0881a0329c44d3a04b1d7,,75d0881a0329c44d3a04b1d7
北京市石景山区高井路8号,石景山区,北京市,1,39.943982,116.146045,中国工商银行附行式自助银行(北京分行石景山支行石景山区高井路),北京市,22714b53d970631e734b870e,,22714b53d970631e734b870e
北京市石景山区高井路8号,石景山区,北京市,1,39.94404,116.14589,中国工商银行24小时自助银行(北京高井支行),北京市,b292b3aa9c276528be484260,,b292b3aa9c276528be484260
北京市石景山区杏石沟甲1号,石景山区,北京市,1,39.955454,116.210535,中国工商银行离行式自助服务区(北京分行石景山支行石景山区杏石沟),北京市,797f414c2d091547d2f49ed1,,797f414c2d091547d2f49ed1
北京市石景山区复兴路83号九州大厦1层,石景山区,北京市,1,39.91496,116.260305,中国工商银行24小时自助银行(北京玉泉路支行),北京市,3fbfc303fc8d5718c8213d72,,3fbfc303fc8d5718c8213d72
北京市石景山区政达路2号CRD银座1层,石景山区,北京市,1,39.906519,116.235666,中国工商银行24小时自助银行(石景山支行网点),北京市,f64254dbcdf4b7f79b68b488,,f64254dbcdf4b7f79b68b488
北京市石景山鲁谷路74号,石景山区,北京市,1,39.908486,116.251335,中国工商银行附行式自助银行(北京分行石景山支行石景山区鲁谷路),北京市,,,863c3f28ecc498e3841541f4
八角西街60,石景山区,北京市,1,39.915008,116.205998,中国工商银行24小时自助银行(北京八角支行),北京市,2e5912e322f6df86afee7a00,,2e5912e322f6df86afee7a00
杨庄南路与杨庄路交叉口西北100米,石景山区,北京市,1,39.929159,116.201426,中国工商银行网点自助服务区(北京分行石景山支行石景山区杨庄中路),北京市,79a521c16bd61c50e8e58238,,79a521c16bd61c50e8e58238
北京市石景山区高井甲32号院甲32号院,石景山区,北京市,1,39.953594,116.14406,中国工商银行网点自助服务区(北京分行石景山支行石景山区高井甲31号院),北京市,,,63f38987fc6bb9d28f55ec12
北京市石景山区汽车贸易园区8号楼,石景山区,北京市,1,39.923029,116.189514,中国工商银行自助银行(北京分行石景山支行石景山区汽车贸易园区8号楼),北京市,efecc2d6d2fbed8794ec84fc,,efecc2d6d2fbed8794ec84fc
北京市石景山区石景山路60号,石景山区,北京市,1,39.912979,116.18704,中国工商银行离行式自助服务区(北京分行石景山支行石景山区石景山路),北京市,2ba47418f31dee5bd618b77a,,2ba47418f31dee5bd618b77a
北京市石景山区八大处路甲1号,石景山区,北京市,1,39.954201,116.204347,中国工商银行附行式自助银行(北京分行石景山支行石景山区八大处),北京市,,,a0ade1e0b0f69bd24207c18e
北京市石景山区八大处路甲1号,石景山区,北京市,1,39.954062,116.204922,工商银行北京分行石景山支行石景山区八大处路网点自助服务区,北京市,,,17240cdbd23d34d6d3ff232b
北京市石景山区复兴路,石景山区,北京市,1,39.915486,116.260151,中国工商银行离行式自助服务区(北京分行石景山支行石景山区复兴路),北京市,f78d4cff44555d403c9a5ec6,,f78d4cff44555d403c9a5ec6
北京市石景山区永乐西区33号楼,石景山区,北京市,1,39.906699,116.235596,中国工商银行离行式自助银行(北京分行石景山支行石景山区永乐西区),北京市,e1e1d9f3c28527126b49f374,,e1e1d9f3c28527126b49f374
八角西街55号,石景山区,北京市,1,39.921241,116.205113,中国工商银行24小时自助银行(八角北分理处),北京市,bcaa35226017ecb70f0e6bca,,bcaa35226017ecb70f0e6bca
北京市石景山区鲁谷大街5号,石景山区,北京市,1,39.909226,116.234968,中国工商银行网点自助服务区(北京分行石景山支行石景山区鲁谷大街),北京市,,,843977fa2c8eb8fc31870a2b
北京市石景山区阜石路168号居然之家F1,石景山区,北京市,1,39.928638,116.206329,中国工商银行24小时自助银行(居然之家),北京市,c0564bdce5a1aa0303ec0125,,c0564bdce5a1aa0303ec0125
模式口大街16号,石景山区,北京市,1,39.939492,116.172688,中国工商银行24小时自助银行(模式口大街),北京市,f810db932fe443b7c3364454,,f810db932fe443b7c3364454
北京市石景山区金顶街金顶街西口,石景山区,北京市,1,39.932717,116.167774,中国工商银行24小时自助银行(金顶街储蓄所),北京市,28e700f1ee35c001095cb3d7,,28e700f1ee35c001095cb3d7
北京市石景山区八大处路13号,石景山区,北京市,1,39.951619,116.207043,中国工商银行24小时自助银行(北京八大处支行),北京市,beabdbf4a6809ae67069d36d,,beabdbf4a6809ae67069d36d
北京市石景山区鲁谷南路10附近,石景山区,北京市,1,39.90444,116.238532,中国工商银行24小时自助银行(莲石东路辅路),北京市,,,1793f3462cf6cae43fe2319a
北京市石景山区石景山路12号,石景山区,北京市,1,39.911375,116.241489,中国工商银行24小时自助银行(北京分行石景山支行石景山区石景山路),北京市,22463bccda8c64f049cc4aa6,,22463bccda8c64f049cc4aa6
北京市石景山区八角西街66号,石景山区,北京市,1,39.915066,116.206112,中国工商银行24小时自助银行(北京分行石景山支行石景山区八角西街),北京市,11671636354644d64c3a591f,,11671636354644d64c3a591f
石景山区古城北路23号楼,石景山区,北京市,1,39.924086,116.196034,中国工商银行24小时自助银行(北京分行石景山支行石景山区古城北路),北京市,b901e03d9ac5c160c2f1cf01,,b901e03d9ac5c160c2f1cf01
鲁谷大街5号,石景山区,北京市,1,39.909196,116.234736,中国工商银行24小时自助银行(北京黄楼支行),北京市,bc2869a8fe0b5d1eddee8bf3,,bc2869a8fe0b5d1eddee8bf3
北京市石景山区政达路2号,石景山区,北京市,1,39.910674,116.234285,中国工商银行24小时自助银行服务(北京分行石景山支行石景山区政达路),北京市,,,866aa5924e94d4a96c3e1b30
石景山区杨庄大街18号,石景山区,北京市,1,39.927075,116.193615,中国工商银行24小时自助银行(北京分行石景山支行石景山区杨庄大街),北京市,218fa4b099848136631c673d,,218fa4b099848136631c673d
北京市石景山区古城西路7栋(原古城储蓄所),石景山区,北京市,1,39.919361,116.192827,中国工商银行24小时自助银行服务(首钢古西居民小区北),北京市,27ce0b1bfbb334e429b97ce3,,27ce0b1bfbb334e429b97ce3
北京市石景山区石门路314号,石景山区,北京市,1,39.96093,116.134798,中国工商银行24小时自助银行(北京五里坨储蓄所),北京市,c7fb04bdd36df915fa0cadd7,,c7fb04bdd36df915fa0cadd7
时代花园南路17号茂华大厦1层,石景山区,北京市,1,39.925031,116.21258,工行离行自助电费代收点,北京市,5f7327eb4925cc778715419e,,5f7327eb4925cc778715419e
"北京市海淀区知春路108号1号楼豪景大厦一层101,201,202号",海淀区,北京市,1,39.98154,116.328218,中国工商银行(北京知春路支行),北京市,e2c734e48e57d05d15a19046,(010)62105198,e2c734e48e57d05d15a19046
北京市海淀区苏州街18号,海淀区,北京市,1,39.984153,116.31293,中国工商银行(北京苏州街支行),北京市,64486815b1a144b1276e98dd,(010)82617352,64486815b1a144b1276e98dd
北京市海淀区上地信息路38号1号楼一层103号,海淀区,北京市,1,40.031036,116.320667,中国工商银行(北京上地支行),北京市,5c56edd68a44a627a1d2303a,,5c56edd68a44a627a1d2303a
北京市海淀区永丰基地新材料创业大厦南楼一层106-107室,海淀区,北京市,1,40.081925,116.241871,中国工商银行(北京永丰支行),北京市,75036835776257d25e0d02da,(010)58717540,75036835776257d25e0d02da
圆明园西路兰园小区16号楼一层,海淀区,北京市,1,40.03734,116.280771,中国工商银行(北京马连洼支行),北京市,3be122e175d6c72f1ef74dce,(010)62811676,3be122e175d6c72f1ef74dce
小营西路,海淀区,北京市,1,40.043215,116.345468,中国工商银行(清河镇支行),北京市,6835e3a78567664ee311036c,(010)62914021,6835e3a78567664ee311036c
北京市海淀区曙光花园彰化路10号,海淀区,北京市,1,39.948365,116.296463,中国工商银行(曙光支行),北京市,7fd72311944dc09f5cbe8646,(010)88430753,7fd72311944dc09f5cbe8646
北京市海淀区万寿路24号院(万寿路地铁站北),海淀区,北京市,1,39.914711,116.301722,中国工商银行,北京市,cd31c01a3f7b486deee4a503,95588,cd31c01a3f7b486deee4a503
北京市海淀区永泰庄北路永泰东里小区41号楼1层,海淀区,北京市,1,40.041194,116.362378,中国工商银行(北京永泰支行),北京市,9ee7cc78f1aabc7016c9056c,(010)62997040,9ee7cc78f1aabc7016c9056c
海淀区阜成路79号,海淀区,北京市,1,39.931387,116.300091,中国工商银行(翠微路支行),北京市,62fce365f29ced5fd91318ac,(010)88127149,62fce365f29ced5fd91318ac
北京市海淀区文慧园北路9号今典花园9号楼首层,海淀区,北京市,1,39.958563,116.367754,中国工商银行(索家坟支行),北京市,b703e96b467fb3fa8f1a8946,"(010)62250369,(010)62228474",b703e96b467fb3fa8f1a8946
北京市海淀区西三旗育新花园小区2号楼一层,海淀区,北京市,1,40.065354,116.351329,中国工商银行(北京育新支行),北京市,d1469ee7b30c4a628433046c,,d1469ee7b30c4a628433046c
北京市海淀区学院南路34号中商信大厦,海淀区,北京市,1,39.963156,116.363351,中国工商银行(北京学院路支行),北京市,d5f93c0ea5e8ea21ecdfcab3,,d5f93c0ea5e8ea21ecdfcab3
北京市海淀区中关村大街59号中国人民大学汇贤楼C座一层,海淀区,北京市,1,39.976267,116.314022,中国工商银行(北京人民大学支行),北京市,c6a7063e90efc3a72b11d191,"(010)62514668,(010)62513099",c6a7063e90efc3a72b11d191
北京市海淀区西四环北路71号1楼,海淀区,北京市,1,39.957623,116.280127,中国工商银行(北京郦城支行),北京市,6ee01020f923da9253e5c5b3,,6ee01020f923da9253e5c5b3
西二旗西路2号,海淀区,北京市,1,40.06004,116.321216,中国工商银行(24小时自助银行),北京市,49a02a7a0afb4e3e2a201a84,,49a02a7a0afb4e3e2a201a84
海淀区花园北路39号,海淀区,北京市,1,39.987861,116.370738,中国工商银行(花园北路支行),北京市,15a9381025273fbd14c8f646,95588,15a9381025273fbd14c8f646
西四环北路9号,海淀区,北京市,1,39.965904,116.280496,中国工商银行(四季青支行),北京市,3f826ed31d659046d1f49e46,(010)88488159,3f826ed31d659046d1f49e46
北京市海淀区羊坊店路11-1号一层,海淀区,北京市,1,39.908101,116.327208,中国工商银行(北京羊坊店支行),北京市,dbf4d6ee4064482a6ea3cca0,,dbf4d6ee4064482a6ea3cca0
北京市海淀区板井路77号(世纪城)独立写字楼首层,海淀区,北京市,1,39.960106,116.284974,中国工商银行(北京世纪城支行),北京市,0523a14174ea4a1db23c8146,(010)88596707,0523a14174ea4a1db23c8146
北京市海淀区阜成路29号,海淀区,北京市,1,39.930169,116.322097,中国工商银行(马神庙储蓄所),北京市,0ed20a1533b2649757bfff46,(010)68984269,0ed20a1533b2649757bfff46
海淀区万柳中路万柳星标家园11号楼商业1号大厦底商,海淀区,北京市,1,39.973839,116.3004,中国工商银行(北京万柳支行),北京市,680fb703ea34819c8bb98846,,680fb703ea34819c8bb98846
北京市海淀区长春桥路5号11号楼首层,海淀区,北京市,1,39.967052,116.309679,中国工商银行(北京苏州桥支行),北京市,2e00c5ddcd00111fd6851f9a,(010)82564206,2e00c5ddcd00111fd6851f9a
北京市海淀区交大东路18号院9号楼1楼交通大学东门对面,海淀区,北京市,1,39.960089,116.354208,中国工商银行(北京交大东路支行),北京市,a12baa40e1d5d956e856fa46,(010)51466045,a12baa40e1d5d956e856fa46
北京市海淀区双清路30号清华大学16区,海淀区,北京市,1,40.005151,116.330927,中国工商银行(清华大学支行),北京市,,(010)62782553,5ee45c32c148d53f373a71d7
北京市海淀区中直路西苑中直机关院外,海淀区,北京市,1,40.000396,116.298199,中国工商银行(北京西苑支行),北京市,2527be1ea3b0adb34afc8d46,(010)62881332,2527be1ea3b0adb34afc8d46
北京市海淀区北蜂窝路5号院楼间裙房首层,海淀区,北京市,1,39.911564,116.335167,中国工商银行(北京铁道支行),北京市,b6861f7a1d796e42593ac841,95588,b6861f7a1d796e42593ac841
北京市海淀区北洼路30号,海淀区,北京市,1,39.940892,116.30981,中国工商银行(北京增光支行),北京市,d810dc638901466c7369d3d7,(010)68453730,d810dc638901466c7369d3d7
"海淀区花园北路49号(北大医学部财务楼,北京医科大学北门)",海淀区,北京市,1,39.988278,116.367329,中国工商银行(自动柜员机),北京市,b8965ce36d113570ec74f8a3,,b8965ce36d113570ec74f8a3
北京市海淀区天秀路10-5号,海淀区,北京市,1,40.027061,116.283986,中国工商银行(北京天秀支行),北京市,eb3675031241261b00ec016c,(010)62827938,eb3675031241261b00ec016c
北京市海淀区知春路17号一层004号,海淀区,北京市,1,39.982596,116.354085,中国工商银行(海淀海升支行),北京市,,(010)62074869,c16f928f722ab258220220b1
北京市海淀区复兴路61号东侧综合楼,海淀区,北京市,1,39.91632,116.298708,中国工商银行-24小时自助银行,北京市,000d3c533b8ca3d530f71df7,,000d3c533b8ca3d530f71df7
北京市海淀区永定路96号附近,海淀区,北京市,1,39.909765,116.271383,中国工商银行(北京永南支行),北京市,,,a97bb8fb32c1a8aaae080f73
北京市海淀区复兴路40号A座,海淀区,北京市,1,39.913207,116.266045,中国工商银行(北京玉东支行),北京市,7aea43b7324d86867c29bddb,"(010)68272420,(010)68278821,(010)68225018",7aea43b7324d86867c29bddb
花园路2号院1号楼2层,海淀区,北京市,1,39.984913,116.374562,中国工商银行(北京柳芳支行),北京市,,,770b27fbd032bf5aab059dc7
德胜门西大街15-9号,海淀区,北京市,1,39.952559,116.367799,中国工商银行(远洋风景支行),北京市,850815e1e101e09b43e19246,"(010)82291471,(010)82293560",850815e1e101e09b43e19246
北京市海淀区小营西路31号,海淀区,北京市,1,40.04162,116.333241,中国工商银行(北京小营西路支行),北京市,,(010)66331010,97daeacc903a07a28e772798
北京市海淀区农大南路10号首层,海淀区,北京市,1,40.030859,116.301941,中国工商银行(北京博雅西园支行),北京市,34b2e320d6cafb4d3ae4a68e,(010)82793730,34b2e320d6cafb4d3ae4a68e
北京市海淀区南大街甲10号银海大厦,海淀区,北京市,1,39.969456,116.329969,中国工商银行(北京紫竹院支行),北京市,5c9d7f4f3b9940e4cac3db1c,(010)68940874,5c9d7f4f3b9940e4cac3db1c
海淀区北洼路30号A座1楼(近京味斋),海淀区,北京市,1,39.951782,116.307845,中国工商银行(北京北洼路支行),北京市,e78c0427917d4fc8c26c14b5,"(010)68413369,(010)68413239",e78c0427917d4fc8c26c14b5
北京市海淀区北蜂窝路20号,海淀区,北京市,1,39.907817,116.335917,中国工商银行(北京北蜂窝路支行),北京市,fa7da3e8815cf06243d63ea0,(010)63433627,fa7da3e8815cf06243d63ea0
海淀区北蜂窝甲4号,海淀区,北京市,1,39.910405,116.335806,中国工商银行(北京会城门支行),北京市,5e53af1a5e2b305f4051c0a0,(010)63491716,5e53af1a5e2b305f4051c0a0
北京市海淀区首体南路38号(创景大厦)一、二层,海淀区,北京市,1,39.930914,116.332701,中国工商银行(北京阜成路支行),北京市,c879fa010269a44ac909f046,(010)58892917,c879fa010269a44ac909f046
海淀区三里河路17号甘家口大厦内(近增光路),海淀区,北京市,1,39.932782,116.33947,中国工商银行(北京甘家口支行),北京市,c2f72e648ddbf9383d9a5ea5,"(010)68315571,(010)88392675",c2f72e648ddbf9383d9a5ea5
北京市海淀区复兴路61-1号,海淀区,北京市,1,39.914298,116.298512,中国工商银行(翠微路万寿路支行),北京市,14d93f3070ed1ec05b109312,(010)68211280,14d93f3070ed1ec05b109312
北京市海淀区永定路1号(近乐府江南小区),海淀区,北京市,1,39.934723,116.270584,中国工商银行(北京半壁店支行),北京市,fed82e8d9e52d9050582c246,(010)58977530,fed82e8d9e52d9050582c246
北京市海淀区志新东路5号首层,海淀区,北京市,1,39.997595,116.375376,中国工商银行(北京二里庄支行),北京市,fa01e9378ba8f14a774ff146,"(010)82371582,(010)62321909",fa01e9378ba8f14a774ff146
北太平庄路29号,海淀区,北京市,1,39.976417,116.376023,中国工商银行(北京北太平庄支行),北京市,74c933fb1bdd995e9e82ea46,(010)82079780,74c933fb1bdd995e9e82ea46
双清路30号清华大学清华园,海淀区,北京市,1,40.004311,116.330931,中国工商银行(清华大学结算中心),北京市,6943c34a893e67939968b44d,,6943c34a893e67939968b44d
北京市海淀区学院路30号方兴大厦,海淀区,北京市,1,39.998898,116.362948,中国工商银行(北京东升路支行),北京市,61f634f662ee1a786b49f346,"(010)62316478,(010)62318817",b6777317b59e8a9e2b3a9f91
北京市海淀区红山口甲3号,海淀区,北京市,1,40.024225,116.272704,中国工商银行(北京国防大学支行),北京市,9fb9bb9d561987bc6fa3cc75,(010)62864209,9fb9bb9d561987bc6fa3cc75
厢红旗1号,海淀区,北京市,1,40.013387,116.26327,中国工商银行(北京厢红旗支行),北京市,3a7be39ea1fbdbf4704b87d8,"(010)62884472,(010)66771409",3a7be39ea1fbdbf4704b87d8
北京市海淀区大钟路9号京仪科技大厦B座,海淀区,北京市,1,39.97711,116.344788,中国工商银行(大钟寺东路支行),北京市,1020060fa07f2bdb1994c6b3,(010)82117236,1020060fa07f2bdb1994c6b3
北京市海淀区中关村南大街2号数码大厦B座1A号,海淀区,北京市,1,39.971406,116.329714,中国工商银行(海淀双榆树支行),北京市,e116be54c3b6277bc91b9546,(010)51727147,e116be54c3b6277bc91b9546
北京市海淀区北三环西路7号蓟门里小区,海淀区,北京市,1,39.973907,116.357698,中国工商银行(海淀蓟门里支行),北京市,aa40108becb4d015c5effb46,"(010)62063495,(010)62019446",aa40108becb4d015c5effb46
北京市海淀区科学院南路中关村新科祥园甲2号楼,海淀区,北京市,1,39.989626,116.330935,中国工商银行(北京科学院支行),北京市,6ed3083a41a5e9b72b3a9f46,,6ed3083a41a5e9b72b3a9f46
北京市海淀区南大街5号北京理工大学内远志楼1层,海淀区,北京市,1,39.966544,116.322011,中国工商银行(北京理工大学支行),北京市,0a15c7ec52756ffced74f846,,0a15c7ec52756ffced74f846
北京市海淀区羊坊店路11-1号,海淀区,北京市,1,39.908008,116.327254,中国工商银行(北京玉渊潭支行),北京市,829e304d0d651b78c9e33cd2,(010)63950195,829e304d0d651b78c9e33cd2
北京市海淀区玉渊潭南路9-3,海淀区,北京市,1,39.916838,116.334048,中国工商银行(北京世纪坛支行),北京市,1020060fe3136aa61994c6a0,"(010)68525174,(010)68522346,(010)68525289",1020060fe3136aa61994c6a0
北京市海淀区玉渊潭南路85号君安写字楼1层,海淀区,北京市,1,39.91943,116.30376,中国工商银行(北京翠微中里支行),北京市,bcaebff84d3d6654c8e33ca0,"(010)68255598,(010)68253792",bcaebff84d3d6654c8e33ca0
北京市海淀区太平路甲5号,海淀区,北京市,1,39.906759,116.297843,中国工商银行(北京太平路支行),北京市,,(010)68210900,c0f1e521984c662ac17da202
西四环中路39-2号,海淀区,北京市,1,39.919778,116.279768,中国工商银行(北京西四环支行),北京市,d4a601276b666d9a3686f409,(010)68158857,d4a601276b666d9a3686f409
北京市海淀区翠微路乙3号,海淀区,北京市,1,39.915565,116.308278,中国工商银行(北京公主坟支行),北京市,05dd7d5fa5abd27cad080f3e,"(010)68217668,(010)68217280,(010)68272553",05dd7d5fa5abd27cad080f3e
玉泉路甲12号玉海园小区综合服务楼1楼,海淀区,北京市,1,39.92389,116.26029,中国工商银行(北京玉海园支行),北京市,2c176b94cb6fc2384e5547a5,"(010)88266731,(010)88263324,(010)88264212",2c176b94cb6fc2384e5547a5
北京市海淀区花园东路8号,海淀区,北京市,1,39.991481,116.375675,中国工商银行(北京花园东路支行),北京市,108b1ceafaf7fdac3586f446,"(010)82030574,(010)82030647",108b1ceafaf7fdac3586f446
北京市海淀区花园路2号中城写字楼,海淀区,北京市,1,39.985055,116.375761,中国工商银行(新街口牡丹园支行),北京市,161a0ed2ff4b02505cd4fe46,(010)62379423,161a0ed2ff4b02505cd4fe46
北京市海淀区永泰庄北路清河永泰园小区13号,海淀区,北京市,1,40.040932,116.356523,中国工商银行(北京永泰园支行),北京市,,(010)82750047,a32fc3993c87ae918936ee97
北京市海淀区双清路30号清华大学校内,海淀区,北京市,1,40.005169,116.330935,中国工商银行(北京清华大学支行),北京市,efa2e83d9609752cad0457d6,(010)62782553,efa2e83d9609752cad0457d6
北京市海淀区学院路15号,海淀区,北京市,1,39.999265,116.353884,中国工商银行(北京语言大学支行),北京市,eeea71cd48b53d6843ab9ad0,(010)61196052,eeea71cd48b53d6843ab9ad0
北京市海淀区成府路53号,海淀区,北京市,1,39.998655,116.332881,中国工商银行(北京成府路支行),北京市,e3a7fd1347f5465129b97c9a,(010)62793503,e3a7fd1347f5465129b97c9a
北京市海淀区百旺茉莉园18~19号楼间0103、0104、0203、0204号房,海淀区,北京市,1,40.055531,116.263498,中国工商银行(北京百旺新城支行),北京市,d5464cf8a13a8d57fda7786c,,d5464cf8a13a8d57fda7786c
北京市海淀区学院路37号北航校内合一楼,海淀区,北京市,1,39.987588,116.351333,中国工商银行(北京四环北路支行),北京市,e96b44207719b75982288a46,"(010)82328404,(010)82323734",e96b44207719b75982288a46
北京市海淀区中关村大街42号,海淀区,北京市,1,39.975349,116.327627,中国工商银行(双榆树西里支行),北京市,79cceb366b6e4af71e580072,(010)62624683,79cceb366b6e4af71e580072
北京市海淀区魏公村街1号韦伯豪家园2号楼1楼,海淀区,北京市,1,39.960398,116.325389,中国工商银行(北京魏公村支行),北京市,a5ef680fb35c2cd7b9df8f46,,a5ef680fb35c2cd7b9df8f46
北京市海淀区高梁桥斜街59号院2号楼一、二层,海淀区,北京市,1,39.950041,116.355399,中国工商银行(北京长河湾支行),北京市,72aa25139797f647077ce846,(010)82191141,72aa25139797f647077ce846
北京市海淀区紫竹院甲1号人济山庄一层,海淀区,北京市,1,39.947306,116.320517,中国工商银行(北京紫竹桥支行),北京市,7c5e480b2ad80db7acb22a9a,(010)88554378,7c5e480b2ad80db7acb22a9a
北京市海淀区蓝靛厂东路2号院金源时代商务中心2号楼C座1B-1C,海淀区,北京市,1,39.967627,116.29568,中国工商银行(北京世纪金源支行),北京市,fed76b0c5aa1f8064002453d,(010)88877141,a7c56ee0100d82cea2acc4b3
北京市海淀区车公庄西路甲19号华通大厦A座一层,海淀区,北京市,1,39.938663,116.327958,中国工商银行(北京四道口支行),北京市,cc0849a0d57d7d539503199a,"(010)68431533,(010)68421059,(010)68421224",cc0849a0d57d7d539503199a
北京市海淀区西翠路5号上品折扣F1层,海淀区,北京市,1,39.906941,116.288547,中国工商银行(北京沙窝路支行),北京市,060f5e53135a20d7091cc7a0,(010)88285655,060f5e53135a20d7091cc7a0
北京市海淀区复兴路28-1,海淀区,北京市,1,39.913341,116.284777,中国工商银行(北京复兴路支行),北京市,e56bf5e305ee7a440682c2a0,(010)68295358,e56bf5e305ee7a440682c2a0
北京市海淀区西三环北路87号国际财经中心1楼,海淀区,北京市,1,39.941817,116.315878,中国工商银行(北京花园桥支行),北京市,1d55a8ee8c89c93ca90dd836,"(010)68451051,(010)88824028",1d55a8ee8c89c93ca90dd836
北京市海淀区西四环北路125号德润科技大厦一层101-106号,海淀区,北京市,1,39.944425,116.279266,中国工商银行(翠微路金四季支行),北京市,,(010)88495663,bbf1bb59ce36e3be1ce999dd
太平路27号,海淀区,北京市,1,39.906773,116.276452,中国工商银行(北京永定路支行),北京市,aa40108b9d222117c5effbdb,"(010)68182052,(010)68182058",aa40108b9d222117c5effbdb
北京市海淀区显龙山路19号1幢1层2座122号,海淀区,北京市,1,40.055222,116.18432,中国工商银行(北京温泉新区支行),北京市,a332573106222b76c036445f,"(010)82492913,(010)82492826",a332573106222b76c036445f
北京市海淀区西三旗建材城东路16号,海淀区,北京市,1,40.067417,116.381306,中国工商银行(北京建材城东路支行),北京市,78bd50f750325b5b31870a6c,(010)82952045,78bd50f750325b5b31870a6c
北京市海淀区中关村南大街18号北京·国际1层,海淀区,北京市,1,39.959071,116.331609,中国工商银行(北京中关村南路支行),北京市,cde9e2c738bb40b4e81e9746,(010)62184945,cde9e2c738bb40b4e81e9746
北京市海淀区阜成路51号,海淀区,北京市,1,39.930517,116.311259,中国工商银行(翠微路西八里庄支行),北京市,fa835ce2bc2333b6e812e446,(010)68430652,fa835ce2bc2333b6e812e446
北京市海淀区西外大街168号腾达大厦1层,海淀区,北京市,1,39.943934,116.33437,中国工商银行(北京首都体育馆支行),北京市,0715bb99355ad67c2afc4814,(010)88576732,23116913f97d64fd734b8746
北京市海淀区太平路5号综合办公楼中间部位一层和二层,海淀区,北京市,1,39.907237,116.301243,中国工商银行(北京万寿路南口支行),北京市,a7c56ee0af60c3b3a2acc4a0,"(010)68211067,(010)68211701",a7c56ee0af60c3b3a2acc4a0
北京市海淀区西四环中路16号院1号楼一层,海淀区,北京市,1,39.921286,116.282194,中国工商银行(北京五棵松奥体支行),北京市,35b61d64894191546d20b96f,"(010)68275243,(010)68270513",35b61d64894191546d20b96f
北京市海淀区新街口外大街19北京师范大学,海淀区,北京市,1,39.967609,116.372289,中国工商银行24小时自助银行(励耘学苑西),北京市,,,b119907159b9df70e60738e5
阜成路79号,海淀区,北京市,1,39.931002,116.300177,中国工商银行(翠微路支行营业部电费代收点),北京市,e607ba8b21dc0cc71df74d0b,(010)88127149,e607ba8b21dc0cc71df74d0b
北京市海淀区复兴路28号中国人民解放军总医院门诊楼一层东侧1区房,海淀区,北京市,1,39.912733,116.283595,中国工商银行(北京翠微路支行五棵松储蓄所),北京市,,(010)68288929,a77aad5ece985e74b23c8127
东北旺西路中关村软件园16号楼,海淀区,北京市,1,40.056525,116.298398,中国工商银行软件开发中心,北京市,572f61cc00dbf8fb077ce82a,,572f61cc00dbf8fb077ce82a
北京市海淀区中关村南大街5号北京理工大学,海淀区,北京市,1,39.966566,116.322283,中国工商银行24小时自助银行(理工大学储蓄所),北京市,dffd4642775952cc3d9a5e8b,,dffd4642775952cc3d9a5e8b
莲花池东路39号西金大厦1层,海淀区,北京市,1,39.903655,116.321184,中国工商银行(北京西客站支行营业部),北京市,66cf01bd0dc614e19ee3211c,"(010)63955371,(010)63955321",66cf01bd0dc614e19ee3211c
北京市海淀区中关村东路甲100号3楼,海淀区,北京市,1,39.983437,116.340778,中国工商银行(北京海淀支行营业室),北京市,58a62c83a74f5269276e985b,,58a62c83a74f5269276e985b
复兴路28号-1康馨大厦,海淀区,北京市,1,39.913308,116.284485,中国工商银行(复兴路支行)电费代收点,北京市,02e7907d5f0806b92cb96d0c,(010)68220531,02e7907d5f0806b92cb96d0c
北京市海淀区北四环西路65号海淀新技术大厦内,海淀区,北京市,1,39.992431,116.311375,中国工商银行(北京海淀西区支行营业部),北京市,a14f5b2e1ce9b0a700ec01de,"(010)62559095,(010)62559094,(010)62542640",a14f5b2e1ce9b0a700ec01de
北京市海淀区西四环北路71号,海淀区,北京市,1,39.95752,116.280218,中国工商银行24小时自助银行服务(北京郦城支行),北京市,87d2ec21886754a8fa42b225,,87d2ec21886754a8fa42b225
北京市海淀区西四环北路117号金四季购物中心F1,海淀区,北京市,1,39.95067,116.27799,中国工商银行24小时自助银行(金四季购物中心),北京市,80bbee01147009dc93114ccf,,80bbee01147009dc93114ccf
北京市海淀区玉渊潭南路85君安写字楼1层,海淀区,北京市,1,39.919314,116.303696,中国工商银行24小时自助银行(北京翠微中里支行),北京市,41b452e110a40c5d2afc48e1,,41b452e110a40c5d2afc48e1
学院路15号,海淀区,北京市,1,39.999314,116.353791,工商银行24小时自助银行服务(北京分行中关村支行学院路离行式),北京市,275389131865bc5421f01784,,2e81b67714e5284c4557265a
志新路44号,海淀区,北京市,1,40.000898,116.363963,中国工商银行24小时自助银行服务,北京市,b2f283999da57d52b04c49cc,,b2f283999da57d52b04c49cc
羊坊店路9-2,海淀区,北京市,1,39.909593,116.32732,中国工商银行ATM,北京市,88e1f8a5bfba1f520bccdd9a,,88e1f8a5bfba1f520bccdd9a
北京市海淀区中关村大街40号当代商城F1,海淀区,北京市,1,39.976701,116.327565,中国工商银行ATM,北京市,bfc64ee09bbc57ec1c389466,,bfc64ee09bbc57ec1c389466
北三环西路甲5号附近,海淀区,北京市,1,39.973772,116.35788,ICBC24h自助银行服务,北京市,aaccf3dfe760ab97f7b9163a,,aaccf3dfe760ab97f7b9163a
海淀区中关村南四街４号,海淀区,北京市,1,39.986355,116.341743,中国工商银行自助银行,北京市,4a460f86fd3c1336b05c6a28,,4a460f86fd3c1336b05c6a28
北京市海淀区北四环西路88号院,海淀区,北京市,1,39.978497,116.292177,中国工商银行自助银行,北京市,80b60e5c3a69c4a9ede4a517,,80b60e5c3a69c4a9ede4a517
北京市海淀区北四环西路甲2号(辽宁大厦),海淀区,北京市,1,39.990761,116.343559,中国工商银行自助银行,北京市,bc5db9c702b888495e17c3c1,,bc5db9c702b888495e17c3c1
车道沟桥东南角,海淀区,北京市,1,39.951955,116.302906,中国工商银行车道沟宿舍,北京市,,,17c0440555a8c8abd8131858
西四环北路9,海淀区,北京市,1,39.965873,116.280444,中国工商银行ATM(鑫泰大厦),北京市,a57a9afff0b3d01389fc0695,,a57a9afff0b3d01389fc0695
北京市海淀区远大路1号世纪金源购物中心F3,海淀区,北京市,1,39.964684,116.297271,中国工商银行ATM(贵友大厦),北京市,,,82efecbb71cc8d5974026917
西三环中路19号,海淀区,北京市,1,39.910211,116.316328,中国工商银行24小时自助银行,北京市,fa34b5f4d0f9b9cf354aae33,,fa34b5f4d0f9b9cf354aae33
北京市海淀区复兴路甲23号北京城乡贸易中心F1,海淀区,北京市,1,39.914269,116.313523,中国工商银行24小时自助银行,北京市,e680010a7b6caac2c4f02559,,e680010a7b6caac2c4f02559
北京市海淀区,海淀区,北京市,1,39.981299,116.328828,中国工商银行24小时的服务,北京市,5896d19ac104a37dae31e5a7,,5896d19ac104a37dae31e5a7
北京市海淀区北下关钢铁研究总院南院(气象路北),海淀区,北京市,1,39.954634,116.341601,中国工商银行24小时自助银行,北京市,2583c48c24e8040c17b54bdd,,2583c48c24e8040c17b54bdd
学院南路34号,海淀区,北京市,1,39.963565,116.363507,中国工商银行ATM(学院南路),北京市,48a95d052e0d158d8605bf9f,,48a95d052e0d158d8605bf9f
北京市海淀区地铁四号线国家图书馆站,海淀区,北京市,1,39.949504,116.331249,中国工商银行ATM(国家图书馆),北京市,504fb8fc5744d0a03062128a,,504fb8fc5744d0a03062128a
复兴路61-1号,海淀区,北京市,1,39.914172,116.298499,中国工商银行24h自助银行服务,北京市,63cec39dd75e5331be48422e,,63cec39dd75e5331be48422e
北京市海淀区北三环西路38号北京双安商场1层,海淀区,北京市,1,39.972495,116.332927,中国工商银行ATM(双安商场),北京市,a4d8a20eeba1aaf6f33cba11,,a4d8a20eeba1aaf6f33cba11
西四环北路136号金泰海博大酒店,海淀区,北京市,1,39.944128,116.28169,中国工商银行24小时自助银行(美丽园路),北京市,d5464cf85ce6e22afda77837,,d5464cf85ce6e22afda77837
海淀区中关村北一条9号科电大厦,海淀区,北京市,1,39.99463,116.33314,中国工商银行24小时自助银行,北京市,0e68bb23a5075bef43024502,,0e68bb23a5075bef43024502
北京市海淀区花园北路48邮科社区,海淀区,北京市,1,39.985517,116.364475,中国工商银行ATM(邮科社区西北),北京市,41f79bf817f07adac17da2ba,,41f79bf817f07adac17da2ba
北京市海淀区青龙桥街道信息路体大颐清园北二门,海淀区,北京市,1,40.024088,116.327948,中国工商银行24小时自助银行服务,北京市,369cd40ba4ef8bf8da2f2809,,369cd40ba4ef8bf8da2f2809
大有北里148号,海淀区,北京市,1,40.020641,116.284492,中国工商银行ATM(第二十二储蓄所),北京市,941eaa293ee8d844cae33c9e,,941eaa293ee8d844cae33c9e
中关村大街59号中国人民大学汇贤楼A座1层,海淀区,北京市,1,39.976308,116.314045,中国工商银行ATM(人民大学支行),北京市,907646199c0ea479b817e707,,907646199c0ea479b817e707
北京市海淀区车公庄西路12号院附近,海淀区,北京市,1,39.936644,116.332807,中国工商银行24小时自助银行服务,北京市,,,b0946e650708653b4afd3f83
交大东路11号交通大学家属院内,海淀区,北京市,1,39.959726,116.351496,中国工商银行24小时自助银行服务(交通大学支行),北京市,d5f93c0ecda97222eddfca73,,d5f93c0ecda97222eddfca73
北京市海淀区中关村东路100号(海淀支行门口),海淀区,北京市,1,39.983264,116.340794,中国工商银行24小时自助银行(北京海淀支行),北京市,7891c91437d6d7224251c012,,7891c91437d6d7224251c012
西苑中直机关院内,海淀区,北京市,1,40.000411,116.29831,中国工商银行24小时自助银行服务,北京市,6a00c03e2f20e007d33ce323,,6a00c03e2f20e007d33ce323
红山口甲3号红山瑞廷酒店1层,海淀区,北京市,1,40.024189,116.272811,中国工商银行24小时自助银行服务,北京市,7fa80c0b3e3473b39868b4e3,,7fa80c0b3e3473b39868b4e3
海淀区中关村丹棱街5号,海淀区,北京市,1,39.985448,116.316656,中国工商银行24小时自助银行服务,北京市,9989b558b3777804d3ff233b,,9989b558b3777804d3ff233b
北京市海淀区中关村南大街18号,海淀区,北京市,1,39.960825,116.330431,中国工商银行ATM(大慧寺7号院西北),北京市,de928f0f3df40a072a02e1ef,,de928f0f3df40a072a02e1ef
北京市海淀区清华大学-紫荆学生公寓内,海淀区,北京市,1,40.011612,116.333929,中国工商银行ATM(清华大学财务处内),北京市,48f8a8b90378229f0f0a705c,,48f8a8b90378229f0f0a705c
北京市海淀区交大东路42号,海淀区,北京市,1,39.956234,116.355265,中国工商银行24小时自助银行(净土寺),北京市,ed2336d044951de7fbdc851b,,ed2336d044951de7fbdc851b
北京市海淀区万寿路28号,海淀区,北京市,1,39.905206,116.30188,中国工商银行24小时自助银行(万寿路),北京市,3a0a78bd7c0aca84631809e2,,3a0a78bd7c0aca84631809e2
翠微路21号,海淀区,北京市,1,39.905798,116.308325,中国工商银行24小时自助银行(翠微路),北京市,692bd54abd51f6db2b201afc,,692bd54abd51f6db2b201afc
建材城东路16号,海淀区,北京市,1,40.06745,116.381175,中国工商银行离行式自助服务区(北京分行中关村支行建材城东路),北京市,,,474527aefbc579cc75e5b625
安宁北里8号,海淀区,北京市,1,40.054951,116.336222,中国工商银行离行式自助服务区(北京分行中关村支行安宁北里),北京市,d97dcdcb25a8e6942afc4824,,d97dcdcb25a8e6942afc4824
东北旺南路27号,海淀区,北京市,1,40.048391,116.3017,中国工商银行离行式自助银行(北京分行中关村支行东北旺南路),北京市,c8c2b190655b374b57bffff3,,c8c2b190655b374b57bffff3
北京市海淀区上地九街国际创业园2号楼,海淀区,北京市,1,40.052333,116.312377,中国工商银行24小时自助银行(北京中关村支行营业部),北京市,46e86fdd0f89ef6fd13ce36c,,46e86fdd0f89ef6fd13ce36c
清华园街道清华大学16区结算中心,海淀区,北京市,1,40.005154,116.330814,中国工商银行24小时自助银行(清华大学储蓄所),北京市,642c3239a33ed5afab0dd8fe,,642c3239a33ed5afab0dd8fe
学院路30号方兴大厦,海淀区,北京市,1,39.998922,116.362877,中国工商银行24小时自助银行(北京东升路支行),北京市,ce3ed03555ba5d6fc6effb0e,,ce3ed03555ba5d6fc6effb0e
农大南路33号,海淀区,北京市,1,40.031123,116.305128,中国工商银行离行式自助银行(北京分行中关村支行农大南路),北京市,d4e9de5a888361885fd4fe2a,,d4e9de5a888361885fd4fe2a
中关村南大街18号北京国际大厦b座,海淀区,北京市,1,39.959104,116.331465,中国工商银行24小时自助银行(中关村南路支行),北京市,dce8d4f594805b6517c8f6d8,,dce8d4f594805b6517c8f6d8
海淀区魏公村街1号韦伯豪家园2号楼1楼(近中关村南大街),海淀区,北京市,1,39.960306,116.325442,中国工商银行24小时自助银行(魏公村储蓄所),北京市,b1ea326b2c20cb59c909f098,,b1ea326b2c20cb59c909f098
北京市海淀区西直门北大街62号,海淀区,北京市,1,39.950964,116.364262,中国工商银行离行式自助银行(北京分行广安门支行西直门北大街),北京市,,,08a58e76cea4b28b3be4a6f9
北京市海淀区西三环北路2号北京外国语大学,海淀区,北京市,1,39.961321,116.319401,中国工商银行24小时自助银行(北京外国语大学社区北),北京市,bff8fa7dc2472edec8213d2c,,bff8fa7dc2472edec8213d2c
海淀区苏州街18号长远天地大厦,海淀区,北京市,1,39.984355,116.312993,中国工商银行24小时自助银行(北京苏州街支行),北京市,d8757517d28d75ccf503b8f0,,669775d05ba23525fd0eb027
北京市海淀区北蜂窝路20号,海淀区,北京市,1,39.907843,116.335854,中国工商银行24小时自助银行(北京北蜂窝路支行),北京市,77608998006e9d9d83a00c36,,77608998006e9d9d83a00c36
"北京市海淀区首体南路38号(创景大厦)一,二层",海淀区,北京市,1,39.930896,116.332704,中国工商银行24小时自助银行(北京阜成路支行),北京市,470e2e322fa92d167c29bd81,,470e2e322fa92d167c29bd81
三里河路17号,海淀区,北京市,1,39.932652,116.339505,中国工商银行24小时自助银行(北京甘家口储蓄所),北京市,2fade5b2e64cdc9e14948eac,,2fade5b2e64cdc9e14948eac
北京市海淀区车公庄西路甲19号,海淀区,北京市,1,39.938528,116.327549,中国工商银行24小时自助银行服务(北京四道口支行),北京市,2037869eefe5fd4dbca8227d,,2037869eefe5fd4dbca8227d
阜成路29号,海淀区,北京市,1,39.930153,116.322096,中国工商银行附行式自助银行(北京分行西客站支行阜成路),北京市,,,e49d9a1da302887e49fc8d41
西三环北路83号首师大北一区,海淀区,北京市,1,39.942694,116.313716,中国工商银行ATM(首都师范大学文学院文科楼),北京市,7d5f3a0afbdd954b2cb90840,,7d5f3a0afbdd954b2cb90840
复兴路甲18号,海淀区,北京市,1,39.913185,116.310476,中国工商银行离行式自助银行(北京分行翠微路支行复兴路甲18号),北京市,71cacd3c28845897130daa8b,,71cacd3c28845897130daa8b
北京市海淀区岭南路14号广东大厦,海淀区,北京市,1,39.940994,116.30969,中国工商银行24小时自助银行(北京增光支行),北京市,12929d701262f59cf7e73b67,,12929d701262f59cf7e73b67
北京市海淀区北京市海淀区阜成路30号16号楼,海淀区,北京市,1,39.930462,116.311172,中国工商银行24小时自助银行(西八里庄支行),北京市,42b268f9c4b95738a8059d13,,42b268f9c4b95738a8059d13
复兴路40号A座,海淀区,北京市,1,39.913185,116.266103,中国工商银行24小时自助银行(北京玉东支行),北京市,876bac8830c2564e1c38948b,,876bac8830c2564e1c38948b
西三旗建材城东路16号,海淀区,北京市,1,40.067479,116.381481,中国工商银行24小时自助银行(北京建材城东路分理处),北京市,72aa251397bdf647077ce86c,,72aa251397bdf647077ce86c
北京市海淀区志新东路5号首层,海淀区,北京市,1,39.997646,116.375386,中国工商银行24小时自助银行(二里庄支行),北京市,29ddb9bbc1a006bee4e9658d,,29ddb9bbc1a006bee4e9658d
北京市海淀区德胜门西大街15号9,海淀区,北京市,1,39.952333,116.36786,中国工商银行24小时自助银行(远洋风景支行),北京市,26def9c572024446912ca30d,,26def9c572024446912ca30d
花园北路39号(北医储蓄所旁),海淀区,北京市,1,39.987856,116.370528,中国工商银行24小时自助银行(北京花园北路支行),北京市,fa7da3e8817cf06242d63e40,,fa7da3e8817cf06242d63e40
永泰东里41号楼1层,海淀区,北京市,1,40.041188,116.362534,中国工商银行24小时自助银行(北京永泰支行),北京市,a618378cec1d924914b54bda,,a618378cec1d924914b54bda
北京市海淀区清河永泰园甲13号楼一层,海淀区,北京市,1,40.040823,116.356459,中国工商银行24小时自助银行(北京永泰园支行),北京市,b9741be360e73ac6b11e36b2,,b9741be360e73ac6b11e36b2
北京市海淀区马连洼兰园小区16号楼一层,海淀区,北京市,1,40.037271,116.280804,中国工商银行24小时自助银行(北京马连洼支行),北京市,b0d056f2e7d77703cac3db5f,,b0d056f2e7d77703cac3db5f
北四环中路267号,海淀区,北京市,1,39.993533,116.355622,中国工商银行离行式自助银行(北京分行中关村支行北四环中路),北京市,73e8c895b34b2f3e83a00c38,,73e8c895b34b2f3e83a00c38
北京市海淀区双清路30号清华大学,海淀区,北京市,1,40.017544,116.334398,中国工商银行24小时自助银行(清华大学紫荆学生公寓西北),北京市,07f1be16ef53bfd940e192a1,,07f1be16ef53bfd940e192a1
北京市海淀区农大南路10号首层,海淀区,北京市,1,40.030782,116.301886,中国工商银行24小时自助银行(北京博雅西园支行),北京市,6fddd7fdfda7e97f3517dc6c,,6fddd7fdfda7e97f3517dc6c
北四环西路65,海淀区,北京市,1,39.992352,116.311384,中国工商银行24小时自助银行(北京海淀西区支行),北京市,6b6644a91c06893e08ccddec,,6b6644a91c06893e08ccddec
厢红旗1号,海淀区,北京市,1,40.013237,116.263109,中国工商银行24小时自助银行(厢红旗分理处),北京市,f696f3c2f94832eb1b11d56c,,f696f3c2f94832eb1b11d56c
大钟寺东路9号京仪科技大厦B座,海淀区,北京市,1,39.977089,116.344791,中国工商银行24小时自助银行(北京大钟寺东路支行),北京市,575cd182a1de25cff7e73b02,,575cd182a1de25cff7e73b02
中关村新科祥园甲2号商务,海淀区,北京市,1,39.989806,116.331315,中国工商银行24小时自助银行(北京科学院支行),北京市,ac5b50668927a20ac06c1448,,ac5b50668927a20ac06c1448
北京市海淀区高梁桥斜街59号院2号楼一、二层,海淀区,北京市,1,39.950018,116.355471,中国工商银行24小时自助银行(长河湾支行),北京市,2fd2beaba99fca2c7adbd270,,2fd2beaba99fca2c7adbd270
海淀区知春路108号,海淀区,北京市,1,39.981521,116.32813,中国工商银行24小时自助银行(北京知春路支行),北京市,e6c7275b424765b495f08c97,,e6c7275b424765b495f08c97
北京市海淀区车道沟10号,海淀区,北京市,1,39.951832,116.307704,中国工商银行24小时自助银行(北京北洼路支行),北京市,5e53af1a8096ee214151c0e2,,5e53af1a8096ee214151c0e2
板井路77号,海淀区,北京市,1,39.960059,116.284974,中国工商银行24小时自助银行(北京世纪城支行),北京市,41619b3038a1c95140024507,,41619b3038a1c95140024507
北京市海淀区海淀南路18号,海淀区,北京市,1,39.9815,116.319252,中国工商银行24小时自助银行(海淀南路储蓄所),北京市,50bc1d4d757d3c2fb13c8159,,50bc1d4d757d3c2fb13c8159
北京市海淀区车公庄西路5号,海淀区,北京市,1,39.938582,116.337042,中国工商银行离行式自助服务区(北京市分行南礼士路支行南礼士路支行),北京市,3a92b8dd41cbb270ae080f3c,,3a92b8dd41cbb270ae080f3c
西直门外大街168-3,海淀区,北京市,1,39.943805,116.334349,中国工商银行24小时自助银行(北京首都体育馆支行),北京市,8f6b4dffdbe66895a0acc473,,8f6b4dffdbe66895a0acc473
羊坊店路11-1号中车大厦1层西客站,海淀区,北京市,1,39.908019,116.327316,中国工商银行24小时自助银行(北京羊坊店支行),北京市,fa5f136649e3a1d70f0e6b67,,fa5f136649e3a1d70f0e6b67
万寿路24号2号楼,海淀区,北京市,1,39.9149,116.301739,中国工商银行离行式自助银行(北京分行翠微路支行万寿路24号),北京市,b666f2d170f63d6ff90cad78,,b666f2d170f63d6ff90cad78
海淀区西三环北路87号国际财经中心1楼,海淀区,北京市,1,39.941794,116.31603,中国工商银行24小时自助银行(北京花园桥支行),北京市,b671e758090cedb06fa3ccd7,,b671e758090cedb06fa3ccd7
花园东路8号中国工商银行(北京花园东路支行)附近,海淀区,北京市,1,39.991393,116.375821,中国工商银行24小时自助银行(北京花园东路支行),北京市,c0aed566aa9f287bc61b7556,,c0aed566aa9f287bc61b7556
北京市海淀区北太平庄路29号,海淀区,北京市,1,39.977036,116.375687,中国工商银行网点自助服务区(北京分行海淀支行北太平庄路),北京市,a890b9ed6d6f7dd02b06ce1f,,a890b9ed6d6f7dd02b06ce1f
北京市海淀区花园东路25号中城写字楼,海淀区,北京市,1,39.985035,116.375798,中国工商银行24小时自助银行(北京牡丹园支行),北京市,8478d63a9a2d836c10293517,,ad538922ac15f291c809f08a
北京市海淀区成府路53中国工商银行(成府路支行)内,海淀区,北京市,1,39.99869,116.332834,中国工商银行24小时自助银行(北京成府路支行),北京市,e710a2aac00ee140a7c7563c,,e710a2aac00ee140a7c7563c
北京市海淀区天秀路10-5,海淀区,北京市,1,40.027059,116.283982,中国工商银行24小时自助银行(北京天秀支行),北京市,96b672aaabee6f0bce04efe2,,96b672aaabee6f0bce04efe2
北京市海淀区颐和园路5号北京大学,海淀区,北京市,1,39.997905,116.309633,中国工商银行24小时自助银行(畅春新园西),北京市,edab09aab43fc246abf72936,,edab09aab43fc246abf72936
四号线北大东门,海淀区,北京市,1,39.998016,116.322136,中国工商银行离行式自助银行(北京分行中关村支行四号线),北京市,34757b174df7517e3310af39,,34757b174df7517e3310af39
北京市海淀区中关村大街42号,海淀区,北京市,1,39.975343,116.327661,中国工商银行24小时自助银行(北京双榆树西里支行),北京市,dba2dd904dd74334ddee8b33,,dba2dd904dd74334ddee8b33
皂君庙西里甲8号,海淀区,北京市,1,39.965089,116.341297,中国工商银行24小时自助银行(皂君庙路),北京市,efb4febf9fa93cefeddfca27,,efb4febf9fa93cefeddfca27
学院南路47-2,海淀区,北京市,1,39.963934,116.347263,中国工商银行24小时自助银行(学院南路支行),北京市,7a63d410dcccff7340e19219,,7a63d410dcccff7340e19219
紫竹院路甲1中国工商银行(北京紫竹桥支行)附近,海淀区,北京市,1,39.947283,116.32058,中国工商银行24小时自助银行(北京紫竹桥支行),北京市,8e5a456e4a7631f115a190eb,,8e5a456e4a7631f115a190eb
北京市海淀区长春桥路5号11好楼首层,海淀区,北京市,1,39.967064,116.309797,中国工商银行24小时自助银行(北京苏州桥支行),北京市,98afe7fc48ffde5691114c82,,98afe7fc48ffde5691114c82
万柳星标家园11号楼商业1号大厦,海淀区,北京市,1,39.973833,116.300258,中国工商银行24小时自助银行(北京万柳支行),北京市,691305235a1f4b08725e8046,,691305235a1f4b08725e8046
曙光花园彰化路10号,海淀区,北京市,1,39.948379,116.29618,中国工商银行24小时自助银行(曙光支行),北京市,6ee010206163429152e5c573,,6ee010206163429152e5c573
北京市海淀区增光路甲57号,海淀区,北京市,1,39.933343,116.336778,中国工商银行离行式自助银行(北京市分行南礼士路支行南礼士路支行),北京市,,,cdac77b1905b4d944d776e0b
北蜂窝路8-4号,海淀区,北京市,1,39.910504,116.335827,中国工商银行24小时自助银行(会城门支行),北京市,91beb473ada9f36d7069d370,,91beb473ada9f36d7069d370
太平路22号,海淀区,北京市,1,39.906428,116.291281,中国工商银行离行式自助服务区(北京分行翠微路支行太平路22号),北京市,5e41c2a26416a4c5f8f0cbcf,,5e41c2a26416a4c5f8f0cbcf
北京市海淀区西四环中路16号-2楼-b1层,海淀区,北京市,1,39.921259,116.28213,中国工商银行24小时自助银行服务(北京五颗松奥体支行),北京市,1479cecb7064c4e4ab0dd891,,1479cecb7064c4e4ab0dd891
海淀区翠微路乙3号,海淀区,北京市,1,39.915431,116.308448,中国工商银行24小时自助银行(北京公主坟支行),北京市,aa9be21706ae584a2fe67b9f,,aa9be21706ae584a2fe67b9f
阜成路79号,海淀区,北京市,1,39.930944,116.300187,中国工商银行网点自助服务区(北京分行翠微路支行),北京市,5f08b0b4d2fcca66774ff175,,5f08b0b4d2fcca66774ff175
北京市海淀区杏石口路9号合众大厦一层,海淀区,北京市,1,39.954004,116.275695,中国工商银行附行式自助银行(北京分行翠微路支行金四季支行),北京市,88de77ac6c536273a21de996,,88de77ac6c536273a21de996
北京市海淀区永定路96号,海淀区,北京市,1,39.909717,116.271409,中国工商银行附行式自助银行(北京分行翠微路支行永南支行),北京市,ecd4e3a758e3eecf990050ae,,ecd4e3a758e3eecf990050ae
丰慧中路7号,海淀区,北京市,1,40.08204,116.242129,中国工商银行24小时自助银行(北京分行中关村支行丰慧中路),北京市,,,dd33b83a0f8c6f55ab175a1f
丰慧中路7号新材料创业务大厦(永丰产业基地新材料创业大厦首层),海淀区,北京市,1,40.081804,116.241935,中国工商银行24小时自助银行(北京永丰支行),北京市,4ce10ce6b61046dc451a32a2,,4ce10ce6b61046dc451a32a2
北京市海淀区建材城西路育新花园小区2号,海淀区,北京市,1,40.065331,116.351386,中国工商银行24小时自助银行服务(北京分行中关村支行建材城西路),北京市,2d07a148b012dee226d2bbfd,,2d07a148b012dee226d2bbfd
北京市海淀区小营西路31号,海淀区,北京市,1,40.043022,116.345287,中国工商银行24小时自助银行服务(北京分行中关村支行小营西路),北京市,1e9dd5b0563ac22afa42b226,,1e9dd5b0563ac22afa42b226
上地十街1号辉煌国际6号楼,海淀区,北京市,1,40.059534,116.309087,中国工商银行24小时自助银行(上地十街),北京市,431ea81bf9b27439d518b71b,,431ea81bf9b27439d518b71b
北京市海淀区坡上村12号国际关系学院,海淀区,北京市,1,40.009776,116.293203,中国工商银行24小时自助银行服务(东学路),北京市,,,d7fd2ad3fab70d540bccdd6c
上地信息路38号,海淀区,北京市,1,40.031111,116.320546,中国工商银行24小时自助银行(北京分行中关村支行上地信息路),北京市,7246a59a014a876238221c9f,,7246a59a014a876238221c9f
北京市海淀区中国人民解放军第三一六医院南门,海淀区,北京市,1,40.007537,116.24575,中国工商银行24小时自助银行(道公府路),北京市,504d6113721dffb34657267a,,504d6113721dffb34657267a
北京市海淀区交大东路18号院9号楼首层,海淀区,北京市,1,39.959996,116.354286,中国工商银行24小时自助银行(北京交大东路支行),北京市,a7c56ee079dd1dcda3acc4e2,,a7c56ee079dd1dcda3acc4e2
北京市海淀区双榆树西里19号,海淀区,北京市,1,39.974188,116.331116,中国工商银行24小时自助银行服务(北京分行海淀支行双榆树西里),北京市,,,c2ddf96cb0e259db82a12e98
学院路37号,海淀区,北京市,1,39.987541,116.351269,中国工商银行24小时自助银行服务(知行楼西南),北京市,5100b7453b68c6ee990050ee,,5100b7453b68c6ee990050ee
北三环西路7号,海淀区,北京市,1,39.973816,116.35765,中国工商银行24小时自助银行(蓟门里储蓄所),北京市,341c35de0c4972bee6073840,,341c35de0c4972bee6073840
玉渊潭南路9-3号,海淀区,北京市,1,39.916858,116.334047,中国工商银行24小时自助银行(北京世纪坛支行),北京市,,,86c7cedb64ff7a4e25e0a072
太平路5号,海淀区,北京市,1,39.90725,116.301173,中国工商银行24小时自助银行服务(北京分行翠微路支行万寿路南口支行),北京市,3a69479b4019efe09ee32115,,3a69479b4019efe09ee32115
西四环中路39号,海淀区,北京市,1,39.919551,116.279914,中国工商银行24小时自助银行服务(北京分行翠微路支行西四环支行),北京市,5ae845b8eee0da4185420ebb,,5ae845b8eee0da4185420ebb
北洼路30号,海淀区,北京市,1,39.940905,116.30966,中国工商银行24小时自助银行服务(北京分行翠微路支行增光支行),北京市,85c605fda3bd1b6db31e3650,,85c605fda3bd1b6db31e3650
北京市海淀区莲花池东路39号,海淀区,北京市,1,39.903478,116.320893,中国工商银行24小时自助银行(北京分行西客站支行莲花池东路),北京市,3ca96e8208cf3bd581288a43,,3ca96e8208cf3bd581288a43
复兴路28-1号,海淀区,北京市,1,39.913297,116.284964,中国工商银行24小时自助银行(复兴路辅路),北京市,3f28e8c4ff63cb8aafee7a08,,3f28e8c4ff63cb8aafee7a08
北京市海淀区阜石路9号,海淀区,北京市,1,39.931041,116.274911,中国工商银行24小时自助银行服务(阜石路辅路),北京市,3d88291b718ea9a29f09f742,,3d88291b718ea9a29f09f742
显龙山路19号,海淀区,北京市,1,40.055057,116.184461,中国工商银行24小时自助银行(北京温泉新区支行),北京市,5874591c2db4f0aa41d63e46,,5874591c2db4f0aa41d63e46
文慧园北路9号,海淀区,北京市,1,39.958623,116.367754,中国工商银行24小时自助银行服务(北京索家坟支行),北京市,db4e91fc5479753f6cc02c34,,db4e91fc5479753f6cc02c34
太平路27号,海淀区,北京市,1,39.906791,116.276391,中国工商银行24小时自助银行服务(北京分行翠微路支行永定路支行),北京市,e93d0437c0c7263c0f0e6bb2,,e93d0437c0c7263c0f0e6bb2
玉泉路甲12号,海淀区,北京市,1,39.9239,116.260033,中国工商银行24小时自助银行(北京分行翠微路支行玉海园支行),北京市,109c8c8a9059a5262806ce5e,,109c8c8a9059a5262806ce5e
门头沟水闸北路1号,门头沟区,北京市,1,39.968341,116.110323,中国工商银行(自动柜员机店),北京市,c3eb8873b9133306f219379b,,c3eb8873b9133306f219379b
永兴小区13号楼1层12-5,门头沟区,北京市,1,39.918503,116.119502,中国工商银行(北京定京支行),北京市,39d43f8239db8cfba9059d94,(010)69858024,39d43f8239db8cfba9059d94
北京市门头沟区新桥大街16号,门头沟区,北京市,1,39.947449,116.107291,中国工商银行(北京龙泉支行),北京市,0dc3d82dfd48226f75e5b6c3,"(010)69842053,(010)69841472,(010)69844593",0dc3d82dfd48226f75e5b6c3
近郊门头沟区滨河路157-6人民法院大楼,门头沟区,北京市,1,39.934888,116.120003,中国工商银行(北京滨河支行),北京市,0523a14175284b1db23c8104,(010)61868331,0523a14175284b1db23c8104
北京市门头沟区绿岛家园36号楼1层03-1,门头沟区,北京市,1,39.9472,116.114536,中国工商银行(北京绿岛水岸支行),北京市,,(010)69842070,dc30b046bb032e106f3e1b98
北京市门头沟区门头沟新桥大街98号,门头沟区,北京市,1,39.941444,116.112623,中国工商银行(新桥大街储蓄所),北京市,2527be1ea272acb34afc8d04,(010)69859881,2527be1ea272acb34afc8d04
北京市门头沟区三家店东街47号宏远宾馆大厦,门头沟区,北京市,1,39.967853,116.118612,中国工商银行(北京三家店支行),北京市,db1f39d4271faa6ff5c59c04,(010)61810284,db1f39d4271faa6ff5c59c04
北京市门头沟区双峪路1-17号,门头沟区,北京市,1,39.941021,116.113883,中国工商银行ATM(新桥大街储蓄所),北京市,f4a33da9226e0c093010af04,,f4a33da9226e0c093010af04
北京市门头沟区双峪路35号爱玛裕家居购物广场F1层,门头沟区,北京市,1,39.945508,116.125111,中国工商银行ATM(爱玛裕家居购物广场),北京市,76511b81337a003b12882437,,76511b81337a003b12882437
门头沟区绿岛家园36号楼1层03-1,门头沟区,北京市,1,39.947204,116.114981,中国工商银行24小时自助银行(北京绿岛水岸支行),北京市,,,f0b91acfac38af6be215f9cf
新桥大街22,门头沟区,北京市,1,39.947467,116.107164,中国工商银行24小时自助银行(北京龙泉支行),北京市,68ac821fc6ecff64a1a934eb,,0048ecc8bec707296140a90b
滨河路157之6-7,门头沟区,北京市,1,39.934821,116.120064,中国工商银行24小时自助银行(北京滨河支行),北京市,c04a399917b5a9c2a0d230b8,,c04a399917b5a9c2a0d230b8
北京门头沟石龙东路3号,门头沟区,北京市,1,39.911329,116.120584,中国工商银行离行式自助银行(北京门头沟支行维科宾馆),北京市,,,a2c2bc3f6d1f66c38afc0639
门头沟区七棵树东大街124号,门头沟区,北京市,1,39.95325,116.099962,中国工商银行离行式自助服务区(北京门头沟支行七棵树东大街),北京市,,,32c3183398f20e2ba4c756b7
门头沟区滨河路157-6号,门头沟区,北京市,1,39.934886,116.119833,中国工商银行附行式自助银行(北京门头沟支行滨河支行),北京市,,,f810228b153dafc195f08c16
门头沟永兴小区13楼1层12－5,门头沟区,北京市,1,39.91854,116.11949,中国工商银行24小时自助银行(北京定京支行),北京市,db1f39d4678aea12f4c59c94,,db1f39d4678aea12f4c59c94
北京门头沟龙泉务村,门头沟区,北京市,1,39.988197,116.091823,中国工商银行离行式自助服务区(北京门头沟支行龙泉务村),北京市,,,72e071495a18ce51c51b75d3
门头沟三家店东街47号,门头沟区,北京市,1,39.9675,116.118924,中国工商银行24小时自助银行服务(北京门头沟支行三家店支行),北京市,804fba36a8f440ef75e5b617,,804fba36a8f440ef75e5b617
北京市房山区云居寺路与工商行路交叉口西南150米,房山区,北京市,1,39.622978,115.762345,中国工商银行,北京市,,,b61a8b3059c85e6cad0457db
房山区良乡昊天大街91号10号楼4单元1-2层,房山区,北京市,1,39.738641,116.153907,中国工商银行(北京良乡中路支行),北京市,5508504db89165cac7f0251d,(010)69353503,5508504db89165cac7f0251d
矿机南路1号,房山区,北京市,1,39.694745,115.996306,中国工商银行(矿机储蓄所),北京市,,,92ecf63af2834a6b03ec01ca
房山区良乡昊天大街繁华巷9号,房山区,北京市,1,39.747287,116.157872,中国工商银行(北京昊天支行),北京市,bba873886b5ac9ddbca82234,"(010)69353012,(010)69364054",bba873886b5ac9ddbca82234
北京市房山区阎村镇京周路绿城百合公寓11幢109-112号,房山区,北京市,1,39.718506,116.080241,中国工商银行(北京绿城支行),北京市,,,9255808fc18697f2a80dd8d5
北京市房山区燕房路99号1楼,房山区,北京市,1,39.723863,115.980983,中国工商银行(北京前进支行),北京市,,(010)69346330,56e6aef74c4f9db0714b8764
北京市房山区紫燕中路2号燕化建德三里,房山区,北京市,1,39.715538,116.065613,中国工商银行(房山星城支行),北京市,,(010)81338339,ee991c5801952c8793114c49
北京市房山区燕山迎风街13号,房山区,北京市,1,39.735243,115.96155,中国工商银行-24小时自助银行,北京市,,,9868a8f6ed652527364aae96
北京市房山区燕山双泉西路4号,房山区,北京市,1,39.760158,115.971326,中国工商银行(北京东风支行),北京市,,(010)69341037,56e88cba06558c65a4c756ff
北京市房山区燕山迎风街13号,房山区,北京市,1,39.735205,115.961532,中国工商银行(北京燕山支行),北京市,,"(010)69341631,(010)69347160,(010)69335030",7bc68990e4c38906afee7af2
北京市房山区北潞园小区北潞春南路1-2号,房山区,北京市,1,39.745276,116.135999,中国工商银行(北京北潞园支行),北京市,cd683917e6bccb11c03644a7,"(010)81387840,(010)89350794",cd683917e6bccb11c03644a7
良乡西潞26号院2号,房山区,北京市,1,39.736751,116.134005,中国工商银行(北京良乡西潞支行),北京市,4e601cb7036f8a0414b54b22,(010)89358644,8554d20ffd28aa8f4207c1c3
北京市房山区拱辰街道政通路12号,房山区,北京市,1,39.753581,116.143536,中国工商银行(北京政通路支行),北京市,c9c23d3c82e53f03d22dd6fd,(010)89365943,c9c23d3c82e53f03d22dd6fd
北京市房山区城关镇农林路1号,房山区,北京市,1,39.693817,115.990668,中国工商银行(北京永安东里支行),北京市,89fd4ea38b26f53ae5e965c4,(010)89320945,89fd4ea38b26f53ae5e965c4
北京市房山区长阳镇昊天北大街48号218-1号楼,房山区,北京市,1,39.774802,116.173038,中国工商银行(北京加州水郡支行),北京市,d6ee87246c5d389da8f0cdd0,(010)80393551,d6ee87246c5d389da8f0cdd0
北京市房山区城关镇北大街1号,房山区,北京市,1,39.709036,115.991352,中国工商银行(房山北大街支行),北京市,,(010)69314461,2e42be010d8e4539213bf232
北京市房山区良乡北关东路9号楼,房山区,北京市,1,39.742185,116.151825,中国工商银行(北京文化路支行),北京市,,(010)69353618,ef98164dfc1c5e45882fb585
北京市房山区新镇原新街1号,房山区,北京市,1,39.741408,116.06803,中国工商银行(北京二六六支行),北京市,,"(010)60389488,(010)60389516",5c2dc21d1e0d15046fc02cf8
北京市房山区房山西大街9号,房山区,北京市,1,39.708744,115.988224,中国工商银行(北京房山城关支行),北京市,,(010)89323072,e816cd5c34b0ffcb95f08ccb
北京市房山区西潞北大街３２,房山区,北京市,1,39.744134,116.141811,中国工商银行(北京房山支行良乡分理处),北京市,b2324770556d234f4afc8d1a,(010)89350709,b2324770556d234f4afc8d1a
北京市房山区云居寺,房山区,北京市,1,39.62352,115.762856,中国工商银行北京市支行房山培训中心,北京市,,,50f7d146055866b972210bdc
政通西路12号,房山区,北京市,1,39.753067,116.142054,中国工商银行(北京分行房山支行政通路附行式自助银行),北京市,9472cf1947d7ead48505bf6a,,9472cf1947d7ead48505bf6a
燕化星城紫燕中路2号,房山区,北京市,1,39.715613,116.065449,中国工商银行(北京分行房山支行星城支行附行式自助银行),北京市,,,51174d8dbb69c047c51b75db
北京市房山区良乡明慧嘉园小区,房山区,北京市,1,39.738388,116.124798,中国工商银行ATM,北京市,aca291023e58568352e5c5d1,,aca291023e58568352e5c5d1
北京市房山区良乡西路,房山区,北京市,1,39.737306,116.138524,中国工商银行24小时自助银行,北京市,,,e3e2d5c5eed7e649d5b74e1c
北京市房山区新型工业化产业示范基地东北一门,房山区,北京市,1,39.717275,116.201684,中国工商银行24小时自助银行,北京市,d807a667aff0cf936e20b9e4,,d807a667aff0cf936e20b9e4
北京市房山区燕山北庄南里1号,房山区,北京市,1,39.720982,115.983437,中国工商银行ATM,北京市,,,3dc9befde438196bbea24031
新镇原新街1号1号,房山区,北京市,1,39.741494,116.068003,中国工商银行ATM(原新街),北京市,,,86600a401b0ada6948cc4af9
原子能研究院,房山区,北京市,1,39.750767,116.053876,中国工商银行自助银行,北京市,,,c6464fb572d2cd633be4a6a8
燕化星城健德一里甲17号,房山区,北京市,1,39.718893,116.073424,中国工商银行ATM(紫燕北路),北京市,,,b232958eec2bd472c27da2d2
北京市房山区双泉西路4号,房山区,北京市,1,39.759857,115.971467,中国工商银行24小时自助银行(东风分理处),北京市,,,750ec16566e05a2b4c3a59ff
广阳西路2号,房山区,北京市,1,39.763842,116.163989,中国工商银行ATM(广阳西路),北京市,4642844a21e004d9c9fa5ff6,,4642844a21e004d9c9fa5ff6
良乡西路大街甲7号(良乡金华丽饭店西边),房山区,北京市,1,39.741454,116.142161,中国工商银行ATM(西潞北大街),北京市,12792e2c4e0637a2a0acc401,,12792e2c4e0637a2a0acc401
北京市房山区双泉滨河路羊耳峪西区住宅小区东门,房山区,北京市,1,39.766609,115.971929,中国工商银行ATM(羊耳峪西区),北京市,,,9ee907038293ba217069d3e1
窦店信息大学/南区、北区,房山区,北京市,1,39.694989,116.071784,中国工商银行24小时自助银行,北京市,,,fac6be5d4c87017bf90cad49
北京市房山区城关房窑路6号,房山区,北京市,1,39.699756,115.999006,中国工商银行ATM(房山南大街),北京市,,,b9e5d0b837dc38bc81a12efd
羊耳峪里东巷10号,房山区,北京市,1,39.764358,115.977481,中国工商银行ATM(羊耳峪里东巷),北京市,,,ba6623fd09e6e4abca09f016
农林路1号,房山区,北京市,1,39.6939,115.990731,中国工商银行ATM(北京永安东里支行),北京市,48eb00587ab848d32fe67b2f,,48eb00587ab848d32fe67b2f
良乡拱辰大街11号,房山区,北京市,1,39.746353,116.148277,中国工商银行24小时自助银行(宜春里),北京市,31de7284c05e1bf40d3dda45,,31de7284c05e1bf40d3dda45
北京市房山区窦店镇亚新路17号房山窦店金隅科技园,房山区,北京市,1,39.679706,116.125148,中国工商银行24小时自助银行(亚新路),北京市,,,91d7f4ab1f1b5f808f55ec0e
北京市房山区城关镇北大街1号,房山区,北京市,1,39.708813,115.988535,中国工商银行24小时自助银行(北京房山支行城关分理处),北京市,,,bbb0cd5b14d7e5bff82213c2
北京市房山区燕房路99号1楼,房山区,北京市,1,39.723818,115.981126,中国工商银行24小时自助银行(北京前进支行),北京市,,,f0fd96ad5148aec3d22dd640
房山良乡西潞北大街32号,房山区,北京市,1,39.743528,116.1422,中国工商银行附行式自助银行(北京分行房山良乡分理处),北京市,6ff4f101e67ff123725e8082,,6ff4f101e67ff123725e8082
北京市房山区广阳新路9号院1号楼中粮万科FUNMIX半岛广场F1,房山区,北京市,1,39.759717,116.216979,中国工商银行ATM(中粮万科FUNMIX半岛广场),北京市,,,c83b1522901be73400ff2dc1
政通路12号拱辰楼宇1层,房山区,北京市,1,39.75311,116.143304,中国工商银行24小时自助银行(北京政通路支行),北京市,8e135a400ebeb544ad31e5d0,,8e135a400ebeb544ad31e5d0
北京市房山区良乡西路26号,房山区,北京市,1,39.736709,116.134005,中国工商银行24小时自助银行(北京良乡西潞支行),北京市,76c7ecb2a12219bc61685816,,0c3146e0cf7546a4e8e5825d
北京房山区长阳镇加州水郡西区商业1号楼1层123-125室1号,房山区,北京市,1,39.774714,116.172983,中国工商银行24小时自助银行服务(北京分行房山加州水郡支行),北京市,75c23669dd21d0b3b917e742,,75c23669dd21d0b3b917e742
良乡北关东路9号,房山区,北京市,1,39.742092,116.151504,中国工商银行24小时自助银行服务(北京分行房山文化路支行),北京市,,,a681bf16826070a9fb22134d
"北京市房山区良乡昊天大街91号10号楼4单元(一,二)层",房山区,北京市,1,39.738812,116.153702,中国工商银行24小时自助银行(北京良乡中路支行),北京市,4e61a59f52e665cabca8228e,,4e61a59f52e665cabca8228e
北京市房山区良乡昊天大街繁华巷9号,房山区,北京市,1,39.747202,116.157884,中国工商银行24小时自助银行服务(昊天支行),北京市,9a797a4be34572ff38221cb0,,9a797a4be34572ff38221cb0
北京房山区良乡北潞春家园E7号7号,房山区,北京市,1,39.74531,116.135964,中国工商银行24小时自助银行(北京分行房山支行北潞园),北京市,9c78e9cd84279d09f7231032,,9c78e9cd84279d09f7231032
房山区阎村镇绿城百合公寓11幢112号,房山区,北京市,1,39.718443,116.080616,中国工商银行24小时自助银行(北京分行房山支行绿城支行),北京市,,,07ed82a5879033d8ab175a13
北京市房山区燕山迎风街41号,房山区,北京市,1,39.729713,115.959774,中国工商银行24小时自助银行服务(北京燕山迎风街),北京市,,,fa636e20609d96873ce231c1
北京市房山区北大街1,房山区,北京市,1,39.709032,115.991267,中国工商银行24小时自助银行(城关储蓄所),北京市,,,923ffd00dfbd8db7d92f28fd
城关镇南关大街6号,房山区,北京市,1,39.700684,115.991457,中国工商银行24小时自助银行服务(南关外储蓄所),北京市,,,b9a570386f55f42bf8dc85f1
北京市通州区中关村科技园通州园·光机电一体化产业基地经海七路1号,通州区,北京市,1,39.81679,116.56282,中国工商银行(光机电支行),北京市,6eb37f7924a7c5800ab93a46,,6eb37f7924a7c5800ab93a46
北京市通州区兴华南街408-410号,通州区,北京市,1,39.758086,116.550778,中国工商银行(北京马驹桥支行),北京市,14f6df28a1913cbfc4f025f2,"(010)56916401,(010)56916410",14f6df28a1913cbfc4f025f2
北京市通州区物资学院路西富河园5号天赐良园小区,通州区,北京市,1,39.932311,116.645461,中国工商银行(北京物资学院支行),北京市,5feb25fce8b9d1a0d03ce381,(010)80544608,5feb25fce8b9d1a0d03ce381
北京市通州区九棵树西路76号life新生活广场F1层,通州区,北京市,1,39.895901,116.663523,中国工商银行(北京九棵树支行),北京市,d82d6697ef08dfa5d518b7ca,"(010)81519067,(010)60523393",d82d6697ef08dfa5d518b7ca
北京市通州区永顺镇潞苑中路潞苑南里3号院4号楼,通州区,北京市,1,39.936095,116.685982,中国工商银行(北京永顺潞苑支行),北京市,ffa0bc89086393db4c6d467a,(010)89511632,1ee54ef66aaa56c6be4842a5
北京市通州区云景东路16-7、16-8号通州网通内,通州区,北京市,1,39.887072,116.673344,中国工商银行(北京梨园支行),北京市,dfc496b69424e1af8936ee16,(010)81522434,dfc496b69424e1af8936ee16
北京市通州区小堡村南3号院1号楼1层,通州区,北京市,1,39.95008,116.730071,中国工商银行(北京宋庄支行),北京市,,(010)60572158,32b7c9ae27de32ee88db730b
北京市通州区车站路32号,通州区,北京市,1,39.911489,116.66912,中国工商银行(北京中仓支行),北京市,c7eca12b59ced437e115f916,(010)69542779,c7eca12b59ced437e115f916
北京市通州区杨庄南里丙66号楼,通州区,北京市,1,39.89978,116.638994,中国工商银行(北京通朝支行),北京市,f778708502014edeab175a0d,"(010)52975498,(010)52975499",f778708502014edeab175a0d
北京市通州区故城东路56号(西上园一区9、13号),通州区,北京市,1,39.912176,116.683371,中国工商银行(北京运河迎宾支行),北京市,9f97b1c5bbdfab78b74f54a7,(010)60562203,9f97b1c5bbdfab78b74f54a7
北京市通州区北苑杨庄1号院8号配套楼一层,通州区,北京市,1,39.908237,116.644299,中国工商银行(北京北苑站支行),北京市,59f94b913a95079cd0ff236f,(010)80574776,59f94b913a95079cd0ff236f
北京市通州区张家湾镇张凤路北京安娜贝儿妇产医院北侧,通州区,北京市,1,39.862273,116.727826,中国工商银行(北京张家湾支行),北京市,422a6c50981a9fdc8d55ec58,(010)61503360,422a6c50981a9fdc8d55ec58
北京市通州区通胡大街68号,通州区,北京市,1,39.92158,116.700745,中国工商银行(北京武夷花园支行),北京市,122311916bd21d434251c00b,(010)89523047,122311916bd21d434251c00b
北京市通州区新华南路133号,通州区,北京市,1,39.905828,116.663275,中国工商银行(北京新城潞河支行),北京市,4fc3161a9ac82dd73b13fd81,"(010)69544228,(010)80884710",4fc3161a9ac82dd73b13fd81
通州区永顺南街270号,通州区,北京市,1,39.919613,116.651281,中国工商银行(北京永顺南街支行),北京市,42c49959220bd6eb01294f7e,(010)80548824,7aea43b74c51f0fb7c29bdca
北京市通州区梨园镇九棵树西路188号,通州区,北京市,1,39.879273,116.64586,中国工商银行(北京通马路支行),北京市,5d53dfe6ef9eac7b81288a2b,(010)61581158,5d53dfe6ef9eac7b81288a2b
北京市通州区新华西街47号,通州区,北京市,1,39.914102,116.656935,中国工商银行(北京通州支行现金中心),北京市,963b8bd0bcbef7d124e0a05a,,963b8bd0bcbef7d124e0a05a
北京市通州区潞通大街191号,通州区,北京市,1,39.912573,116.70457,中国工商银行(北京通州潞通大街支行),北京市,,(010)89537729,95094b32a5d40d42b55f1eb8
北京市通州区新华西街47号,通州区,北京市,1,39.914009,116.656584,中国工商银行(北京通州支行新华分理处),北京市,4b8eefe9369547f62afc4862,"(010)69542672,(010)69542280",4b8eefe9369547f62afc4862
聚富苑民族工业区聚富南路8号,通州区,北京市,1,39.675911,116.712624,中国工商银行ATM,北京市,,,3c7ccc69929b2d0fe856fa2b
北京市通州区永顺南街141号263医院,通州区,北京市,1,39.920716,116.653926,中国工商银行ATM(永顺南街),北京市,4098485fca5d88c8c6effb9b,,4098485fca5d88c8c6effb9b
徐宋路附近,通州区,北京市,1,39.950087,116.730135,中国工商银行24小时自助银行,北京市,,,700acc2a4e9b3f166849f38a
玉带河东街与紫运中路交叉口西100米,通州区,北京市,1,39.912484,116.7045,中国工商银行24小时自助银行,北京市,,,01eb5e052f16a74a83a00c1f
北京市通州区永顺南街270号,通州区,北京市,1,39.919429,116.651247,中国工商银行24小时自助银行服务,北京市,a8630a19bb2cb5c2fbdc8539,,a8630a19bb2cb5c2fbdc8539
北京市通州区云景东路1号贵友大厦1楼,通州区,北京市,1,39.889921,116.672866,中国工商银行ATM(贵友百货通州店),北京市,47d12c4840eeba296fc02cb2,,47d12c4840eeba296fc02cb2
北京市通州区杨庄路101号,通州区,北京市,1,39.90523,116.638188,中国工商银行24小时自助银行(杨庄路),北京市,28278c794cd56f6d8415412b,,28278c794cd56f6d8415412b
西集镇高速路执法大队,通州区,北京市,1,39.806347,116.910409,中国工商银行离行式自助服务区(北京分行通州支行西集执法大队),北京市,,,1800529c2805586f626858f5
新华西街47号,通州区,北京市,1,39.913772,116.657034,中国工商银行网点自助服务区(北京分行通州支行新华分理处),北京市,ed0c06a9d2420e9e43afe648,,ed0c06a9d2420e9e43afe648
北京市通州区北苑杨庄1号院8号配套楼一层,通州区,北京市,1,39.908058,116.644399,中国工商银行24小时自助银行(北京北苑站支行),北京市,ac06f5f01fdba7c828d7abea,,ac06f5f01fdba7c828d7abea
运河东大街58号(易初莲花超市1层),通州区,北京市,1,39.89727,116.695352,中国工商银行24小时自助银行(运河西大街),北京市,e532d84c29b7ed0a1fe99943,,e532d84c29b7ed0a1fe99943
世纪星城兴业园综合楼D段,通州区,北京市,1,39.899503,116.639145,中国工商银行附行式自助银行(北京分行通州支行通朝支行),北京市,60bc522054459db583a00c39,,60bc522054459db583a00c39
梨园镇东总屯1号综合楼太阳花酒店,通州区,北京市,1,39.89543,116.659899,中国工商银行离行式自助服务区(北京分行通州支行太阳花酒店),北京市,7c39e908c92d92e64d554727,,7c39e908c92d92e64d554727
云景东路贵友大厦通州店,通州区,北京市,1,39.890157,116.673278,中国工商银行离行式自助银行(北京分行通州支行贵友大厦C类),北京市,9033bca6ace5b87d16a1909d,,9033bca6ace5b87d16a1909d
北京市通州区光机电一体化产业基地光联工业园联东商务中心,通州区,北京市,1,39.816716,116.562596,中国工商银行24小时自助银行(光机电支行),北京市,92b806d2877e82fe79b55c1d,,92b806d2877e82fe79b55c1d
新华东街122,通州区,北京市,1,39.914356,116.676416,中国工商银行24小时自助银行(闸桥储蓄所),北京市,30ef648764a95d43da2f28ca,,30ef648764a95d43da2f28ca
北京市通州区新华东街306号,通州区,北京市,1,39.912128,116.683306,中国工商银行24小时自助银行(北京运河迎宾支行),北京市,2fd2beabbcd7f12c7bdbd2b8,,2fd2beabbcd7f12c7bdbd2b8
新华南路潞河医院(住院部一楼大厅),通州区,北京市,1,39.906991,116.666538,中国工商银行离行式自助服务区(北京分行通州支行潞河医院),北京市,567bac78a3c5b99117948e04,,567bac78a3c5b99117948e04
北京市通州区云景东路16-7-8号,通州区,北京市,1,39.887177,116.673286,中国工商银行附行式自助银行(北京分行通州支行梨园支行),北京市,c825358d087e6e15f4b916aa,,c825358d087e6e15f4b916aa
北京市通州区云景东路18号梨园电信局,通州区,北京市,1,39.887039,116.673288,中国工商银行24小时自助银行(北京梨园支行),北京市,43b7e88991cb456a58f6be16,,43b7e88991cb456a58f6be16
大稿村南通州区卷烟厂,通州区,北京市,1,39.870062,116.642318,中国工商银行离行式自助服务区(北京分行通州支行通州区卷烟厂),北京市,d164fd2b13449c1352e5c541,,d164fd2b13449c1352e5c541
北京市通州区Y721(三仓路),通州区,北京市,1,39.813251,116.705956,中国工商银行离行式自助服务区(北京分行通州支行三间房机场),北京市,,,7d7f843e5ba47edbbfa822f2
北京市通州区兴华南街408号,通州区,北京市,1,39.758136,116.550889,中国工商银行24小时自助银行(北京马驹桥支行),北京市,a4c4fddddf064966e6e96511,,a4c4fddddf064966e6e96511
北京市通州区谷德玛特购物广场1层,通州区,北京市,1,39.94974,116.735774,中国工商银行ATM(北京分行通州支行谷德玛特营业点),北京市,,,a28ee4780782f9eeeddfca19
北京市通州区杨庄南里丙66号楼,通州区,北京市,1,39.899666,116.638883,中国工商银行24小时自助银行(北京通朝支行),北京市,ca9ecdea9c519c04aeee7ab5,,ca9ecdea9c519c04aeee7ab5
翠屏西路116号中医医院,通州区,北京市,1,39.890813,116.650437,中国工商银行离行式自助服务区(北京分行通州支行中医医院),北京市,bedc9aebe15bc0fe99005054,,bedc9aebe15bc0fe99005054
张家湾镇镇政府大街南侧100米,通州区,北京市,1,39.862129,116.727838,中国工商银行24小时自助银行服务(北京通州东方分理处),北京市,ea4a3dc98372762e4e554711,,ea4a3dc98372762e4e554711
通胡大街68号,通州区,北京市,1,39.921573,116.700517,中国工商银行24小时自助银行服务(北京分行通州支行武夷花园支行),北京市,,,4e1ce7fbed15b3f17dc87650
北京市通州区永顺镇潞苑南里3号院4号楼一层,通州区,北京市,1,39.936135,116.686147,中国工商银行24小时自助银行(北京分行通州支行永顺潞苑支行),北京市,ffd9bf26ac9c95db4e2fdf17,,ffd9bf26ac9c95db4e2fdf17
新华西街47号,通州区,北京市,1,39.913893,116.657075,中国工商银行24小时自助银行(北京分行通州支行新华分理处),北京市,,,d952080d98946a662bd7ab13
玉带河东街447号(原东里储蓄所),通州区,北京市,1,39.906375,116.671767,中国工商银行24小时自助银行服务(北京分行通州支行玉带东街),北京市,2da441a0edbacd14441a3271,,2da441a0edbacd14441a3271
北京市通州区新华南路133号,通州区,北京市,1,39.905932,116.663335,中国工商银行24小时自助银行(北京分行通州支行新城潞河支行),北京市,,,a06daa3d4ed4f5bcacee7a66
西富河园5号,通州区,北京市,1,39.93236,116.645502,中国工商银行24小时自助银行服务(北京分行通州支行物资学院支行),北京市,bb10b9872de5c1bbdf1e5246,,bb10b9872de5c1bbdf1e5246
北京市通州区梨园北街67、69号一层,通州区,北京市,1,39.892851,116.685231,中国工商银行24小时自助银行服务(北京分行通州支行玉桥支行),北京市,,,4632ef1307fa6a989e95de2d
北京市通州区九棵树西路76号,通州区,北京市,1,39.896182,116.663667,中国工商银行24小时自助银行服务(北京分行通州支行九棵树支行),北京市,d61034421508b24172455b3e,,d61034421508b24172455b3e
北京市通州区梨园镇九棵树西路188号,通州区,北京市,1,39.87936,116.645248,中国工商银行24小时自助银行(北京京洲花园支行),北京市,7970c553434b806632870a5d,,881a28e72a7e0347f942b216
北京市顺义区裕龙一区路,顺义区,北京市,1,40.129164,116.675998,中国工商银行,北京市,c100f13e2a87c335c4f50d17,,c100f13e2a87c335c4f50d17
北京市顺义区空港工业区B区裕安路22号(蓝山国际大厦A座第1-2层),顺义区,北京市,1,40.106157,116.55122,中国工商银行(北京裕民支行),北京市,9bd9bcf6646c38a4a20464b1,"(010)80495028,(010)80495615,(010)80495903",9bd9bcf6646c38a4a20464b1
北京市顺义区仁和镇前景路前进花园石门苑甲13号楼,顺义区,北京市,1,40.136618,116.641295,中国工商银行(北京宏城支行),北京市,251a7a8dced11be5bea2408a,,251a7a8dced11be5bea2408a
北京市顺义区双裕东区23号楼首层,顺义区,北京市,1,40.112889,116.559951,中国工商银行(北京双裕支行),北京市,4ea3f2f102e4ddaaafcb6681,(010)80481625,4ea3f2f102e4ddaaafcb6681
北京市顺义区大东路绿港家园四区12号楼,顺义区,北京市,1,40.141848,116.668923,中国工商银行(北京绿港支行),北京市,72aa251397edf647067ce8bc,"(010)81487193,(010)81487192",72aa251397edf647067ce8bc
北京市顺义区府前一街39号,顺义区,北京市,1,40.068245,116.577597,中国工商银行(顺义天竺支行),北京市,be54cde9efdcf15879f7968a,"(010)80464710,(010)80486311",be54cde9efdcf15879f7968a
北京市近郊顺义区建新东街6号(小公园对面),顺义区,北京市,1,40.128384,116.658896,中国工商银行(自动柜员机店),北京市,783d62752eb0acf6d81318a6,,783d62752eb0acf6d81318a6
北京市顺义区首都机场二纬路9号,顺义区,北京市,1,40.05273,116.625428,中国工商银行(顺义空港支行),北京市,52f60d6b73b7457ac26c148b,"(010)64588933,(010)64588832",52f60d6b73b7457ac26c148b
北京市顺义区一经路北京首都国际机场3号航站楼C区二层国内达到处,顺义区,北京市,1,40.060967,116.62026,中国工商银行(新航站楼支行),北京市,69435f26306868f003ff2d9e,(010)64532568,69435f26306868f003ff2d9e
西门外西辛北区5号,顺义区,北京市,1,40.144203,116.64876,中国工商银行(北京西门外支行),北京市,005861088e9d8aa646e27411,"(010)81490443,(010)69421821",005861088e9d8aa646e27411
顺义区牛富路隆华购物中心吉利隆便利店东南侧100米,顺义区,北京市,1,40.214548,116.66074,中国工商银行(北京牛栏山支行),北京市,08fc93df22ef1d919a68b4b5,(010)69411085,08fc93df22ef1d919a68b4b5
北京市顺义区幸福东区19号楼,顺义区,北京市,1,40.141023,116.663955,中国工商银行(北京幸福西街支行),北京市,,"(010)69423395,(010)69466542",56279cef2c5560bc2902e19b
裕龙二街裕龙花园四区25号楼,顺义区,北京市,1,40.12653,116.676871,中国工商银行(北京裕龙支行),北京市,96b672aac137b175cf04efbc,"(010)89400389,(010)89400383,(010)89400387",96b672aac137b175cf04efbc
北京市顺义区站前东街9号水产大楼一层大厅,顺义区,北京市,1,40.13247,116.660089,中国工商银行(顺义中山街支行),北京市,cb9f9c0403d7b272f703b849,"(010)69429120,(010)69423168",cb9f9c0403d7b272f703b849
北京市顺义区东方太阳城内商业街3号,顺义区,北京市,1,40.092656,116.725996,中国工商银行(北京东方太阳城支行),北京市,,,56ee2baef16f0fea4302451e
首都机场四纬路9号首都机场四纬路9号,顺义区,北京市,1,40.052865,116.625505,中国工商银行-24小时自助银行(空港支行),北京市,b3c286fce33f675881288ae1,,b3c286fce33f675881288ae1
北京市顺义区仓上街1号,顺义区,北京市,1,40.118769,116.664109,中国工商银行(北京顺义支行营业部),北京市,34f68ab038e0530a8e55ecbc,"(010)69466578,(010)69438980",34f68ab038e0530a8e55ecbc
香花畦家园甲1号楼香花畦家园甲1号楼,顺义区,北京市,1,40.115418,116.556654,中国工商银行离行式自助银行(北京分行顺义支行香花畦家园甲1号),北京市,acbfe8bd6eb66ee0ca2915cc,,acbfe8bd6eb66ee0ca2915cc
北京市顺义区三山新新家园四区3-5,顺义区,北京市,1,40.103725,116.543603,中国工商银行24小时自助银行(裕安路),北京市,9b09f272cdc94d760a69d9ad,,9b09f272cdc94d760a69d9ad
南彩镇顺平辅路39号瑞麟湾酒店1层,顺义区,北京市,1,40.148516,116.744439,中国工商银行24小时自助银行,北京市,,,b933340c6963f149e115f9b0
北京市顺义区安华街会展誉景底商,顺义区,北京市,1,40.086606,116.546659,中国工商银行24小时自助银行,北京市,,,ae5cccd5dcc2a0fcd518b7f1
北京市首都国际机场3号航站楼Ｔ3Ａ二层公共区到达大厅西侧,顺义区,北京市,1,40.061061,116.623193,中国工商银行ATM(3号航站楼),北京市,8f29496c9c8d7563932ca387,,8f29496c9c8d7563932ca387
北京市顺义区北京分行顺义支行双裕东区23号,顺义区,北京市,1,40.112956,116.559957,中国工商银行24小时自助银行,北京市,,,efd3ea12d457d68d744ff149
北京市顺义区安泰大街9号中粮·祥云小镇F1,顺义区,北京市,1,40.095682,116.542989,中国工商银行ATM(中粮·祥云小镇),北京市,24a613c03de1c4c3ad04579c,,24a613c03de1c4c3ad04579c
北京市顺义区幸福东区19号楼,顺义区,北京市,1,40.140872,116.663954,中国工商银行24小时自助银行(幸福西街储蓄所),北京市,7535dd05bf4585bf25e0a05e,,7535dd05bf4585bf25e0a05e
北京市顺义区空港工业区B区裕安路22号蓝山国际大厦A座第1、2层,顺义区,北京市,1,40.106219,116.551132,中国工商银行网点自助服务区(北京分行顺义支行空港工业区B区裕安路22号蓝山国际大厦A座.),北京市,,,03e8c743fa75ed8a83a00c48
北京市顺义区首都机场,顺义区,北京市,1,40.070831,116.570189,中国工商银行离行式自助服务区(北京分行望京支行国航大厦),北京市,,,93f14fcca0708d27a1a93435
北京市顺义区东方太阳城内商业街3号,顺义区,北京市,1,40.092702,116.725898,中国工商银行24小时自助银行(东方太阳城支行),北京市,,,886acbb51c525ec3b020a843
北京市顺义区裕龙花园四区33号楼,顺义区,北京市,1,40.129111,116.676136,中国工商银行24小时自助银行服务(北京裕龙支行),北京市,236dae6e6223600a08f5ebe6,,236dae6e6223600a08f5ebe6
仓上街1号仓上街1号,顺义区,北京市,1,40.118671,116.664063,中国工商银行24小时自助银行(北京顺义支行),北京市,d305db1f21f1fa3e922ca3bc,,d305db1f21f1fa3e922ca3bc
天竺空港工业区A区B地块(国航办公楼)天竺空港工业区A区B地块,顺义区,北京市,1,40.070523,116.567802,中国工商银行离行式自助服务区(北京分行顺义支行天竺空港工业区A区),北京市,492d443798c363cc6e20b9f9,,492d443798c363cc6e20b9f9
天竺镇府前一街39号,顺义区,北京市,1,40.068178,116.577495,中国工商银行24小时自助银行(北京天竺支行),北京市,25ec69fcef528a03c26c1412,,25ec69fcef528a03c26c1412
东方太阳城万晴园101号万晴园101号,顺义区,北京市,1,40.093704,116.728795,中国工商银行网点自助服务区(北京分行顺义支行东方太阳城万晴园101号),北京市,,,b9866b037380db0cc9291564
近郊牛栏山镇医院南路2号,顺义区,北京市,1,40.214569,116.66064,中国工商银行24小时自助银行(牛栏山分理处),北京市,befdb292898686e1861541b4,,befdb292898686e1861541b4
裕龙４区25楼1门101裕龙４区25楼1门101,顺义区,北京市,1,40.126454,116.67739,中国工商银行网点自助服务区(北京分行顺义支行裕龙4区25楼),北京市,,,1941476545ff006b5e0d0239
北京市顺义区怡馨家园39,顺义区,北京市,1,40.124895,116.651852,中国工商银行24小时自助银行(怡馨家园43号楼南),北京市,3837f76706e50f4a8d77275c,,e4ad93474558b800601809c5
仓上街1号仓上街1号,顺义区,北京市,1,40.118573,116.664075,中国工商银行附行式自助银行(北京分行顺义支行支行),北京市,c38b5f8fcd0ec22f83a00c16,,c38b5f8fcd0ec22f83a00c16
绿港家园四区12号楼一层绿港家园四区12号楼一层,顺义区,北京市,1,40.14165,116.668864,中国工商银行24小时自助银行服务(北京分行顺义支行绿港家园12号),北京市,88f3ead093072d2b25d2bbab,,88f3ead093072d2b25d2bbab
站前东街9号水产大楼1层,顺义区,北京市,1,40.132372,116.660023,中国工商银行24小时自助银行(中山街支行),北京市,306dfc1ccd6f194aeddfcaa1,,306dfc1ccd6f194aeddfcaa1
西辛北区5号楼(卧龙公寓对面),顺义区,北京市,1,40.144099,116.648533,中国工商银行24小时自助银行服务(北京西门外支行),北京市,cde9e2c783a49fcae81e975f,,cde9e2c783a49fcae81e975f
北京市顺义区前进花园石门苑甲13号楼,顺义区,北京市,1,40.136447,116.641165,中国工商银行24小时自助银行服务(附行式),北京市,4fcaffd92e6b3250be4842e0,,4fcaffd92e6b3250be4842e0
石园北区甲7号楼石园北区甲7号楼,顺义区,北京市,1,40.118446,116.674883,中国工商银行24小时自助银行服务(北京分行顺义支行石园北区甲7号),北京市,a91a6ea34b59dc9c6d20b927,,a91a6ea34b59dc9c6d20b927
北京市顺义区天竺空港工业区A区天竺西路16号国航信息大楼,顺义区,北京市,1,40.082875,116.565664,中国工商银行24小时自助银行(北京分行望京支行国航信息大楼),北京市,01d2dde1dd8dc621ad080faf,,01d2dde1dd8dc621ad080faf
北京市昌平区鼓楼南大街9号昌平地税局对面,昌平区,北京市,1,40.227638,116.23975,中国工商银行(北京城关支行),北京市,a3f21eeea0d589442fb17e0d,"(010)69746156,(010)69719542",a3f21eeea0d589442fb17e0d
北京市昌平区回龙观镇回龙观西大街冠庭园10号楼1-C号和2-C号,昌平区,北京市,1,40.08122,116.324922,中国工商银行(北京回龙观西区支行),北京市,25ec69fc595e547dc26c1463,"(010)81746307,(010)81746291,(010)81746302",25ec69fc595e547dc26c1463
北京市昌平区回龙观西大街,昌平区,北京市,1,40.083579,116.336253,中国工商银行(港龙商业中心店),北京市,701ee342e477b395bda240e6,,701ee342e477b395bda240e6
北京市昌平区回龙观东大街天龙苑25号楼,昌平区,北京市,1,40.086953,116.361581,中国工商银行(北京回龙观支行),北京市,6171f5cbd4a42361cb213d54,(010)80756705,6171f5cbd4a42361cb213d54
回龙观文化居住区风雅园一区(近回龙观公园),昌平区,北京市,1,40.09051,116.328583,中国工商银行(风雅园储蓄所),北京市,9eabe85fe0931c6500ff2dab,(010)81717104,9eabe85fe0931c6500ff2dab
北京市昌平区巩华城大街58号,昌平区,北京市,1,40.132182,116.274507,中国工商银行(北京沙河支行),北京市,606289fd112a374da204641b,(010)69735742,606289fd112a374da204641b
北京市昌平区北七家镇立汤路58号1幢1层,昌平区,北京市,1,40.12339,116.421051,中国工商银行(北京北七家支行),北京市,bce0449cd3243c7858109373,"(010)80147593,(010)80147563",bce0449cd3243c7858109373
东小口镇中东路398号,昌平区,北京市,1,40.072972,116.420479,中国工商银行(北京天通苑西区支行),北京市,5ffb1816cf771a226f476058,(010)84821191,5ffb1816cf771a226f476058
北京市昌平区府学路福地家园7号楼07号1-2层,昌平区,北京市,1,40.22727,116.26327,中国工商银行(北京府学路支行),北京市,e6ee2fd28932834b2b11d105,(010)69744410,e6ee2fd28932834b2b11d105
北京市昌平区昌平路西三旗桥北金燕龙大厦1层102室,昌平区,北京市,1,40.067382,116.332901,中国工商银行(北京西三旗支行),北京市,c7fb04bdb5659768fa0cadda,"(010)62716429,(010)62719924",c7fb04bdb5659768fa0cadda
北京市昌平区北七家镇天通苑东三区2号楼27-28门,昌平区,北京市,1,40.082031,116.44544,中国工商银行(北京天通苑东区支行),北京市,e01fbd56375c7acd770269d5,"(010)80141011,(010)80141003",e01fbd56375c7acd770269d5
南口镇南大街,昌平区,北京市,1,40.240631,116.129631,中国工商银行(北京南口支行),北京市,0523a141743a4a1db23c8116,"(010)69776403,(010)69776402",0523a141743a4a1db23c8116
北京市昌平区回龙观镇黄平路19号院泰华龙旗广场3号楼一层,昌平区,北京市,1,40.07261,116.352942,中国工商银行(北京龙泽支行),北京市,0179dad9f924669611882434,,0179dad9f924669611882434
北京市昌平区小汤山镇中心街,昌平区,北京市,1,40.182447,116.405585,中国工商银行(北京小汤山支行),北京市,0e3d6d17b914a7311f38949b,"(010)61782370,(010)61782369,(010)61785877",0e3d6d17b914a7311f38949b
昌平区鼓楼西街35号首层,昌平区,北京市,1,40.230257,116.237054,中国工商银行(北京西街汇富支行),北京市,89fd4ea339640744e5e96508,"(010)69707494,(010)69742596",89fd4ea339640744e5e96508
北京市昌平区超前路9号中关村科技园区昌平园,昌平区,北京市,1,40.210179,116.244805,中国工商银行(北京昌平支行营业室),北京市,e3a7fd13d461db5228b97c0d,"(010)69725447,(010)69743245",e3a7fd13d461db5228b97c0d
北京市昌平区朱辛庄北农路(华北电力大学),昌平区,北京市,1,40.099131,116.319429,中国工商银行24小时自助银行(北农路),北京市,52d3b14ddd18372414c8f603,,52d3b14ddd18372414c8f603
南厂住宅中区11,昌平区,北京市,1,40.249612,116.132159,中国工商银行ATM,北京市,92b806d220455b8079b55c26,,92b806d220455b8079b55c26
北京市昌平区北龙路7号东50米,昌平区,北京市,1,40.097332,116.31328,中国工商银行24小时自助银行,北京市,,,b00b5ab3be58816be812e43d
北京市昌平区回龙观镇天龙苑25号楼1单元102室,昌平区,北京市,1,40.086767,116.361449,中国工商银行24小时自助银行服务(北京回龙观支行),北京市,da9b8387f72f1c529de32146,,da9b8387f72f1c529de32146
商校路北京服装学院北校区(东门)附近,昌平区,北京市,1,40.15427,116.434087,中国工商银行ATM(商校路),北京市,060f5e53f53cc2a9091cc7b5,,060f5e53f53cc2a9091cc7b5
北京市昌平区府学路27号中国政法大学(近梅二宿舍楼),昌平区,北京市,1,40.227313,116.252878,中国工商银行24小时自助银行(府学路),北京市,93df0dc314304155892fb582,,93df0dc314304155892fb582
北京市昌平区和谐家园二区西门,昌平区,北京市,1,40.08834,116.364921,中国工商银行24小时自助银行(科星西路),北京市,6bf8361540e4a5def6e73b1c,,6bf8361540e4a5def6e73b1c
北京市昌平区回龙观西大街18号,昌平区,北京市,1,40.083552,116.336086,中国工商银行24小时自助银行(北京回龙观中区支行),北京市,f8d8eb69648668e8c8213dca,,f8d8eb69648668e8c8213dca
北京市昌平区水库路21号中石化会议中心大堂,昌平区,北京市,1,40.249937,116.269627,中国工商银行24小时自助银行,北京市,,,bf8f50eff876f3be931fc9d6
北京市昌平区鼓楼南大街9号,昌平区,北京市,1,40.227707,116.23977,中国工商银行24小时自助银行服务(城关支行),北京市,6113ef77a69c7e148e77270d,,6113ef77a69c7e148e77270d
北京市昌平区中国工商银行(温南路北),昌平区,北京市,1,40.240634,116.129696,中国工商银行24小时自助银行服务(南口支行),北京市,,,42c3241bd9853d15911fc956
北京市昌平区科技园区超前路9号,昌平区,北京市,1,40.21018,116.244804,中国工商银行ATM(昌平支行营业部),北京市,5508504dff802acbc7f0250d,,5508504dff802acbc7f0250d
北京市昌平区立汤路186号龙德紫金商场1层,昌平区,北京市,1,40.067883,116.421512,中国工商银行24小时自助银行服务,北京市,5c3ec6b40117b8fb1894c6a2,,5c3ec6b40117b8fb1894c6a2
府学路福地家园7号楼07号1-2层,昌平区,北京市,1,40.227317,116.263348,中国工商银行24小时自助银行(北京府学路支行),北京市,22e11407287926b4d5b74e09,,22e11407287926b4d5b74e09
北京市昌平区中央财经大学沙河校区内,昌平区,北京市,1,40.177283,116.287368,中国工商银行24小时自助银行(大洼),北京市,,,0adce3e2e8a4221f81a00ca6
北京市昌平区黄平路19号龙旗购物中心1F层,昌平区,北京市,1,40.07261,116.352989,中国工商银行24小时自助银行(文华路),北京市,a9562edece4c89a34e55474b,,a9562edece4c89a34e55474b
小汤山0,昌平区,北京市,1,40.183144,116.399209,中国工商银行离行式自助服务区(北京分行昌平支行小汤山),北京市,,,a68d80de905887b1ad080f6f
北京市昌平区沙顺路临85号,昌平区,北京市,1,40.182382,116.405779,中国工商银行24小时自助银行服务(北京小汤山支行),北京市,fa01e9374475be4b774ff11d,,fa01e9374475be4b774ff11d
"昌平区冠庭园10号楼1-1-C,2-2-C",昌平区,北京市,1,40.081253,116.324367,中国工商银行网点自助服务区(北京分行昌平支行昌平区冠庭园),北京市,76330dc4d11935ffb35c6a29,,76330dc4d11935ffb35c6a29
天通苑东三区,昌平区,北京市,1,40.081013,116.444172,中国工商银行附行式自助银行(北京分行昌平支行天通苑东三区),北京市,446fcb48ba8d9b5800ff2de1,,446fcb48ba8d9b5800ff2de1
北京市昌平区沙河巩华大街58,昌平区,北京市,1,40.132396,116.274524,中国工商银行网点自助服务区(北京分行昌平支行沙河巩华大街),北京市,,,ffe07abb04b388e55fd4fe4e
北京市昌平区回龙观镇金燕龙大厦一层102室,昌平区,北京市,1,40.067314,116.332798,中国工商银行24小时自助银行(北京西三旗支行),北京市,96b672aadab4de08ce04ef34,,96b672aadab4de08ce04ef34
北七家镇天通苑东三区2号楼27-28门,昌平区,北京市,1,40.082093,116.44548,中国工商银行24小时自助银行(北京天通苑东区支行),北京市,af361b99e03c654ba2a93405,,af361b99e03c654ba2a93405
北京市昌平区鼓楼西街35号首层,昌平区,北京市,1,40.230161,116.23734,中国工商银行24小时自助银行(西街汇富支行),北京市,bcf904edbe93230196031948,,bcf904edbe93230196031948
南环东路21号,昌平区,北京市,1,40.220004,116.240636,中国工商银行24小时自助银行(泽杰丽景西),北京市,a4bd54ccb4a89e3d095cb336,,a4bd54ccb4a89e3d095cb336
北七家镇立汤路58,昌平区,北京市,1,40.123381,116.421097,中国工商银行24小时自助银行服务(北京分行昌平支行北七家镇立汤路),北京市,5ff810454af264c3ae31e524,,5ff810454af264c3ae31e524
风雅园一区18,昌平区,北京市,1,40.090528,116.328732,中国工商银行24小时自助银行(北京分行昌平支行风雅园一区),北京市,004a7c3619cfd8f2fe0eb0f3,,004a7c3619cfd8f2fe0eb0f3
东小口镇天通苑五区F1层,昌平区,北京市,1,40.072973,116.420479,中国工商银行24小时自助银行(天通苑西区支行),北京市,b3aa435d426e860b1576431c,,b3aa435d426e860b1576431c
建材城西路65号,昌平区,北京市,1,40.06455,116.343342,中国工商银行24小时自助银行服务(建材城西路),北京市,5ad0926c52376af69de32133,,5ad0926c52376af69de32133
西环路18-15号,昌平区,北京市,1,40.231951,116.233665,中国工商银行24小时自助银行(西街汇富支行),北京市,c17dcf79f9f4367b081cc7c1,,c17dcf79f9f4367b081cc7c1
北京市大兴区经济技术开发区宏达北路12号创新大厦A座一层,大兴区,北京市,1,39.806933,116.514787,中国工商银行(北京经济技术开发区宏达北路支行),北京市,,,6ae6b003d6bbe9a3fe0eb077
北京市大兴区西红门镇欣旺大街133-139号,大兴区,北京市,1,39.79707,116.344964,中国工商银行(北京西红门支行),北京市,6ea8c426bb4180fd83288ab7,(010)60243175,6ea8c426bb4180fd83288ab7
北京市大兴区乐园路22号院37号楼,大兴区,北京市,1,39.769935,116.319484,中国工商银行(北京兴盛街支行),北京市,2928560c84cce4328a2fb510,(010)80225846,2928560c84cce4328a2fb510
北京经济技术开发区荣华中路10号商业1层104单元,大兴区,北京市,1,39.80836,116.509893,中国工商银行(北京荣华中路支行),北京市,4901e8fc6631a7de8a36ee25,(010)57780027,4901e8fc6631a7de8a36ee25
北京市大兴区天宝中街天宝园三里101号楼,大兴区,北京市,1,39.800616,116.499536,中国工商银行(北京金地格林小镇支行),北京市,e56bf5e305aa7a440682c29c,(010)67863149,e56bf5e305aa7a440682c29c
北京市大兴区文化园西路8号,大兴区,北京市,1,39.808595,116.497576,中国工商银行(北京北环西路支行),北京市,69ddb423b5431b4fd23ce3d3,(010)67902915,69ddb423b5431b4fd23ce3d3
"北京市经济技术开发区天宝园五里一区22号楼A5,A6号一层",大兴区,北京市,1,39.796811,116.503733,中国工商银行(北京经济技术开发区天宝园支行),北京市,af1ae56b4fe779124307c19c,(010)67829272,af1ae56b4fe779124307c19c
大兴区旧宫商业街80号,大兴区,北京市,1,39.811008,116.453457,中国工商银行(北京红星支行),北京市,f5e3bcae07fc3fc15f17c39c,,f5e3bcae07fc3fc15f17c39c
北京市大兴区旧宫镇南大红门路菊源里菊园商厦1层,大兴区,北京市,1,39.793773,116.427878,中国工商银行(北京万源路支行),北京市,5e53af1a5e6f305f4051c09c,(010)67985837,5e53af1a5e6f305f4051c09c
北京市大兴区兴丰大街15号星城商厦F1,大兴区,北京市,1,39.736677,116.345729,中国工商银行(北京兴丰街支行),北京市,e56bf5e3065d7b440782c2ed,(010)69220838,e56bf5e3065d7b440782c2ed
北京市大兴区兴旺大街永华南里9号楼,大兴区,北京市,1,39.729887,116.336015,中国工商银行(北京永华南里支行),北京市,6b484b1e548093ccf942b2a9,(010)89292501,6b484b1e548093ccf942b2a9
北京市大兴区黄村镇丽园路枣园小区40号楼3号、4号门店,大兴区,北京市,1,39.75611,116.330979,中国工商银行(北京丽园路支行),北京市,4873a53bb1dcf99b4151c02d,(010)69255571,4873a53bb1dcf99b4151c02d
黄村镇富强西路121号,大兴区,北京市,1,39.743467,116.335263,中国工商银行(北京清澄名苑支行),北京市,b32739a03332b1d5cf06a48b,"(010)69249335,(010)69249773",b32739a03332b1d5cf06a48b
北京市大兴区黄村镇富强路2号1层105室,大兴区,北京市,1,39.742845,116.349746,中国工商银行(北京龙河路支行),北京市,5c6a91f6c9bb3803e9f85385,(010)81297319,5c6a91f6c9bb3803e9f85385
北京市大兴区黄村兴丰北大街二段140号,大兴区,北京市,1,39.749204,116.346211,中国工商银行(北京体育场支行),北京市,be1cfd70b8b526abc16c140f,"(010)69242622,(010)69295675",be1cfd70b8b526abc16c140f
福顺街北京新机场建设指挥部,大兴区,北京市,1,39.528902,116.333339,中国工商银行(北京新航城支行),北京市,,,09289eccfccfa6a06fc02c44
北京市大兴区黄村镇黄村西大街165号,大兴区,北京市,1,39.737065,116.330674,中国工商银行(北京黄村西大街支行),北京市,2fa69b6b02d5a990c72ba1d0,(010)69249440,2fa69b6b02d5a990c72ba1d0
北京市大兴区金苑路3号,大兴区,北京市,1,39.765061,116.353165,中国工商银行(北京大兴经济开发区支行),北京市,3a0a78bdcd3f7b87631809d7,"(010)61273922,(010)61273676",3a0a78bdcd3f7b87631809d7
北京经济技术开发区荣昌东街甲5号A座101单元,大兴区,北京市,1,39.78989,116.530969,中国工商银行(北京经济技术开发区支行营业室),北京市,fa58c98d00465fd1f423105b,(010)87856960,fa58c98d00465fd1f423105b
北京市大兴区兴丰北大街二段140号,大兴区,北京市,1,39.749386,116.346281,中国工商银行24小时自助银行服务(北京龙河路支行),北京市,d24e48eb1bd57acaafee7a12,,d24e48eb1bd57acaafee7a12
宏达北路12号,大兴区,北京市,1,39.806781,116.51476,中国工商银行24小时自助银行服务,北京市,d5464cf8a1468d57fca77898,,d5464cf8a1468d57fca77898
北京市大兴区黄村镇兴政街24号大兴区政府,大兴区,北京市,1,39.73224,116.34722,中国工商银行(北京大兴支行营业部),北京市,f77c94a1e9b8b72afb22135f,,f77c94a1e9b8b72afb22135f
北京市大兴区欣宁街15号北京荟聚中心F1,大兴区,北京市,1,39.79424,116.331842,中国工商银行ATM,北京市,,,9b40e06e590137d65c17c354
北京市大兴区博兴六路中房生活广场1层,大兴区,北京市,1,39.770881,116.515643,中国工商银行24小时自助银行(凉水河二街),北京市,9e787ca38f36272d2802e124,,9e787ca38f36272d2802e124
北京经济技术开发区荣昌东街甲5号隆盛大厦A座,大兴区,北京市,1,39.789899,116.530961,中国工商银行24小时自助银行(北京经济技术开发区支),北京市,d5e92149a393a180354aaeb0,,d5e92149a393a180354aaeb0
北京市大兴区康庄路9号4号楼2-502附近,大兴区,北京市,1,39.763962,116.343718,中国工商银行ATM(康庄路),北京市,,,08325a3a1e104a164c3a596e
北京市经济技术开发区经海二路36号,大兴区,北京市,1,39.809092,116.540515,中国工商银行离行式自助服务区(北京分行经济技术开发区支行经海二路),北京市,40abf9a0c1c8c112d13ce3ea,,40abf9a0c1c8c112d13ce3ea
北京市大兴区欣宁街15号北京荟聚购物中心F1,大兴区,北京市,1,39.79232,116.332526,中国工商银行24小时自助银行,北京市,cea76d1cf9922946a10464cc,,cea76d1cf9922946a10464cc
黄村兴政街24号,大兴区,北京市,1,39.732214,116.347146,中国工商银行ATM(北京大兴支行),北京市,6ed3083ae94631c92b3a9f23,,6ed3083ae94631c92b3a9f23
北京市大兴区兴盛街,大兴区,北京市,1,39.763553,116.32379,中国工商银行24小时自助银行(兴盛街),北京市,ef3584b2dbcb216513293551,,ef3584b2dbcb216513293551
北京市大兴区观音寺街7号,大兴区,北京市,1,39.736838,116.355017,中国工商银行24小时自助银行(老街),北京市,66724438d2f6eb1333169bd5,,66724438d2f6eb1333169bd5
经济开发区金苑路32号,大兴区,北京市,1,39.76489,116.369487,中国工商银行24小时自助银行(金苑路),北京市,6c42a5a54fa9ab8640e19275,,6c42a5a54fa9ab8640e19275
北京市大兴区天利路6附近,大兴区,北京市,1,39.67612,116.333146,中国工商银行24小时自助银行(天利路),北京市,,,a861222ac450ecca8b36ee4b
北京市大兴区金地·格林小镇101号楼,大兴区,北京市,1,39.800589,116.49963,中国工商银行网点自助服务区(北京分行经济技术开发区支行金地格林小镇支行),北京市,,,21e855e7aa2b43703586f40e
北京市大兴区兴业大街26号,大兴区,北京市,1,39.743466,116.33177,中国工商银行离行式自助银行(北京分行大兴支行人寿保险公司),北京市,5cefbd930706d82221f01739,,5cefbd930706d82221f01739
北京市大兴区黄村金星西路8号院大兴区人民法院,大兴区,北京市,1,39.768349,116.335639,中国工商银行离行式自助银行(北京分行大兴支行大兴法院),北京市,a0b22081df491582cac3dba8,,a0b22081df491582cac3dba8
地铁四号线大兴段义和庄站,大兴区,北京市,1,39.718951,116.325993,中国工商银行离行式自助银行(北京分行大兴支行地铁四号线义和庄站),北京市,3a5917923171fb7229201a50,,3a5917923171fb7229201a50
天宝园五里一区22,大兴区,北京市,1,39.796737,116.503999,中国工商银行24小时自助银行(天宝园支行),北京市,f792407f74e49c37b35c6ab0,,f792407f74e49c37b35c6ab0
地铁四号线大兴段清源路站,大兴区,北京市,1,39.748427,116.339043,中国工商银行离行式自助银行(北京分行大兴支行地铁四号线清源路站),北京市,f1ce8666d5b2da8f9fec2ba4,,f1ce8666d5b2da8f9fec2ba4
北京市大兴区黄村东大街火神庙国际商业中心Ｂ座B1层,大兴区,北京市,1,39.737865,116.351249,中国工商银行24小时自助银行(黄村镇储蓄所),北京市,1e554b2dd2003862e6e9659c,,1e554b2dd2003862e6e9659c
北京经济技术开发区荣华南路15号中航技广场10号楼格兰云天国际酒店,大兴区,北京市,1,39.78584,116.524363,中国工商银行离行式自助服务区(北京分行经济技术开发区支行),北京市,7df955def60e4d89c51e512f,,7df955def60e4d89c51e512f
北京市大兴区旧宫镇商业街80号,大兴区,北京市,1,39.811101,116.45371,中国工商银行24小时自助银行(北京红星支行),北京市,6fddd7fdfdd7e97f3417dc9c,,6fddd7fdfdd7e97f3417dc9c
黄村西大街165号,大兴区,北京市,1,39.737069,116.330608,中国工商银行24小时自助银行(北京黄村第三储蓄所),北京市,925c550fbe4121cc5a3ac827,,925c550fbe4121cc5a3ac827
兴丰大街二段72号,大兴区,北京市,1,39.756127,116.34574,中国工商银行24小时自助银行(滨河西里储蓄所),北京市,5261f90ee32cfa039de321ea,,5261f90ee32cfa039de321ea
兴丰大街三段223号,大兴区,北京市,1,39.729096,116.345957,中国工商银行24小时自助银行(黄村第一储蓄所),北京市,e1d9ab3ef7e9b44c0bf5eb40,,e1d9ab3ef7e9b44c0bf5eb40
康庄路8号,大兴区,北京市,1,39.763283,116.339614,中国工商银行离行式自助服务区(北京分行大兴支行康庄路),北京市,,,51bead629edfced6901fc96c
地铁四号线大兴段高米店南站里面,大兴区,北京市,1,39.769183,116.338435,中国工商银行离行式自助服务区(北京分行大兴支行地铁四号线高米店南站),北京市,f8a21eb4bf400f11b5f42f68,,f8a21eb4bf400f11b5f42f68
经济技术开发区荣华中路10号商业1层104单元,大兴区,北京市,1,39.808413,116.509771,中国工商银行24小时自助银行(北京荣华中路支行),北京市,dbfa25f5686f294bea56fa51,,dbfa25f5686f294bea56fa51
文化园西路8号院32号楼一层104,大兴区,北京市,1,39.808632,116.497483,中国工商银行24小时自助银行服务(北京分行经济技术开发区支行北环西路支行),北京市,,,fafaaae5be860f02afee7af1
旧宫镇菊源里菊园商厦一层,大兴区,北京市,1,39.79374,116.427943,中国工商银行24小时自助银行服务(北京分行方庄支行万源路支行),北京市,f57d8925952c2ae37269d36c,,f57d8925952c2ae37269d36c
大兴区欣旺北大街135号,大兴区,北京市,1,39.797148,116.345008,中国工商银行24小时自助银行(北京西红门支行),北京市,e2c734e489f5d15d15a190e4,,e2c734e489f5d15d15a190e4
富强路2号,大兴区,北京市,1,39.743154,116.349807,中国工商银行24小时自助银行(北京分行大兴支行龙河路),北京市,c756c42d60df981933169b38,,c756c42d60df981933169b38
北京市大兴区经济开发区金苑路3号,大兴区,北京市,1,39.764946,116.353093,中国工商银行24小时自助银行服务(北京分行大兴支行开发区),北京市,c65afce1af0b8c17f2193793,,c65afce1af0b8c17f2193793
北京市大兴区兴旺大街永华南里9号楼,大兴区,北京市,1,39.729881,116.335935,中国工商银行24小时自助银行(北京永华南里支行),北京市,,,8cb35c896086b6260bccdde1
：北京市大兴区黄村镇丽园路枣园小区40号楼3号、4号门店,大兴区,北京市,1,39.756095,116.331183,中国工商银行24小时自助银行服务(清源北路),北京市,dfc496b6219f72ac8836eea9,,dfc496b6219f72ac8836eea9
北京市大兴区黄村镇富强路121号,大兴区,北京市,1,39.743467,116.335334,中国工商银行24小时自助银行服务(清澄名苑支行),北京市,e00ae3484f416da3b020a8fd,,5ce2637d29f9d151ae31e5ed
兴丰大街三段22号,大兴区,北京市,1,39.746777,116.346246,中国工商银行24小时自助银行(富强东里储蓄所),北京市,98089afb741b27d48bfc0612,,98089afb741b27d48bfc0612
北京市怀柔区滨湖小区甲2二兴益北侧,怀柔区,北京市,1,40.332193,116.644134,中国工商银行(北京北苑支行),北京市,af1ae56b2042166f4207c13e,(010)69648416,af1ae56b2042166f4207c13e
北京市怀柔区北大街1号,怀柔区,北京市,1,40.34223,116.649919,中国工商银行(雁栖分理处),北京市,0292f4bab12cbc5ef4b9164c,(010)89685362,0292f4bab12cbc5ef4b9164c
北京市怀柔区青春路南华园二区18号楼,怀柔区,北京市,1,40.3161,116.638085,中国工商银行(怀柔南华支行),北京市,,(010)69649077,2f8d80d7e58cc84cf8dc853b
北京市怀柔区青春路甲68号,怀柔区,北京市,1,40.335059,116.637252,中国工商银行(北京青春路支行),北京市,e0301d6fcc111e2c246e98f9,(010)69644957,e0301d6fcc111e2c246e98f9
北京市怀柔区雁栖镇八一路1号,怀柔区,北京市,1,40.362847,116.669678,中国工商银行(北京雁栖经济开发区支行),北京市,,(010)61641286,c7fb04bdd3d4f915fa0cad6e
南华园2区18号楼,怀柔区,北京市,1,40.318536,116.644231,中国工商银行24小时自助银行,北京市,,,efee64678cc8031a5cbe8699
东关二区6号望怀华庭酒店1层,怀柔区,北京市,1,40.316273,116.648708,中国工商银行ATM(望怀华庭酒店),北京市,802ba0f6a2f90062abf72924,,802ba0f6a2f90062abf72924
北大街1号,怀柔区,北京市,1,40.342129,116.649815,中国工商银行24小时自助银行(雁栖分理处),北京市,d61546193fb5a14a2ce67b04,,d61546193fb5a14a2ce67b04
北京市怀柔区美泉商街丙803,怀柔区,北京市,1,40.374067,116.680024,中国工商银行24小时自助银行(怀辅路北),北京市,003fa35055f9df3cf8221327,,003fa35055f9df3cf8221327
北京市怀柔区南华园二区18号楼,怀柔区,北京市,1,40.316121,116.637926,中国工商银行24小时自助银行(北京南华支行),北京市,f539485891c34ff57f29bde3,,f539485891c34ff57f29bde3
北京市怀柔区滨湖小区甲2号,怀柔区,北京市,1,40.33225,116.643687,中国工商银行24小时自助银行(北京北苑支行),北京市,89318cf43ebedf674e5547af,,89318cf43ebedf674e5547af
北京市怀柔区青春路七院1号楼与2号楼之间,怀柔区,北京市,1,40.326297,116.637159,中国工商银行24小时自助银行(青春路支行),北京市,4d64599ba19a5aca2afc4850,,4d64599ba19a5aca2afc4850
北京市怀柔区商业街23号,怀柔区,北京市,1,40.32118,116.63802,中国工商银行(北京怀柔支行营业部),北京市,5508504dfe612bcbc7f02572,"(010)69644211,(010)69644100,(010)69642388",5508504dfe612bcbc7f02572
近郊府前街14号楼京北大世界楼内(政府对面麦当劳东),怀柔区,北京市,1,40.32112,116.637842,中国工商银行24小时自助银行(怀柔支行营业部),北京市,c8f9feb473461d2df7e73b4a,,c8f9feb473461d2df7e73b4a
滨湖小区甲2,怀柔区,北京市,1,40.335003,116.637061,中国工商银行24小时自助银行服务(北京北苑支行),北京市,14e6558f4aeb132c3517dc88,,14e6558f4aeb132c3517dc88
怀柔区府前街府前街2号,怀柔区,北京市,1,40.322324,116.643277,中国工商银行24小时自助银行服务(北京分行怀柔支行东大街府前街),北京市,e07d0980098f284d4c6d464d,,e07d0980098f284d4c6d464d
雁栖镇八一路1号,怀柔区,北京市,1,40.36282,116.669905,中国工商银行24小时自助银行(北京雁栖湖经济开发区支行),北京市,74705c8a564a301db6f42f51,,74705c8a564a301db6f42f51
府前西街14号,平谷区,北京市,1,40.145851,117.114027,中国工商银行(平谷支行营业部),北京市,04bdf4a37d16ad32354aaedd,,04bdf4a37d16ad32354aaedd
新平北路金乡嘉园2号,平谷区,北京市,1,40.152332,117.118746,中国工商银行(北京金乡支行),北京市,fa835ce2e6fee9c8e812e418,(010)69962613,fa835ce2e6fee9c8e812e418
平谷区林荫北街3号,平谷区,北京市,1,40.150941,117.111185,中国工商银行-24小时自助银行,北京市,3d689455b398e0b34354d773,,3d689455b398e0b34354d773
北京市平谷区新平北路5号院6号楼,平谷区,北京市,1,40.152833,117.136984,中国工商银行(北京新平东路支行),北京市,d991e116b18d08551f3894c8,(010)69974070,d991e116b18d08551f3894c8
北京市平谷区新平北路南侧K栋小区配套商业楼1层8-11,平谷区,北京市,1,40.15139,117.108663,中国工商银行(北京新平北路支行),北京市,3bcb62283f60c5c2734b8786,(010)69961307,3bcb62283f60c5c2734b8786
北京市平谷区文化南街11号,平谷区,北京市,1,40.142663,117.117913,中国工商银行(北京文化南街支行),北京市,9f97b1c5193f4906b64f54c9,(010)69962114,9f97b1c5193f4906b64f54c9
北京市平谷区马坊物流基地东区276号,平谷区,北京市,1,40.093053,117.022369,中国工商银行(北京马坊物流园区支行),北京市,10dfc4c233112a4f621c67b6,(010)61990105,10dfc4c233112a4f621c67b6
北京市平谷区金乡居民西小区甲30-5号,平谷区,北京市,1,40.15601,117.114018,中国工商银行(北京兴谷开发区支行),北京市,efec7bb6dd248dbe9b68b4a8,(010)69967642,efec7bb6dd248dbe9b68b4a8
北京市平谷区西环南路７－１号,平谷区,北京市,1,40.14237,117.102416,中国工商银行(北京滨河工业区支行),北京市,bff8fa7d72499eddc8213d3e,(010)69935305,bff8fa7d72499eddc8213d3e
北一路与纵三路交叉口东南150米,平谷区,北京市,1,40.131687,117.205292,中国工商银行ATM(北一路),北京市,,,d52728e8c93a115d8b2fb559
平谷北街27号,平谷区,北京市,1,40.168856,117.131534,中国工商银行24小时自助银行(平谷北街),北京市,491a26ab033f48b8b75f1ed6,,491a26ab033f48b8b75f1ed6
北京市平谷区西环南路7-1号,平谷区,北京市,1,40.142537,117.102373,中国工商银行ATM(北京滨河工业区支行),北京市,a3f21eeea09189442fb17ec9,,a3f21eeea09189442fb17ec9
金海湖镇韩庄北街3号,平谷区,北京市,1,40.193789,117.299071,中国工商银行ATM(北京市教工休养院),北京市,,,d121ccd4be3daa755bf6be52
文化南街9号-7,平谷区,北京市,1,40.142886,117.117946,中国工商银行附行式自助银行(北京分行平谷支行文化南街9号-7),北京市,86baf2ecc0bc5b80c17da2dc,,86baf2ecc0bc5b80c17da2dc
康乐街东北口金乡西小区甲30号-5,平谷区,北京市,1,40.156122,117.114102,中国工商银行24小时自助银行(北京兴谷开发区支行),北京市,9b0d69f360a138dbf42310dd,,9b0d69f360a138dbf42310dd
文化南街11号(平谷三中南100米),平谷区,北京市,1,40.142648,117.117949,中国工商银行24小时自助银行(文化南街储蓄所),北京市,e3a7fd13d425db5228b97cc9,,e3a7fd13d425db5228b97cc9
紫贵庄园9号,平谷区,北京市,1,40.15136,117.108997,中国工商银行24小时自助银行(北京新平北路支行),北京市,,,8dd36607562974977bf7968a
新平北路5号院6号,平谷区,北京市,1,40.152879,117.137319,中国工商银行24小时自助银行(北京新平东路支行),北京市,7f3fdf0f21e11e76ab175acd,,7f3fdf0f21e11e76ab175acd
密三路马坊物流基地东区276号,平谷区,北京市,1,40.092986,117.02242,中国工商银行自助银行(北京分行平谷支行密三路马坊物流基地东区276号马坊物流园区支行),北京市,01af42b468c852454251c0a8,,01af42b468c852454251c0a8
密三路0,平谷区,北京市,1,40.040137,117.017695,中国工商银行离行式自助服务区(北京分行平谷支行密三路马坊高速检查站),北京市,,,3c9aecf640fecefb931fc98e
府前西街14号,平谷区,北京市,1,40.146121,117.114004,中国工商银行24小时自助银行(北京平谷支行),北京市,,,72b588c174ceb44e3be4a6e0
新平北路金乡嘉园2号,平谷区,北京市,1,40.152434,117.118772,中国工商银行24小时自助银行服务(北京分行平谷支行新平北路金乡嘉园2号),北京市,8fa9e22ea898abb9d2f49e52,,8fa9e22ea898abb9d2f49e52
北京市密云区新中街15号,密云区,北京市,1,40.390813,116.858661,中国工商银行(密云车站路支行),北京市,e8a42cf989471a0a32621203,"(010)69044449,(010)69043451",e8a42cf989471a0a32621203
北京市密云区花园路16号院5-8号,密云区,北京市,1,40.374733,116.864344,中国工商银行(北京阳光街支行),北京市,d41728f5e77edcdd04026f21,(010)61094025,d41728f5e77edcdd04026f21
北京市密云区新东路273号附近,密云区,北京市,1,40.384771,116.864913,中国工商银行(密云新东路支行),北京市,,,89011b3d2e73c32543afe663
北京市密云区新东路花园小区1号,密云区,北京市,1,40.381913,116.864649,中国工商银行(北京新东路支行),北京市,cc788fde04dc2e8a89fc0690,(010)69045440,cc788fde04dc2e8a89fc0690
北京市密云区新西路6号云光1层,密云区,北京市,1,40.383072,116.84019,中国工商银行(北京公园街支行),北京市,cf0ca62efdb302d24354d75a,"(010)69065047,(010)69045439,(010)69064947",cf0ca62efdb302d24354d75a
北京市密云区西大桥路19-2,密云区,北京市,1,40.372204,116.825731,中国工商银行(北京密云开发区支行),北京市,79cceb360e13ad891f580090,"(010)89096356,(010)89096303",79cceb360e13ad891f580090
北京市密云区鼓楼南大街,密云区,北京市,1,40.379302,116.851712,中国工商银行(密云支行营业部),北京市,850815e19ef17d9843e19233,"(010)69044447,(010)69041424",850815e19ef17d9843e19233
北京市密云区利民街25号,密云区,北京市,1,40.297767,116.772853,中国工商银行ATM,北京市,,,d75c0b405474964404fef51c
密云区新中街甲2号,密云区,北京市,1,40.390721,116.85882,中国工商银行24小时自助银行服务,北京市,9979aa20dcc15dc5260bd022,,9979aa20dcc15dc5260bd022
新东路277号(东门老城墙),密云区,北京市,1,40.384828,116.864955,中国工商银行24小时自助银行(新东路),北京市,37d60a46e811111e1f1d11bd,,37d60a46e811111e1f1d11bd
东源路31号,密云区,北京市,1,40.387335,116.859005,中国工商银行24小时自助银行(东源路),北京市,5a287598f95390e13f9a5ee4,,5a287598f95390e13f9a5ee4
密云区鼓楼东大街2号,密云区,北京市,1,40.381986,116.864686,中国工商银行24小时自助银行(新东路),北京市,26b45526aad83538fb2d612d,,26b45526aad83538fb2d612d
西大桥路19号,密云区,北京市,1,40.372279,116.825952,中国工商银行24小时自助银行服务(北京密云开发区支行),北京市,d0b8923f5910b9e2b4f42f90,,d0b8923f5910b9e2b4f42f90
密云区公安局出入境护照办事大厅,密云区,北京市,1,40.389311,116.833449,中国工商银行离行式自助服务区(北京分行密云区公安局出入境护照办事大厅),北京市,c2e63f73e9c2fc9f41d63e0a,,c2e63f73e9c2fc9f41d63e0a
密云金地来大酒店,密云区,北京市,1,40.375538,116.857189,中国工商银行离行式自助服务区(北京分行密云区金地来大酒店),北京市,2a38f3d4b09bdfc4471a32c1,,2a38f3d4b09bdfc4471a32c1
鑫海韵通百货密云店,密云区,北京市,1,40.38162,116.854911,中国工商银行离行式自助服务区(北京分行密云区鑫海韵通),北京市,276c3d8701a3aabd0b1cc79a,,276c3d8701a3aabd0b1cc79a
万都(北京)汽车底盘系统有限公司(北京市密云区云西七街15号南1门),密云区,北京市,1,40.365374,116.760715,中国工商银行离行式自助服务区(北京分行密云区万都（北京）汽车底盘系统有限公司),北京市,858f3567965dd1f32b201a53,,858f3567965dd1f32b201a53
古北口司马台综合检查站,密云区,北京市,1,40.641665,117.261375,中国工商银行离行式自助服务区(北京分行密云区古北口司马台综合检查站),北京市,,,ed39aa1982cadf8643ab9aa7
密云区医院(阳光街337号),密云区,北京市,1,40.379567,116.8754,中国工商银行离行式自助服务区(北京分行密云区医院),北京市,f860e73d5bfd6f403310af06,,f860e73d5bfd6f403310af06
超市发檀西店(密云区檀西路东侧长城环岛北),密云区,北京市,1,40.387573,116.872613,中国工商银行离行式自助服务区(北京分行密云区超市发檀西店),北京市,50cfaf5900752be42b02e1bd,,50cfaf5900752be42b02e1bd
物美大卖场鼓楼店(鼓楼南街1号),密云区,北京市,1,40.381031,116.85199,中国工商银行离行式自助服务区(北京分行密云区物美大卖场鼓楼店),北京市,536e9c3aadb38d0908f5eb48,,536e9c3aadb38d0908f5eb48
"北京市密云区花园路16号院5号楼5-7,5-8",密云区,北京市,1,40.37472,116.864485,中国工商银行24小时自助银行(北京阳光街支行),北京市,ae0e66aa8dffe9c6eddfcaa1,,ae0e66aa8dffe9c6eddfcaa1
鼓楼南大街7号,密云区,北京市,1,40.379406,116.851776,中国工商银行24小时自助银行服务(北京分行密云支行),北京市,080cf8b9adbb89ddc9e33c82,,080cf8b9adbb89ddc9e33c82
北京市延庆区妫水南路18号院附近,延庆区,北京市,1,40.454373,115.99045,中国工商银行,北京市,,,93bad171ff183a46ad080ff9
延庆东街28号,延庆区,北京市,1,40.464336,115.978817,中国工商银行(北京延庆东街支行),北京市,93eac41c72e34ca8704b87e8,(010)69141789,93eac41c72e34ca8704b87e8
新兴小区0,延庆区,北京市,1,40.474333,115.993971,中国工商银行(自动柜员机店),北京市,5508504dfead2bcbc7f02526,,5508504dfead2bcbc7f02526
北京市延庆区延庆东街甲1号,延庆区,北京市,1,40.465022,115.981584,中国工商银行(延庆支行营业部),北京市,cd9d05ddfbe1feb685420e26,"(010)69141145,(010)69141391",cd9d05ddfbe1feb685420e26
北京市延庆区兴隆北街73号,延庆区,北京市,1,40.379908,115.907757,中国工商银行ATM(兴隆北街),北京市,b292b3aa79e1be56be484224,,b292b3aa79e1be56be484224
北京市延庆区,延庆区,北京市,1,40.464293,115.978511,中国工商银行ATM(延庆支行),北京市,52c95782480df8cea3acc403,,52c95782480df8cea3acc403
辉煌假日酒店,延庆区,北京市,1,40.48249,115.821723,中国工商银行离行式自助服务区(北京分行延庆支行北京辉煌益镜房地产开发有限公司辉煌假日酒店),北京市,,,a5597db9aa1d04bba4c7569b
白河堡0,延庆区,北京市,1,40.660961,116.17156,中国工商银行离行式自助服务区(北京分行延庆支行白河堡综合检查站),北京市,1ad2b4442cdf8c052a02e11d,,1ad2b4442cdf8c052a02e11d
苏庄村0,延庆区,北京市,1,40.515632,116.023499,中国工商银行离行式自助服务区(北京分行延庆支行苏庄村百果园度假村),北京市,decb12a4609aa2b50aa8d413,,decb12a4609aa2b50aa8d413
北京市延庆区税务局,延庆区,北京市,1,40.47893,115.996085,中国工商银行自助银行(北京市延庆区税务局C类),北京市,05a400546b5eb40d3904b125,,05a400546b5eb40d3904b125
北京市延庆区妫水南街18号,延庆区,北京市,1,40.454522,115.990347,中国工商银行24小时自助银行(妫水南街),北京市,b9e5d0b8d120dac280a12ebc,,b9e5d0b8d120dac280a12ebc
西康综合检查站0,延庆区,北京市,1,40.364066,115.90151,中国工商银行离行式自助服务区(北京分行延庆支行西康综合检查站),北京市,,,cccdca4437949dbebbbd63e9
延庆区甲1号,延庆区,北京市,1,40.464976,115.981783,中国工商银行24小时自助银行服务(北京分行延庆支行),北京市,,,904f4776d12e99a12811d17d
妫水北街15号,延庆区,北京市,1,40.468198,115.983924,中国工商银行24小时自助银行(北京延庆妫水北街支行),北京市,c7eca12b312b0c49e115f970,,c7eca12b312b0c49e115f970
川北小区5号楼,延庆区,北京市,1,40.469364,115.990207,中国工商银行24小时自助银行服务(北京分行延庆支行川北小区5号楼),北京市,,,71dbcbc175eeef64373a71bb
