address,area,city,detail,lat,lng,name,province,street_id,telephone,uid
北京市东城区建国门内大街69号,东城区,北京市,1,39.915342,116.426216,中国农业银行(总行),北京市,8599d63558a5a4392dfaa703,95599,8599d63558a5a4392dfaa703
朝阳门北大街13号,东城区,北京市,1,39.935785,116.439222,中国农业银行(北京市分行),北京市,d45be3778d313efc2d473303,(010)61127068,d45be3778d313efc2d473303
北京市东城区朝阳门内大街8号一层112号,东城区,北京市,1,39.930075,116.436869,中国农业银行(北京朝阳门支行),北京市,3996f7d6f0678c6476e5b6a8,(010)57929167,3996f7d6f0678c6476e5b6a8
北京市东城区安定门东大街28号雍和大厦东座一二层,东城区,北京市,1,39.955098,116.427525,中国农业银行(雍和支行),北京市,09185c564033885df11937ff,"(010)84046520,(010)84046458",09185c564033885df11937ff
北京市东城区安定门外大街190号(海南大厦一层),东城区,北京市,1,39.960631,116.414986,中国农业银行(青年湖支行),北京市,5c56edd6e004c85aa1d230ff,(010)64262519,5c56edd6e004c85aa1d230ff
北京市东城区东四北大街329号,东城区,北京市,1,39.935316,116.423512,中国农业银行(北京东四北支行),北京市,c21db9e5775d568300ff2dff,(010)64015010,c21db9e5775d568300ff2dff
北京市东城区崇文门外大街18号国瑞购物中心F1,东城区,北京市,1,39.905316,116.425879,中国农业银行(北京崇文门支行),北京市,242403a5b9b2041ded74f82c,(010)67183306,242403a5b9b2041ded74f82c
北京市东城区交道口东大街10号楼,东城区,北京市,1,39.94651,116.415657,中国农业银行(北京交道口支行),北京市,edd64ce1a70398913fe231ff,(010)64074868,edd64ce1a70398913fe231ff
北京市东城区和平里东街6区8号,东城区,北京市,1,39.962335,116.431311,中国农业银行(北京和平里东街支行),北京市,4ce10ce6f6c806a1441a32ff,(010)84224823,4ce10ce6f6c806a1441a32ff
北京市朝阳门北大街13号,东城区,北京市,1,39.935728,116.439737,中国农业银行24小时自助银行(北京市分行营业部),北京市,40b24ff63ae969b4d518b7b5,,40b24ff63ae969b4d518b7b5
北京市东城区金宝街58号华丽大厦,东城区,北京市,1,39.921312,116.431448,中国农业银行(北京东城支行营业部),北京市,3068f7e4540ca86a9222e0d2,(010)65281871,3068f7e4540ca86a9222e0d2
北京市东城区建国门内大街69号,东城区,北京市,1,39.91701,116.424134,中国农业银行(北京东单支行),北京市,7d5f3a0ac984c7362db908a6,(010)65277309,7d5f3a0ac984c7362db908a6
建国门街道建国门内大街乙十八号院2号楼,东城区,北京市,1,39.913599,116.430742,中国农业银行(邮通街),北京市,,,bc60cd076c6875f4a8f7291c
北京市建国门内大街69号4层,东城区,北京市,1,39.915115,116.426305,中国农业银行大厦,北京市,29a1609541b7c32530169b21,,29a1609541b7c32530169b21
北京市东城区和平里东街6区8号,东城区,北京市,1,39.961913,116.433272,中国农业银行ATM(和平里东街),北京市,8b3c2532c467ed779cf779a3,,8b3c2532c467ed779cf779a3
北京市东城区崇文门外大街18号国瑞购物中心B1,东城区,北京市,1,39.904602,116.426825,中国农业银行ATM(国瑞购物中心),北京市,ef2042e0b5c4cc2474026912,,ef2042e0b5c4cc2474026912
北京市东城区建国门内大街69号总行财富中心,东城区,北京市,1,39.915328,116.426054,中国农业银行ATM(建国门内大街),北京市,df0087e9a2747652223bf2e1,,df0087e9a2747652223bf2e1
北京市东城区交道口东大街10号楼,东城区,北京市,1,39.946551,116.415686,中国农业银行24小时自助银行(北京交道口支行),北京市,d4034eb3f5d52ef6c03644fe,,d4034eb3f5d52ef6c03644fe
北京市东城区崇文门外大街18号国瑞购物中心F1,东城区,北京市,1,39.905298,116.425725,中国农业银行24小时自助银行(国瑞购物中心),北京市,93e319afc9e3c02e1e58009b,,93e319afc9e3c02e1e58009b
北京市东城区东单三条5号,东城区,北京市,1,39.91697,116.423978,中国农业银行24小时自助银行(东单支行),北京市,5b96bda580041957d42ce2c4,,5b96bda580041957d42ce2c4
东城区富贵园3区1号楼崇文门支行,东城区,北京市,1,39.900531,116.439997,中国农业银行24小时自助银行服务(北京富贵园分理处),北京市,0603ff0f1707e14c30621293,,0603ff0f1707e14c30621293
北京市东城区珠市口东大街1号新阳商务楼A座崇文营业室,东城区,北京市,1,39.899935,116.423527,中国农业银行24小时自助银行服务(崇文支行营业部),北京市,6622f2b65f4eae990782c2bd,,6f7d8199355ce8cac72ba14a
和平里东街6区8号,东城区,北京市,1,39.962368,116.431378,中国农业银行24小时自助银行(北京和平里东街支行),北京市,b844bdb44fd2188d2b3a9f89,,b844bdb44fd2188d2b3a9f89
北京市东城区安定门东大街28号雍和大厦东座一层,东城区,北京市,1,39.955087,116.427628,中国农业银行24小时自助银行(北京雍和支行),北京市,742a4105ddfc11947f29bdea,,4b863eb34a4f7a44b020a848
北京市东城区金宝街58号华丽大厦,东城区,北京市,1,39.921347,116.431609,中国农业银行24小时自助银行(北京东城支行营业室),北京市,3acaeb80f9917c0daaf7297c,,3acaeb80f9917c0daaf7297c
北京市东城区东四北大街329号,东城区,北京市,1,39.935353,116.423606,中国农业银行24小时自助银行(北京东四北支行),北京市,ffd6d4030f55718f17b54bfe,,ffd6d4030f55718f17b54bfe
北京市东城区青年湖支行安定门外大街190号,东城区,北京市,1,39.960545,116.415078,中国农业银行24小时自助银行(北京青年湖支行),北京市,af1ae56b975ba16c4207c127,,af1ae56b975ba16c4207c127
北京市东城区朝内大街8号一层112,东城区,北京市,1,39.930039,116.436761,中国农业银行24小时自助银行服务(北京朝阳门支行),北京市,9e677f01860cfabc774ff1bf,,9e677f01860cfabc774ff1bf
北京市东城区工人体育场北路新中西街8号亚洲大酒店写字楼,东城区,北京市,1,39.938892,116.445301,中国农业银行24小时自助银行服务(北京工体路支行),北京市,22e114078385ffcad5b74e73,,22e114078385ffcad5b74e73
北京市东城区光明路11号天玉大厦1层,东城区,北京市,1,39.89076,116.44356,中国农业银行24小时自助银行(北京龙潭支行),北京市,d95b40d865903a4f8433048a,,d95b40d865903a4f8433048a
北京市西城区平安里西大街2号,西城区,北京市,1,39.938392,116.379159,中国农业银行(北京平安里支行),北京市,0a46dc0fee87892330621240,(010)66514681,0a46dc0fee87892330621240
"北京市西城区金融街12号,14,16号",西城区,北京市,1,39.924077,116.367523,中国农业银行(北京金融大街支行),北京市,28b9004d9416968861685865,(010)66575323,28b9004d9416968861685865
北京市西城区西草厂街乙56东北70米,西城区,北京市,1,39.89942,116.383234,中国农业银行,北京市,c13359b548509435db1318b6,95599,c13359b548509435db1318b6
北京市西城区德外大街德胜国际中心1层,西城区,北京市,1,39.96073,116.38516,中国农业银行(北京德胜门支行),北京市,80149c1bf23f0c6a07fef5a9,(010)82065649,80149c1bf23f0c6a07fef5a9
北京市西城区西直门内大街118号,西城区,北京市,1,39.946248,116.374373,中国农业银行(北京新街口支行),北京市,6b5fd2f3921edaa8990050c9,(010)66001283,6b5fd2f3921edaa8990050c9
北京市西城区北三环中路23号燕莎盛世大厦1层,西城区,北京市,1,39.975187,116.393476,中国农业银行(北三环支行),北京市,05dd7d5fbfb2bc01ad080f28,(010)82270038,05dd7d5fbfb2bc01ad080f28
北京市西城区南线阁街南线阁41号院2号楼首层,西城区,北京市,1,39.889361,116.359685,中国农业银行(南线阁支行),北京市,637df60ac81a967240afe6e9,,637df60ac81a967240afe6e9
北京市西城区展览馆路甲5号,西城区,北京市,1,39.935198,116.349942,中国农业银行(北京展览路支行),北京市,,,95c9ffc449747aa50c0a70d0
北京市西城区马连道15号院6号楼底商,西城区,北京市,1,39.887042,116.331145,中国农业银行(北京马连道支行),北京市,07f3c8b50ddb691d6340a9ab,(010)52697430,07f3c8b50ddb691d6340a9ab
北京市西城区右安门内大街26号,西城区,北京市,1,39.881321,116.370794,中国农业银行(北京里仁街支行),北京市,15ed53ce66a783549222e0e9,95599,15ed53ce66a783549222e0e9
北京市西城区陶然亭路63号,西城区,北京市,1,39.884963,116.382094,中国农业银行(北京陶然路支行),北京市,9f97b1c519164906b64f54e6,(010)83511141,9f97b1c519164906b64f54e6
北京市西城区金融街丰盛胡同28号,西城区,北京市,1,39.924325,116.372872,中国农业银行(北京金融大街丰盛支行),北京市,10d8595012a2f00afb221361,95599,10d8595012a2f00afb221361
北京市西城区新华里16号院,西城区,北京市,1,39.939484,116.356366,中国农业银行(北京西城支行营业室),北京市,3568e7fcf90603ead1f49e3b,(010)88319777,3568e7fcf90603ead1f49e3b
北京市西城区宣武门外大街甲1号,西城区,北京市,1,39.904722,116.380305,中国农业银行(北京宣武支行营业室),北京市,293d494725cb029cab059d31,95599,293d494725cb029cab059d31
西直门南大街2号成铭大厦,西城区,北京市,1,39.946923,116.363207,中国农业银行ATM,北京市,e6e5cdd52a45fd695cbe86c5,,e6e5cdd52a45fd695cbe86c5
复兴门内大街28号凯晨世贸中心东座F9,西城区,北京市,1,39.912082,116.371912,中国农业银行托管业务部,北京市,76d59aa27f51d6edf219370b,,76d59aa27f51d6edf219370b
北京市西城区裕民路4号北京流芳宾馆,西城区,北京市,1,39.978855,116.396419,中国农业银行ATM(裕民路),北京市,5808124542d73e954d3a59a1,,5808124542d73e954d3a59a1
北京市西城区广安门外大街305号5区1号楼,西城区,北京市,1,39.89774,116.341658,中国农业银行24小时自助银行,北京市,b8b94913e4d117aa7adbd2d3,,b8b94913e4d117aa7adbd2d3
北京市西城区西单北大街133号北京君太百货B1,西城区,北京市,1,39.916079,116.379753,中国农业银行ATM(君太百货),北京市,def5eb20064dc0a41894c6bf,,def5eb20064dc0a41894c6bf
北京市西城区北京市西城区马连道路25号新年华购物中心F2,西城区,北京市,1,39.883107,116.332798,中国农业银行ATM(新年华购物中心),北京市,85c3e00ce85ed9a31811d527,,85c3e00ce85ed9a31811d527
北京市西城区月坛北街2号月坛大厦首层,西城区,北京市,1,39.923807,116.36082,中国农业银行24小时自助银行(月坛大厦支行),北京市,dabcf2f6abed43253904b16a,,dabcf2f6abed43253904b16a
北京市西城区椿树园小区15号楼椿树园储蓄所,西城区,北京市,1,39.904794,116.380497,中国农业银行24小时自助银行(北京宣武支行),北京市,427748a99bf68be5f60e7755,,427748a99bf68be5f60e7755
北京市西城区广安门车站西街1号院1,西城区,北京市,1,39.889242,116.347687,中国农业银行24小时自助银行服务,北京市,f905676210e31fa07dc8768e,,f905676210e31fa07dc8768e
北京市西城区月坛北街甲2号月坛大厦南座,西城区,北京市,1,39.922782,116.360653,中国农业发展银行(总行营业部),北京市,e4b10e776bb684f5704b8713,,e4b10e776bb684f5704b8713
北京市西城区椿树园小区15号楼椿树园储蓄所,西城区,北京市,1,39.899353,116.383251,中国农业银行24小时自助银行(椿树园),北京市,,,f23d4e133b8caa1ed12dd6a7
北京市西城区德外大街83号,西城区,北京市,1,39.960582,116.385131,中国农业银行24小时自助银行(北京德胜门支行),北京市,a2527a112c6d4c22bca2404c,,a2527a112c6d4c22bca2404c
北京市西城区西直门内大街118号,西城区,北京市,1,39.946108,116.374391,中国农业银行24小时自助银行(北京新街口支行),北京市,f9fd60628d106f610f0e6bf2,,f9fd60628d106f610f0e6bf2
北京市西城区天坛路与永安路交叉口南100米,西城区,北京市,1,39.891938,116.404496,中国农业银行24小时自助银行(北京先农坛支行),北京市,,,7d009219ea8a7d66d5b74e8e
北京市西城区右内大街甲26号里仁街支行,西城区,北京市,1,39.881362,116.370844,中国农业银行24小时自助银行服务(北京开阳分理处),北京市,b292b3aa7aa5bf56be4842e8,,b292b3aa7aa5bf56be4842e8
北京市西城区广安门内大街10号,西城区,北京市,1,39.894758,116.378712,中国农业银行24小时自助银行(北京骡马市支行),北京市,ea4a3dc98205772e4e5547e8,,ea4a3dc98205772e4e5547e8
北京市西城区新街口外大街8-4号新外支行,西城区,北京市,1,39.967714,116.377572,中国农业银行24小时自助银行(北京新外支行),北京市,5622bc45654b13c959bbbc36,,5622bc45654b13c959bbbc36
北京市西城区北三环中路23号燕莎盛世大厦1层,西城区,北京市,1,39.97515,116.393536,中国农业银行24小时自助银行(北京北三环支行),北京市,2a7a25ecf84d12636c3e1b33,,2a7a25ecf84d12636c3e1b33
金融大街12-16号中国人寿广场,西城区,北京市,1,39.924134,116.367528,中国农业银行24小时自助银行(北京金融大街支行),北京市,cc2991bc4c0a0bc203ff2d60,,cc2991bc4c0a0bc203ff2d60
北京市西城区太平街8号院6号楼底商,西城区,北京市,1,39.885178,116.394154,中国农业银行24小时自助银行(北京朱雀门分理处),北京市,1bf85b25a30d14daa1a93450,,1bf85b25a30d14daa1a93450
展览馆路5,西城区,北京市,1,39.93526,116.349879,中国农业银行24小时自助银行(北京市分行),北京市,03a167c3591d5a8729fc489f,,03a167c3591d5a8729fc489f
北京市西城区西单北大街110号老佛爷百货F5,西城区,北京市,1,39.920083,116.38107,中国农业银行24小时自助银行(老佛爷百货),北京市,59a357c3e875fe180aa8d4df,,59a357c3e875fe180aa8d4df
北京市西城区陶然亭路63号,西城区,北京市,1,39.885028,116.38213,中国农业银行24小时自助银行服务(北京陶然路支行),北京市,d1469ee7b3864a62843304e6,,d1469ee7b3864a62843304e6
"北京市西城区新华里16号院1,2号楼一,二层",西城区,北京市,1,39.939467,116.356404,中国农业银行24小时自助银行服务(北京西城支行营业室),北京市,6402fcf8a56a54181d58006e,,6402fcf8a56a54181d58006e
北京市西城区马连道路15号院6号楼1层,西城区,北京市,1,39.887041,116.331142,中国农业银行24小时自助银行服务(马连道路),北京市,4eb3b533b3849708430245cd,,4eb3b533b3849708430245cd
北京市西城区广安门外大街甲6号楼,西城区,北京市,1,39.89487,116.351839,中国农业银行24小时自助银行服务(北京广安门外支行),北京市,d0b8923fb14b619cb5f42f50,,d0b8923fb14b619cb5f42f50
北京市西城区南线阁街41-8号,西城区,北京市,1,39.88932,116.359788,中国农业银行24小时自助银行服务(北京南线阁支行),北京市,181653349fec8c7afa2d618c,,181653349fec8c7afa2d618c
北京市西城区车公庄北街6号-8,西城区,北京市,1,39.940043,116.356472,个人信贷金融服务中心,北京市,27e4ce5f93fa1d967069d39c,,27e4ce5f93fa1d967069d39c
北京市西城区燕京北街,西城区,北京市,1,39.884737,116.390251,中信银行24小时自助银行服务,北京市,bdb7567a8ad8ace7276e985e,,bdb7567a8ad8ace7276e985e
北京市朝阳区望京商业街首层A01,朝阳区,北京市,1,40.014711,116.473317,中国农业银行(北京望京支行),北京市,5eca57d48fd9286a9e9d685c,(010)64711745,5eca57d48fd9286a9e9d685c
北京市朝阳区杨闸环岛朗廷大厦1层,朝阳区,北京市,1,39.917008,116.605053,中国农业银行(北京八里桥支行),北京市,53cebd504a6afc602a02e162,,53cebd504a6afc602a02e162
北京市朝阳区新源南路13号琨莎中心东侧,朝阳区,北京市,1,39.953933,116.459226,中国农业银行(北京新源里支行),北京市,e6ee2fd2d682fc362a11d1b6,(010)64675046,e6ee2fd2d682fc362a11d1b6
北京市朝阳区太阳宫南街13号楼1层,朝阳区,北京市,1,39.980271,116.450977,中国农业银行(北京太阳宫支行),北京市,12741f2408eafe8df4b9163b,(010)84150969,12741f2408eafe8df4b9163b
花家地街1号,朝阳区,北京市,1,39.991181,116.476041,中国农业银行(北京将台路支行),北京市,cc788fde05982d8a88fc064c,(010)64722757,cc788fde05982d8a88fc064c
北京市朝阳区麦子店街78号,朝阳区,北京市,1,39.950969,116.478695,中国农业银行(北京康运支行),北京市,78bd50f75112585b31870a4c,"95599,(010)65042614",78bd50f75112585b31870a4c
北京市朝阳区霄云路32号,朝阳区,北京市,1,39.9637,116.470767,中国农业银行(北京三元支行),北京市,3a0a78bdd1a317fa6318094c,(010)64624386,3a0a78bdd1a317fa6318094c
北京市朝阳区惠新东街甲4号富盛大厦2座1层,朝阳区,北京市,1,39.992902,116.431938,中国农业银行(北京惠新里支行),北京市,79cceb360f57ae891e58004c,(010)84637406,79cceb360f57ae891e58004c
北京市朝阳区朝阳北路219号天伦伟业大厦一层及二层,朝阳区,北京市,1,39.929329,116.472553,中国农业银行(北京水碓西里支行),北京市,e3e2cd9d8089bbe3c7f50d4c,(010)85983473,e3e2cd9d8089bbe3c7f50d4c
北京市朝阳区红军营南路辅路,朝阳区,北京市,1,40.03925,116.422294,中国农业银行(北京北苑支行),北京市,,,55290d03c0947d03581093aa
北京市朝阳区宏昌路望京西园二区221号,朝阳区,北京市,1,40.007981,116.479234,中国农业银行(北京望盛园支行),北京市,4edf9fbff0991394cc06a47a,(010)64789601,4edf9fbff0991394cc06a47a
北京市朝阳区光华路4号东方梅地亚中心B座1层,朝阳区,北京市,1,39.918477,116.479887,中国农业银行(北京光华路支行),北京市,1020060f86e305db1894c62f,(010)65822150,1020060f86e305db1894c62f
北京市朝阳区建国门外大街16号东方瑞景1号楼一层,朝阳区,北京市,1,39.912703,116.450084,中国农业银行(北京建国门支行),北京市,fa835ce2bd5630b6e912e4b5,(010)65691646,fa835ce2bd5630b6e912e4b5
北京市朝阳区朝新嘉园东里一区8号底商,朝阳区,北京市,1,39.953857,116.56321,中国农业银行(新城分理处),北京市,601f44e0fdcdf9f4b64f547e,(010)65429382,601f44e0fdcdf9f4b64f547e
北京市朝阳区东坝乡奥林匹克花园运动城,朝阳区,北京市,1,39.966865,116.552316,中国农业银行(奥园分理处),北京市,3c0ea7c5d181d69cfbf0cb43,(010)51079359,3c0ea7c5d181d69cfbf0cb43
北京市朝阳区东三环中路18号院1号楼东环国际大厦,朝阳区,北京市,1,39.902413,116.46895,中国农业银行(北京双井支行),北京市,96b672aac638b275cf04efb5,(010)87751348,96b672aac638b275cf04efb5
北京市朝阳区安苑路11号,朝阳区,北京市,1,39.98981,116.421725,中国农业银行(北京小营支行),北京市,dc0f0adc64b60b21f822134c,(010)64937232,dc0f0adc64b60b21f822134c
北京市朝阳区潘家园南里12号楼,朝阳区,北京市,1,39.877713,116.457323,中国农业银行(潘家园支行),北京市,15e1e85e1fa52da358109362,(010)67758403,15e1e85e1fa52da358109362
北京市朝阳区东苇路9号鑫兆佳园15号楼一层0103号,朝阳区,北京市,1,39.926562,116.596752,中国农业银行(北京常营支行),北京市,11b4a9371faf4956213bf2d8,(010)65762903,11b4a9371faf4956213bf2d8
北京市朝阳区北土城西路11号,朝阳区,北京市,1,39.983398,116.390447,中国农业银行(北京健德支行),北京市,04bdf4a36a2b944e354aae62,(010)62383124,04bdf4a36a2b944e354aae62
北京市朝阳区工人体育场路东2号,朝阳区,北京市,1,39.931406,116.453254,中国农业银行(个人贷款中心),北京市,cc8605e2c086552cfbf0cb7e,95599,cc8605e2c086552cfbf0cb7e
北京市朝阳区定福庄东街1号,朝阳区,北京市,1,39.921355,116.563743,中国农业银行(北京定福庄支行),北京市,4cc52eb2dfac8e51e5e9650f,,4cc52eb2dfac8e51e5e9650f
北京市朝阳区西坝河南里22号,朝阳区,北京市,1,39.969809,116.456135,中国农业银行(北京展览中心支行),北京市,0247bfc305febdb1a8059dd0,95599,1a819566196b904eb54f546c
北京市朝阳区雅成一里10号楼,朝阳区,北京市,1,39.930536,116.530295,中国农业银行(北京朝阳北路支行),北京市,02697fb8769ce8d40b69d9fd,,02697fb8769ce8d40b69d9fd
北京市朝阳区北三环东路甲11号(维特写字楼一层),朝阳区,北京市,1,39.975886,116.431861,中国农业银行(北京和平里支行),北京市,eb3675031161251b00ec014c,,eb3675031161251b00ec014c
北京市朝阳区紫南家园108号楼1层,朝阳区,北京市,1,39.883406,116.503403,中国农业银行(北京紫南家园支行),北京市,091887d11218261ef5e73b87,(010)87355711,091887d11218261ef5e73b87
北京市朝阳区王四营乡官庄村大柳树甲1号,朝阳区,北京市,1,39.880342,116.513887,中国农业银行(北京王四营支行),北京市,c834472b71ff4e9c9f09f77c,(010)67371902,c834472b71ff4e9c9f09f77c
北京市朝阳区劲松南路9号一层及二层部分(兆佳商场东侧),朝阳区,北京市,1,39.887464,116.463037,中国农业银行(北京劲松中街支行),北京市,9e2cea67071ee09943e192f7,"(010)67711961,(010)67717219",9e2cea67071ee09943e192f7
北京市朝阳区东三环弘燕路十号德元九和大厦一层103房间,朝阳区,北京市,1,39.873433,116.46957,中国农业银行(北京十里河支行),北京市,792bcddcd125c26f17c8f644,(010)87922378,792bcddcd125c26f17c8f644
北京市朝阳区慧忠里103号楼洛克时代大厦1层,朝阳区,北京市,1,40.008742,116.413243,中国农业银行(北京洛克时代支行),北京市,eef2d5282d92d6a73be4a67a,(010)84871862,eef2d5282d92d6a73be4a67a
北京市朝阳区育慧西里23号,朝阳区,北京市,1,40.004712,116.430452,中国农业银行(北京小营北路支行),北京市,8f9f4e2320310821d4851f04,(010)64918941,8f9f4e2320310821d4851f04
"北京市朝阳区大屯路科学园南里风林绿洲16,18号",朝阳区,北京市,1,40.007989,116.3924,中国农业银行(北京科学园支行),北京市,244325d61946c44dc9e33ca0,(010)64843391,244325d61946c44dc9e33ca0
北京市朝阳区星火西路17号楼,朝阳区,北京市,1,39.944849,116.507551,中国农业银行(北京姚家园支行),北京市,8d04253c69b66e0eae080ff1,(010)85951260,8d04253c69b66e0eae080ff1
北京市朝阳区青年路西里5号院润枫水尚15号楼05号,朝阳区,北京市,1,39.933588,116.523128,中国农业银行(北京青年路支行),北京市,53e10d72c217dbeff11937b0,"(010)85565856,(010)85565826",53e10d72c217dbeff11937b0
北京市朝阳区安贞里三区23号楼一层,朝阳区,北京市,1,39.976971,116.408859,中国农业银行(北京双北桥支行),北京市,cd9d05ddf90bfcb685420e4c,(010)64412629,cd9d05ddf90bfcb685420e4c
北京市朝阳区百子湾东里415号楼一至二层107至108号,朝阳区,北京市,1,39.899897,116.511546,中国农业银行(北京大郊亭支行),北京市,a5dcdf08731ca63a83a00c09,(010)65866005,a5dcdf08731ca63a83a00c09
北京市朝阳区望京西路53号楼,朝阳区,北京市,1,39.997513,116.463661,中国农业银行(北京南湖中园支行),北京市,536a5bf334fb0189a01de9e3,(010)64790975,536a5bf334fb0189a01de9e3
北京市朝阳区来广营西路5号院5号楼1层102至104号,朝阳区,北京市,1,40.026908,116.472089,中国农业银行(北京来广营支行),北京市,1b90d467db0b47bb9ff77908,(010)64931680,1b90d467db0b47bb9ff77908
北京市朝阳区六里屯西口北里4号,朝阳区,北京市,1,39.937025,116.480374,中国农业银行(北京朝阳路北支行),北京市,412d0299c073175459bbbcd8,,412d0299c073175459bbbcd8
北京市朝阳区日坛北路17号日坛国际贸易中心B座,朝阳区,北京市,1,39.925993,116.449431,中国农业银行(北京朝阳路支行),北京市,435d7aea9698cf4b5bbbbcac,(010)85610115,435d7aea9698cf4b5bbbbcac
北京市朝阳区广渠路38号楼一层西侧,朝阳区,北京市,1,39.89855,116.474601,中国农业银行(北京广渠路支行),北京市,,(010)87529717,bbf13de55bb2fdc2441a32cf
"常营丽景园6号楼1层110-111,2层201-202",朝阳区,北京市,1,39.930295,116.61868,中国农业银行(北京东十里堡支行),北京市,00c6d753d410e8207ab55c0d,,00c6d753d410e8207ab55c0d
北京市朝阳区科荟前街1号院5号楼,朝阳区,北京市,1,40.015549,116.381109,中国农业银行(北京科荟路支行),北京市,cbae1298405e861aa8059d1f,(010)84504147,cbae1298405e861aa8059d1f
北京市朝阳区安定路33号中国化信大厦,朝阳区,北京市,1,39.981501,116.413306,中国农业银行(亚运村支行营业室电费代收点),北京市,ab8f7c44dc72133626e0a02f,95599,ab8f7c44dc72133626e0a02f
北京市朝阳区祥和珠宝古玩城1层,朝阳区,北京市,1,40.062672,116.419569,中国农业银行24小时自助银行服务(万意奥特莱斯西南),北京市,243dea6807cc1a6517c8f67a,,243dea6807cc1a6517c8f67a
北京市朝阳区安定路33号中国化信大厦一层,朝阳区,北京市,1,39.981336,116.413395,中国农业银行(北京亚运村支行营业室),北京市,585d96ecb7cd8fa04c3a5981,(010)64411376,585d96ecb7cd8fa04c3a5981
北京市朝阳区光华路4号东方梅地亚中心A座17层,朝阳区,北京市,1,39.918996,116.479835,中国农业银行(北京市分行中小企业金融服务中心(朝阳),北京市,aadb7a1c01c184938bfc0644,,aadb7a1c01c184938bfc0644
北京市朝阳区望京街9号望京国际商业中心京顺分理处,朝阳区,北京市,1,39.995858,116.489798,中国农业银行ATM(望京街),北京市,,,abe002374ed2d949f82d6140
北京市朝阳区光华路乙1号楼永安里支行,朝阳区,北京市,1,39.919443,116.461664,中国农业银行ATM(光华里乙),北京市,354bf3fe5ca8fe6a4054d742,,354bf3fe5ca8fe6a4054d742
北京市朝阳区曙光西里甲6号2号楼,朝阳区,北京市,1,39.968031,116.457276,中国农业银行ATM(曙光西里甲),北京市,3253ee10c12a0c051df74de0,,3253ee10c12a0c051df74de0
北京市朝阳区潘家园南里19号,朝阳区,北京市,1,39.881422,116.452601,中国农业银行ATM(潘家园南里),北京市,,,2d4c36feee7359a28a36ee01
北京市朝阳区亮马桥路38号加拿大国际学校,朝阳区,北京市,1,39.958589,116.481221,中国农业银行ATM(亮马桥路),北京市,c39eec09aec82072e50738f1,,c39eec09aec82072e50738f1
北京市朝阳区大屯路,朝阳区,北京市,1,40.007947,116.392222,中国农业银行24小时自助银行服务,北京市,,,b6d3a66c30038fc872455be4
北京市朝阳区北辰东路5号中国科学技术馆F1,朝阳区,北京市,1,40.012288,116.404399,中国农业银行ATM(中国科学技术馆),北京市,5fb6d92e2f807b7903ec011f,,5fb6d92e2f807b7903ec011f
北京市朝阳区广渠路金海商富中心A座,朝阳区,北京市,1,39.900733,116.501212,中国农业银行24小时自助银行(广渠路),北京市,027ffd33546e62c1fda7780d,,027ffd33546e62c1fda7780d
北京市朝阳区平乐园100号(北京市双龙南里204号北25米)北京工业大学内,朝阳区,北京市,1,39.879627,116.487892,中国农业银行24小时自助银行(日新路),北京市,fb3ccc8893ad1420ddee8b76,,fb3ccc8893ad1420ddee8b76
常营丽景园6号楼1层,朝阳区,北京市,1,39.930285,116.618678,中国农业银行24小时自助银行(北京东十里堡支行),北京市,79e0f21503515ab79e9d687a,,79e0f21503515ab79e9d687a
北京市朝阳区东苇路9号鑫兆佳园15号楼1层0103号,朝阳区,北京市,1,39.926783,116.59704,中国农业银行24小时自助银行(北京朝阳常营支行),北京市,550e5a88595e1d0c9403196e,,550e5a88595e1d0c9403196e
中国传媒大学北门东侧30米路南,朝阳区,北京市,1,39.921442,116.563755,中国农业银行24小时自助银行(北京定福庄分理处),北京市,1e0c6a8a5cb56c664557265b,,1e0c6a8a5cb56c664557265b
北京市朝阳区大屯乡安立住宅区4楼1单元104,朝阳区,北京市,1,40.010238,116.414737,中国农业银行24小时自助银行(北京安立花园支行),北京市,4cbf7a149fa1c053aecb66ff,,b7f1d1e7a83beb2ea1a934dd
小营北路育慧西里23号楼,朝阳区,北京市,1,40.004702,116.430491,中国农业银行24小时自助银行(北京小营北路支行),北京市,a0978bbceba66185da2f28b6,,a0978bbceba66185da2f28b6
北京市朝阳区润枫水尚15号院5号楼2号底商,朝阳区,北京市,1,39.933661,116.523202,中国农业银行24小时自助银行服务(北京青年路支行),北京市,36294ffad40c9257c41e510e,,36294ffad40c9257c41e510e
北京市朝阳区朝阳路67号10号楼财满街分理处,朝阳区,北京市,1,39.923347,116.541141,中国农业银行24小时自助银行(北京财满街支行),北京市,bd5046e8b7bc1141d72ce243,,bd5046e8b7bc1141d72ce243
北京市朝阳区星火西路17号,朝阳区,北京市,1,39.945049,116.507717,中国农业银行24小时自助银行服务(北京姚家园支行),北京市,aeda0f2f5dc44a73077ce81f,,aeda0f2f5dc44a73077ce81f
北京市朝阳区朝阳北路219号水锥西里支行,朝阳区,北京市,1,39.929229,116.472575,中国农业银行24小时自助银行(北京水碓西里支行),北京市,d283036f07cff1b48bfc066f,,f4a33da924a50e093010af4f
朝阳门外大街乙6号朝外SOHOF1层0165号,朝阳区,北京市,1,39.925894,116.46178,中国农业银行24小时自助银行(蜻蜓胡同),北京市,8274c08736f7247b32f71d8a,,8274c08736f7247b32f71d8a
北京市朝阳区安贞里三区23号楼双北桥支行,朝阳区,北京市,1,39.976953,116.40888,中国农业银行24小时自助银行(北京双北桥支行),北京市,5344923c9d3560a131f71d2b,,cb029b4de33c6dd7b54f543d
朝阳区工人体育场路东2号,朝阳区,北京市,1,39.931101,116.452977,中国农业银行24小时自助银行服务(北京朝阳支行营业部),北京市,99feebc6424386a4bbbd63db,,99feebc6424386a4bbbd63db
北京市朝阳区松榆南路南新园2号首层,朝阳区,北京市,1,39.876733,116.480851,中国农业银行24小时自助银行(北京松榆南路支行),北京市,2270e36fe02e7d973617dccc,,2270e36fe02e7d973617dccc
朝阳路8号朗廷大厦,朝阳区,北京市,1,39.917111,116.605137,中国农业银行24小时自助银行(北京八里桥支行),北京市,644faa454684d96478f796d1,,644faa454684d96478f796d1
望京西路53号1层101,朝阳区,北京市,1,39.997518,116.463594,中国农业银行24小时自助银行(北京南湖中园支行),北京市,82986ffc3507be97223bf28c,,82986ffc3507be97223bf28c
广顺北大街17-15,朝阳区,北京市,1,40.014717,116.47331,中国农业银行ATM(望京商业街(北区)首层望京支行),北京市,112672dce7bb2be8fd0eb030,,112672dce7bb2be8fd0eb030
北京市朝阳区望京西园221号博泰大厦,朝阳区,北京市,1,40.007924,116.479471,中国农业银行24小时自助银行(北京望京支行),北京市,f2f15ffbd1670b8b631c676c,,f2f15ffbd1670b8b631c676c
北京市朝阳区霄云路32号,朝阳区,北京市,1,39.963588,116.470788,中国农业银行24小时自助银行(三元支行),北京市,825a45c9348b2121d8131892,,3da907f3eae30b53b320a84f
北京市朝阳区光华路4号A座1-9间光华路支行,朝阳区,北京市,1,39.918402,116.479817,中国农业银行24小时自助银行(北京光华路支行),北京市,47a99183bcea6e28f50e7720,,47a99183bcea6e28f50e7720
北京市朝阳区光华路甲9号世贸天阶南街F2,朝阳区,北京市,1,39.921907,116.459397,中国农业银行24小时自助银行(世贸天阶南区),北京市,6298755b69241ad430f71de3,,6298755b69241ad430f71de3
北京市六里屯西口甲4号,朝阳区,北京市,1,39.937011,116.480214,中国农业银行24小时自助银行(北京朝阳路北支行),北京市,610852117d203fdcc41b75a6,,610852117d203fdcc41b75a6
北京市朝阳区建国路88号(华贸素拉潘酒店公司金威万豪酒店),朝阳区,北京市,1,39.913419,116.483122,中国农业银行24小时自助银行(北京现代城支行),北京市,cc3c0c9e592f124fe812e48e,,cc3c0c9e592f124fe812e48e
弘燕路10号,朝阳区,北京市,1,39.873441,116.469357,中国农业银行24小时自助银行(北京十里河支行),北京市,b4b8ea19d952ed73138824a7,,b4b8ea19d952ed73138824a7
北京市朝阳区东坝中街奥林匹克花园,朝阳区,北京市,1,39.966951,116.552327,中国农业银行24小时自助银行(奥园分理处),北京市,53cebd509f89a9612a02e143,,53cebd509f89a9612a02e143
北京市朝阳区来广营西路,朝阳区,北京市,1,40.026702,116.471897,中国农业银行24小时自助银行服务(来广营西路),北京市,db771601aa2f233e4d5547d9,,d6edc524a05cc69ad13ce3b7
北京市朝阳区花家地街1号楼,朝阳区,北京市,1,39.991248,116.475897,中国农业银行24小时自助银行(北京将台路支行),北京市,161a0ed22d9754515cd4fe62,,161a0ed22d9754515cd4fe62
北京市朝阳区望京路2号,朝阳区,北京市,1,39.995626,116.474252,中国农业银行24小时自助银行(阜通西大街),北京市,94e2462e6413e5b61ef74d1d,,94e2462e6413e5b61ef74d1d
北京市朝阳区春华路与秋实东街交汇处紫绶园商业楼5号,朝阳区,北京市,1,40.04794,116.432961,中国农业银行24小时自助银行(北苑家园支行),北京市,7c22a030efb72970626858b2,,7c22a030efb72970626858b2
曙光西里甲6号院9之11、9-12、9-15,朝阳区,北京市,1,39.969673,116.455884,中国农业银行24小时自助银行(北京展览中心支行),北京市,b0eded8dc2709cd0e115f96e,,b0eded8dc2709cd0e115f96e
北京市朝阳区雅成一里10号,朝阳区,北京市,1,39.930418,116.530221,中国农业银行24小时自助银行(北京朝阳北路支行),北京市,0545314ba3ee7f4ecae33c84,,0545314ba3ee7f4ecae33c84
新东路12号院3号首开铂郡南区,朝阳区,北京市,1,39.942822,116.457479,中国农业银行24小时自助银行服务(北京新东路支行),北京市,a0b9a27ad093d393f03cbab1,,a0b9a27ad093d393f03cbab1
建国门外大街8号北京财源国际中心B座,朝阳区,北京市,1,39.913532,116.459849,中国农业银行24小时自助银行(北京朝阳东区营业部),北京市,e73859fbbd6c4398d1f49ec6,,e73859fbbd6c4398d1f49ec6
朝阳区西坝河南里22-1号,朝阳区,北京市,1,39.965759,116.444539,中国农业银行24小时自助银行(北京香河园支行),北京市,df673f5e929c38cdc909f039,,df673f5e929c38cdc909f039
朝阳区北三环东路甲11号北京中医药大学,朝阳区,北京市,1,39.977474,116.435809,中国农业银行24小时自助银行(亚运村支行),北京市,875ce6567ef87195d2f49ec8,,875ce6567ef87195d2f49ec8
北京市朝阳区紫南家园108号楼1层,朝阳区,北京市,1,39.883423,116.503415,中国农业银行24小时自助银行(北京紫南家园支行),北京市,8e4face9d2e8d8fed1f49e82,,8e4face9d2e8d8fed1f49e82
北京市朝阳区东四环中路195号华腾新天地大厦F1,朝阳区,北京市,1,39.890885,116.494677,中国农业银行24小时自助银行(北京东四环华腾支行),北京市,bd5046e8b7f11141d62ce2b4,,bd5046e8b7f11141d62ce2b4
北京市朝阳区广渠路38号,朝阳区,北京市,1,39.898754,116.47446,中国农业银行24小时自助银行(北京广渠路支行),北京市,4e4a70d626808894db1318d8,,4e4a70d626808894db1318d8
北京市朝阳区西大望路15号院1号楼底商,朝阳区,北京市,1,39.901235,116.483324,中国农业银行24小时自助银行(北京大望路支行),北京市,2d8c2726806e11e41e3894cb,,2d8c2726806e11e41e3894cb
北京市朝阳区劲松南路9,朝阳区,北京市,1,39.887367,116.463016,中国农业银行24h自助银行服务(北京劲松中街支行),北京市,27b872034077148a420245e0,,27b872034077148a420245e0
东三环南路98号韩建丹阳大厦1层106-108,朝阳区,北京市,1,39.871512,116.468694,中国农业银行24小时自助银行(北京十里河分理处),北京市,c91b27ebda5aaf1649fc8d5c,,9191ba13002148ddab059ded
北京市朝阳区朝新嘉园东里一区8号楼1-2层,朝阳区,北京市,1,39.953879,116.563206,中国农业银行24小时自助银行服务(北京朝阳新城支行),北京市,bba8738805c6e7ddbda822a0,,bba8738805c6e7ddbda822a0
北京市朝阳区富盛大厦2座1层惠新里支行,朝阳区,北京市,1,39.992999,116.431865,中国农业银行24小时自助银行服务(北京惠新里支行惠新里支行),北京市,6835e3a7dda9be30e3110321,,6835e3a7dda9be30e3110321
北京市朝阳区麦子店街78号康运宾馆,朝阳区,北京市,1,39.951005,116.478698,中国农业银行24小时自助银行服务(北京康运支行),北京市,f3c2373cf4d5692fd22dd61e,,f3c2373cf4d5692fd22dd61e
北京市朝阳区新源南路13号1-2层,朝阳区,北京市,1,39.953929,116.459444,中国农业银行24小时自助银行(新源里分理处),北京市,750ec165c420b8554d3a59b5,,750ec165c420b8554d3a59b5
北京市朝阳区八里庄西里100号住邦2000商务中心二期2号楼,朝阳区,北京市,1,39.921303,116.501774,中国农业银行24小时自助银行(北京英家坟支行),北京市,606289fd108f344da30464b4,,606289fd108f344da30464b4
北京市朝阳区北三环东路甲11号和平里支行营业室,朝阳区,北京市,1,39.975883,116.432013,中国农业银行24小时自助银行服务(北三环东路辅路),北京市,2848ffd696e58a0f48cc4afe,,2848ffd696e58a0f48cc4afe
安定路33号13-14层,朝阳区,北京市,1,39.981231,116.413541,中国农业银行24小时自助银行(北京亚运村营业部),北京市,f56d4ad2a77b05be13293574,,f56d4ad2a77b05be13293574
北京市朝阳区安苑路11号,朝阳区,北京市,1,39.989786,116.421668,中国农业银行24小时自助银行服务(北京小营支行),北京市,39d43f82d09815f8a8059d50,,39d43f82d09815f8a8059d50
北土城西路20号,朝阳区,北京市,1,39.983421,116.390524,中国农业银行24小时自助银行(北京健德支行),北京市,1b1aa5d68bdcdae5ae080fdd,,1b1aa5d68bdcdae5ae080fdd
北京市朝阳区日坛北路17号日坛国际贸易中心F1,朝阳区,北京市,1,39.925972,116.44949,中国农业银行24小时自助银行服务(北京朝阳路支行),北京市,af1ae56b9053a66c4207c12f,,af1ae56b9053a66c4207c12f
北京市朝阳区建外大街16号建国门支行,朝阳区,北京市,1,39.912429,116.449956,中国农业银行24小时自助银行(北京建国门支行),北京市,d1a03d1448aa7931d92f28bf,,d1a03d1448aa7931d92f28bf
北京市朝阳区大柳树甲1号,朝阳区,北京市,1,39.880377,116.51364,中国农业银行24小时自助银行服务(王四营支行),北京市,5a0379173b48f1bf8c55ec6e,,5a0379173b48f1bf8c55ec6e
北京市朝阳区潘家园南里12号潘家园大厦潘家园支行,朝阳区,北京市,1,39.877701,116.457305,中国农业银行24小时自助银行服务(潘家园南里),北京市,,,ceef946b7c7a786ec6effbba
朝阳区东三环中路18号东环国际大厦107室,朝阳区,北京市,1,39.902321,116.468981,中国农业银行24小时自助银行(北京双井支行),北京市,e2e73586b389196b1ef74ddf,,e2e73586b389196b1ef74ddf
大屯路科学园南里枫林绿洲16-18号楼一层,朝阳区,北京市,1,40.007706,116.392101,科学园南里风林绿洲-16号楼,北京市,3a5ad885c46c13652bd7ab26,,3a5ad885c46c13652bd7ab26
北京市朝阳区祥和珠宝古玩城1层,朝阳区,北京市,1,40.062881,116.419538,北京农村商业银行24小时自助银行(北方明珠大厦西北),北京市,33fbfa83d4a87ebf0bf5eb51,,33fbfa83d4a87ebf0bf5eb51
科技大道总部基地17区18号楼底商,丰台区,北京市,1,39.829205,116.297265,中国农业银行(北京科学城支行),北京市,befdb292890086e18715413a,,befdb292890086e18715413a
北京市丰台区科学城百强大道10号,丰台区,北京市,1,39.83869,116.298409,中国农业银行(百强大道支行),北京市,ec5cae9b2952a1cdca29158a,(010)63710274,ec5cae9b2952a1cdca29158a
北京市丰台区丰台北路123号附近,丰台区,北京市,1,39.872393,116.294658,中国农业银行,北京市,c62681b5c1a2f673bb17e749,,3ef43792b9079134d12dd652
北京市丰台区万芳园一区16号楼商业14-20号,丰台区,北京市,1,39.850951,116.326686,中国农业银行(万年花城支行),北京市,7096a9a30fdf97994251c0f0,(010)63622164,7096a9a30fdf97994251c0f0
丰台区蒲方路20号,丰台区,北京市,1,39.871112,116.436476,中国农业银行(北京方庄支行),北京市,0e5c6c4cd2203d31fe0eb02a,(010)67635839,0e5c6c4cd2203d31fe0eb02a
北京市丰台区南三环中路67号6号楼1层C1001至C1008,丰台区,北京市,1,39.865,116.415339,中国农业银行(北京永外支行),北京市,750ec16559b835564c3a5922,(010)67231028,750ec16559b835564c3a5922
北京市丰台区右安门外大街4号院1号楼晨益安和大厦,丰台区,北京市,1,39.873813,116.371489,中国农业银行(北京开阳支行),北京市,4cf8d24e3a28c5e49cf779dd,(010)83559316,4cf8d24e3a28c5e49cf779dd
北京市丰台区南苑北里2区6号楼1楼,丰台区,北京市,1,39.814124,116.407932,中国农业银行(北京南苑支行),北京市,197168e8c891e26e6c3e1b73,(010)67995171,197168e8c891e26e6c3e1b73
北京市丰台区北大地四里12楼,丰台区,北京市,1,39.864077,116.28987,中国农业银行(北京丰北支行),北京市,005861083dd217a546e274dd,(010)83820132,005861083dd217a546e274dd
北京市丰台区靛厂路商业街1号楼1层东侧,丰台区,北京市,1,39.896274,116.288432,中国农业银行(北京千禧街支行),北京市,6ec3aad10b3c97212fb17e9b,,6ec3aad10b3c97212fb17e9b
新发地村期颐百年小区乙9号楼,丰台区,北京市,1,39.815105,116.343836,中国农业银行(北京新发地支行),北京市,a501cb26c1ff7b4a100daace,"(010)95599,(010)63929171",bebe5955eab2fcbfa11de992
北京市丰台区丽泽路18号院1号楼,丰台区,北京市,1,39.872944,116.339019,中国农业银行(北京丽泽路支行),北京市,d5464cf8a18d8d57fda778dd,(010)63420903,d5464cf8a18d8d57fda778dd
北京市丰台区永外果园43号珠江骏景园北区1号楼,丰台区,北京市,1,39.861091,116.403209,中国农业银行(北京珠江骏景支行),北京市,550fd5f9e1b10d04931fc9dc,(010)87296564,550fd5f9e1b10d04931fc9dc
北京市丰台区小屯西路109号院4号楼1层103,丰台区,北京市,1,39.872516,116.253595,中国农业银行(北京小屯西路支行),北京市,1badcd7f6c2895c0d3ff232e,(010)83206312,0d1c0bc8ebe304a62eb96d17
北京市丰台区马家堡西路15号时代风帆大厦1层,丰台区,北京市,1,39.852251,116.376077,中国农业银行(北京马家堡西路支行),北京市,925c550fe4746bb15a3ac811,(010)67523318,925c550fe4746bb15a3ac811
丰台区西马场路6号院14号,丰台区,北京市,1,39.847802,116.392565,中国农业银行(北京马家堡东路支行),北京市,1261b591a462fcd2306212e9,(010)59260381,1261b591a462fcd2306212e9
北京市丰台区永外大街12号北京南站F2,丰台区,北京市,1,39.8707,116.385817,中国农业银行24小时自助银行(北京南站),北京市,d2a79676c665c2f4cf06a4e9,,a89cebddf5154abe0bccddc0
石榴庄西街232号光彩支行,丰台区,北京市,1,39.848457,116.422362,中国农业银行24小时自助银行服务(光彩支行),北京市,064e7a0cadf4d11ed813180f,,064e7a0cadf4d11ed813180f
北京市丰台区丰台北路123号,丰台区,北京市,1,39.872801,116.29478,中国农业银行信息技术管理部,北京市,498635bff561e24bb04c49d8,,498635bff561e24bb04c49d8
北京市丰台区丰台北路18-13号附近,丰台区,北京市,1,39.872523,116.312722,中国农业银行24小时自助银行,北京市,,,357ea2ffd822f0d5a6da3999
北京市丰台区丰管路甲3号亿潼隆丰益购物中心F1,丰台区,北京市,1,39.865055,116.308418,农业银行ATM(亿潼隆丰益购物中心),北京市,,,eab4237060f4921fc7f50df3
右安门外大街4-1、2,丰台区,北京市,1,39.873864,116.371535,中国农业银行24小时自助银行服务(右安门外大街),北京市,060497021a3b799e2d4733e9,,060497021a3b799e2d4733e9
北京市丰台区南三环西路85号附近,丰台区,北京市,1,39.856513,116.347037,中国农业银行24小时自助银行服务(东方友谊商务楼东南),北京市,e9be6a4e219fee1e04fef56f,,e9be6a4e219fee1e04fef56f
北京市丰台区南三环中路67号,丰台区,北京市,1,39.864865,116.415312,中国农业银行24小时自助银行(北京永外支行),北京市,258239436140090ec9c3dbfa,,c8e8f6336f67396daa0dd897
蒲方路20,丰台区,北京市,1,39.87114,116.4369,中国农业银行24小时自助银行(北京方庄支行),北京市,16e7ace454ab71724351c059,,16e7ace454ab71724351c059
贾家花园3号院12,丰台区,北京市,1,39.857695,116.421402,中国农业银行24小时自助银行(北京赵松口支行),北京市,b2d0e337a8272e3016b54b8e,,b2d0e337a8272e3016b54b8e
丽泽路18号金唐国际金融大厦,丰台区,北京市,1,39.873018,116.339128,中国农业银行24小时自助银行(北京丽泽路支行),北京市,4cba03dbf90413978f55ecc4,,4cba03dbf90413978f55ecc4
长周路1号,丰台区,北京市,1,39.812708,116.217145,中国农业银行24小时自助银行(北京长阳分理处),北京市,1f0a6eb861ba290e1d580014,,1f0a6eb861ba290e1d580014
北京市丰台区建欣苑二里8号楼,丰台区,北京市,1,39.848678,116.402532,中国农业银行24小时自助银行(建欣苑分理处),北京市,8ab0dfc4971ad86bd8eced30,,8ab0dfc4971ad86bd8eced30
北京市丰台区马家堡西路15号时代风帆大厦1层,丰台区,北京市,1,39.852266,116.376086,中国农业银行24小时自助银行(北京马家堡西路分理处),北京市,ba262cc5644ad52740024521,,ba262cc5644ad52740024521
北京市丰台区西马场路6号院14号,丰台区,北京市,1,39.84787,116.39263,中国农业银行24小时自助银行(北京马家堡东路支行),北京市,78597ee06ef91922a11de94a,,78597ee06ef91922a11de94a
北京市丰台区华源四里2号楼1层,丰台区,北京市,1,39.887775,116.326285,中国农业银行24小时自助银行服务(六里桥支行),北京市,2e5015a9764cc262102935b3,,a5f3a671e96fc77ca3acc4d6
靛厂路千禧街a座1层千禧购物中心,丰台区,北京市,1,39.8962,116.288575,中国农业银行24小时自助银行(北京千禧街支行),北京市,d86038f5612a92431b94c650,,d86038f5612a92431b94c650
北京市丰台区东大街9号丰台营业室,丰台区,北京市,1,39.867143,116.300068,中国农业银行24小时自助银行(北京丰台支行),北京市,d991e116b19008551f3894dd,,d991e116b19008551f3894dd
新发地村期颐百年小区乙9号楼附近,丰台区,北京市,1,39.815121,116.343816,中国农业银行24小时自助银行(北京新发地支行),北京市,71713305235e219a3a13fdb1,,71713305235e219a3a13fdb1
北京市丰台区大成南里3区13号翠微百货F1,丰台区,北京市,1,39.893901,116.271615,中国农业银行24小时自助银行服务(翠微百货),北京市,e76b1d2f6947ed2a8505bf5f,,e76b1d2f6947ed2a8505bf5f
北京市丰台区万科中粮假日风景四号楼103号,丰台区,北京市,1,39.872583,116.253584,中国农业银行24小时自助银行服务(小屯西路支行),北京市,26c916d1ba56919df02d8356,,26c916d1ba56919df02d8356
北京市丰台区北京市第二中级人民法院,丰台区,北京市,1,39.870882,116.44616,中国农业银行ATM(北京市第二中级人民法院),北京市,f4e4eb7f32635b1cc7f025a6,,f4e4eb7f32635b1cc7f025a6
北京市丰台区方庄紫芳园三区2号楼(方庄路东),丰台区,北京市,1,39.868665,116.445912,中国农业银行24h自助银行服务(北京紫芳园支行),北京市,a66b781a7b448290c16c1407,,a66b781a7b448290c16c1407
骏景园北区1,丰台区,北京市,1,39.860868,116.40319,中国农业银行24小时自助银行(北京珠江骏景支行),北京市,21afb88efa39266beb56fadb,,21afb88efa39266beb56fadb
南苑路与永定门外大街交叉口西100米,丰台区,北京市,1,39.864912,116.405602,中国农业银行24小时自助银行服务(南苑路辅路),北京市,375c15b32f2e4a7a715e8040,,375c15b32f2e4a7a715e8040
北京市丰台区马家堡路154号院1号楼1层110、2层203,丰台区,北京市,1,39.848098,116.385439,中国农业银行24小时自助银行(北京马家堡支行),北京市,7cf36958bf3b9d1e430245a8,,7cf36958bf3b9d1e430245a8
北京市丰台区莲花池东路118号北京西站F2第10候车室,丰台区,北京市,1,39.899733,116.327479,中国农业银行24小时自助银行(北京西站),北京市,,,6c855e30297795aa26e0a09e
南苑北里二区6号楼1层,丰台区,北京市,1,39.814312,116.408023,中国农业银行24小时自助银行(南苑支行),北京市,c5a8b4a915f2f2f7f7e73bd9,,c5a8b4a915f2f2f7f7e73bd9
北京市丰台区北大地4里12楼,丰台区,北京市,1,39.864022,116.289829,中国农业银行24小时自助银行服务(北京丰北支行),北京市,1ae7df8f79b44e70901fc993,,e116be54c32d277bc91b95dd
北京市丰台区万芳园一区16-1号,丰台区,北京市,1,39.851031,116.326523,中国农业银行24小时自助银行服务(万年花城支行),北京市,2c0bd6c5c85524aa43ab9add,,2c0bd6c5c85524aa43ab9add
百强大道10号天龙华鹤公寓,丰台区,北京市,1,39.838635,116.298315,中国农业银行24小时自助银行(北京科丰桥支行),北京市,5c56edd6556e5b59a1d23013,,5c56edd6556e5b59a1d23013
南四环西路188号十七区18,丰台区,北京市,1,39.829192,116.297472,中国农业银行24小时自助银行(北京科学城支行),北京市,84768cf3f676b99fd12dd64b,,84768cf3f676b99fd12dd64b
北京市丰台区云岗北区西里甲4号云岗分理处,丰台区,北京市,1,39.817535,116.170117,中国农业银行24小时自助银行(北京云岗支行),北京市,6113ef777d4ea16a8e77275e,,6113ef777d4ea16a8e77275e
西四环南路1号(看丹桥南侧)资和信百货B1层,丰台区,北京市,1,39.844085,116.291203,ABC(资和信百货),北京市,,(010)56251895,26a1bdb82146d2aaca09f03d
北京市石景山区石景山路22号瀚海长城大厦1层,石景山区,北京市,1,39.912389,116.227173,中国农业银行(银河大街支行),北京市,b7021bf849b69787f4e73b09,(010)68662206,b7021bf849b69787f4e73b09
北京市石景山区玉泉西里二区1号楼1层商业01,石景山区,北京市,1,39.909323,116.248597,中国农业银行(北京远洋山水支行),北京市,d5f93c0e7b60c421eddfca3a,(010)68668536,d5f93c0e7b60c421eddfca3a
北京市石景山区石景山路乙18号院万达广场一层东侧区域,石景山区,北京市,1,39.911961,116.232769,中国农业银行ATM(万达广场),北京市,e6d0cfa3a31b383f593ac811,,5fed3c3d55f84e379f09f761
北京市石景山区苹果园北大街80-1,石景山区,北京市,1,39.938179,116.190518,中国农业银行24小时自助银行服务(北京苹果园支行),北京市,ae4122ebf5a34df98e7727b3,,ae4122ebf5a34df98e7727b3
北京市石景山区八角南路18号,石景山区,北京市,1,39.916419,116.209167,中国农业银行24小时自助银行(北京石景山支行营业室),北京市,74c933fb184b985e9e82ead8,,74c933fb184b985e9e82ead8
北京市石景山区鲁谷依翠园新岚大厦一层,石景山区,北京市,1,39.906669,116.225531,中国农业银行24小时自助银行(新岚储蓄所),北京市,53a46f9c903c1d610c0e6b86,,53a46f9c903c1d610c0e6b86
玉泉西里二区1-1层,石景山区,北京市,1,39.909294,116.248416,中国农业银行24小时自助银行(北京远洋山水支行),北京市,550fd5f9e1ab0d04931fc93a,,550fd5f9e1ab0d04931fc93a
北京市石景山区石景山路22号华联商厦F1,石景山区,北京市,1,39.912572,116.227214,中国农业银行24小时自助银行(北京银河大街支行),北京市,6eeed8cde0ee328bf82d616e,,72aa25139001f747077ce8d8
北京市石景山区杨庄北路甲12号金鼎分理处,石景山区,北京市,1,39.932529,116.20029,中国农业银行24小时自助银行(北京金鼎支行),北京市,2e00c5ddf3485362d7851f5f,,2e00c5ddf3485362d7851f5f
北京市石景山区古城大街39,石景山区,北京市,1,39.920349,116.191041,中国农业银行24小时自助银行(北京古城支行),北京市,33fbfa83bd2aa7c10bf5ebd8,,33fbfa83bd2aa7c10bf5ebd8
北京市石景山区八角北路石景山区中医院,石景山区,北京市,1,39.920118,116.200929,中国农业银行ATM(八角北路石景山区中医院),北京市,f58baa99d71c4e1f3904b195,,f58baa99d71c4e1f3904b195
北京市石景山区八角南路18号,石景山区,北京市,1,39.916462,116.208905,中国农业银行(石景山支行营业部电费代收点),北京市,f295e1a1cbd09a322b3a9f1b,95599,f295e1a1cbd09a322b3a9f1b
景阳东街58附近,石景山区,北京市,1,39.904134,116.212522,中国农业银行24小时自助银行(燕保·京原家园西南),北京市,168b92f3decafdd72fb96d06,,168b92f3decafdd72fb96d06
北京市石景山区古城路66号楼9单元107室,石景山区,北京市,1,39.918936,116.199265,abc(外语分部),北京市,ad8ae73750115577a3d23062,,ad8ae73750115577a3d23062
北京市海淀区清河镇龙岗路20号,海淀区,北京市,1,40.03641,116.362553,中国农业银行(北京龙岗路支行),北京市,f448d513e6c91b620d3dda4b,"(010)62991550,(010)62996623",f448d513e6c91b620d3dda4b
北京市海淀区花园路甲2号院4号楼一层101,海淀区,北京市,1,39.986153,116.372868,中国农业银行(北京花园路支行),北京市,a2b093525238353000ec0120,(010)82247102,a2b093525238353000ec0120
海淀区蓝靛厂中路晨月园甲4号,海淀区,北京市,1,39.964899,116.290373,中国农业银行(北京世纪城支行),北京市,606289fd39b75f4ca304648f,,606289fd39b75f4ca304648f
北京市海淀区上地三街9号嘉华大厦a座1楼,海淀区,北京市,1,40.04211,116.313938,中国农业银行(北京上地支行),北京市,91c13f93bba2cffa21f0176c,(010)62967285,91c13f93bba2cffa21f0176c
北京市海淀区北蜂窝路5号院2号楼,海淀区,北京市,1,39.910947,116.334905,中国农业银行(北京铁道支行),北京市,befdb292e60ee99c8715413b,,befdb292e60ee99c8715413b
北京市海淀区成府路83,海淀区,北京市,1,39.998592,116.331502,中国农业银行(北京成府路支行),北京市,bcef2ee90b19e83aa8059d2c,(010)62793301,bcef2ee90b19e83aa8059d2c
北京市海淀区海淀北二街8号中关村SOHO1层,海淀区,北京市,1,39.98951,116.316303,中国农业银行(北京北四环支行),北京市,15ed53ce398b5a2a9222e0c0,(010)59718341,15ed53ce398b5a2a9222e0c0
北京市海淀区马连洼北路158号众鼎商务写字楼一层,海淀区,北京市,1,40.038212,116.27826,中国农业银行(北京西北旺支行),北京市,8186acc1d74716d1c6effb6b,"(010)51557115,(010)51557106",8186acc1d74716d1c6effb6b
北京市海淀区西海国际中心1层,海淀区,北京市,1,39.969957,116.315115,中国农业银行(北京西海支行),北京市,548aa32bae1e6276c42ba11b,(010)82194280,548aa32bae1e6276c42ba11b
北京市海淀区海淀大街37号(海淀图书城附近),海淀区,北京市,1,39.989743,116.312465,中国农业银行(海淀支行营业部),北京市,25863433409aee6f1df74d05,,25863433409aee6f1df74d05
北京海淀区中关村新科祥园甲6号一层,海淀区,北京市,1,39.987627,116.331361,中国农业银行(北京中关村园区支行),北京市,27bded419a530e09abf72952,(010)82523103,27bded419a530e09abf72952
北京市海淀区马连洼北路东居物业写字楼一层,海淀区,北京市,1,40.039892,116.293431,中国农业银行(北京竹园支行),北京市,25ec69fc59ab547dc26c146c,(010)82899445,25ec69fc59ab547dc26c146c
北京市海淀区大柳树路17号富海国际港一层,海淀区,北京市,1,39.958683,116.341947,中国农业银行(北京北下关支行),北京市,9216635ceba0bca78bb98891,(010)62199856,3c0746747d0b95f92a02e1ab
北京市海淀区太舟坞621所院内冷泉邮政旁,海淀区,北京市,1,40.042651,116.2147,中国农业银行(北京太舟坞支行),北京市,cc0849a0b810e0509403197a,(010)62456839,cc0849a0b810e0509403197a
北京市海淀区清河小营西路,海淀区,北京市,1,40.042356,116.34182,中国农业银行(北京清河支行),北京市,0752d427705939723a13fd9c,(010)62911826,0752d427705939723a13fd9c
北京市海淀区学院路29号地质大学校内,海淀区,北京市,1,39.997312,116.356282,中国农业银行(北京地质大学分理处),北京市,9f97b1c519b74906b64f5441,(010)82319807,9f97b1c519b74906b64f5441
北京市海淀区西郊板井曙光花园中路11号北京农科大厦首层B103号,海淀区,北京市,1,39.949037,116.293928,中国农业银行(北京曙光支行),北京市,4642844a215104d9c9fa5f41,,4642844a215104d9c9fa5f41
北京市海淀区复兴路28号中国人民解放军总医院门诊楼一层东侧2区房,海淀区,北京市,1,39.912694,116.283432,中国农业银行(五棵松储蓄所),北京市,a892d50d4830149f6f3e1b8a,,a892d50d4830149f6f3e1b8a
北京市海淀区永定路甲51号,海淀区,北京市,1,39.920481,116.270759,中国农业银行(北京永通支行),北京市,31f9101b05c7cebb26e0a0c7,,31f9101b05c7cebb26e0a0c7
北京市海淀区农大南路88号泰来商务大厦1层,海淀区,北京市,1,40.03081,116.306519,中国农业银行(北京农大南路支行),北京市,c67136320a08de4cf50e77a2,(010)82793901,c67136320a08de4cf50e77a2
北京市海淀区香山路8号,海淀区,北京市,1,40.012614,116.256972,中国农业银行(北京香山路支行),北京市,ff942c96d4c32e5c57bfff2d,(010)62889036,ff942c96d4c32e5c57bfff2d
北京市海淀区北四环路88号院,海淀区,北京市,1,39.972932,116.287655,中国农业银行(北京世纪城储蓄所),北京市,347bca6bb2180b64d23ce3bb,(010)88472169,347bca6bb2180b64d23ce3bb
北京市海淀区首都体育馆南路22-6号附近,海淀区,北京市,1,39.939569,116.332875,中国农业银行(北京增光路支行),北京市,,,6c3d00171218e1e51ef74da0
北京市海淀区复兴路33号翠微大厦内,海淀区,北京市,1,39.914801,116.309175,中国农业银行(北京翠微大厦支行),北京市,d5285d0a36f4ace6b45f1eff,,c165340574a79a78aa175ab3
北京市海淀区西四环北路158号,海淀区,北京市,1,39.939552,116.283101,中国农业银行(北京玲珑路支行),北京市,d6ee87248abb169da9f0cdb3,,d6ee87248abb169da9f0cdb3
北京市海淀区航天城友谊路102号院17号楼8号底商,海淀区,北京市,1,40.085623,116.27477,中国农业银行(北京航天城支行),北京市,15a93810c0ae50c014c8f6c5,(010)68117542,15a93810c0ae50c014c8f6c5
北京市海淀区花园路15-3号,海淀区,北京市,1,39.977805,116.376086,中国农业银行(北京北太平庄支行),北京市,17c1431bf671988e3517dcae,95599,17c1431bf671988e3517dcae
北京市海淀区农大南路1号院2号楼A座102-1,海淀区,北京市,1,40.032472,116.318478,中国农业银行(北京硅谷亮城支行),北京市,592fa3cf85a1cf2a2ce67b1c,(010)82349280,592fa3cf85a1cf2a2ce67b1c
北京市海淀区颐和园路5号-45-甲1层,海淀区,北京市,1,39.995521,116.31261,中国农业银行(北京北大分理处),北京市,550fd5f9c2022e78921fc997,(010)62764449,550fd5f9c2022e78921fc997
北京市海淀区紫竹院路81号院3号楼北方地产大厦一层102室,海淀区,北京市,1,39.95327,116.304888,中国农业银行(北京紫竹桥支行),北京市,89fd4ea3acae9a47e5e96541,(010)88580081,89fd4ea3acae9a47e5e96541
北京市海淀区长春桥路11号院-2号万柳亿城中心A座,海淀区,北京市,1,39.966649,116.309156,中国农业银行(北京苏州桥支行),北京市,dffd4642d115b0b23c9a5e41,(010)58816257,dffd4642d115b0b23c9a5e41
北京市复外大街羊坊店路京门大厦一层,海淀区,北京市,1,39.90941,116.327213,中国农业银行(北京羊坊店支行),北京市,e93761f6ddb64f0c233bf2a0,(010)63950497,e93761f6ddb64f0c233bf2a0
北京市海淀区翠微路38号京海大厦对面,海淀区,北京市,1,39.909377,116.308259,中国农业银行(北京西翠路支行),北京市,,95599,4d2d701af2b703c2ae0457f6
北京市海淀区复兴路甲23号,海淀区,北京市,1,39.915144,116.313726,中国农业银行(北京复兴路支行),北京市,fe31a1bc93c7e9b38b2fb521,95599,fe31a1bc93c7e9b38b2fb521
北京市海淀区阜成路67号银都大厦一层,海淀区,北京市,1,39.930726,116.307017,中国农业银行(北京玉渊潭支行),北京市,dc11a92f5134b79f9122e0e6,(010)88413085,dc11a92f5134b79f9122e0e6
北京市海淀区田村路43号京粮广场F1层,海淀区,北京市,1,39.936125,116.26058,中国农业银行(北京四季青支行),北京市,7b618364bf132667d23ce3b8,(010)68286932,7b618364bf132667d23ce3b8
北京市海淀区学院路丁11号院中国矿业大学内,海淀区,北京市,1,40.003127,116.358824,中国农业银行(出国留学金融服务中心),北京市,2d2e2b16cbee5a369cf779fe,95599,2d2e2b16cbee5a369cf779fe
北京市海淀区羊坊店路9号京门大厦一层,海淀区,北京市,1,39.909254,116.327364,中国农业银行(北京羊坊店支行电费代收点),北京市,c78d105f7f48d6ba4c3a5964,(010)63955105,c78d105f7f48d6ba4c3a5964
北京市海淀区西四环中路16号院6号楼1-4层,海淀区,北京市,1,39.922858,116.283181,中国农业银行(万寿路支行营业室电费代收点),北京市,7ab92ba85bd389a551e5c5e9,,7ab92ba85bd389a551e5c5e9
北京市海淀区龙翔路甲1号3,海淀区,北京市,1,39.989995,116.383911,中国农业银行24小时自助银行(昌平路),北京市,ca32f59a6c60614907fef5f0,,ca32f59a6c60614907fef5f0
中国农业银行北方数据中心南区路南,海淀区,北京市,1,40.085234,116.190547,中国农业银行研发中心北京研发部,北京市,,,6c15b826f28fa92d102935f9
北京市海淀区西四环中路16号院6号楼,海淀区,北京市,1,39.922913,116.283075,中国农业银行(北京万寿路支行营业室),北京市,b62cb68677ee60d04e2fdfa8,"(010)68132788,(010)68277247",b62cb68677ee60d04e2fdfa8
北京市海淀区北洼西里12号中建紫竹酒店大厅,海淀区,北京市,1,39.944338,116.310697,中国农业银行ATM,北京市,48fc9cb61581e13c7adbd2ce,,48fc9cb61581e13c7adbd2ce
北京市海淀区阜成路67号银都大厦2层,海淀区,北京市,1,39.930469,116.307301,农业银行金钥匙理财,北京市,d755c1e2142cb1b0f2193712,,d755c1e2142cb1b0f2193712
北京市海淀区国际财经中心1层,海淀区,北京市,1,39.941158,116.316059,中国农业发展银行,北京市,3a859b32608e3c13871541d1,(010)68085370,3a859b32608e3c13871541d1
北京市海淀区北京大学45甲一层北大分理处,海淀区,北京市,1,39.995509,116.312723,中国农业银行24小时自助银行服务(五四路),北京市,a5774d667d59c3ee84330458,,bf573fab213a7df245572643
北京市海淀区西四环北路158,海淀区,北京市,1,39.939487,116.282684,中国银行(玲珑路支行),北京市,f690d9272060df810ab93a46,,f690d9272060df810ab93a46
北京市海淀区大有庄100号(国际关系学院西北),海淀区,北京市,1,40.011738,116.289197,中国农业银行24小时自助银行,北京市,6019856784c2ba86c27da2c9,,6019856784c2ba86c27da2c9
用友软件园北区17号楼,海淀区,北京市,1,40.077963,116.2499,中国农业银行ATM(永丰路支行),北京市,f0333fbb30a5f2d0f4c59c98,,f0333fbb30a5f2d0f4c59c98
北京市海淀区黑山扈路甲17号解放军医院第二附属医院住院二部,海淀区,北京市,1,40.028962,116.270518,中国农业银行ATM(黑山扈路甲),北京市,00f1c7fb49ca6b62c056ac65,,00f1c7fb49ca6b62c056ac65
北京市海淀区西土城路4号北京电影学院学生食堂,海淀区,北京市,1,39.976636,116.363159,中国农业银行ATM(西土城路),北京市,8f1b5637e4b12f9d3f9a5eb7,,8f1b5637e4b12f9d3f9a5eb7
北京市海淀区西三环北路25号中国青年政治学院,海淀区,北京市,1,39.95629,116.314124,中国农业银行ATM(西三环北路),北京市,,,56c6fb1368fccd760bccdd84
北京市海淀区中关村东路55号中国科学院数学研究所,海淀区,北京市,1,39.990943,116.339174,中国农业银行ATM(中关村东路),北京市,e3bdb14c0e39fb8df7b916a8,,e3bdb14c0e39fb8df7b916a8
北京市海淀区丹棱街3号中国电子大厦1层,海淀区,北京市,1,39.98537,116.318611,中国农业银行24小时自助银行(中关村支行),北京市,27ef47c80a4c1d12d13ce3d2,,27ef47c80a4c1d12d13ce3d2
北京市海淀区苏家坨镇翠湖北环路5号院,海淀区,北京市,1,40.087604,116.190101,中国农业银行北京数据中心,北京市,9674ac00224d210af90cad83,,9674ac00224d210af90cad83
北京市海淀区友谊路193号,海淀区,北京市,1,40.085513,116.274593,中国农业银行24小时自助银行服务(北京航天城支行),北京市,dffd631c453f76bf38221c7a,,dffd631c453f76bf38221c7a
北京市海淀区青年政治学院,海淀区,北京市,1,39.956245,116.314058,中国农业银行ATM(青年政治学院),北京市,,,09c14d6b6f46db4177026916
北京市海淀区翠微路12号印象城F1,海淀区,北京市,1,39.917976,116.309978,中国农业银行ATM(印象城翠微路),北京市,8c6b4b055a15c1ca3904b154,,3a7c9a59a9ada38d77026911
北京市海淀区信息路48东北80米,海淀区,北京市,1,40.03002,116.327461,中国农业银行ATM(北京体育大学),北京市,ffdfe1a988eca37bda2f28f0,,ffdfe1a988eca37bda2f28f0
北京市海淀区万寿寺甲4号,海淀区,北京市,1,39.955455,116.323099,中国农业银行24小时自助银行(民族大学西路),北京市,1420145843a3aec57ab55c54,,1420145843a3aec57ab55c54
北京市海淀区上河沿路,海淀区,北京市,1,40.017734,116.285654,中国农业银行24小时自助银行服务,北京市,1b802249686726a0210262ec,,1b802249686726a0210262ec
翠微路21号楼附近,海淀区,北京市,1,39.90935,116.308135,中国农业银行24小时自助银行(翠微路),北京市,a4cadf623d90faa72d473311,,a4cadf623d90faa72d473311
北京市海淀区马甸东路17,海淀区,北京市,1,39.977696,116.385225,中国农业银行24小时自助银行(马甸东路支行),北京市,5b2a6e1d037b680fcae33c04,,5b2a6e1d037b680fcae33c04
北京市海淀区东北旺西路8号文思海辉大厦3层,海淀区,北京市,1,40.050676,116.30187,中国农业银行24小时自助银行(软件园五号路),北京市,f0321169a645e4bda1a9349d,,f0321169a645e4bda1a9349d
西二旗大街39号1层39-4,海淀区,北京市,1,40.058131,116.315881,中国农业银行24小时自助银行(西二旗大街),北京市,15a19281b920ec7dd518b7a6,,15a19281b920ec7dd518b7a6
北京市海淀区农大东校区民主楼,海淀区,北京市,1,40.007903,116.365096,中国农业银行ATM(农大东校区民主楼中国农业大学),北京市,0d074f499a44046f94ec84a2,,0d074f499a44046f94ec84a2
北京市海淀区学院路29号地质大学校内,海淀区,北京市,1,39.997372,116.356428,中国农业银行24小时自助银行(北京地质大学分理处),北京市,328f7d0b06ec5606d9d89189,,328f7d0b06ec5606d9d89189
北京市海淀区颐和园路5北京大学,海淀区,北京市,1,39.995041,116.32075,中国农业银行24小时自助银行(资源大厦西北),北京市,10b39a8b6ea901d941e19246,,10b39a8b6ea901d941e19246
北京市海淀区中关村新科祥园甲6号一层,海淀区,北京市,1,39.987358,116.331114,中国农业银行24小时自助银行(北京中关村园区支行),北京市,58fc16889ba31a8a29d7aba2,,58fc16889ba31a8a29d7aba2
北京市海淀区大柳树富海国际港1层,海淀区,北京市,1,39.958576,116.342053,中国农业银行24小时自助银行(北京北下关支行),北京市,dffd631cd636ebbc38221c43,,dffd631cd636ebbc38221c43
北京市海淀区农行世纪城储蓄所,海淀区,北京市,1,39.972877,116.287558,中国农业银行24小时自助银行(世纪城储蓄所),北京市,bcaebff89a11bf2ac9e33c73,,bcaebff89a11bf2ac9e33c73
长春桥路11号院-2号万柳亿城中心A座,海淀区,北京市,1,39.966574,116.309049,中国农业银行24小时自助银行(苏州桥分理处),北京市,f419d44270475909b120a866,,f419d44270475909b120a866
北京市海淀区复兴路28号解放军总医院301医院门诊楼F1层,海淀区,北京市,1,39.912681,116.283332,中国农业银行ATM(解放军总医院301医院门诊楼),北京市,5efd908aa0702832d518b7ea,,5efd908aa0702832d518b7ea
北京市海淀区北太平庄路25号,海淀区,北京市,1,39.977705,116.376178,中国农业银行24小时自助银行(北京北太平庄支行),北京市,d0addef695501de6ad04579b,,d0addef695501de6ad04579b
花园路2号同观商业中心1层,海淀区,北京市,1,39.986124,116.372687,中国农业银行24小时自助银行(北京花园路支行),北京市,df7011c9749a28d949fd3fff,,df7011c9749a28d949fd3fff
北京市海淀区龙岗路20号,海淀区,北京市,1,40.036349,116.362688,中国农业银行24小时自助银行服务(北京龙岗路支行),北京市,54d1b90f3c71b8ddc26c14a1,,54d1b90f3c71b8ddc26c14a1
北京市海淀区上地佳园2,海淀区,北京市,1,40.039992,116.32402,中国农业银行24小时自助银行服务(上地东二路),北京市,745c4106c0217000725e80d4,,e37336405f7255dac91b956f
北京市海淀区马连洼北路东居物业写字楼一层,海淀区,北京市,1,40.039916,116.293545,中国农业银行24小时自助银行(北京竹园支行),北京市,a5ef680fb3762cd7b9df8f6c,,a5ef680fb3762cd7b9df8f6c
北京市海淀区上地三街9号A座一层,海淀区,北京市,1,40.042161,116.314038,中国农业银行24小时自助银行(北京上地支行),北京市,d52831f90c6e03a72efaa76c,,d52831f90c6e03a72efaa76c
北京市海淀区学院路丁11号海东营业室,海淀区,北京市,1,40.003131,116.358881,中国农业银行24小时自助银行(北京海淀东区支行营业部),北京市,92b806d2496dc0ff79b55c13,,92b806d2496dc0ff79b55c13
海淀区中关村北一条2号中国科学院理化技术研究所,海淀区,北京市,1,39.99859,116.331598,中国农业银行24小时自助银行(北京成府路支行),北京市,e110aa5fcc08647182288a80,,e110aa5fcc08647182288a80
北京市海淀区农大南路88号泰来商务大厦一层,海淀区,北京市,1,40.030738,116.306371,中国农业银行24小时自助银行(北京农大南路支行),北京市,083a55fa3f7e1379246e986c,,083a55fa3f7e1379246e986c
永丰路221号237号,海淀区,北京市,1,40.05571,116.263458,中国农业银行24小时自助银行(北京茉莉园分理处),北京市,15adda5f77b8adbe4e2fdfd8,,15adda5f77b8adbe4e2fdfd8
北京市海淀区太舟坞环山村621所院内,海淀区,北京市,1,40.042645,116.214699,中国农业银行24小时自助银行(太舟坞支行),北京市,91964d777f79f1e1843304ff,,91964d777f79f1e1843304ff
北京市海淀区中关村南大街27号中央民族大学内,海淀区,北京市,1,39.957534,116.327339,中国农业银行24小时自助银行(礼堂东路店),北京市,944eb4e2cf3ffab2e215f979,,944eb4e2cf3ffab2e215f979
北京市海淀区紫竹院路81号院3,海淀区,北京市,1,39.953036,116.305121,中国农业银行24小时自助银行服务(北京紫竹桥支行),北京市,05dd7d5fbe6bbd01ad080f43,,05dd7d5fbe6bbd01ad080f43
北三环西路99号院1号楼1层111-112,海淀区,北京市,1,39.969783,116.315056,中国农业银行24小时自助银行(北京路西海支行),北京市,34eb9b0a25c2306b8bb988bf,,34eb9b0a25c2306b8bb988bf
海淀大街37号,海淀区,北京市,1,39.989786,116.312591,中国农业银行24小时自助银行(北京海淀支行营业部),北京市,b5d2453146dcf44107fef588,,b5d2453146dcf44107fef588
蓝靛厂晨月园甲4号,海淀区,北京市,1,39.965206,116.290381,中国农业银行24小时自助银行(北京世纪城支行),北京市,76a8309627b0d4ee6fa3ccbf,,76a8309627b0d4ee6fa3ccbf
北京市海淀区北蜂窝路5号院2-1号,海淀区,北京市,1,39.910992,116.334987,中国农业银行24小时自助银行(北京铁道支行),北京市,101bc61bc9441ea3c52ba1a0,,101bc61bc9441ea3c52ba1a0
海淀区西四环中路16号院6号,海淀区,北京市,1,39.922852,116.283319,中国农业银行24小时自助银行(北京万寿路支行营业部),北京市,6113ef77001b9c6a8f77278b,,6113ef77001b9c6a8f77278b
北京市海淀区田村路43号京粮广场F1,海淀区,北京市,1,39.936076,116.260683,中国农业银行24小时自助银行(京粮广场),北京市,08d8d5b9e00efccc5d0d02ad,,08d8d5b9e00efccc5d0d02ad
北京市海淀区文慧园北路9号空间蒙太奇商务中心,海淀区,北京市,1,39.958416,116.367551,中国农业银行24小时自助银行(文慧园路),北京市,b929fac618b2e99e8e772782,,b929fac618b2e99e8e772782
北京市海淀区学院路15号北京语言大学,海淀区,北京市,1,40.000384,116.356929,中国农业银行24小时自助银行服务(国家汉办图书资料部西),北京市,,,251241fef7e9ac32940319b6
海淀农大南路1号院2号楼A座,海淀区,北京市,1,40.032505,116.318421,中国农业银行24小时自助银行服务(北京硅谷亮城支行),北京市,08495978c8edc07a6c3e1b23,,08495978c8edc07a6c3e1b23
北京市海淀区马连洼北路158号,海淀区,北京市,1,40.038221,116.278174,中国农业银行24小时自助银行(北京西北旺支行),北京市,1810b671e217d8a5593ac838,,1810b671e217d8a5593ac838
北京市海淀区苏州街29号(维亚大厦一层),海淀区,北京市,1,39.983705,116.3124,中国农业银行24小时自助银行服务(北京海淀大街支行),北京市,ab49c9f9ec512424f4e73b79,,ab49c9f9ec512424f4e73b79
北京市海淀区中关村大街59号中国人民大学校内,海淀区,北京市,1,39.978431,116.316465,中国农业银行24小时自助银行服务(中关村大街),北京市,5c81a0718a4fbfb52bd7ab09,,5c81a0718a4fbfb52bd7ab09
北京市海淀区复兴路33号翠微百货F1,海淀区,北京市,1,39.914772,116.309011,中国农业银行24小时自助银行(北京翠微大厦支行),北京市,d2c4b2dd9f74a8dd85420e00,,d2c4b2dd9f74a8dd85420e00
北京市海淀区西四环北路158-1号慧科大厦,海淀区,北京市,1,39.939618,116.283039,中国农业银行24小时自助银行(北京玲珑路支行),北京市,f3c2373cf979622fd32dd6b2,,f3c2373cf979622fd32dd6b2
北京市海淀区永通支行永定路甲51号,海淀区,北京市,1,39.920227,116.270781,中国农业银行24小时自助银行(北京永通支行),北京市,b388f9fd01234c41b25c6aa3,,b388f9fd01234c41b25c6aa3
北京市海淀区清河小营西路17号,海淀区,北京市,1,40.042324,116.341804,中国农业银行24小时自助银行服务(北京清河支行),北京市,2527be1ea39aadb34afc8d6c,,2527be1ea39aadb34afc8d6c
北京市海淀区圆明园西路2号中国农业大学西校区内,海淀区,北京市,1,40.034694,116.284982,中国农业银行24小时自助银行(北京圆西路支行),北京市,e96b44207733b75982288a6c,,e96b44207733b75982288a6c
北京市海淀区畅春园食街外街1层,海淀区,北京市,1,39.9943,116.311438,中国农业银行24小时自助银行(颐和园路),北京市,b3c29eb30b6a490e3586f4d9,,b3c29eb30b6a490e3586f4d9
北京市海淀区S50北五环中国林业科学研究院,海淀区,北京市,1,40.012641,116.25689,中国农业银行24小时自助银行(香山路分理处),北京市,1119c3e799dfd29688fc0612,,1119c3e799dfd29688fc0612
北京市海淀区知春路6号锦秋国际,海淀区,北京市,1,39.981775,116.355984,中国农业银行24小时自助银行(北京中关村分行营业室),北京市,beabdbf4a6a49ae67069d351,,beabdbf4a6a49ae67069d351
北京市海淀区海淀北二街8号1层111-1、112-1,海淀区,北京市,1,39.989401,116.316236,中国农业银行24小时自助银行(北京北四环支行),北京市,0357627716d0251f374aae7e,,0357627716d0251f374aae7e
北京市海淀区阜石路67号中关村科技园区服务中心,海淀区,北京市,1,39.930534,116.307094,中国农业银行24小时自助银行服务(航天桥西银都大厦玉渊潭支行),北京市,56f2f696e3ecb3fd0ba8d4b2,,56f2f696e3ecb3fd0ba8d4b2
北京市海淀区碧桐园1号,海淀区,北京市,1,39.935369,116.231048,中国农业银行24小时自助银行服务(巨山路),北京市,2c6831c1502f5972c92915de,,2c6831c1502f5972c92915de
北京市海淀区大柳树富海中心3,海淀区,北京市,1,39.95869,116.341972,自助银行服务,北京市,59772735f0fe5f7a9703196d,,59772735f0fe5f7a9703196d
北京市海淀区西四环北路117号金四季购物中心F3层,海淀区,北京市,1,39.950316,116.277623,ABC(金四季购物中心),北京市,,,401abaa377a99be88505bf86
北京市门头沟区永定镇石龙工业区,门头沟区,北京市,1,39.909064,116.118155,中国农业银行(北京石龙支行),北京市,48eb0058ead9f8d02fe67bce,"(010)69803499,(010)69807014",48eb0058ead9f8d02fe67bce
北京市门头沟区滨河承泽苑1号,门头沟区,北京市,1,39.937422,116.121619,中国农业银行(北京滨河路支行),北京市,,95599,00a87c45a68a2bb77bf79614
北京市门头沟区新桥南大街10号,门头沟区,北京市,1,39.938316,116.113228,中国农业银行(北京门头沟支行),北京市,be1ea5ef6e9273bf14948e04,(010)69854602,be1ea5ef6e9273bf14948e04
门头沟区承泽苑路承泽苑好望菜市场,门头沟区,北京市,1,39.937428,116.121715,中国农业银行24小时自助银行(滨河路支行网点),北京市,d3054970631d3994c909f027,,d3054970631d3994c909f027
北京市门头沟区新桥南大街10号大峪分理处,门头沟区,北京市,1,39.938302,116.113274,中国农业银行24小时自助银行服务(北京门头沟支行),北京市,6835e3a7dd5abe30e3110356,,6835e3a7dd5abe30e3110356
北京市门头沟区永定镇石龙南路14号,门头沟区,北京市,1,39.90911,116.118102,中国农业银行24小时自助银行(北京石龙支行),北京市,9ee7cc7893c45e0e17c90581,,9ee7cc7893c45e0e17c90581
北京市房山区良乡西潞南大街8号,房山区,北京市,1,39.734475,116.142197,中国农业银行(北京良乡西潞支行),北京市,bff8fa7df50b11dec8213df8,(010)89323766,bff8fa7df50b11dec8213df8
北京市房山区良乡中路37号,房山区,北京市,1,39.737914,116.151061,中国农业银行(北京文化路支行),北京市,5ac0eefa38178e24d8eced82,(010)69353415,5ac0eefa38178e24d8eced82
北京市房山区南大街悦来小区2号楼,房山区,北京市,1,39.704692,115.99069,中国农业银行(永外支行),北京市,,95599,37d60a4656eccf601e1d11fd
北京市房山区窦店镇政府对面汇豪酒店旁,房山区,北京市,1,39.658148,116.076245,中国农业银行(窦店支行),北京市,,,6ba3927a5f0d68c7f60e77a1
北京市房山区良乡西潞28号,房山区,北京市,1,39.7368,116.133472,中国农业银行(北京良乡支行),北京市,30b146f7ea4970be8505bf1e,(010)89372348,30b146f7ea4970be8505bf1e
房山区坨里镇阎东路坨里村公交站南行30米路东,房山区,北京市,1,39.78043,116.039744,中国农业银行(坨里分理处),北京市,,(010)80379136,bb1d38e4ebdacd4d0c0a70f7
北京市房山区良乡地区苏庄二里9号楼底商,房山区,北京市,1,39.732549,116.130615,中国农业银行(北京苏庄支行),北京市,0b47c6ad8fb55fdcd62ce2ba,(010)69319197,0b47c6ad8fb55fdcd62ce2ba
河北镇河南村33号,房山区,北京市,1,39.82322,115.942763,中国农业银行(河北分理处),北京市,5a29ec4c245f011182a00c6f,95599,5a29ec4c245f011182a00c6f
北京市房山区城关街道西大街10号,房山区,北京市,1,39.708162,115.987964,中国农业银行(北京房山城关支行),北京市,0a46dc0f833f265e306212fd,(010)69313030,0a46dc0f833f265e306212fd
房山区良乡北潞春家园E7号楼02号1层,房山区,北京市,1,39.74561,116.135596,中国农业银行(北京北潞园支行),北京市,865a4f6fb47ed5d115a19092,(010)69370740,865a4f6fb47ed5d115a19092
北京市房山区琉璃河二街村东街5号,房山区,北京市,1,39.608962,116.035623,中国农业银行(北京琉璃河支行),北京市,,(010)89381900,c21db9e5765e578300ff2dfe
北京市房山区周口店大街55号,房山区,北京市,1,39.68668,115.949925,中国农业银行(北京周口店支行),北京市,91c13f93bb35cffa21f017fd,"(010)69303740,(010)69301244",91c13f93bb35cffa21f017fd
阎吕路29附近,房山区,北京市,1,39.742288,116.099997,中国农业银行ATM,北京市,,,0b3590d22c5b791fed74f873
房窑路6号第一医院,房山区,北京市,1,39.699758,115.999007,中国农业银行ATM(房窑路),北京市,,,7d70540ea823feba1ef74da7
北京市房山区昊天北大街48号华冠天地F1,房山区,北京市,1,39.777151,116.175068,中国农业银行24小时自助银行(华冠天地),北京市,e158d2d1abfc99bbe5e9653b,,e158d2d1abfc99bbe5e9653b
大窦路与窦店北路交叉口东北100米,房山区,北京市,1,39.657973,116.076355,中国农业银行24h自助银行服务,北京市,,,ed37761d55debfff0f0a7041
顾郑路附近,房山区,北京市,1,39.623051,115.970777,中国农业银行24小时自助银行(赵各庄路),北京市,,,b80964255d8b9bbf4354d726
北京市房山区长泽南街祥云街徜徉嘉园8号院,房山区,北京市,1,39.765415,116.214755,中国农业银行24小时自助银行服务(北京祥云分理处),北京市,d6743641e39e6d3e260bd0e8,,d6743641e39e6d3e260bd0e8
北京市房山区万窑路琉璃河镇窑上村村民委员会,房山区,北京市,1,39.620923,116.210217,中国农业银行24小时自助银行(窑上村村委会东),北京市,,,b7103e4ee14defc97269d35b
北京市房山区广阳新路9号院1号楼中粮万科FUNMIX半岛广场F1,房山区,北京市,1,39.758742,116.216843,中国农业银行ATM(中粮万科FUNMIX半岛广场),北京市,58e7932d33e05ef8bea24099,,58e7932d33e05ef8bea24099
北潞园小区,房山区,北京市,1,39.745651,116.135658,中国农业银行24小时自助银行服务(北京北潞园支行),北京市,f29ab49df6b888bc8bf15dc7,,f29ab49df6b888bc8bf15dc7
北京市房山区青龙湖镇坨里大街,房山区,北京市,1,39.780313,116.039753,中国农业银行24小时自助银行(北京坨里分理处),北京市,,,251374c963bbad3ca01de9a2
万兴路86号,房山区,北京市,1,39.717977,116.199843,中国农业银行24小时自助银行(小清河桥),北京市,399169a58216847203ec011a,,399169a58216847203ec011a
琉璃河水泥厂宿舍北区44号水泥厂储蓄所,房山区,北京市,1,39.602367,116.049532,中国农业银行24小时自助银行(水泥厂分理处),北京市,,,f4460918f1b0286ab11e36fe
北京市房山区京昆路河北镇中心小学北,房山区,北京市,1,39.823176,115.942646,中国农业银行24小时自助银行(河北支行),北京市,dffd4642476e22b13d9a5eb9,,dffd4642476e22b13d9a5eb9
房山区良乡拱辰北大街19号,房山区,北京市,1,39.753408,116.147915,中国农业银行24小时自助银行(房山区支行),北京市,7388dffd21e25a95d3ff239d,,7388dffd21e25a95d3ff239d
良乡中路37号,房山区,北京市,1,39.737893,116.150974,中国农业银行24小时自助银行(北京文化路支行),北京市,25910f1be4481288130daab5,,25910f1be4481288130daab5
北京市房山区良乡地区苏庄二里9号楼底商,房山区,北京市,1,39.732512,116.130616,中国农业银行24小时自助银行(北京良乡支行),北京市,8ac426cb7006467f94ec84ad,,8ac426cb7006467f94ec84ad
北京市房山区琉璃河二街村东街5号,房山区,北京市,1,39.609006,116.035627,中国农业银行24小时自助银行(北京琉璃河分理处),北京市,,,09185c564130895df11937fe
北京市房山区城关街道西大街10号,房山区,北京市,1,39.708195,115.987911,中国农业银行24小时自助银行(北京房山城关支行),北京市,,,ef773a0ffeb7684a230220bc
北京市房山区长沟镇长沟大街甲19号,房山区,北京市,1,39.585681,115.906896,中国农业银行24小时自助银行(北京长沟支行),北京市,,,2c0bd6c5c87124aa43ab9ac1
北京市房山区周口店地区周口店大街55号,房山区,北京市,1,39.686671,115.949876,国农业银行24小时自助银行(北京周口店支行),北京市,5b25f446a7fb99ea102935fd,,5b25f446a7fb99ea102935fd
北京市房山区南大街177号附近,房山区,北京市,1,39.700243,115.990691,abc,北京市,,,639bc878e00055e7ed74f8a8
北京市房山区良乡ABC英语幼儿园(良乡东路北),房山区,北京市,1,39.737758,116.159727,ABC英语幼儿园,北京市,,,9d5786454a692f32c8c3db72
北京市通州区新华大街171号,通州区,北京市,1,39.913427,116.650465,中国农业银行(北京新华大街支行),北京市,a5ef680fb28c2dd7b9df8f16,(010)69541185,a5ef680fb28c2dd7b9df8f16
北京市通州区云景东路,通州区,北京市,1,39.886009,116.672438,中国农业银行(北京梨园支行),北京市,be21a7cdb11023131fe999a7,(010)81593920,be21a7cdb11023131fe999a7
北京市通州区九棵树西路翠屏里甲1号楼1-2号和1-4号商铺,通州区,北京市,1,39.894008,116.659197,中国农业银行(北京果园支行),北京市,764672e57f58e7ad94ec8416,(010)81593932,764672e57f58e7ad94ec8416
北京市通州区宋庄镇通怀路,通州区,北京市,1,39.949016,116.738356,中国农业银行(北京宋庄支行),北京市,,,b292b3aa79c8be56be48420f
北京市通州区西集镇,通州区,北京市,1,39.822635,116.888054,中国农业银行(北京西集支行),北京市,,(010)61576868,5620d6ac99dc1660ebe582c7
北京市通州区马驹桥商业街1号,通州区,北京市,1,39.7637,116.563052,中国农业银行(马驹桥支行),北京市,591ed88fa4478fc79e9d6879,(010)60509271,591ed88fa4478fc79e9d6879
北京市通州区次渠大街19号(美达大厦1层),通州区,北京市,1,39.808364,116.577838,中国农业银行(北京次渠支行),北京市,26f66c822593f692d4851f79,(010)69509959,26f66c822593f692d4851f79
北京市通州区张家湾镇光华路7号,通州区,北京市,1,39.863172,116.727702,中国农业银行(北京张家湾支行),北京市,2527be1ea260acb34afc8d16,(010)69572785,2527be1ea260acb34afc8d16
北京市通州区永乐店大街35号1至4幢,通州区,北京市,1,39.715558,116.795689,中国农业银行(北京永乐店支行),北京市,,(010)69568642,cb16963a42e5101e40afe629
北京市通州区经济技术开发区科创六街88号亦庄生物医药园内,通州区,北京市,1,39.808864,116.547095,中国农业银行(北京经海路支行),北京市,b6f648ae973e3e6ab14c496a,(010)56315368,b6f648ae973e3e6ab14c496a
北京市通州区八里桥南街1号9号楼,通州区,北京市,1,39.913941,116.642366,中国农业银行(通州区支行营业部),北京市,123e1546e0e417512ce67b7d,(010)80509954,123e1546e0e417512ce67b7d
北京市通州区玉桥东路11号1至2层11,通州区,北京市,1,39.897517,116.691664,中国农业银行(北京玉桥路支行),北京市,0a747e6e3cb6658ae115f98b,(010)80877970,0a747e6e3cb6658ae115f98b
北京市通州区潞苑南大街2号北100米,通州区,北京市,1,39.941707,116.709001,中国农业银行ATM(辛疃路),北京市,,,baa719c3c3e2c0a438e4a641
北京市通州区物资学院路3号院30号楼,通州区,北京市,1,39.93018,116.645591,中国农业银行24小时自助银行服务(物资学院路),北京市,32ff6c4977d5ce9280a00c3a,,32ff6c4977d5ce9280a00c3a
北京市通州区潞苑南大街925号,通州区,北京市,1,39.935834,116.687029,中国农业银行24小时自助银行,北京市,5ff9bff286eb06582fb17e2b,,5ff9bff286eb06582fb17e2b
北京市通州区云景东路1号西90米,通州区,北京市,1,39.889708,116.673041,中国农业银行24小时自助银行服务,北京市,a7ca3c2f9fdb21da43024566,,a7ca3c2f9fdb21da43024566
北京市通州区西上园3区甲10号东关分理处,通州区,北京市,1,39.909002,116.683483,中国农业银行24小时自助银行(北京通州东关分理处),北京市,4642844a208105d9c9fa5f11,,4642844a208105d9c9fa5f11
北京市通州区玉桥东路欣艺景苑中国农业银行,通州区,北京市,1,39.89737,116.691755,中国农业银行24小时自助银行(北京玉桥路支行),北京市,dd89470d1359ffd2b2077db8,,dd89470d1359ffd2b2077db8
北京市通州区通朝大街203号,通州区,北京市,1,39.899509,116.649228,中国农业银行24小时自助银行(北京联华分理处),北京市,75384cc693bfa686ce04efaa,,75384cc693bfa686ce04efaa
北京市通州区定海园二里15,通州区,北京市,1,39.804786,116.572623,中国农业银行24小时自助银行(科创九街),北京市,0494cb328054b6442fb908ff,,0494cb328054b6442fb908ff
次二村南6,通州区,北京市,1,39.808381,116.57769,中国农业银行24小时自助银行(北京次渠分理处),北京市,cde9e2c79ed1a2cae91e97aa,,cde9e2c79ed1a2cae91e97aa
北京市通州区康定街18号院3,通州区,北京市,1,39.778708,116.546375,中国农业银行24小时自助银行(康定街网点),北京市,6af17ea94c97ab7aa2d23064,,6af17ea94c97ab7aa2d23064
北京市通州区张家湾,通州区,北京市,1,39.863214,116.727731,中国农业银行24小时自助银行(北京张家湾支行),北京市,06d2dffd11cd40f688f15d11,,06d2dffd11cd40f688f15d11
通州区云景东路十九号,通州区,北京市,1,39.886162,116.672444,中国农业银行24小时自助银行(北京梨园支行),北京市,a31aa9be87176814fd0eb0a1,,a31aa9be87176814fd0eb0a1
北京市通州区翠屏里甲1号楼商4,通州区,北京市,1,39.894113,116.659468,中国农业银行24小时自助银行(北京果园支行),北京市,34059f97e04a925471455b11,,34059f97e04a925471455b11
马驹桥镇中心商业街1号(玉林烤鸭店旁),通州区,北京市,1,39.763823,116.562925,中国农业银行24小时自助银行(马驹桥镇中心商业街马桥分理处),北京市,69dee789300ce04cb2077d68,,69dee789300ce04cb2077d68
西集镇国防路甲33号,通州区,北京市,1,39.822577,116.888,中国农业银行24小时自助银行(北京西集分理处),北京市,,,7b6cae6a7447da258b2fb527
永乐大街35号,通州区,北京市,1,39.715665,116.795522,中国农业银行24小时自助银行(北京永乐店分理处),北京市,,,7c5e480b68b54fcaadb22a7a
北京市通州区八里桥南街1号通州营业室,通州区,北京市,1,39.913993,116.642252,中国农业银行24小时自助银行(北京通州支行营业部),北京市,fe26c28c30c5393ef03cba9d,,fe26c28c30c5393ef03cba9d
永顺镇安顺路335号,通州区,北京市,1,39.930211,116.661358,中国农业银行24小时自助银行(北京通州城关分理处),北京市,a76cb5380c3e1bf2725e803c,,a76cb5380c3e1bf2725e803c
北京市通州区中国农业银行(7天连锁酒店东南),通州区,北京市,1,39.9491,116.738366,中国农业银行24小时自助银行(北京宋庄支行),北京市,,,e56bf5e3de3ea33a0782c20f
北京市通州区新华东街248,通州区,北京市,1,39.914193,116.669936,中国农业银行24小时自助银行(新华东街),北京市,,,be4fd80bdd6dd2ad5bf6be42
北京市通州区新华大街171号,通州区,北京市,1,39.91342,116.650558,中国农业银行24小时自助银行(北京西关分理处),北京市,9a99869c3bb5d663da2f28cb,,9a99869c3bb5d663da2f28cb
北京市通州区科创六街北京亦庄生物医药园,通州区,北京市,1,39.808943,116.547512,中国农业银行24小时自助银行(北京经海路支行),北京市,b013edc90d5f96e94e554725,,b013edc90d5f96e94e554725
北京市顺义区牛栏山镇牛板路5号,顺义区,北京市,1,40.218796,116.664775,中国农业银行(北京牛栏山支行),北京市,81d6a50949d6cd406f20b9b5,(010)69411197,81d6a50949d6cd406f20b9b5
北京市顺义区张镇大街1号,顺义区,北京市,1,40.157391,116.958183,中国农业银行(北京张镇支行),北京市,d305db1f21fdfa3e922ca3b8,(010)61480793,d305db1f21fdfa3e922ca3b8
顺义区杨镇政府街1号,顺义区,北京市,1,40.158649,116.83739,中国农业银行(杨镇分理处),北京市,be54cde9efeff15879f796b9,(010)61451184,be54cde9efeff15879f796b9
北京市顺义区怡馨家园13号楼1层,顺义区,北京市,1,40.128039,116.656293,中国农业银行(北京新顺支行),北京市,bc24051ce914c357091cc798,(010)69461977,bc24051ce914c357091cc798
北京市顺义区马坡镇白马路顺城大街29号,顺义区,北京市,1,40.177262,116.659608,中国农业银行(北京马坡支行),北京市,25fa7e2255c4ed1d83a00c5c,(010)56441307,25fa7e2255c4ed1d83a00c5c
北京市顺义区石园南大街39号,顺义区,北京市,1,40.115379,116.668699,中国农业银行(北京石园支行),北京市,aa40108becced015c4effbbc,(010)89445414,aa40108becced015c4effbbc
北京市顺义区望泉家园甲6号楼,顺义区,北京市,1,40.133131,116.647377,中国农业银行(北京四季花城支行),北京市,a1418eb418926801eae582a8,(010)69447620,a1418eb418926801eae582a8
北京市顺义区裕民大街3号院1幢,顺义区,北京市,1,40.108301,116.563729,中国农业银行(北京后沙峪支行),北京市,,(010)61438473,db1ce84ebaea5d556c47608b
北京市天竺空港工业区蓝天大厦一层,顺义区,北京市,1,40.073304,116.568339,中国农业银行(北京科技园支行),北京市,f4ebfbfc10001b76ca09f01a,(010)80489146,f4ebfbfc10001b76ca09f01a
北京市顺义区仁和镇裕龙花园三区18号楼1层6号,顺义区,北京市,1,40.129612,116.677752,中国农业银行(北京拥军路支行),北京市,fa559c82034360fa990050e3,(010)61490795,7331147eb17cb602bca2404f
北京市顺义区绿港家园四区12号楼1层1088、1098、1168、1188,顺义区,北京市,1,40.141903,116.66938,中国农业银行(北京东兴路支行),北京市,cd10051180f2d9b95bf6be38,(010)61490138,cd10051180f2d9b95bf6be38
北京市顺义区石门街6号,顺义区,北京市,1,40.135363,116.641402,中国农业银行(北京宏城花园支行),北京市,49a02a7a0afa4e3e2a201a85,(010)69443189,49a02a7a0afa4e3e2a201a85
北京市顺义区顺通路7号,顺义区,北京市,1,40.11984,116.664375,中国农业银行(北京顺义城关支行),北京市,1cea15a9d6340dc506fef5bc,(010)69449774,1cea15a9d6340dc506fef5bc
北京市顺义区北小营镇政府前街牛栏山牛板路5号(临时),顺义区,北京市,1,40.205301,116.736032,中国农业银行(北京北小营分理处),北京市,a5097bfa39d05663f13cbab5,(010)60489579,a5097bfa39d05663f13cbab5
北京市顺义区顺于路石门市场鸡肉牛羊肉大厅附近,顺义区,北京市,1,40.135581,116.632012,中国农业银行24小时自助银行(市场分理处),北京市,f4a33da923d60d093110afbc,,f4a33da923d60d093110afbc
北京市顺义区裕民大街3号院1,顺义区,北京市,1,40.108207,116.563862,中国农业银行24小时自助银行(裕民大街),北京市,6ae29cbdec20978be115f958,,6ae29cbdec20978be115f958
下坡屯家园二区9,顺义区,北京市,1,40.224788,116.678589,中国农业银行24小时自助银行(下坡屯路),北京市,be457c72eb3a78ef5cd4fe6e,,be457c72eb3a78ef5cd4fe6e
北京市顺义区府前街北京开放大学(顺义分校)西,顺义区,北京市,1,40.135197,116.641636,中国农业银行个人贷款中心,北京市,728dc650bba5f31e3a13fd41,,728dc650bba5f31e3a13fd41
张镇大街1号,顺义区,北京市,1,40.157584,116.958284,中国农业银行ATM(北京张镇支行),北京市,bcf4ca31056fdbab25d2bba8,,bcf4ca31056fdbab25d2bba8
北京市顺义区石园南大街39号,顺义区,北京市,1,40.115301,116.668717,中国农业银行24小时自助银行(北京石园分理处),北京市,189dc55750bd6d7b21f01797,,189dc55750bd6d7b21f01797
北京市顺义区杨镇政府街1号,顺义区,北京市,1,40.158706,116.837359,中国农业银行ATM(北京杨镇支行),北京市,55fa2c0bc4ed1c2d1de999b9,,55fa2c0bc4ed1c2d1de999b9
北京市顺义区金马工业区兴仁路11号院东北,顺义区,北京市,1,40.141096,116.58117,中国农业银行24小时自助银行(工业区连通路),北京市,84e7acd890c516d1b6f42fc6,,84e7acd890c516d1b6f42fc6
北京市顺义顺平路566号(首都机场海关大楼首层),顺义区,北京市,1,40.121295,116.614346,中国农业银行ATM(北京空港支行),北京市,e280fb5fc13d97d133621271,,e280fb5fc13d97d133621271
吉庆路与顺于路交叉口东150米,顺义区,北京市,1,40.133554,116.584128,中国农业银行24小时自助银行(顺于路),北京市,703e05c049ea1a9b88b9886c,,703e05c049ea1a9b88b9886c
北京市顺义区空港工业区B区蓝星花园西(裕华路),顺义区,北京市,1,40.094785,116.558126,中国农业银行24小时自助银行(裕华路),北京市,b97404edf8f7655fc4f02577,,b97404edf8f7655fc4f02577
首都国际机场民航华北管理局办公大楼南侧,顺义区,北京市,1,40.066784,116.591523,中国农业银行24小时自助银行(天北路),北京市,0d78b6525cc5a2e12b06cef4,,0d78b6525cc5a2e12b06cef4
牛栏山镇牛板路5号,顺义区,北京市,1,40.218801,116.664943,中国农业银行24h自助银行服务(牛栏山镇牛板路牛山分理处),北京市,0b0e1fcd95e0d0529d82ea4c,,0b0e1fcd95e0d0529d82ea4c
裕龙花园三区18-6,顺义区,北京市,1,40.129611,116.677822,中国农业银行24小时自助银行(北京拥军路支行),北京市,8a8912558992108f715e8042,,8a8912558992108f715e8042
北京市顺义区顺平辅线188,顺义区,北京市,1,40.137758,116.692791,中国农业银行24小时自助银行(顺义区市政维修管理处东),北京市,5963211da9bdafb4f7e73b8f,,5963211da9bdafb4f7e73b8f
北京市顺义区天竺镇空港开发A区天柱路28号,顺义区,北京市,1,40.073258,116.568444,中国农业银行24小时自助银行(北京科技园分理处),北京市,0b436e6ed903994cadb22ac6,,0b436e6ed903994cadb22ac6
望泉家园甲6,顺义区,北京市,1,40.133003,116.647177,中国农业银行24小时自助银行(四季花城分理处),北京市,33f82edce56479eb04026fab,,33f82edce56479eb04026fab
府前西街4号,顺义区,北京市,1,40.135976,116.657291,中国农业银行24小时自助银行(顺义支行营业部),北京市,2fd2beab81b0e22c7adbd25b,,2fd2beab81b0e22c7adbd25b
顺通路7号,顺义区,北京市,1,40.119744,116.664325,中国农业银行24小时自助银行(北京顺义城关支行),北京市,00f1c7fb2398311fc156acbc,,00f1c7fb2398311fc156acbc
北京市顺义区顺通路27号,顺义区,北京市,1,40.105644,116.666718,中国农业银行24小时自助银行(双平西街),北京市,e32dc008ee7d729fc42ba11f,,e32dc008ee7d729fc42ba11f
北京市顺义区北小营镇府前街南侧,顺义区,北京市,1,40.20534,116.735979,中国农业银行24小时自助银行(北京北小营分理处),北京市,4a7457136eae2bfdb9df8fa1,,4a7457136eae2bfdb9df8fa1
北京市顺义区马坡镇白马路顺城大街29号,顺义区,北京市,1,40.177169,116.65955,中国农业银行24小时自助银行(马坡镇人民政府西),北京市,5ffb1816aa12b9216e4760b4,,5ffb1816aa12b9216e4760b4
北京市顺义区怡馨家园13号楼1层,顺义区,北京市,1,40.127749,116.656343,中国农业银行24小时自助银行(北京新顺支行),北京市,e3a7fd13bcb8032c28b97c51,,e3a7fd13bcb8032c28b97c51
石园东路与石园大街交叉口西150米,顺义区,北京市,1,40.11846,116.674339,中国农业银行24小时自助银行(石园大街),北京市,7866e0c1eed853776240a9b5,,7866e0c1eed853776240a9b5
北京市昌平区回龙观东大街天龙苑25号楼1层,昌平区,北京市,1,40.086809,116.361097,中国农业银行(北京回龙观东区支行),北京市,af35533f3fff5bdbc9c3db68,,af35533f3fff5bdbc9c3db68
百沙路青年创业大厦a座,昌平区,北京市,1,40.156006,116.298178,中国农业银行(北京沙河支行),北京市,383c3bb43897195a1b11d587,,383c3bb43897195a1b11d587
北京市昌平区南口镇交通街87号东侧1幢等8幢,昌平区,北京市,1,40.244993,116.135736,中国农业银行(北京南口支行),北京市,0622ea0b0478e27cc6effb16,(010)69771428,0622ea0b0478e27cc6effb16
北京市昌平区念头工业区,昌平区,北京市,1,40.189477,116.176451,中国农业银行(北京念头支行),北京市,50f7d1461e7409c472210b0d,(010)60755754,50f7d1461e7409c472210b0d
北京市昌平区东小口镇霍营新村西新晨商场东侧1号1层,昌平区,北京市,1,40.081122,116.374396,中国农业银行(北京霍营支行),北京市,2e00c5dd58898c1cd7851f63,(010)69797884,2e00c5dd58898c1cd7851f63
北京市昌平区府学路29号阳光商厦F1,昌平区,北京市,1,40.227292,116.249986,中国农业银行(东环分理处),北京市,9ee7cc78f14dbc7016c9050d,(010)89701423,9ee7cc78f14dbc7016c9050d
北京市昌平区阳坊村西大街59号1幢等5幢,昌平区,北京市,1,40.147033,116.148546,中国农业银行(北京阳坊支行),北京市,5d34467e0d43d2e25fbe8639,,5d34467e0d43d2e25fbe8639
北京市昌平区北七家镇八仙庄村翔鸿科技孵化基地10号,昌平区,北京市,1,40.126609,116.429205,中国农业银行(北京北七家支行),北京市,7c5e480bc696d1c9adb22a55,(010)89759238,7c5e480bc696d1c9adb22a55
北京市昌平区南环东路东关南里小区31号楼1至3层商业楼,昌平区,北京市,1,40.219538,116.254872,中国农业银行(北京东关南里支行),北京市,cc788fde045f2e8a88fc060d,(010)89709008,cc788fde045f2e8a88fc060d
北京市昌平区东小口镇天通苑五区30号楼,昌平区,北京市,1,40.070473,116.420688,中国农业银行(北京天通西苑支行),北京市,669775d0a39eed5bfd0eb01d,(010)84842897,669775d0a39eed5bfd0eb01d
北京市昌平区顺沙路小汤山镇西口路南(网通营业厅西侧),昌平区,北京市,1,40.18182,116.392483,中国农业银行(北京小汤山支行),北京市,0dc3d82d4b0eb06c75e5b608,(010)61781282,0dc3d82d4b0eb06c75e5b608
北京市昌平区北七家镇天通苑东苑二区1号楼16-17门,昌平区,北京市,1,40.074105,116.443826,中国农业银行(北京天通东苑支行),北京市,75d0881a0263c54d3a04b11d,"(010)61747344,(010)61747343",75d0881a0263c54d3a04b11d
北京市昌平区天通苑东苑一区33号楼11单元,昌平区,北京市,1,40.071955,116.439036,中国农业银行(北京天通苑东一区支行),北京市,6ea5863ffe7badf621022008,(010)80124253,6ea5863ffe7badf621022008
北京市昌平区西环路25号蓝郡嘉苑底商,昌平区,北京市,1,40.225534,116.233146,中国农业银行(北京昌平支行营业部),北京市,bd1717df2f117681a8175a45,(010)69742069,bd1717df2f117681a8175a45
中关村南大街27号中国民族大学附近,昌平区,北京市,1,40.221069,116.239074,中国农业银行24小时自助银行(商业街),北京市,87a4fe06e02cf62532870a65,,87a4fe06e02cf62532870a65
北京市昌平区阳坊镇昌流路南(马池口镇中心幼儿园东北200米),昌平区,北京市,1,40.191566,116.193069,中国农业银行24小时自助银行(马池口红冶家属院东),北京市,4eb3b5339500b90843024551,,4eb3b5339500b90843024551
天龙苑25,昌平区,北京市,1,40.083359,116.332718,中国农业银行24小时自助银行(北京回龙观支行),北京市,edd64ce1a66799913fe23163,,edd64ce1a66799913fe23163
北京市昌平区延寿镇昭陵环陵路定陵博物馆,昌平区,北京市,1,40.300043,116.234549,中国农业银行ATM(环陵路),北京市,,,39c93770a7d42c401df74d66
北京市昌平区沙河富生路巩华新村附近,昌平区,北京市,1,40.122616,116.265252,中国农业银行ATM(富生路),北京市,,,5cf68a611968d134f50e77a6
邻近温南路,昌平区,北京市,1,40.215957,116.124899,中国农业银行24小时自助银行,北京市,4f6bbf975e1bf7680d0e6b62,,4f6bbf975e1bf7680d0e6b62
北京市昌平区天通东苑一区33,昌平区,北京市,1,40.071704,116.439733,中国农业银行24小时自助银行服务(太平庄中街),北京市,7780fcacd896549a07026f37,,7780fcacd896549a07026f37
北京市昌平区流星花园三区39号,昌平区,北京市,1,40.095242,116.347272,中国农业银行24小时自助银行(北京流星花园支行),北京市,0cceca93a7c82737873304ca,,0cceca93a7c82737873304ca
北京市昌平区格林豪泰酒店(北七家立汤路店),昌平区,北京市,1,40.134353,116.417189,中国农业银行24小时自助银行(立汤路),北京市,,,03bfe83739b446cb4207c1e2
北京市昌平区小汤山顺沙路龙脉温泉度假村南门,昌平区,北京市,1,40.186274,116.406469,中国农业银行24小时自助银行(富来宫温泉公寓西),北京市,,,48eb0058d043d6d02fe67b50
北京市昌平区东小口镇霍营新村西新晨商场东侧1号1层1-1,昌平区,北京市,1,40.081118,116.374323,中国农业银行24小时自助银行(北京霍营支行),北京市,f4460918f1d7286ab11e3663,,f4460918f1d7286ab11e3663
白浮泉路10号2号楼(北控科技大厦一层),昌平区,北京市,1,40.205311,116.241337,中国农业银行24小时自助银行(白浮泉路北控科技大厦科技园区分理处),北京市,1f10aee373cba2758605bf87,,1f10aee373cba2758605bf87
沙河镇百沙路青年创业大厦,昌平区,北京市,1,40.155705,116.298237,中国农业银行24小时自助银行(北京沙河支行),北京市,,,52185dbb3266a87995031980
天通苑5区30号楼,昌平区,北京市,1,40.070326,116.420676,中国农业银行24小时自助银行服务(天通苑),北京市,06211e3ff9e158ff5e17c3ad,,06211e3ff9e158ff5e17c3ad
北京市昌平区小汤山镇西口路南,昌平区,北京市,1,40.181911,116.392455,中国农业银行24小时自助银行(北京小汤山分行),北京市,e889a744b54f60b58605bf08,,e889a744b54f60b58605bf08
北京市昌平区府学路18号中国石油大学北京分部,昌平区,北京市,1,40.226804,116.253712,中国农业银行24小时自助银行(昌平东环分理处),北京市,e43340df3b0313dcbda2407b,,e43340df3b0313dcbda2407b
北京市昌平区西环路25号蓝郡嘉苑25号13号楼,昌平区,北京市,1,40.225518,116.233081,中国农业银行24小时自助银行(北京昌平支行营业室),北京市,00d8bdb5cd0c1640dbeced23,,00d8bdb5cd0c1640dbeced23
北京市昌平区沙河巩华家园西二村(丰善东路),昌平区,北京市,1,40.151324,116.290873,中国农业银行24小时自助银行服务(丰善东路),北京市,94333be2327a91b9b6147fa1,,94333be2327a91b9b6147fa1
北京市昌平区西三旗中腾建华商务大厦,昌平区,北京市,1,40.064426,116.342541,中国农业银行24小时自助银行服务(西三旗支行),北京市,8c1c835e7826942f1894c665,,8c1c835e7826942f1894c665
北京市昌平区北七家镇宏福苑A号楼底商,昌平区,北京市,1,40.118393,116.37794,中国农业银行24小时自助银行服务(宏福分理处),北京市,faee4efb934011822fe67bd8,,faee4efb934011822fe67bd8
城南街道南口路29号乐多港奥特莱斯购物中心1F层,昌平区,北京市,1,40.237829,116.196168,中国农业银行24小时自助银行(乐多港奥特莱斯购物中心),北京市,1bfe2d2ffc5513164d2fdfba,,1bfe2d2ffc5513164d2fdfba
昌平区西环路6号,昌平区,北京市,1,40.23383,116.233372,中国农业银行24小时自助银行服务(昌平镇西环路),北京市,60ec8e23f7df3c8d7ab55c65,,60ec8e23f7df3c8d7ab55c65
北京市昌平区京藏高速辅路,昌平区,北京市,1,40.12534,116.278499,中国农业银行24小时自助银行(沙河医院南),北京市,ad0737c30f646fb3f60e775f,,ad0737c30f646fb3f60e775f
北京市昌平区北七家镇八仙庄村翔鸿科技孵化基地10号,昌平区,北京市,1,40.126502,116.42917,中国农业银行24小时自助银行(北七家镇工业园),北京市,923ffd009818cccad92f2855,,923ffd009818cccad92f2855
北京市昌平区昌平镇东关南里小区31号楼1至3层,昌平区,北京市,1,40.219559,116.254996,中国农业银行24小时自助银行服务(北京东关南里支行),北京市,a1418eb42dcd5301ebe58273,,a1418eb42dcd5301ebe58273
北京市昌平区南环路化工大学院内,昌平区,北京市,1,40.220672,116.259991,中国农业银行24小时自助银行(南环路化工大学院内),北京市,,,122c6e4e4633bca203ff2d5b
天龙苑25,昌平区,北京市,1,40.08682,116.361228,中国农业银行24小时自助银行(北京回龙观东区支行),北京市,12db099aa70291fda7da39e3,,12db099aa70291fda7da39e3
北京市昌平区阳坊镇西大街59号阳坊分理处,昌平区,北京市,1,40.147063,116.148536,中国农业银行24小时自助银行服务(北京阳坊分理处),北京市,25ec69fc595a547dc26c141f,,25ec69fc595a547dc26c141f
北京市昌平区北七家镇天通苑东苑二区1号楼16-17门,昌平区,北京市,1,40.074179,116.443804,中国农业银行24小时自助银行服务(北京天通东苑支行),北京市,e3082848bd5211bfb34c491c,,e3082848bd5211bfb34c491c
北京市昌平区马池口镇念头工业区,昌平区,北京市,1,40.189392,116.176613,中国农业银行24小时自助银行(念头支行),北京市,60df9df96bdea6bc0ab93aef,,a47d29905561ac3ec8c3db5e
北京市昌平区鼓楼南街17号新世纪商城5层,昌平区,北京市,1,40.22461,116.2398,ABC(新世纪商城店),北京市,c1296cf1a1ab97f8f7b916d3,,c1296cf1a1ab97f8f7b916d3
北京市大兴区兴丰南大街128号,大兴区,北京市,1,39.731599,116.346624,中国农业银行(大兴支行),北京市,b186cb557d0a0e374d2fdfc4,,b186cb557d0a0e374d2fdfc4
北京市大兴区旧宫镇旧宫西路19号,大兴区,北京市,1,39.810924,116.447078,中国农业银行(北京红星支行),北京市,bcd05f58373eeb6479b55c80,(010)87961587,bcd05f58373eeb6479b55c80
黄村镇黄村西大街27号,大兴区,北京市,1,39.738143,116.33876,中国农业银行(北京兴华大街支行),北京市,eb610a6b62f49572abf72965,(010)60211373,eb610a6b62f49572abf72965
经济技术开发区泰河园五里亦城茗苑18号楼一层105号,大兴区,北京市,1,39.770544,116.517223,中国农业银行(北京博兴路支行),北京市,e12987162a4f69dbc256ac6d,(010)67814532,e12987162a4f69dbc256ac6d
北京市大兴区南中轴路,大兴区,北京市,1,39.558237,116.435807,中国农业银行(大兴支行),北京市,,,2e6b3e37165a339c3310af64
北京市大兴区芳源里7号楼1至2层,大兴区,北京市,1,39.79008,116.427381,中国农业银行(北京德茂支行),北京市,bb8629906785094e88db730a,(010)67976307,bb8629906785094e88db730a
北京市大兴区富强路99号,大兴区,北京市,1,39.743393,116.336769,中国农业银行(清城分理处),北京市,e6ee2fd2869e8c4b2a11d1a9,(010)69244794,e6ee2fd2869e8c4b2a11d1a9
北京市大兴区黄村镇榆垡镇,大兴区,北京市,1,39.516195,116.326879,中国农业银行(北京榆垡支行),北京市,,95599,8a7e61c2c5a728e28505bf87
北京市大兴区双高路7号楼14-15室,大兴区,北京市,1,39.776942,116.341331,中国农业银行(郁花园分理处),北京市,0523a14175484b1db23c81e4,(010)60267042,0523a14175484b1db23c81e4
北京市大兴区安定镇兴安大街,大兴区,北京市,1,39.623666,116.501465,中国农业银行(北京安定支行),北京市,,(010)80231144,d146b3889a12a4de740269f1
北京市大兴区亦庄经济技术开发区西环北路18号星岛假日一层,大兴区,北京市,1,39.807395,116.487118,中国农业银行(北京富源支行),北京市,a7c56ee0af24c3b3a2acc49c,(010)67826318,a7c56ee0af24c3b3a2acc49c
北京经济技术开发区地盛北街1号院40号楼1层116至117号,大兴区,北京市,1,39.792039,116.503888,中国农业银行(北京荣京西街支行),北京市,5bdc195249d86ee60f0a7022,(010)87926101,5bdc195249d86ee60f0a7022
北京市大兴区枣园东里12号楼6-7号,大兴区,北京市,1,39.756185,116.341838,中国农业银行(北京彩虹新城支行),北京市,ea622e940cf6c7ab32870a1d,(010)69222619,ea622e940cf6c7ab32870a1d
康庄路53号院8-9,大兴区,北京市,1,39.763281,116.31794,中国农业银行(北京福海路支行),北京市,7c5d22c88fa379866c4760df,,7c5d22c88fa379866c4760df
北京市经济技术开发区文化园西路8号院32号楼,大兴区,北京市,1,39.808689,116.497839,中国农业银行(北京北环西路支行),北京市,da5fc4d1eb30aa178c55ecfd,(010)67809167,da5fc4d1eb30aa178c55ecfd
北京市大兴区欣荣北大街45号院3号楼1层,大兴区,北京市,1,39.796333,116.34971,中国农业银行(北京西红门支行),北京市,a1418eb4755d8b7febe582e4,(010)60209237,a1418eb4755d8b7febe582e4
北京生物工程与医药产业基地天富大街10号101室,大兴区,北京市,1,39.687986,116.308292,中国农业银行(北京天富路支行),北京市,00586108d8db78d846e274d1,(010)61251032,00586108d8db78d846e274d1
北京市大兴区富强路2号1层104号,大兴区,北京市,1,39.742952,116.349897,中国农业银行(北京黄村东大街支行),北京市,beabdbf4e0dbd09b7169d3a9,(010)69241798,beabdbf4e0dbd09b7169d3a9
北京市大兴区工业开发区金苑路2号,大兴区,北京市,1,39.764826,116.352748,中国农业银行(北京大兴工业开发区支行),北京市,923ffd00c29be2cad92f28da,"(010)60213877,(010)60213873",923ffd00c29be2cad92f28da
礼贤镇刘田路大辛庄中学公交站西50米,大兴区,北京市,1,39.555905,116.353277,中国农业银行24小时自助银行,北京市,,,73735fd5d63f06b6ae0457f9
北京市大兴区东高地红星小区(红星街东100米),大兴区,北京市,1,39.811463,116.433572,中国农业银行24小时自助银行,北京市,6db3c64f12f41b953fe23183,,6db3c64f12f41b953fe23183
民生路与隆丰大街交叉口西150米,大兴区,北京市,1,39.632209,116.329307,中国农业银行24小时自助银行,北京市,,,d7f4551c1f0ed43df21937b1
黄村镇林校北路12号林校路储蓄所,大兴区,北京市,1,39.727925,116.344302,中国农业银行24小时自助银行服务(北京博兴路支行),北京市,d684e04bba560d891e389489,,d684e04bba560d891e389489
北京市大兴区芳源里7号楼,大兴区,北京市,1,39.789988,116.427342,中国农业银行24小时自助银行(北京德茂支行),北京市,ae136ed80be193282cb17ecd,,ae136ed80be193282cb17ecd
北京市大兴区地盛北街1号,大兴区,北京市,1,39.79228,116.503799,中国农业银行24小时自助银行(北京荣京西街支行),北京市,5a761ba760ae0600f21937e4,,5a761ba760ae0600f21937e4
北京市大兴区小红门路002,大兴区,北京市,1,39.818706,116.462416,中国农业银行24小时自助银行(宣颐路),北京市,2e7969af83c3620bd3f49e3c,,2e7969af83c3620bd3f49e3c
德茂佳苑1号,大兴区,北京市,1,39.783814,116.444467,中国农业银行24小时自助银行(德茂街),北京市,b7a77a59f30d9f33631c6741,,b7a77a59f30d9f33631c6741
北京市大兴区旧宫西路19号,大兴区,北京市,1,39.810954,116.447157,中国农业银行24小时自助银行(北京红星分理处),北京市,251374c9d1ff3f3fa01de99c,,251374c9d1ff3f3fa01de99c
双高路7-14号,大兴区,北京市,1,39.777041,116.341455,中国农业银行24小时自助银行(北京郁花园分理处),北京市,083a55fa38f61279246e98e4,,083a55fa38f61279246e98e4
兴丰大街三段128,大兴区,北京市,1,39.731551,116.346366,中国农业银行24小时自助银行(大兴区支行),北京市,167cfde280c41758abf729cc,,167cfde280c41758abf729cc
北京市天富路大街9号,大兴区,北京市,1,39.688087,116.308249,中国农业银行24小时自助银行(北京天富路分理处),北京市,0523a141e681d81eb33c81a9,,0523a141e681d81eb33c81a9
北京市大兴区黄村镇富强西路99-101号,大兴区,北京市,1,39.743552,116.336993,中国农业银行24小时自助银行(北京清城支行),北京市,9e07dc343ae38bafd22dd699,,9e07dc343ae38bafd22dd699
北京市大兴区采育镇采育大街10号,大兴区,北京市,1,39.660676,116.631389,中国农业银行24小时自助银行(采育分理处),北京市,,,161a0ed29434db2e5dd4febe
泰河园五里亦城茗苑18号楼一层105号,大兴区,北京市,1,39.770551,116.517205,中国农业银行24小时自助银行(北京博兴路支行),北京市,ed894dc9ee30e14320022075,,ed894dc9ee30e14320022075
北京市大兴区文化园西路8号,大兴区,北京市,1,39.808677,116.497801,中国农业银行24小时自助银行(北京北环西路支行),北京市,a17ec4d2b8697fa78bb98891,,a17ec4d2b8697fa78bb98891
"北京市大兴区欣荣北大街45号院3号楼1层6,7,8商铺",大兴区,北京市,1,39.796401,116.349801,中国农业银行24小时自助银行(北京西红门支行),北京市,50f570d74872d1327069d368,,50f570d74872d1327069d368
黄村镇兴华大街27号,大兴区,北京市,1,39.738091,116.338945,中国农业银行24小时自助银行(北京兴华大街支行),北京市,85a516e50681578cf8dc85ff,,85a516e50681578cf8dc85ff
北京市大兴区兴丰大街62号,大兴区,北京市,1,39.737909,116.346613,中国农业银行24小时自助银行(兴丰大街),北京市,605df08ae487c1a15b1093ad,,605df08ae487c1a15b1093ad
康庄路53号院8之7-8,大兴区,北京市,1,39.763347,116.318045,中国农业银行24小时自助银行服务(福海路支行),北京市,882f66ff12f140b8b6147f26,,882f66ff12f140b8b6147f26
北京市大兴区榆垡镇榆垡路,大兴区,北京市,1,39.51639,116.326645,中国农业银行24小时自助银行(北京榆垡支行),北京市,,,a3f21eeea3ab88442fb17ef7
北京市大兴区经济技术开发区中和街3号,大兴区,北京市,1,39.803545,116.515439,中国农业银行24小时自助银行(北京经济技术开发区支行营业部),北京市,bff8fa7d4b69a7a1c8213d62,,bff8fa7d4b69a7a1c8213d62
北京市大兴区亦庄经济技术开发区西环北路18号,大兴区,北京市,1,39.807361,116.487131,中国农业银行24小时自助银行服务(北京富源支行),北京市,87248d96945ad1ce2906ce9a,,87248d96945ad1ce2906ce9a
玉璟园1,大兴区,北京市,1,39.771347,116.461565,中国农业银行24小时自助银行(玉璟园北),北京市,54436ba4e76b30063913fd56,,54436ba4e76b30063913fd56
北京市大兴区富强路2号1层104,大兴区,北京市,1,39.742922,116.349868,中国农业银行24小时自助银行(北京黄村东大街支行),北京市,4642844a8bf2daa7c9fa5fe2,,4642844a8bf2daa7c9fa5fe2
枣园东里12-5,大兴区,北京市,1,39.756288,116.34194,中国农业银行24小时自助银行(北京彩虹新城分理处),北京市,8a18ad50413733932bd7ab2c,,8a18ad50413733932bd7ab2c
北京市大兴区金苑路3号,大兴区,北京市,1,39.764946,116.352757,中国农业银行24小时自助银行(大兴工业开发区支行),北京市,4a4e13a0aede92b0714b875c,,4a4e13a0aede92b0714b875c
创新路1号,大兴区,北京市,1,39.763517,116.281972,中国农业银行24小时自助银行(外研社国际会议中心东北),北京市,2c0bd6c5cb6c25aa43ab9ae4,,2c0bd6c5cb6c25aa43ab9ae4
北京市大兴区青云店镇车站路20号1幢等5幢,大兴区,北京市,1,39.683811,116.515722,中国农业银行24小时自助银行(北京青云店支行),北京市,,,504d6113a9e726cd4657260f
北京市大兴区安定镇兴安大街,大兴区,北京市,1,39.623628,116.501554,中国农业银行24小时自助银行(北京安定分理处),北京市,,,8fde79cc011f22bc94ca07b4
天河北路10号,大兴区,北京市,1,39.697397,116.348435,中国农业银行24小时自助银行(天河北路),北京市,,,f880045874172c22f4e73be4
北京市大兴区旧宫西路1-3号旧宫商厦F3,大兴区,北京市,1,39.811261,116.449057,ABC(旧宫商厦店),北京市,a9c109079df1ac83132935bb,,a9c109079df1ac83132935bb
北京市怀柔区开放路99号,怀柔区,北京市,1,40.33447,116.650679,中国农业银行(北京怀柔东环支行),北京市,b9e5d0b8344d39bc81a12e72,(010)69641626,b9e5d0b8344d39bc81a12e72
北京市怀柔区富乐小区北里25号,怀柔区,北京市,1,40.340249,116.63708,中国农业银行(北京城北支行),北京市,d1469ee75f133e6384330474,(010)69645710,d1469ee75f133e6384330474
北京市怀柔区湖光小区青春路甲54号,怀柔区,北京市,1,40.332219,116.637282,中国农业银行(北京湖光支行),北京市,e0f871002a2feacfc16c144d,(010)69643717,e0f871002a2feacfc16c144d
富乐大街26号院11,怀柔区,北京市,1,40.347739,116.637551,中国农业银行(北京红螺支行),北京市,92b806d2ad46ec8379b55c20,(010)89688975,92b806d2ad46ec8379b55c20
北京市怀柔区庙城镇庙城村510号1幢1至2层,怀柔区,北京市,1,40.299453,116.63453,中国农业银行(北京庙城支行),北京市,c7eca12b84e69936e115f93e,(010)60693257,c7eca12b84e69936e115f93e
北京市怀柔区府前东街12号楼7至8号,怀柔区,北京市,1,40.322605,116.647051,中国农业银行(北京迎宾支行),北京市,2bcbc54cdb894e3c2202208b,95599,0ce65c2d6b6f7d592d473372
北京市怀柔区金台园甲56号,怀柔区,北京市,1,40.327879,116.645463,中国农业银行(北京兴怀大街支行),北京市,442076466958d516deee8b23,(010)69644532,442076466958d516deee8b23
北京市怀柔区,怀柔区,北京市,1,40.415641,116.695159,中国农业银行(北京怀北庄支行),北京市,,,62425a06a095bf8413293555
北京市怀柔区雁栖经济开发区雁栖路31号,怀柔区,北京市,1,40.358444,116.690489,中国农业银行(北京雁栖开发区支行),北京市,9e8cea88d259c725c51b75ca,(010)61665856,9e8cea88d259c725c51b75ca
北京市怀柔区大星发农发地农副产品批发市场,怀柔区,北京市,1,40.342267,116.652559,中国农业银行ATM,北京市,,,15bd45f5c7ae5b6cf603b807
青春路39,怀柔区,北京市,1,40.335023,116.636622,中国农业银行24小时自助银行(北京怀柔支行),北京市,f9fd6062166dc81e0f0e6b13,,f9fd6062166dc81e0f0e6b13
府前东街12-7-8,怀柔区,北京市,1,40.322616,116.646846,中国农业银行24小时自助银行(北京迎宾分理处),北京市,86baa363def4bcb84bcc4af6,,86baa363def4bcb84bcc4af6
北京市怀柔区开放路99号,怀柔区,北京市,1,40.334324,116.650858,中国农业银行24小时自助银行(怀柔东环分理处),北京市,a2b2da7d61d80213cafa5f28,,a2b2da7d61d80213cafa5f28
富乐小区北里25-1号,怀柔区,北京市,1,40.340115,116.637259,中国农业银行24小时自助银行(北京城北支行),北京市,42ec491ac966c3ca940319bf,,42ec491ac966c3ca940319bf
府前街14号物美京北大世界1层,怀柔区,北京市,1,40.320922,116.639991,中国农业银行24小时自助银行(金地大厦东北),北京市,1651ab0fb6bc771c08ccdda0,,1651ab0fb6bc771c08ccdda0
北京市怀柔区幸福东街5号,怀柔区,北京市,1,40.331921,116.715508,中国农业银行24小时自助银行(幸福大街),北京市,64522ec9fe073472f72310fd,,64522ec9fe073472f72310fd
北京市怀柔区金台园甲56号,怀柔区,北京市,1,40.327843,116.645472,中国农业银行24小时自助银行(北京兴怀大街支行),北京市,4f6e9b4a6e27240d8bdb73e0,,4f6e9b4a6e27240d8bdb73e0
北京市怀柔区于家园南街6号,怀柔区,北京市,1,40.331856,116.648315,中国农业银行24小时自助银行(北京怀柔支行营业部),北京市,,,8c8ddcec0cfe7abf2a02e125
北京市怀柔区雁栖经济开发区雁栖路31号,怀柔区,北京市,1,40.358609,116.690339,中国农业银行24小时自助银行(北京雁栖开发区支行),北京市,be54cde9ca7a9e2578f79623,(010)61665856,be54cde9ca7a9e2578f79623
北京市怀柔区富乐大街26号院11号,怀柔区,北京市,1,40.347754,116.637662,中国农业银行24小时自助银行(北京红螺分理处),北京市,9ee392b87569753cbbbd6320,,9ee392b87569753cbbbd6320
北京市怀柔区庙城镇庙城村510号1幢1至2层,怀柔区,北京市,1,40.299412,116.634581,中国农业银行24小时自助银行(北京庙城支行),北京市,15ed53ce612282549222e072,,15ed53ce612282549222e072
平谷镇渔阳花园AB座7-8号楼,平谷区,北京市,1,40.151552,117.124422,中国农业银行(北京渔阳支行),北京市,454675d18a50688d25e0a000,"(010)61993965,(010)66961393",454675d18a50688d25e0a000
北京市平谷区紫贵庄园9-7、9-8、9-9,平谷区,北京市,1,40.150749,117.106349,中国农业银行(北京紫贵支行),北京市,05c6cdcab2658c410bccddf8,(010)69963594,05c6cdcab2658c410bccddf8
北京市平谷区峪口镇峪阳路29号5幢1至3层全部,平谷区,北京市,1,40.192255,117.021693,中国农业银行(北京峪口支行),北京市,108b1ceafa70fdac3586f4cb,(010)61905637,108b1ceafa70fdac3586f4cb
马坊西大街7号,平谷区,北京市,1,40.060944,117.014549,中国农业银行(马坊分理处),北京市,,(010)60996020,3d78bdfe17b9b65c4102457f
"北京市平谷区平谷镇平翔路2号院6号楼2,3,4号",平谷区,北京市,1,40.160559,117.128786,中国农业银行(北京平谷城关支行),北京市,53349ee3cb6fc36e220262c9,95599,53349ee3cb6fc36e220262c9
北京市平谷区平谷镇金乡路1号,平谷区,北京市,1,40.154923,117.117334,中国农业银行(北京新平北路支行),北京市,a5a5939b2188cf858bdb7359,(010)89997230,a5a5939b2188cf858bdb7359
北京市平谷区新平东路甲12号1幢,平谷区,北京市,1,40.149879,117.130315,中国农业银行(北京新平东路支行),北京市,89fd4ea3fa864445e5e96568,(010)69973622,89fd4ea3fa864445e5e96568
北京市平谷区兴谷工业开发区兴谷路20号综合楼1层,平谷区,北京市,1,40.167019,117.13916,中国农业银行(兴谷开发区分理处),北京市,2c0bd6c5c84824aa43ab9ac8,(010)69959277,2c0bd6c5c84824aa43ab9ac8
北京市平谷区西大街西路7号,平谷区,北京市,1,40.061115,117.014584,中国农业银行24小时自助银行(马坊分理处),北京市,,,4341cddecec50c9b6c4760b0
文化南街6-12号,平谷区,北京市,1,40.143457,117.116599,中国农业银行24小时自助银行(建设西街),北京市,07e958e2324876b7e115f949,,07e958e2324876b7e115f949
北京市平谷区峪口镇峪阳路29号峪口分理处,平谷区,北京市,1,40.192249,117.021694,中国农业银行24小时自助银行(峪口分理处),北京市,e8aac96a86b8c1a84afd3ffc,,e8aac96a86b8c1a84afd3ffc
北京市平谷区林荫南街9-4号,平谷区,北京市,1,40.147094,117.121692,中国农业银行24小时自助银行(府前街),北京市,cc0849a011a6392e940319c3,,cc0849a011a6392e940319c3
北京市平谷区兴谷工业开发区兴谷路20号综合楼一层,平谷区,北京市,1,40.167072,117.13912,中国农业银行24小时自助银行(北京兴谷开发区支行),北京市,bd5046e8eeb3ca3fd72ce26d,,bd5046e8eeb3ca3fd72ce26d
北京市平谷区新平东路甲12号1幢,平谷区,北京市,1,40.14979,117.13031,中国农业银行24小时自助银行(北京新平东路支行),北京市,708151c01dcbac280e3ddaae,,708151c01dcbac280e3ddaae
北京市平谷区平翔路2号院4号城关分理处,平谷区,北京市,1,40.160515,117.128718,中国农业银行24小时自助银行(北京平谷城关分理处),北京市,cd9d05ddf888ffb685420ec9,,cd9d05ddf888ffb685420ec9
北京市平谷区金乡路3号附近,平谷区,北京市,1,40.154866,117.117355,中国农业银行24小时自助银行(北京新平北路支行),北京市,0d28b9a3485701ef28b97cba,,0d28b9a3485701ef28b97cba
"北京市平谷区紫贵庄园9-7,9-8,9-9",平谷区,北京市,1,40.150734,117.10649,中国农业银行24小时自助银行(北京紫贵支行),北京市,803708f1e545d0070189722f,,803708f1e545d0070189722f
北京市平谷区新平东路,平谷区,北京市,1,40.149682,117.130289,中国农业银行个人贷款业务中心,北京市,076615880780cb1911882453,,076615880780cb1911882453
北京市平谷区平翔路2号院4-15,平谷区,北京市,1,40.161074,117.128805,北京农商银行24小时自助银行服务,北京市,4b0bb1243e05b462d618b77a,,4b0bb1243e05b462d618b77a
北京市密云区密云镇鼓楼东大街19-7号,密云区,北京市,1,40.382757,116.863774,中国农业银行(北京密云东门支行),北京市,314f05f5464c8042f503b870,"(010)69041139,(010)69043796",314f05f5464c8042f503b870
北京市密云区双燕街4-6号,密云区,北京市,1,40.373353,116.82737,中国农业银行(北京密云双井支行),北京市,31e50bda2b59c8ef9322e070,95599,31e50bda2b59c8ef9322e070
北京市密云区溪翁庄镇水库南线193号,密云区,北京市,1,40.480577,116.849193,中国农业银行(北京密云水库支行),北京市,f5e3bcae07eb3fc15f17c38d,95599,f5e3bcae07eb3fc15f17c38d
长安东区4-5,密云区,北京市,1,40.375894,116.850527,中国农业银行(北京密云檀州支行),北京市,0a46dc0f83cc265e31621290,(010)69044194,0a46dc0f83cc265e31621290
北京市密云区古北驿大街009号,密云区,北京市,1,40.652111,117.27266,中国农业银行(北京密云古北水镇支行),北京市,,95599,de704862cfab18964afc8def
北京市密云区阳光街406号楼1至2层105,密云区,北京市,1,40.369977,116.852555,中国农业银行(北京密云阳光街支行),北京市,,(010)69087543,4c80f0f96b4fb1638605bf97
北京市密云区新西路77-1号,密云区,北京市,1,40.381887,116.840874,中国农业银行(北京密云西大桥支行),北京市,37d60a46561fcf601f1d1190,(010)69043605,37d60a46561fcf601f1d1190
百世城商业街8栋,密云区,北京市,1,40.392645,116.864353,中国农业银行(北京密云滨阳分理处),北京市,,(010)69049407,fc6265af2b2211907bb55c57
北京市密云区鼓楼东大街25号,密云区,北京市,1,40.382522,116.859271,中国农业银行(北京密云东大街支行),北京市,e3e2cd9d83cdb8e3c6f50d90,95599,e3e2cd9d83cdb8e3c6f50d90
北京市密云区十里堡乡双井村南工业开发区恒通路11号,密云区,北京市,1,40.366031,116.822012,中国农业银行(北京密云工业开发区支行),北京市,f757e6ee28df3716270bd097,(010)69022308,f757e6ee28df3716270bd097
北京市密云区密云镇滨河路24号,密云区,北京市,1,40.378174,116.84544,中国农业银行(北京密云支行营业室),北京市,931a0db02cb0db8c81288a3c,(010)69041923,931a0db02cb0db8c81288a3c
北京市密云区东源路31号,密云区,北京市,1,40.387345,116.859002,中国农业银行ATM(东源路),北京市,21aa4e2fdf3b5ee9b917e74f,,21aa4e2fdf3b5ee9b917e74f
古北口镇古北水镇古北驿大街3号,密云区,北京市,1,40.651968,117.275831,中国农业银行ATM(司水路),北京市,,,ecc48eda43fc16090f0e6bc3
北京市密云区车站路40号附近,密云区,北京市,1,40.400797,116.865046,中国农业银行存取款一体机,北京市,,,75b874b8f7a84c3543ab9ad0
北京市密云区百世城商业街8号北50米,密云区,北京市,1,40.392257,116.864489,中国农业银行24小时自助银行,北京市,,,eb56262eec9b26a20f0e6b02
环湖路8号,密云区,北京市,1,40.480764,116.848977,中国农业银行24小时自助银行(密云水库支行),北京市,af1ae56b4ff079124307c18d,,af1ae56b4ff079124307c18d
北京市密云区超市发檀西店,密云区,北京市,1,40.387508,116.872943,中国农业银行ATM(超市发檀西店),北京市,e96f6897099a267ceedfca76,,e96f6897099a267ceedfca76
北京市密云区鼓楼东大街26号世豪酒店东侧东大街分理处,密云区,北京市,1,40.38256,116.859256,中国农业银行24小时自助银行(东大街分理处),北京市,abe1c2dc44c0bae488fc0627,,abe1c2dc44c0bae488fc0627
北京市密云区鼓楼东大街34号,密云区,北京市,1,40.381734,116.85402,中国银行(密云鼓楼东大街支行),北京市,d6df91c1b283f26af6b91690,(010)69044815,d6df91c1b283f26af6b91690
北京市密云区新中街7号楼附近,密云区,北京市,1,40.388787,116.857825,中国农业银行24小时自助银行(新中街),北京市,722809757f8e95a6e215f942,,722809757f8e95a6e215f942
北京市密云区鼓楼南大街物美超市,密云区,北京市,1,40.381074,116.852097,中国农业银行ATM(鼓楼南大街物美超市),北京市,c8df054c64c3cf61deee8bbb,,c8df054c64c3cf61deee8bbb
沿村西统路西田各庄镇政府公交站,密云区,北京市,1,40.372398,116.761677,中国农业银行24小时自助银行(西统路),北京市,fd43d4f52fb187545e17c333,,fd43d4f52fb187545e17c333
北京市密云区经济开发区水源路25号北京现代管理大学密云分校,密云区,北京市,1,40.362929,116.811715,中国农业银行ATM(经济开发区水源路),北京市,64801f826e63be8a1329359f,,64801f826e63be8a1329359f
久润花园东区19-9,密云区,北京市,1,40.395214,116.869462,中国农业银行24小时自助银行(新北路),北京市,a1bb76e31078bc6e1b94c67a,,a1bb76e31078bc6e1b94c67a
鼓楼东大街红云楼1层新华书店旁,密云区,北京市,1,40.381613,116.852969,中国农业银行24小时自助银行(北京密云东门支行),北京市,cb4fd146bfe4e53f9d9d6873,,cb4fd146bfe4e53f9d9d6873
北京市密云区恒通路11号,密云区,北京市,1,40.366063,116.822236,中国农业银行24小时自助银行(北京工业开发区分理处),北京市,f5e3bcae07e83fc15f17c390,,f5e3bcae07e83fc15f17c390
新西路77-1号,密云区,北京市,1,40.381968,116.840858,中国农业银行24小时自助银行(北京密云西大桥分理处),北京市,9eb82b2555862916715e8041,,9eb82b2555862916715e8041
北京市密云区新南路97号,密云区,北京市,1,40.374928,116.851826,中国农业银行24小时自助银行(顺密旧路),北京市,38d806511e16db6043024588,,1dafe589e896b8366c476031
阳光街406-5,密云区,北京市,1,40.369692,116.852222,中国农业银行24小时自助银行服务(北京密云阳光支行),北京市,,,6f63fbe11565abb78e7727d2
北京市密区兴云小区13号商住楼14单元,密云区,北京市,1,40.373362,116.827282,中国农业银行24小时自助银行(北京密云双井支行),北京市,bf22a45a7b4825e0e6e965f3,,bf22a45a7b4825e0e6e965f3
古北口镇古北水镇古北驿大街3号,密云区,北京市,1,40.652104,117.272787,中国农业银行24小时自助银行(古北驿大街),北京市,,,9637b47771682ee151e5c514
北京市密云区檀西路133号楼101室,密云区,北京市,1,40.388551,116.871995,中国农业银行24小时自助银行服务(北京密云行宫支行),北京市,71a41a9751d0af766cc02c45,,71a41a9751d0af766cc02c45
北京市密云区阳光街387号院8号,密云区,北京市,1,40.377426,116.871023,中国农业银行24小时自助银行(北京密云保利花园支行),北京市,c61f7a6a872f719d9ee32181,,c61f7a6a872f719d9ee32181
北京市密云区长安东区4-5檀州储蓄所,密云区,北京市,1,40.375908,116.850415,中国农业银行24小时自助银行(长安东区),北京市,4beb73c6eaad069f15764310,,4beb73c6eaad069f15764310
北京市延庆区龙庆南路6号2幢1层3间,延庆区,北京市,1,40.46979,116.006248,中国农业银行(北京延庆泰安支行),北京市,1e4c924a177e7851d42ce252,(010)69142406,1e4c924a177e7851d42ce252
北京市延庆区妫水南街17号,延庆区,北京市,1,40.452612,115.991058,中国农业银行(北京延庆南菜园支行),北京市,25ec69fc4661557dc26c1426,(010)81198115,25ec69fc4661557dc26c1426
北京市延庆区东外大街73号,延庆区,北京市,1,40.469068,115.994169,中国农业银行(北京延庆支行),北京市,8927d7c2c456325b1676438b,(010)69144164,8927d7c2c456325b1676438b
北京市延庆区八达岭长城景区,延庆区,北京市,1,40.362467,116.016567,中国农业银行(八达岭分理处),北京市,f60a15ed8e7179ecbb17e721,95599,f60a15ed8e7179ecbb17e721
北京市延庆区永宁镇利民街拱辰街永宁公交站,延庆区,北京市,1,40.535418,116.1717,中国农业银行(北京延庆永宁支行),北京市,1177bc4c71f27c6604fef5d9,"(010)60171245,(010)60171489",1177bc4c71f27c6604fef5d9
北京市延庆区延庆镇高塔街73号,延庆区,北京市,1,40.471798,115.988042,中国农业银行(北京延庆高塔支行),北京市,251374c97ca2a23ca11de945,"(010)69146327,(010)69146102",251374c97ca2a23ca11de945
北京市延庆区东顺城街13号,延庆区,北京市,1,40.471853,115.988085,中国农业银行(北京延庆高塔支行),北京市,91c13f93ba68cefa21f01726,95599,91c13f93ba68cefa21f01726
北京市延庆区东外大街101号,延庆区,北京市,1,40.4665,115.985769,中国农业银行(北京延庆东外大街支行),北京市,d6df91c1b12df36af7b91626,(010)69144812,d6df91c1b12df36af7b91626
北京市延庆区S216(京藏高速辅路),延庆区,北京市,1,40.362503,116.016435,中国农业银行24小时自助银行(八达岭分理处),北京市,d0b8923feca824e1b5f42f3a,,d0b8923feca824e1b5f42f3a
北京市延庆区龙庆南路6号,延庆区,北京市,1,40.469873,116.006338,中国农业银行24小时自助银行服务(北京延庆泰安支行),北京市,77bc773c0f6081568a36ee4e,,77bc773c0f6081568a36ee4e
北京市延庆区晨光南街二巷6号南80米,延庆区,北京市,1,40.377466,115.911911,中国农业银行24小时自助银行(北京延庆康庄分理处),北京市,ccb6e297c939b23ea3acc46b,,ccb6e297c939b23ea3acc46b
北京市延庆区永宁镇北门外,延庆区,北京市,1,40.535319,116.172028,中国农业银行24小时自助银行(北京延庆永宁支行),北京市,cc788fde62f6ccf489fc06a1,,cc788fde62f6ccf489fc06a1
北京市延庆区东外大街73号延庆营业室,延庆区,北京市,1,40.468948,115.994028,中国农业银行24小时自助银行服务(北京延庆区支行营业部),北京市,8ad6cabf5e59957c990050eb,,8ad6cabf5e59957c990050eb
北京市延庆区妫水南街26号,延庆区,北京市,1,40.452632,115.991079,中国农业银行24小时自助银行(北京延庆南菜园支行),北京市,c21db9e57706568300ff2d26,,c21db9e57706568300ff2d26
高塔街73号,延庆区,北京市,1,40.471994,115.987989,中国农业银行24小时自助银行(高塔分理处),北京市,5f3d80d276c0ee3e0c0e6b10,,5f3d80d276c0ee3e0c0e6b10
东顺城街13号,延庆区,北京市,1,40.466111,115.981435,中国农业银行24小时自助银行(北京延庆东街支行),北京市,bafc2d23f32bbbe6adcb66a9,,bafc2d23f32bbbe6adcb66a9
北京市延庆区东外大街101号,延庆区,北京市,1,40.466543,115.985788,中国农业银行24小时自助银行(北京延庆东外大街支行),北京市,e26c5ffa9956a507e6073844,,e26c5ffa9956a507e6073844
