address,area,city,detail,lat,lng,name,province,street_id,telephone,uid
南花市大街3号,东城区,北京市,1,39.903022,116.433736,中国邮政储蓄银行,北京市,b6a5f334e62da2b2f6c59cf1,(010)87193675,b6a5f334e62da2b2f6c59cf1
北京市东城区北京站西街1号,东城区,北京市,1,39.911583,116.4327,中国邮政储蓄银行(北京站支行),北京市,c8e8f63321d7e76fab0dd821,(010)65264690,c8e8f63321d7e76fab0dd821
北京市东城区东花市南里三区7号楼,东城区,北京市,1,39.900757,116.438043,中国邮政储蓄银行(东花市南里支行),北京市,268b664dab860244c51e515c,(010)67121468,268b664dab860244c51e515c
北京市东城区永定门外大街101-2号,东城区,北京市,1,39.867517,116.405114,中国邮政储蓄银行(百荣支行),北京市,b901fd5b3cd5a47ef4eafce9,,b901fd5b3cd5a47ef4eafce9
东城区东四北大街12号,东城区,北京市,1,39.946142,116.423499,中国邮政储蓄银行(北新桥支行),北京市,291931e0b3542f7eddee8b67,(010)64047099,291931e0b3542f7eddee8b67
北京市东城区朝阳门内大街300号,东城区,北京市,1,39.930221,116.424734,中国邮政储蓄银行(东四营业所),北京市,,(010)64033293,48ec42c1aca1a86e373a71b6
北京市东城区光明中街62号,东城区,北京市,1,39.890943,116.444527,中国邮政储蓄银行(光明楼支行),北京市,5ce2637dbab74252ae31e521,"(010)67192937,(010)67169387",5ce2637dbab74252ae31e521
北京市东城区前门东大街7号(近正义路),东城区,北京市,1,39.907652,116.412413,中国邮政储蓄银行(正义路支行),北京市,4cf8d24ec54aaa999cf7793e,95580,4cf8d24ec54aaa999cf7793e
北京市东城区永外大街11号,东城区,北京市,1,39.900308,116.424777,中国邮政储蓄银行(崇文门外大街支行),北京市,75ac7e21416f36135cbe860a,(010)67086252,75ac7e21416f36135cbe860a
北京市东城区交道口东大街10号楼底商B,东城区,北京市,1,39.946684,116.415566,中国邮政储蓄银行(交道口东大街支行),北京市,50f7d14673da94c773210ba0,"(010)64003719,(010)64005107",50f7d14673da94c773210ba0
北京市东城区建国门内大街甲18号,东城区,北京市,1,39.913874,116.431814,中国邮政储蓄银行(建内大街邮局营业部),北京市,2ad32cc38b55a18c9d95de21,(010)65196657,2ad32cc38b55a18c9d95de21
北京市东城区东单三条8号楼18号东方广场回迁楼西侧,东城区,北京市,1,39.916557,116.422353,中国邮政储蓄银行(北京东城区东单支行),北京市,2cc3c8e8b48e37d54d2fdf21,(010)65256440,2cc3c8e8b48e37d54d2fdf21
和平里六区6-6,东城区,北京市,1,39.963281,116.42869,中国邮政储蓄银行24小时自助银行(和平里支行),北京市,251374c910c27e42a01de9a7,,251374c910c27e42a01de9a7
北京市东城区东四北大街12号,东城区,北京市,1,39.946193,116.423502,中国邮政储蓄银行24小时自助银行(北新桥支行),北京市,8ab0dfc406946968d9ecedb9,,8ab0dfc406946968d9ecedb9
广渠门外大街41-3,东城区,北京市,1,39.899792,116.453644,中国邮政储蓄银行24小时自助银行服务(马圈储蓄所),北京市,d4034eb3efe2408bc03644ce,,d4034eb3efe2408bc03644ce
北京市东城区前门大街98号,东城区,北京市,1,39.899487,116.404849,中国邮政储蓄银行24小时自助银行(前门大街),北京市,c1653405f35c1b04ab175ad0,,c1653405f35c1b04ab175ad0
北京市东城区珠市口东大街4-4号,东城区,北京市,1,39.898896,116.421262,中国邮政储蓄银行24小时自助银行服务(大都市街营业所),北京市,,,026bbb8f4964b56d48cc4a9e
北京市东城区法华寺街136号天雅珠宝城F1,东城区,北京市,1,39.892757,116.427427,中国邮政储蓄银行24小时自助银行(天雅珠宝城),北京市,,,de9578d7cf940613a1046460
体育馆路7号,东城区,北京市,1,39.890705,116.434537,中国邮政储蓄银行24小时自助银行(体育馆路营业所),北京市,0e6a8b7220d8b5c4bea240b6,,0e6a8b7220d8b5c4bea240b6
北京市东城区国瑞北路54附近,东城区,北京市,1,39.905293,116.429796,中国邮政储蓄银行24小时自助银行(国瑞城支行),北京市,,,690df14e098363a109a8d4eb
北京市东城区朝阳门内大街300号,东城区,北京市,1,39.930127,116.424835,中国邮政储蓄银行24小时自助银行服务(东四营业所),北京市,da7411b7948ddb5f3f9a5eca,,da7411b7948ddb5f3f9a5eca
东城区东单三条8-18号,东城区,北京市,1,39.916724,116.422119,中国邮政储蓄银行24小时自助银行(东单支行),北京市,f696f3c2382073961a11d580,,f696f3c2382073961a11d580
北京市东城区光明路3-7号,东城区,北京市,1,39.890816,116.444526,中国邮政储蓄银行24小时自助银行(光明楼支行),北京市,c7eca12b995c944ae015f980,,c7eca12b995c944ae015f980
北京市东城区南小市口街32号附近,东城区,北京市,1,39.900505,116.437917,中国邮政储蓄银行24小时自助银行(南里支行),北京市,2cff1cd98144230612882442,,2cff1cd98144230612882442
北京站西街1,东城区,北京市,1,39.911588,116.432523,中国邮政储蓄银行24小时自助银行(建内大街支行),北京市,ce89fd0e5455801e4e2fdf51,,2ad32cc31e3f328f9d95dec9
贡院西街6号d座,东城区,北京市,1,39.916707,116.437554,中国邮政储蓄银行ATM(贡院西街),北京市,50fb64ffc9fc3923e8f853bd,,50fb64ffc9fc3923e8f853bd
北京市东城区崇文门外大街11-15,东城区,北京市,1,39.900177,116.424817,中国邮政储蓄银行ATM(崇文支行),北京市,950fd2a5877e2abdf503b821,,950fd2a5877e2abdf503b821
北京市东城区南小市口街30号附近,东城区,北京市,1,39.900632,116.437915,中国邮政储蓄银行货币兑换国际汇款,北京市,c73984c2063748a383a00c72,95580,c73984c2063748a383a00c72
东直门外大街39号东直门交通枢纽1F层,东城区,北京市,1,39.94815,116.442016,中国邮政储蓄银行ATM(东直门交通枢纽),北京市,d2e8c51c70a5c205e81e9777,,d2e8c51c70a5c205e81e9777
北京市东城区体育馆路7号,东城区,北京市,1,39.890556,116.43424,中国邮政(体育馆路邮电所),北京市,87248d9657a390b32806cee1,(010)67152004,87248d9657a390b32806cee1
北京市西城区西直门南大街甲18号,西城区,北京市,1,39.940452,116.362731,中国邮政储蓄银行(车公庄支行),北京市,c5ddcc0849a972c5d9131895,(010)66180906,c5ddcc0849a972c5d9131895
小马厂路1巷1号西豪逸景家园1楼(顺天府旁),西城区,北京市,1,39.898167,116.347581,中国邮政储蓄银行(小马厂营业所),北京市,75b870c135e7deebf603b849,(010)63261877,cb8275312f6d76360f0e6ba5
黑窑厂西里1-15号,西城区,北京市,1,39.885144,116.387094,中国邮政储蓄银行(陶然亭营业厅),北京市,b7021bf8aa3e7087f5e73b80,,b7021bf8aa3e7087f5e73b80
北京市西城区阜成门北大街17号百科全书7层,西城区,北京市,1,39.931681,116.362194,中国邮政储蓄银行(北京西区支行),北京市,06d6d8145410dd864e2fdf7c,(010)68334197,06d6d8145410dd864e2fdf7c
北京市西城区金融大街3号A座一层二层,西城区,北京市,1,39.927996,116.366062,中国邮政储蓄银行(金融大街支行),北京市,760c54e2a6ebe4a82cb17e54,(010)66555571,760c54e2a6ebe4a82cb17e54
北京市西城区地安门外大街81号旁门,西城区,北京市,1,39.942445,116.402055,中国邮政储蓄银行(地安门支行),北京市,7d5f3a0a888008482db908a0,(010)64028670,7d5f3a0a888008482db908a0
北京市西城区鸭子桥北里1号楼(刘记烧饼店旁),西城区,北京市,1,39.882946,116.355481,中国邮政储蓄银行(鸭子桥邮政所),北京市,9ff111e50adc6432901fc9b8,(010)63328466,9ff111e50adc6432901fc9b8
马连道胡同72号附近,西城区,北京市,1,39.885014,116.333672,中国邮政储蓄银行,北京市,,,5bf4143d4f5713073362120b
北京市西城区安德路79号,西城区,北京市,1,39.957708,116.388596,中国邮政储蓄银行,北京市,aacd1a12038b1ec5d0ff2302,95580,aacd1a12038b1ec5d0ff2302
北京市西城区宣武门外大街临时99,西城区,北京市,1,39.901807,116.380569,中国邮政储蓄银行(宣武门外大街支行),北京市,0a15c7ec52dc6ffced74f8e9,"(010)83163674,(010)63030493",0a15c7ec52dc6ffced74f8e9
西城区牛街4号(近广内大街),西城区,北京市,1,39.894402,116.370367,中国邮政储蓄银行(牛街邮局营业部),北京市,c7eca12b58b7d537e115f9e9,95580,c7eca12b58b7d537e115f9e9
北京市西城区西直门内大街32号,西城区,北京市,1,39.946535,116.377935,中国邮政储蓄银行(北京西城区新街口支行),北京市,2c0bd6c5cb2025aa43ab9a30,(010)66181633,2c0bd6c5cb2025aa43ab9a30
琉璃厂东街3号,西城区,北京市,1,39.901652,116.395454,中国邮政储蓄银行24小时自助银行服务(琉璃厂东街营业所),北京市,82571ccdfbf16025a8059d49,,aee4e3165094f46096031943
复兴门外大街甲25号楼,西城区,北京市,1,39.913528,116.345554,中国邮政储蓄银行(木樨地支行电费代收点),北京市,2abde6a977bbf725c4f025c9,95580,2abde6a977bbf725c4f025c9
北京市西城区西四南大街16号,西城区,北京市,1,39.929143,116.380189,中国邮政储蓄银行(西四支行),北京市,5afa46a89834809145572609,95580,5afa46a89834809145572609
北京市西城区地安门西大街乙28号,西城区,北京市,1,39.939199,116.392215,中国邮政储蓄银行(平安里支行),北京市,05dd7d5fcb372002ac080fa0,(010)66184074,05dd7d5fcb372002ac080fa0
北京市西城区永安路173-2号,西城区,北京市,1,39.892632,116.393615,中国邮政储蓄银行(永安路支行),北京市,,(010)63175184,8f3a8a817a3228a36140a90a
北京市西城区复兴门外大街甲25号楼,西城区,北京市,1,39.913419,116.345492,中国邮政储蓄银行(木樨地支行),北京市,39d43f8239c38cfba9059d8c,(010)68572927,39d43f8239c38cfba9059d8c
北京市西城区北礼士路62-1号,西城区,北京市,1,39.934502,116.360203,中国邮政储蓄银行(马尾沟邮电所),北京市,34e485081e502ce2d8d89130,(010)88385228,34e485081e502ce2d8d89130
北京市西城区真武庙路四条8号院4号楼,西城区,北京市,1,39.908456,116.354058,中国邮政储蓄银行(真武庙支行),北京市,b46d643bc031373643afe64a,(010)68032808,b46d643bc031373643afe64a
北京市西城区永安路121号,西城区,北京市,1,39.892926,116.400155,中国邮政储蓄银行(天桥邮政所),北京市,5508504dd8a545b6c7f02525,(010)63010752,5508504dd8a545b6c7f02525
北京市西城区广安门外大街172号,西城区,北京市,1,39.894993,116.345706,中国邮政储蓄银行(广安门支行),北京市,ecc76e07c2d6845020f017ef,(010)63279593,ecc76e07c2d6845020f017ef
百万庄大街18号(近百万庄图书大厦),西城区,北京市,1,39.933564,116.347842,中国邮政储蓄银行(百万庄支行),北京市,,(010)68326059,a439b16bb9cade2b4afd3f02
北京市西城区横二条59号西单明珠市场5层,西城区,北京市,1,39.916676,116.382385,中国邮政储蓄银行(明珠大厦营业所),北京市,fb30bb841d727d579c09f7af,(010)66037738,fb30bb841d727d579c09f7af
南礼士路38号楼3门铺,西城区,北京市,1,39.926932,116.36001,中国邮政储蓄银行(南礼士路营业所),北京市,4520aab50f0abcc5dbeced73,(010)68031050,4520aab50f0abcc5dbeced73
北京市西城区南礼士路头条5号,西城区,北京市,1,39.915395,116.355963,中国邮政储蓄银行(复兴门外大街支行),北京市,db1f39d46792ea12f4c59c8c,"(010)68023586,(010)68019373",db1f39d46792ea12f4c59c8c
北京市西城区琉璃厂东街3号,西城区,北京市,1,39.901882,116.395477,中国邮政储蓄银行(琉璃厂东街营业所),北京市,53349ee3cb46c36e220262e6,(010)63036302,53349ee3cb46c36e220262e6
北京市西城区广安门外大街411号,西城区,北京市,1,39.896282,116.33422,中国邮政储蓄银行(马连道邮局营业部),北京市,00f1c7fb9130a31cc056ac11,(010)63465289,00f1c7fb9130a31cc056ac11
北京市西城区月坛南街65号,西城区,北京市,1,39.919837,116.348215,中国邮政储蓄银行(北京西区三里河支行),北京市,cdef4edf1132b94d28d7ab11,(010)68539131,cdef4edf1132b94d28d7ab11
丰汇园17号,西城区,北京市,1,39.920792,116.371059,中国邮政储蓄银行(西城区太平桥营业所),北京市,e3a7fd13db55da5228b97c39,"95580,(010)66117905",e3a7fd13db55da5228b97c39
北京市西城区德宝新园甲22号,西城区,北京市,1,39.945563,116.354353,中国邮政储蓄银行(西外大街邮局营业部),北京市,d6c5d991f0a77ae830169b30,"(010)68352611,(010)68352749",d6c5d991f0a77ae830169b30
北京市西城区广安门外大街172号,西城区,北京市,1,39.894946,116.346574,中国邮政储蓄银行(北京南区支行个人消费信贷中心),北京市,53d0e7e77582f1095abbbc12,95580,53d0e7e77582f1095abbbc12
北京市西城区新华里16号院2号楼商业02号,西城区,北京市,1,39.940226,116.356451,中国邮政储蓄银行(北京西城区新华里支行),北京市,25876f9366568ff4eb1e972c,(010)88359239,25876f9366568ff4eb1e972c
北京市西城区前门西大街12号,西城区,北京市,1,39.905682,116.392151,中国邮政储蓄银行24小时自助银行服务(和平门支行),北京市,087fe7834e89054bf50e77b2,,087fe7834e89054bf50e77b2
北京市西城区丰汇园小区19号楼一层,西城区,北京市,1,39.920826,116.370889,中国邮政储蓄银行(太平桥营业所电费代收点),北京市,d18d0b63e1d51d2e03ec01db,(010)66117905,d18d0b63e1d51d2e03ec01db
北京市西城区西四南大街16,西城区,北京市,1,39.928991,116.380132,中国邮政储蓄银行24小时自助银行服务(西四支行),北京市,f4a33da962de4c743110afb3,,f4a33da962de4c743110afb3
北京市西城区虎坊路21-7号,西城区,北京市,1,39.890448,116.390957,中国邮政储蓄银行24小时自助银行服务(永安路支行),北京市,e02bf7399ea0bccaebe5825f,,e02bf7399ea0bccaebe5825f
复兴门外大街甲25,西城区,北京市,1,39.91349,116.345604,中国邮政储蓄银行24小时自助银行(木樨地支行),北京市,7a92f3ff35a5cc31343a710a,,7a92f3ff35a5cc31343a710a
莲花池东路118号北京西站F1层,西城区,北京市,1,39.896203,116.334307,中国邮政储蓄银行ATM(北京西站),北京市,,,ef28ffa0c4a51df478f7966a
西直门内大街32,西城区,北京市,1,39.946502,116.377984,中国邮政储蓄银行24小时自助银行(新街口支行),北京市,3da907f3ac98492eb220a8b3,,3da907f3ac98492eb220a8b3
百万庄大街18号,西城区,北京市,1,39.933572,116.347698,中国邮政储蓄银行24小时自助银行(百万庄支行),北京市,4edf9fbf8edf51e9cd06a4b3,,4edf9fbf8edf51e9cd06a4b3
北京市海淀区西直门远洋风景(文慧园西路南),西城区,北京市,1,39.951872,116.368171,中国邮政储蓄银行德胜门西大街营业所-A座,北京市,,,df6fd05b45a204d23ce231ea
西便门内大街8号,西城区,北京市,1,39.905871,116.359079,中国邮政储蓄银行24小时自助银行(西便门内大街),北京市,f6963cafa9afdff88d772712,,f6963cafa9afdff88d772712
北京市西城区榆树馆胡同4号楼附近,西城区,北京市,1,39.941816,116.353093,中国邮政储蓄银行24小时自助银行服务,北京市,,,0deedcbbc116a08815a1904c
西二环与鸭子桥路交叉口西南100米,西城区,北京市,1,39.882991,116.355391,中国邮政储蓄银行24小时自助银行服务,北京市,14076deea7f0edf402294fe8,,14076deea7f0edf402294fe8
椿树园18-甲5,西城区,北京市,1,39.899432,116.386049,中国邮政储蓄银行ATM,北京市,b533ea4a00317b414f6d46e8,,b533ea4a00317b414f6d46e8
北京市西城区安德路79,西城区,北京市,1,39.957768,116.388637,中国邮政储蓄银行24小时自助银行服务(大市口邮政储蓄所),北京市,f286e10d17925382fa42b23e,,b703e96b0719f2878e1a89a7
北京市西城区丰汇园17,西城区,北京市,1,39.920772,116.37097,中国邮政储蓄银行24小时自助银行服务(太平桥营业所),北京市,19e6df19d4f4a16590114cd6,,19e6df19d4f4a16590114cd6
福长街54号,西城区,北京市,1,39.88889,116.402024,中国邮政储蓄银行24小时自助银行(福长街营业所),北京市,a37558f992a25c47e856fab3,,a37558f992a25c47e856fab3
真武庙路4条8号院3,西城区,北京市,1,39.908435,116.353979,中国邮政储蓄银行24小时自助银行(真武庙支行),北京市,7ed3af7c12fda2dbd72ce202,,7ed3af7c12fda2dbd72ce202
月坛南街65号,西城区,北京市,1,39.919908,116.348412,中国邮政储蓄银行24小时自助银行服务(三里河支行),北京市,,,ef32954f13aba70d08b93ab9
金融大街3号中国邮政大厦,西城区,北京市,1,39.927934,116.3661,中国邮政储蓄银行24小时自助银行(金融大街支行),北京市,260b7cd21c4052b814948e03,,306285f45b15ebee0c0e6b30
北京市西城区阜成门北大街17号,西城区,北京市,1,39.931681,116.362297,中国邮政储蓄银行24小时自助银行服务(北京西区支行),北京市,fe0960f91d2d096ec1f1cfa2,,fe0960f91d2d096ec1f1cfa2
永安路173-2号,西城区,北京市,1,39.892684,116.393993,中国邮政储蓄银行24小时自助银行(永安路),北京市,0f6ef750d96ccaab2bd7ab60,,0f6ef750d96ccaab2bd7ab60
北京市西城区里仁街9号,西城区,北京市,1,39.881775,116.374033,中国邮政储蓄银行24小时自助银行服务(里仁街支行),北京市,8e01930ff308d94cc41b75d6,,8e01930ff308d94cc41b75d6
北京市西城区永安路121,西城区,北京市,1,39.892923,116.400268,中国邮政储蓄银行24小时自助银行(永安路),北京市,ab7f429c115d7b2f1df74d6a,,ab7f429c115d7b2f1df74d6a
北京市西城区新华里16-2号,西城区,北京市,1,39.940543,116.362808,中国邮政储蓄银行24小时自助银行(新华里支行),北京市,c0d46cd9bcdc827d260bd0c2,,07f3c8b5aec2ca1e6340a9b3
牛街4号(近广内大街),西城区,北京市,1,39.894239,116.370358,中国邮政储蓄银行24小时自助银行服务(牛街支行),北京市,1eeed546f9e8568fb4147f8f,,1eeed546f9e8568fb4147f8f
北京市西城区西直门外大街1号凯德MALL(西直门)1层,西城区,北京市,1,39.94555,116.354468,中国邮政储蓄银行24小时自助银行服务(西外大街支行),北京市,339ec2d67461b968c7f0259e,,339ec2d67461b968c7f0259e
广安门外大街238号附近,西城区,北京市,1,39.894981,116.345567,中国邮政储蓄银行个人贷款中心,北京市,0f72fe55d983cd712bb97c70,,0f72fe55d983cd712bb97c70
北京市西城区太平街19-2附近,西城区,北京市,1,39.885169,116.387295,中国邮政储蓄银行24小时自助银行(陶然亭邮政储蓄所),北京市,91a455bb0dc84d2a88b9884f,,91a455bb0dc84d2a88b9884f
北京市西城区北大街19号附近,西城区,北京市,1,39.931458,116.362152,中国邮政个人消费信贷中心,北京市,,,a0ac468570d65cc20aa8d4d8
七圣南路西坝河中里35号楼,朝阳区,北京市,1,39.967981,116.445327,中国邮政储蓄银行,北京市,d4307e49f484d165081cc75b,95580,d4307e49f484d165081cc75b
北京市朝阳区高庙村路,朝阳区,北京市,1,39.937358,116.507515,中国邮政储蓄银行,北京市,36358933a6ed611bc9291537,95580,36358933a6ed611bc9291537
北京市朝阳区金蝉北路,朝阳区,北京市,1,39.873425,116.512942,中国邮政储蓄银行,北京市,54038986875dddde3010afb4,95580,54038986875dddde3010afb4
常营朝阳北路万象新天家园426号楼1层底商,朝阳区,北京市,1,39.932934,116.600776,中国邮政储蓄银行(常营支行),北京市,96222579b290374c41d63e52,95580,96222579b290374c41d63e52
垡头西里2号,朝阳区,北京市,1,39.873254,116.519898,中国邮政储蓄银行(垡头支行),北京市,5ce2637d710b092faf31e59e,95580,5ce2637d710b092faf31e59e
北京市朝阳区三间房223号,朝阳区,北京市,1,39.921822,116.574964,中国邮政储蓄银行(三间房支行),北京市,e56bf5e346b13b390682c2bc,(010)65762454,e56bf5e346b13b390682c2bc
北京市朝阳区甘露园二区五号楼一层,朝阳区,北京市,1,39.922304,116.523069,中国邮政储蓄银行(甘露园支行),北京市,e345f9334b8ad64bc51b7507,(010)85762613,b9e5d0b881f0aabf81a12ed3
北京市朝阳区垂杨柳西区8号楼,朝阳区,北京市,1,39.894763,116.462237,中国邮政储蓄银行(垂杨柳支行),北京市,15a9381093c4adbe14c8f621,(010)67714347,15a9381093c4adbe14c8f621
北京市朝阳区松榆东里37号楼,朝阳区,北京市,1,39.880184,116.479193,中国邮政储蓄银行(松榆东里支行),北京市,0a15c7ecc096fdffed74f821,(010)67318190,0a15c7ecc096fdffed74f821
北京市朝阳区慧忠北里307号楼一层,朝阳区,北京市,1,40.010402,116.411693,中国邮政储蓄银行(慧忠北里支行),北京市,ba4d6d61dd0f1ffe6c3e1b87,(010)64844757,ba4d6d61dd0f1ffe6c3e1b87
北京市朝阳区团结湖路甲7号,朝阳区,北京市,1,39.937425,116.473443,中国邮政储蓄银行(团结湖路支行),北京市,680fb703eb3e829c8bb9884c,(010)65001799,680fb703eb3e829c8bb9884c
北京市朝阳区朝外大街天福园2号,朝阳区,北京市,1,39.928093,116.451448,中国邮政储蓄银行(小白楼西北),北京市,b9e5d0b8740779c180a12ea7,(010)85624211,b9e5d0b8740779c180a12ea7
北京市朝阳区劲松一区131号,朝阳区,北京市,1,39.890879,116.463063,中国邮政储蓄银行(劲松一区支行),北京市,108b1cea48146faf3586f421,(010)67738422,108b1cea48146faf3586f421
北京市朝阳区双龙南里204号楼,朝阳区,北京市,1,39.876834,116.485277,中国邮政储蓄银行(双龙南里支行),北京市,c7eca12bcafd4734e115f921,(010)87321621,c7eca12bcafd4734e115f921
北京市朝阳区西大望路59号,朝阳区,北京市,1,39.895066,116.483525,中国邮政储蓄银行(朝阳区支行),北京市,341c35de4b3233c3e7073880,(010)67753157,341c35de4b3233c3e7073880
北京市朝阳区北沙滩1号院33-10号,朝阳区,北京市,1,40.00786,116.378985,中国邮政储蓄银行(北沙滩支行),北京市,f4460918463eb569b11e367a,(010)64882118,f4460918463eb569b11e367a
北京市朝阳区酒仙桥路43号,朝阳区,北京市,1,39.968212,116.502584,中国邮政储蓄银行(酒仙桥支行),北京市,5c2dc21d51dd54796ec02ca7,(010)64363004,5c2dc21d51dd54796ec02ca7
北京市朝阳区三元里街27号,朝阳区,北京市,1,39.957463,116.463033,中国邮政储蓄银行(三源里支行),北京市,7388dffd662219e8d2ff23a0,(010)84543211,7388dffd662219e8d2ff23a0
北京市朝阳区仰山路万科星园甲7号,朝阳区,北京市,1,40.036683,116.419115,中国邮政储蓄银行(万科星园支行),北京市,cc788fde93bdb38988fc066c,(010)84921227,cc788fde93bdb38988fc066c
朝阳区大山子北里35楼,朝阳区,北京市,1,39.990118,116.494416,中国邮政储蓄银行(大山子北里营业所),北京市,46a8dab0dd7a969ff942b2a7,95580,46a8dab0dd7a969ff942b2a7
北京市朝阳区垡头西里2号,朝阳区,北京市,1,39.87133,116.519717,中国邮政储蓄银行(垡头西里营业所),北京市,bc5b8ad94446639aa11de96d,(010)67368403,bc5b8ad94446639aa11de96d
北京市朝阳区红军营南路朝来绿色家园赢秋苑18号楼底商,朝阳区,北京市,1,40.039136,116.439778,中国邮政储蓄银行(朝阳区北苑支行),北京市,f164fa2ef153e02b0a5cb3ff,(010)84953875,f164fa2ef153e02b0a5cb3ff
"北京市朝阳区观筑庭园801号楼1层104,2层204",朝阳区,北京市,1,39.845472,116.476961,中国邮政储蓄银行(朝阳区吕家营支行),北京市,44b77e4ab487efb428d7ab36,(010)87641653,44b77e4ab487efb428d7ab36
北京市朝阳路8号朗廷大厦1层,朝阳区,北京市,1,39.917413,116.604808,中国邮政储蓄银行(北京朝阳区杨闸支行),北京市,3ec3b3ab6246490d3be4a6d7,,3ec3b3ab6246490d3be4a6d7
北京市朝阳区新房路3号院1号楼1层118,朝阳区,北京市,1,39.909516,116.568413,中国邮政储蓄银行(北京朝阳区北双桥支行),北京市,a2fb6318b1d247fa17b54b28,(010)65464787,a2fb6318b1d247fa17b54b28
北沙滩1号院33-10号,朝阳区,北京市,1,40.00786,116.378984,中国邮政储蓄银行24小时自助银行(北沙滩支行),北京市,764672e53ff9a7d095ec84b2,,764672e53ff9a7d095ec84b2
十八里店大羊坊路19号,朝阳区,北京市,1,39.867007,116.475059,中国邮政储蓄银行(北京朝阳区十里河建材城支行),北京市,89cc3fb7651889facf04ef8b,11185,db5e67cb3d98904630169bcb
北京市朝阳区科学园南里东街4号,朝阳区,北京市,1,40.003904,116.391324,中国邮政储蓄银行24小时自助银行(科学园南里东街),北京市,3dc9befd88c47516bea2404e,,3dc9befd88c47516bea2404e
北京市朝阳区育慧北路8号院一区8,朝阳区,北京市,1,40.000499,116.437226,中国邮政储蓄银行24小时自助银行(育慧北里支行),北京市,4f7f4d968b6c9e95a20464e0,,4f7f4d968b6c9e95a20464e0
朝阳区科学园南里东街甲4号,朝阳区,北京市,1,40.003916,116.390783,中国邮政储蓄银行(朝阳区科学园营业所),北京市,0a15c7ec537f6cfced74f84c,95580,0a15c7ec537f6cfced74f84c
松榆东里41楼,朝阳区,北京市,1,39.880245,116.479085,中国邮政储蓄银行24小时自助银行(松榆东里营业所),北京市,c125fdc666ed71e344e2741e,,c125fdc666ed71e344e2741e
北京市朝阳区南湖南路15号院甲2号楼106号,朝阳区,北京市,1,39.997024,116.469248,中国邮政储蓄银行(南湖南路),北京市,6c5dfe1250f31091095cb38f,95580,6c5dfe1250f31091095cb38f
北京市朝阳区安贞西里五区1号安贞医院对面,朝阳区,北京市,1,39.978853,116.40727,中国邮政储蓄银行(安贞支行),北京市,bd287e560479e3ff8505bf04,(010)64422353,bd287e560479e3ff8505bf04
三间房乡北花园街1号院16楼,朝阳区,北京市,1,39.901269,116.583257,中国邮政储蓄银行(双桥支行),北京市,5e53af1a197471224051c0bc,(010)85364101,5e53af1a197471224051c0bc
广渠门外大街1号崇文门菜市场旁边,朝阳区,北京市,1,39.898918,116.458191,中国邮政储蓄银行(马圈支行),北京市,,(010)67780908,e72c61ad2e02a49b5fbe86dc
北京市朝阳区北苑路5号黄金苑二号楼C座,朝阳区,北京市,1,40.049189,116.41996,中国邮政储蓄银行(立水桥支行),北京市,b292b3aa7b36bc56be484275,(010)84934392,b292b3aa7b36bc56be484275
小营北路29号院6号楼1层101室,朝阳区,北京市,1,40.006626,116.428128,中国邮政储蓄银行(小营北路支行),北京市,db4f5a81fee041e2abf72911,(010)84867046,db4f5a81fee041e2abf72911
北京市朝阳区酒仙桥路13号,朝阳区,北京市,1,39.985569,116.495834,中国邮政储蓄银行(大山子支行),北京市,ae9d5a82b2482945f21937c1,(010)64333112,ae9d5a82b2482945f21937c1
北京市朝阳区金台北街6号楼底商,朝阳区,北京市,1,39.928056,116.477508,中国邮政储蓄银行(水碓子支行),北京市,d5d07a83e8c680d2fda7788e,(010)65005146,d5d07a83e8c680d2fda7788e
北京市朝阳区石佛营西里21号,朝阳区,北京市,1,39.941189,116.506101,中国邮政储蓄银行(石佛营营业所),北京市,28e700f1e0acc201095cb34e,(010)85848477,28e700f1e0acc201095cb34e
北京市朝阳区工人体育场东路甲2号1层101,朝阳区,北京市,1,39.938775,116.457438,中国邮政储蓄银行(工体东路支行),北京市,c320a87542b355119e95de75,(010)85871416,c320a87542b355119e95de75
北京市朝阳区樱花园东街1号,朝阳区,北京市,1,39.981398,116.430841,中国邮政储蓄银行(樱花东街支行),北京市,6113ef773331e3178f7727a0,95580,6113ef773331e3178f7727a0
北京市朝阳区定福庄西街甲1号,朝阳区,北京市,1,39.915974,116.557892,中国邮政储蓄银行(北花园营业所),北京市,70ddcab3f4bd0533f21937b5,95580,70ddcab3f4bd0533f21937b5
北京市朝阳区花家地北里1号楼,朝阳区,北京市,1,39.992289,116.474275,中国邮政储蓄银行(花家地支行),北京市,41572e00c7e394b7b55f1ea0,(010)64737340,41572e00c7e394b7b55f1ea0
北京市朝阳区关东店大街9号,朝阳区,北京市,1,39.926433,116.465765,中国邮政储蓄银行(呼家楼支行),北京市,e3e2cd9df6e025e0c6f50da0,(010)65073991,e3e2cd9df6e025e0c6f50da0
北京市朝阳区和平街十区7号楼,朝阳区,北京市,1,39.970953,116.430789,中国邮政储蓄银行(和平街邮政所),北京市,d305db1f2e83f93e932ca34e,(010)64272589,d305db1f2e83f93e932ca34e
北京市朝阳区来广营北路158号,朝阳区,北京市,1,40.041986,116.471988,中国邮政储蓄银行(来广营支行),北京市,e11b47513cb483c65cd4fe0d,(010)52099373,e11b47513cb483c65cd4fe0d
北京市朝阳区望京西园一区120楼,朝阳区,北京市,1,40.010135,116.480206,中国邮政储蓄银行(北京东区支行),北京市,f9fd606228beca620f0e6b58,(010)84718103,f9fd606228beca620f0e6b58
北京市朝阳区西坝河东里79号楼底商,朝阳区,北京市,1,39.970232,116.451985,中国邮政储蓄银行(西坝河营业所),北京市,5a1414d9a0f0ed26c03644ec,(010)64619445,5a1414d9a0f0ed26c03644ec
北京市朝阳区双桥东路318号,朝阳区,北京市,1,39.89584,116.615591,中国邮政储蓄银行(双桥东路支行),北京市,af1ae56b0efc386f4307c1bc,(010)85391063,af1ae56b0efc386f4307c1bc
北京市朝阳区望京西园416号,朝阳区,北京市,1,40.001192,116.479492,中国邮政储蓄银行(望京西园营业所),北京市,691305235b154808725e804c,(010)64712340,691305235b154808725e804c
北京市朝阳区育慧北里8号,朝阳区,北京市,1,40.000605,116.437228,中国邮政储蓄银行(天外天邮局营业部),北京市,504d6113e54962b0475726a0,95580,504d6113e54962b0475726a0
高碑店路183之5-6,朝阳区,北京市,1,39.890537,116.533616,中国邮政储蓄银行(高碑店路营业所),北京市,cd31cebbee0c5d259e95de0b,95580,cd31cebbee0c5d259e95de0b
北京市朝阳区左家庄中街6号豪成大厦1楼,朝阳区,北京市,1,39.961189,116.448699,中国邮政储蓄银行(豪成大厦营业部),北京市,476a8f2cf3fccc10e6e9657d,(010)64628165,476a8f2cf3fccc10e6e9657d
广渠路48号,朝阳区,北京市,1,39.898478,116.469705,中国邮政储蓄银行(广渠东路营业部),北京市,bea7e45efae3f2d4d618b708,95580,bea7e45efae3f2d4d618b708
北京市朝阳区常营中路2号院甲2号,朝阳区,北京市,1,39.932183,116.611778,中国邮政储蓄银行(常营中路营业所),北京市,e733720717f7ac3717948e1f,(010)57920510,e733720717f7ac3717948e1f
北京市朝阳区民航宿舍区燕翔西里14号楼,朝阳区,北京市,1,40.051812,116.601426,中国邮政储蓄银行(机场宿舍区支行),北京市,5211d2191559bc257dc8765b,(010)64582287,5211d2191559bc257dc8765b
北京市朝阳区常营南路50号院11号,朝阳区,北京市,1,39.925744,116.596966,中国邮政储蓄银行(北京朝阳区管庄支行),北京市,4c1422e85f318f87cac3db91,(010)65726705,4c1422e85f318f87cac3db91
朝阳区八里庄东里3号,朝阳区,北京市,1,39.922091,116.503334,中国邮政储蓄银行(西皇城根邮局营业部),北京市,1cea15a964ad9fc607fef521,(010)65565319,1cea15a964ad9fc607fef521
北京市朝阳区工人体育场东路甲2号1层101室,朝阳区,北京市,1,39.938822,116.457498,中国邮政储蓄银行(工体东路支行电费代收点),北京市,a3d7290567f4deddd72ce2e0,(010)85871416,a3d7290567f4deddd72ce2e0
三源里27号,朝阳区,北京市,1,39.957509,116.46301,中国邮政储蓄银行24小时自助银行服务(三源里支行),北京市,28f1ab55348bbb359a68b4aa,,6835e3a7442a2733e21103a6
北京市朝阳区朝阳路8号朗廷大厦,朝阳区,北京市,1,39.917133,116.604681,中国邮政储蓄银行24小时自助银行服务(朝阳路辅路),北京市,06f55bdbd2f3c1ce6e20b96f,,18277d644f6e33c75cd4fec7
G6京藏高速与G6京藏高速出口交叉口北150米,朝阳区,北京市,1,40.012555,116.373393,中国邮政储蓄银行24小时自助银行,北京市,8275b47f466c878b7ab55c8b,,8275b47f466c878b7ab55c8b
北京市朝阳区金台北街6号北京市朝阳区邮电局,朝阳区,北京市,1,39.928172,116.477513,中国邮政储蓄银行24小时自助银行服务(水碓子支行),北京市,79cceb36c93aecf41f5800a6,,79cceb36c93aecf41f5800a6
北京市朝阳区塔营北街4,朝阳区,北京市,1,39.907791,116.599934,中国邮政储蓄银行24小时自助银行,北京市,d1f858564859ce7829fc4868,,d1f858564859ce7829fc4868
北京市朝阳区定福庄西街甲1号,朝阳区,北京市,1,39.916043,116.557829,中国邮政储蓄银行24小时自助银行(北花园支行),北京市,b0d056f2e7b67703cbc3dbbc,,b0d056f2e7b67703cbc3dbbc
北京市朝阳区宏昌路,朝阳区,北京市,1,40.01011,116.480186,中国邮政储蓄银行24小时自助银行,北京市,,,9a699acc34217f4517c8f667
北京市朝阳区酒仙桥路43号,朝阳区,北京市,1,39.968268,116.502497,中国邮政储蓄银行24小时自助银行服务(酒仙桥支行),北京市,cc788fdec7f56ff789fc06a6,,cc788fdec7f56ff789fc06a6
垂杨柳西里8,朝阳区,北京市,1,39.894896,116.462254,中国邮政储蓄银行24小时自助银行服务(垂杨柳支行),北京市,750ec165a7191b564d3a5983,,750ec165a7191b564d3a5983
农光里103-8,朝阳区,北京市,1,39.889109,116.474084,中国邮政储蓄银行24小时自助银行服务(农光里支行),北京市,dffd46421256f1cf3d9a5e83,,dffd46421256f1cf3d9a5e83
北京市朝阳区团结湖路7-1号,朝阳区,北京市,1,39.937423,116.473292,中国邮政储蓄银行24小时自助银行(团结湖支行),北京市,3197dc27551676d1b9df8f2c,,75036835599e79d25f0d02a6
北京市朝阳区双桥街10号,朝阳区,北京市,1,39.901311,116.583241,中国邮政储蓄银行24小时自助银行服务(双桥营业所),北京市,f633606aa3f0d2330a69d9bc,,f633606aa3f0d2330a69d9bc
朝阳区双井桥西北侧(国贸桥向南约700米)富力城1层,朝阳区,北京市,1,39.901623,116.463192,中国邮政储蓄银行24小时自助银行,北京市,8f190dcf3d38ed3d00ec01fe,,8f190dcf3d38ed3d00ec01fe
北京市朝阳区京旺家园二区南门(长店大街),朝阳区,北京市,1,40.01381,116.53456,中国邮政储蓄银行24小时自助银行,北京市,502c7b61ab51e247f4eafc4c,,da0ea7d23a207eef2102201b
北京市朝阳区双龙南里204-4号,朝阳区,北京市,1,39.87684,116.485304,中国邮政储蓄24小时自助银行服务(双龙南里支行),北京市,7d7323579b1c1dbfcae33c1b,,7d7323579b1c1dbfcae33c1b
北京市朝阳区仰山路万科星园甲7号,朝阳区,北京市,1,40.036709,116.419008,中国邮政储蓄银行24小时自助银行(万科星园支行),北京市,d24e48ebb21be5c9afee7a58,,d24e48ebb21be5c9afee7a58
北京市朝阳区大洋路邮政所邮政储蓄,朝阳区,北京市,1,39.860435,116.484452,中国邮政储蓄银行24小时自助银行服务(大洋路营业所),北京市,8853fc36b87ead8583288ab5,,8853fc36b87ead8583288ab5
慧忠里201号,朝阳区,北京市,1,40.008661,116.409266,中国邮政储蓄银行24小时自助银行(慧忠北里支行),北京市,6835e3a76ea00933e3110328,,6835e3a76ea00933e3110328
北京市朝阳区北花园街,朝阳区,北京市,1,39.909675,116.568453,中国邮政储蓄银行24小时自助银行服务,北京市,,,439afe44f8575275fb221391
北京市朝阳区南湖东园201号楼,朝阳区,北京市,1,40.006565,116.470669,中国邮政储蓄银行24小时自助银行(南湖东园支行),北京市,48eb00580e6394ad2fe67b75,,48eb00580e6394ad2fe67b75
北京市朝阳区安贞西里五区1号,朝阳区,北京市,1,39.978859,116.407365,中国邮政储蓄银行24小时自助银行服务,北京市,,,332318aa1ac05807cafa5f2e
朝阳区双泉堡甲2号,朝阳区,北京市,1,40.012636,116.373321,邮政储蓄(双泉堡营业所),北京市,b9e5d0b8365a3bbc81a12e7f,(010)64878099,b9e5d0b8365a3bbc81a12e7f
北京市朝阳区常营中路2号院甲2,朝阳区,北京市,1,39.93223,116.611754,中国邮政储蓄银行24小时自助银行(常营中路营业所),北京市,f2383bffa702029c31f71d4c,,f2383bffa702029c31f71d4c
望京南湖南路金隅丽港城,朝阳区,北京市,1,39.992341,116.474252,中国邮政储蓄银行24小时自助银行服务(花家地支行),北京市,166d3b9146ecad354c6d4675,,166d3b9146ecad354c6d4675
北京市朝阳区望京阜通东大街18号,朝阳区,北京市,1,39.991552,116.482069,中国邮政储蓄银行24小时自助银行服务(北京朝阳区国际邮件收寄中心支行),北京市,47e479c8f7208be5f70e7737,,47e479c8f7208be5f70e7737
赢秋苑19,朝阳区,北京市,1,40.039166,116.439824,中国邮政储蓄银行24小时自助银行(朝阳区北苑支行),北京市,9f3f2f22a4b5aca85a3ac8de,,9f3f2f22a4b5aca85a3ac8de
北京市朝阳区小营北路29号院6-1,朝阳区,北京市,1,40.006588,116.428236,中国邮政储蓄银行24小时自助银行(小营北路营业所),北京市,1af3cfacf6953568b13c81f5,,1af3cfacf6953568b13c81f5
八里庄北里128号,朝阳区,北京市,1,39.937313,116.507441,中国邮政储蓄银行24小时自助银行(石佛营里东路),北京市,5f4834c15009b6acfd0eb012,,5f4834c15009b6acfd0eb012
北京市朝阳区青年路西里3号院10,朝阳区,北京市,1,39.940992,116.522943,中国邮政储蓄银行24小时自助银行(国美第一城东院东),北京市,3a0fbba8a8b35b3c9fe321a0,,3a0fbba8a8b35b3c9fe321a0
北京市朝阳区西坝河中街77号楼附近(中国邮政储蓄银行内),朝阳区,北京市,1,39.970235,116.451744,中国邮政储蓄银行24小时自助银行(西坝河营业所),北京市,242a8e8b669e662db54f5447,,242a8e8b669e662db54f5447
和平街十区7号楼,朝阳区,北京市,1,39.971011,116.430876,中国邮政储蓄银行24小时自助银行(和平街营业所),北京市,4cf8d24e52511d9a9cf77921,,4cf8d24e52511d9a9cf77921
北京市朝阳区大鲁店北路,朝阳区,北京市,1,39.851535,116.564272,中国邮政储蓄银行24小时自助银行(大鲁店北路),北京市,f6e5b4e4186c06671e1d11a8,,f6e5b4e4186c06671e1d11a8
北京市朝阳区金蝉北路,朝阳区,北京市,1,39.873406,116.512966,中国邮政储蓄银行24小时自助银行(金蝉北路),北京市,,,328fe8d9ee0c60239e9d689e
垡头西里2号,朝阳区,北京市,1,39.871428,116.519778,中国邮政储蓄银行24小时自助银行(垡头营业所),北京市,94a22507328ff9f4ecdfca9e,,94a22507328ff9f4ecdfca9e
北京市朝阳区高碑店路183之5-6,朝阳区,北京市,1,39.890366,116.533616,中国邮政储蓄银行24小时自助银行服务(高碑店路营业所),北京市,85be56ca5a319630c4f50d4d,,85be56ca5a319630c4f50d4d
北京市朝阳区观筑庭园801号楼1层104、2层204,朝阳区,北京市,1,39.845469,116.476939,中国邮政储蓄银行24小时自助银行服务(吕家营支行),北京市,05399d8a0a05bf1a32870a1e,,05399d8a0a05bf1a32870a1e
北京市朝阳区来广营北路158号,朝阳区,北京市,1,40.042174,116.472018,中国邮政储蓄银行24小时自助银行(来广营营业所),北京市,fe37a81007412dc84d554733,,fe37a81007412dc84d554733
北京市朝阳区京旺家园一区12,朝阳区,北京市,1,40.013814,116.537702,中国邮政储蓄银行24小时自助银行(南皋路),北京市,31f3a56109a7ddf46f20b9ae,,31f3a56109a7ddf46f20b9ae
北京市朝阳区尚街3楼,朝阳区,北京市,1,39.922434,116.522936,中国邮政储蓄银行24小时自助银行(甘露园营业所),北京市,a684e7d764fe0a4e78b55c0f,,a684e7d764fe0a4e78b55c0f
百子湾东里201-5号,朝阳区,北京市,1,39.905081,116.509942,中国邮政储蓄银行24小时自助银行服务(百子湾南一路),北京市,37ee4ae71c49aba3b64f540a,,37ee4ae71c49aba3b64f540a
北京市朝阳区延静里中街甲18号院6,朝阳区,北京市,1,39.925626,116.491504,中国邮政储蓄银行24小时自助银行服务(延静里中街),北京市,251681b8120c856043e1924f,,2ab4f3c554736ac1f8221399
北京市朝阳区光华路50号,朝阳区,北京市,1,39.918488,116.44255,中国邮政储蓄银行24小时自助银行服务(北京分行直属支行),北京市,a5153941d96313beab0dd8b5,,a5153941d96313beab0dd8b5
燕翔西路12号,朝阳区,北京市,1,40.051853,116.601412,中国邮政储蓄银行24小时自助银行(首都机场宿舍区支行),北京市,54338b7488bb2d508a36ee53,,c9749b0b93b1db25bca822bb
常营朝阳北路万象新天家园426号楼1层底商附近,朝阳区,北京市,1,39.932679,116.601263,中国邮政储蓄银行24小时自助银行(常营支行),北京市,8050031e13a9ad5ceb12e4a7,,8050031e13a9ad5ceb12e4a7
北苑路5号-2,朝阳区,北京市,1,40.049189,116.41996,中国邮政储蓄银行24小时自助银行(黄金苑东),北京市,8fde79cc905db3bf95ca0775,,8fde79cc905db3bf95ca0775
北京市朝阳区姚家园路甲一号活力东方奥特莱斯购物广场首层,朝阳区,北京市,1,39.946845,116.529281,中国邮政储蓄银行24小时自助银行(姚家园路支行),北京市,ef773a0f6793f749230220a0,,ef773a0f6793f749230220a0
西大望路59号院2号,朝阳区,北京市,1,39.894817,116.483547,中国邮政储蓄银行24小时自助银行服务(西大望路支行),北京市,ffd6d403a60aa8f117b54b21,,ffd6d403a60aa8f117b54b21
北京市朝阳区小红门八号路,朝阳区,北京市,1,39.832353,116.470972,中国邮政储蓄银行24小时自助银行服务(小红门营业所),北京市,,,bab08296c71ce45da21de994
北京市朝阳区安慧里2区11号楼,朝阳区,北京市,1,39.999055,116.414461,中国邮政储蓄银行24小时自助银行(亚运村支行),北京市,d5464cf86677cc2afca778a6,,d5464cf86677cc2afca778a6
北京市朝阳区金台里甲25号北京黄枢微创骨伤中医医院,朝阳区,北京市,1,39.927055,116.484463,中国邮政储蓄银行24小时自助银行服务(金台里支行),北京市,b4ba6623cfe8821ee50738dc,,b4ba6623cfe8821ee50738dc
北京市朝阳区樱花园东街1号,朝阳区,北京市,1,39.98144,116.430778,中国邮政储蓄银行24小时自助银行(樱花东街支行),北京市,3be122e15152ab521ef74d4f,,3be122e15152ab521ef74d4f
左家庄中街6号院9-4,朝阳区,北京市,1,39.961055,116.448672,中国邮政储蓄银行24小时自助银行(左家庄支行),北京市,e3a7fd131bcb9a2f29b97ca6,,e3a7fd131bcb9a2f29b97ca6
北京市朝阳区劲松八区809-1号,朝阳区,北京市,1,39.887528,116.456928,中国邮政储蓄银行24小时自助银行服务(劲松储蓄所),北京市,38705ab46127a44ec27da2ad,,38705ab46127a44ec27da2ad
广渠路48-1、50-1,朝阳区,北京市,1,39.898767,116.469591,中国邮政储蓄银行24小时自助银行(双井支行),北京市,4642844ae01245a4c8fa5f83,,4642844ae01245a4c8fa5f83
北京市朝阳区麦子店街9号楼,朝阳区,北京市,1,39.949817,116.475166,中国邮政邮政储蓄(麦子店邮政所),北京市,0ed20a1534b8679757bfff4c,(010)65074020,0ed20a1534b8679757bfff4c
北京市朝阳区望京湖光中街9号金万享酒店一层,朝阳区,北京市,1,40.003786,116.472421,中国邮政储蓄银行ATM(湖光中街),北京市,4dca3a5e4bc015293310af6d,,4dca3a5e4bc015293310af6d
朝阳区西坝河中里35号,朝阳区,北京市,1,39.967916,116.445365,中国邮政储蓄银行ATM(香河园支行),北京市,a3f21eee637fc8392eb17ea6,,a3f21eee637fc8392eb17ea6
北京市朝阳区三间房223号,朝阳区,北京市,1,39.921759,116.574898,中国邮政储蓄银行ATM(三间房支行),北京市,5bf45289b1186ef626e0a0cb,,5bf45289b1186ef626e0a0cb
安贞路2号安贞医院门诊部1F层,朝阳区,北京市,1,39.978558,116.408884,中国邮政储蓄银行ATM(新华金融大厦西),北京市,ae9da5407fd9f49fa7c7567d,,ae9da5407fd9f49fa7c7567d
西大望路59号院2号,朝阳区,北京市,1,39.894921,116.483474,中国邮政储蓄银行中小企业金融中心,北京市,75eb67cc9657a0d2283a9fe8,(010)67753157,75eb67cc9657a0d2283a9fe8
北京市朝阳区工人体育场东路甲2号1层101,朝阳区,北京市,1,39.938895,116.457543,中国邮政储蓄银行ATM(工体东路支行),北京市,f1a214991591e9148f55ec2b,,f1a214991591e9148f55ec2b
太阳宫中路12号凯德MallF1层,朝阳区,北京市,1,39.976858,116.453775,中国邮政24小时自助银行服务(太阳宫营业所),北京市,5c4cf1228b3e7a9af42310bf,,a273b25010cafad640ab9a74
北京市朝阳区安慧里三区六号楼一层,朝阳区,北京市,1,39.998333,116.414579,24小时自助银行服务,北京市,28241eacbc29b5faa6da39f0,,6b27ddab6ae9b5edcafa5feb
北京市丰台区马家堡路120号,丰台区,北京市,1,39.855443,116.386734,中国邮政储蓄银行(角门支行),北京市,cbf18d1beea5be7312882422,95580,cbf18d1beea5be7312882422
北京市丰台区蒲黄榆路蒲安北里3号楼1层,丰台区,北京市,1,39.872071,116.427678,中国邮政储蓄银行(蒲黄榆营业所),北京市,825707a8e9b3044d8936ee74,(010)67639430,825707a8e9b3044d8936ee74
北京市丰台区西四环南路94,丰台区,北京市,1,39.856427,116.290527,中国邮政储蓄银行(丰台大街支行),北京市,8ab0dfc49717d86bd8eced3f,"(010)63823486,(010)63823385",8ab0dfc49717d86bd8eced3f
北京市丰台区新村街道丰台南路阳光大厦一层邮储银行,丰台区,北京市,1,39.829182,116.343422,中国邮政储蓄银行(丰台南路支行),北京市,,(010)83712880,77e97a8f2be02ed6b75f1e37
北京市丰台区卢沟桥晓月苑三里13号楼一层,丰台区,北京市,1,39.842152,116.246343,中国邮政储蓄银行(晓月苑支行),北京市,101bc61b880c5fdec52ba197,(010)83212391,101bc61b880c5fdec52ba197
北京市丰台区大红门街道新世纪创意大厦7层邮政储蓄银行,丰台区,北京市,1,39.857435,116.406182,中国邮政储蓄银行(新世纪营业所),北京市,2ddbde9494e10c4295ca072a,95580,2ddbde9494e10c4295ca072a
万丰路望园东里小区1号楼,丰台区,北京市,1,39.874746,116.300405,中国邮政储蓄银行(丰北路支行),北京市,b292b3aae4d02d55be484210,,b292b3aae4d02d55be484210
北京市丰台区富丰园小区32号,丰台区,北京市,1,39.842649,116.290489,中国邮政储蓄银行(富丰园支行),北京市,a74481d604842c45f503b811,(010)63729632,a74481d604842c45f503b811
帝京路5号,丰台区,北京市,1,39.839998,116.299261,中国邮政储蓄银行(科学城邮局营业部),北京市,435d7aeae63abf365abbbc11,(010)63714433,435d7aeae63abf365abbbc11
西客站南路华源三里小区3号楼,丰台区,北京市,1,39.884273,116.327078,中国邮政储蓄银行(华源三里营业所),北京市,037795a8636a187b43e19204,95580,037795a8636a187b43e19204
北京市丰台区广安门外红居街172号,丰台区,北京市,1,39.867299,116.398863,中国邮政储蓄银行24小时自助银行(北京南区支行),北京市,3a0fbba8a8945b3c9fe32183,,3a0fbba8a8945b3c9fe32183
南苑路15号大红门服装商贸城四层,丰台区,北京市,1,39.853949,116.406046,中国邮政储蓄银行(北京丰台区大红门服装城支行),北京市,299da465a6803224da2f284b,(010)87255518,299da465a6803224da2f284b
北京市丰台区正阳大街同盛里2号楼(正阳大街115号),丰台区,北京市,1,39.856307,116.297949,中国邮政储蓄银行(正阳大街邮局营业部),北京市,befdb2921b2714e287154110,(010)63823587,befdb2921b2714e287154110
北京市丰台区马家堡西路苏宁电器旁边,丰台区,北京市,1,39.858332,116.377662,中国邮政储蓄银行(嘉园支行),北京市,2e00c5dd58cb8c1cd7851fdd,(010)67560035,2e00c5dd58cb8c1cd7851fdd
北京市丰台区南四环西路188号18区3号,丰台区,北京市,1,39.828227,116.299498,中国邮政储蓄银行(信用卡部),北京市,28443d56e990f571c51e515b,95580,8c00ccf17852c2e604fef579
北京市丰台区宋家庄顺六条28号,丰台区,北京市,1,39.857345,116.434451,中国邮政储蓄银行(宋家庄店),北京市,a4b50fee70c394f0ae080f6c,(010)67645564,442076461c582868deee8b21
北京市丰台区四方景园五区1号楼底商,丰台区,北京市,1,39.862699,116.449419,中国邮政储蓄银行(成寿寺邮政所),北京市,231169136f9ef6fe734b8721,,231169136f9ef6fe734b8721
北京市丰台区西罗园1区15号楼,丰台区,北京市,1,39.867548,116.398908,中国邮政储蓄银行(丰台区支行),北京市,9696cdcd38570fe8931fc909,(010)87255517,9696cdcd38570fe8931fc909
北京市丰台区西木樨园8号,丰台区,北京市,1,39.865752,116.408029,中国邮政储蓄银行(木樨园支行),北京市,bcaebff802662729c8e33c80,(010)67222689,bcaebff802662729c8e33c80
北京市丰台区角门18号枫竹苑二区1号楼1层,丰台区,北京市,1,39.840397,116.377874,中国邮政储蓄银行(公益西桥支行),北京市,f1dc544cb9e35c68deee8b91,(010)67500829,f1dc544cb9e35c68deee8b91
北京市丰台区,丰台区,北京市,1,39.823602,116.184717,中国邮政储蓄银行(朱家坟营业所),北京市,,,9fb10d4064ebb0a0067ce8b1
北京市丰台区光彩路66号院5号楼1层103号,丰台区,北京市,1,39.845003,116.421925,中国邮政储蓄银行(彩虹城支行),北京市,4a91fc1d21af31fbdf1e52a7,(010)87866180,4a91fc1d21af31fbdf1e52a7
丰台区南大红门路13号,丰台区,北京市,1,39.804269,116.425041,中国邮政储蓄银行(六营门邮政所),北京市,341c35de0c8472bee6073837,(010)67965223,341c35de0c8472bee6073837
北京市丰台区菜户园西路三路居路88号院18号楼1层106,丰台区,北京市,1,39.877252,116.347451,中国邮政储蓄银行(菜户营支行),北京市,ec5f7bbd484876aa9a005048,(010)83204657,ec5f7bbd484876aa9a005048
南四环西路188号21,丰台区,北京市,1,39.831801,116.297175,中国邮政储蓄银行(科丰桥南支行),北京市,6a038a7a4c593df15b109329,,6a038a7a4c593df15b109329
紫芳园四区3,丰台区,北京市,1,39.867983,116.44711,中国邮政储蓄银行(紫芳园支行),北京市,4c32e16601e459e89a00506c,,4c32e16601e459e89a00506c
北京市丰台区开阳里五区三号楼,丰台区,北京市,1,39.871705,116.377526,中国邮政储蓄银行(开阳里支行),北京市,7aea43b74c04f0fb7c29bd11,(010)83559750,7aea43b74c04f0fb7c29bd11
北京市丰台区新开路新发地农产品批发市场办公楼一层,丰台区,北京市,1,39.82274,116.34989,中国邮政储蓄银行(新发地支行),北京市,32e7095a2b3507293586f4ac,,32e7095a2b3507293586f4ac
北京市丰台区石榴园北里44号,丰台区,北京市,1,39.852271,116.424294,中国邮政储蓄银行(石榴庄邮局营业部),北京市,764672e5126a74ae94ec8421,(010)67257650,764672e5126a74ae94ec8421
北京市丰台区东高地斜街13号,丰台区,北京市,1,39.811764,116.423458,中国邮政储蓄银行(东高地邮局营业部),北京市,87248d96a10902b02806ce49,"(010)67991552,(010)67978618",87248d96a10902b02806ce49
北京市丰台区北京西站南路10号,丰台区,北京市,1,39.891787,116.32801,中国邮政储蓄银行(太平桥邮局营业部),北京市,b3aa435ddc67140815764310,(010)63262534,b3aa435ddc67140815764310
北京市丰台区西四环南路3号,丰台区,北京市,1,39.879363,116.284067,中国邮政储蓄银行(丰台路口储蓄所),北京市,1c2bbc5dd41e39312bd7abf1,(010)63840760,1c2bbc5dd41e39312bd7abf1
北京市丰台区新华街四里6号楼一楼,丰台区,北京市,1,39.847946,116.29702,中国邮政储蓄银行(新华街邮政储蓄所),北京市,c1c789168a81629ed618b71f,(010)63726322,c1c789168a81629ed618b71f
北京市丰台区蒲方路22号,丰台区,北京市,1,39.871526,116.435995,中国邮政储蓄银行(蒲芳路邮局营业部),北京市,7fd7231102ae529c5cbe8621,"(010)67628469,(010)67678476",7fd7231102ae529c5cbe8621
丰台区大红门西前街8号,丰台区,北京市,1,39.842433,116.411179,中国邮政储蓄银行(大红门邮局营业部),北京市,f2f15ffb44c79688631c67d3,(010)67259491,f2f15ffb44c79688631c67d3
北京市丰台区长辛店大街1号,丰台区,北京市,1,39.835744,116.215297,中国邮政储蓄银行(长辛店邮局营业部),北京市,4642844ab74c96dac9fa5f5f,(010)83876093,4642844ab74c96dac9fa5f5f
槐树岭4号院5号楼,丰台区,北京市,1,39.867881,116.175308,中国邮政储蓄银行(槐树岭邮局营业部),北京市,387f1ef978ee4880f4eafc02,(010)83808462,387f1ef978ee4880f4eafc02
云岗南里2号,丰台区,北京市,1,39.815272,116.166161,中国邮政储蓄银行(北京丰台区云岗支行),北京市,56dee68fe1cce11a5a3ac810,"(010)83317124,(010)83310974",8c643abbb2f523104e776e9e
北京市丰台区角门北路17号,丰台区,北京市,1,39.856929,116.381458,中国邮政储蓄银行(北京丰台区马家堡支行),北京市,a76fef467029691102294fd1,(010)67575095,a76fef467029691102294fd1
北京市丰台区小屯路美域家园南区3-1号,丰台区,北京市,1,39.881142,116.256278,中国邮政,北京市,e9df3118f201c8c7c909f07a,(010)68705930,e9df3118f201c8c7c909f07a
南四环西路188号16区21号楼,丰台区,北京市,1,39.831656,116.297025,中国邮政储蓄银行软件研发中心(总部基地),北京市,fae43c1c113dd98cf60e77ce,,fae43c1c113dd98cf60e77ce
北京市丰台区蒲安北里3,丰台区,北京市,1,39.872104,116.427499,中国邮政储蓄银行24小时自助银行服务,北京市,8d96925c91de1045c1f1cfd3,,8d96925c91de1045c1f1cfd3
望园东里小区1号楼,丰台区,北京市,1,39.872685,116.293287,中国邮政储蓄银行24小时自助银行服务(望园路),北京市,31f9101bdddf16b926e0a0dd,,31f9101bdddf16b926e0a0dd
东铁营顺六条28号,丰台区,北京市,1,39.857378,116.434355,中国邮政储蓄银行24小时自助银行(宋家庄支行),北京市,c7e3f856e28906f05d0d020b,,c7e3f856e28906f05d0d020b
北京市丰台区东高地斜街13号,丰台区,北京市,1,39.81177,116.423459,中国邮政储蓄银行24小时自助银行(东高地支行),北京市,3c0ea7c56fe694e1faf0cb9a,,3c0ea7c56fe694e1faf0cb9a
西站南路10号,丰台区,北京市,1,39.891614,116.327966,中国邮政储蓄银行24小时自助银行服务(太平桥支行),北京市,209aa960cc4da215fe0eb05a,,c8b5cdef854e847d130daa0e
广安路686号附近,丰台区,北京市,1,39.893379,116.3228,中国邮政储蓄银行24小时自助银行,北京市,,,4692dcf16a8a90b432f71d75
北京市丰台区大瓦窑中路5号院绿洲家园14号楼底商,丰台区,北京市,1,39.868983,116.240751,中国邮政储蓄银行24小时自助银行(绿洲家园西),北京市,88984fd94d60f6ebc5effbaa,,8fc3d083bcb1216ece04efb5
马家堡路120,丰台区,北京市,1,39.855417,116.386597,中国邮政储蓄银行24小时自助银行(角门支行),北京市,304a3b05401c1273b72655ba,,304a3b05401c1273b72655ba
北京市丰台区镇国寺北街8号院4号楼底商,丰台区,北京市,1,39.848696,116.370991,中国邮政储蓄银行24小时自助银行,北京市,,,bdea3ac69a25c8000b1cc778
新华街四里6,丰台区,北京市,1,39.847949,116.296965,中国邮政储蓄银行24小时自助银行,北京市,98b6b8e3f07df30845e27405,,98b6b8e3f07df30845e27405
北京市丰台区富丰园32号楼底商,丰台区,北京市,1,39.84276,116.290509,中国邮政储蓄银行24小时自助银行服务(富丰园支行),北京市,3f998da1c9d7b3231676435e,,3f998da1c9d7b3231676435e
大成路28号院附近,丰台区,北京市,1,39.892601,116.263368,中国邮政储蓄银行24小时自助银行,北京市,,,e61017f0ebaaa227b0077df1
北京市丰台区顶秀金瑞家园(南顶路北50米),丰台区,北京市,1,39.845692,116.43759,中国邮政储蓄银行24小时自助银行(南顶路营业厅),北京市,,,702e690876c89c50c03644a2
风格与林苑甲9号楼1层102(中国工商银行旁),丰台区,北京市,1,39.829,116.343203,中国邮政储蓄银行24小时自助银行服务(丰台南路支行),北京市,c86b89e8cbb2aebdfbf0cbde,,c86b89e8cbb2aebdfbf0cbde
地铁泥洼站内,丰台区,北京市,1,39.864892,116.310745,中国邮政储蓄银行ATM,北京市,d70f57fb5e00651893114c51,,d70f57fb5e00651893114c51
丰台南路地铁站内,丰台区,北京市,1,39.84835,116.302105,中国邮政储蓄银行ATM,北京市,ad2b7424f5547e4b26e0a0f2,,ad2b7424f5547e4b26e0a0f2
六里桥地铁站内,丰台区,北京市,1,39.886535,116.308464,中国邮政储蓄银行ATM,北京市,9968e035c56ea6fdb54f54e0,,9968e035c56ea6fdb54f54e0
北京市丰台区蒲芳路22号,丰台区,北京市,1,39.871588,116.436118,中国邮政储蓄银行24小时自助银行(方庄支行),北京市,6d3eeade5f55a1c40d0a70aa,,6d3eeade5f55a1c40d0a70aa
北京市丰台区四方景园五区1号,丰台区,北京市,1,39.862652,116.448708,中国邮政储蓄银行24小时自助银行服务(成寿寺支行),北京市,ce4928dd88e313e8e215f9fc,,9805759eff2674d435b06cd1
马家堡地铁站内,丰台区,北京市,1,39.858451,116.377536,中国邮政储蓄银行24小时自助银行(嘉园营业所),北京市,02c7d242ea884d3843afe603,,f8898fb0c56eadcc14b54bb2
洋桥西里32号,丰台区,北京市,1,39.864904,116.384879,中国邮政储蓄银行24小时自助银行(洋桥西里营业所),北京市,bf0096a76457d9e670210b75,,bf0096a76457d9e670210b75
角门北路17号,丰台区,北京市,1,39.856929,116.38156,中国邮政储蓄银行24小时自助银行服务(马家堡支行),北京市,fcfdaf595f4a8cae0ab93a30,,fcfdaf595f4a8cae0ab93a30
北京市丰台区望园东里1号楼,丰台区,北京市,1,39.8746,116.300467,中国邮政储蓄银行24小时自助银行(望园营业所),北京市,f9cfbfca74ed24d4b13c811a,,f9cfbfca74ed24d4b13c811a
帝京路5号院3,丰台区,北京市,1,39.839999,116.299263,中国邮政储蓄银行24小时自助银行服务(丰台区科学城支行),北京市,5c2dc21d51f554796ec02c8f,,5c2dc21d51f554796ec02c8f
南三环中路67号北京国际玩具城6号楼1层,丰台区,北京市,1,39.864161,116.416441,中国邮政储蓄银行24小时自助银行(沙子口路),北京市,5eaefd5eba9fd7ac9fec2bf0,,5eaefd5eba9fd7ac9fec2bf0
方庄路东150米,丰台区,北京市,1,39.868099,116.447006,中国邮政储蓄银行24小时自助银行(紫芳园支行),北京市,,,e51cff390af1a64908ccddc2
北京市丰台区南四环西路188号(十六区)21,丰台区,北京市,1,39.831942,116.297355,中国邮政储蓄银行24小时自助银行(金融港支行),北京市,,,4707e53950b25eb8bfa82208
美域家园南区3-1,丰台区,北京市,1,39.88114,116.256177,中国邮政储蓄银行24小时自助银行(小屯路营业所),北京市,f4787481750ea1630ab93a4f,,f4787481750ea1630ab93a4f
西马场南里二区10号楼,丰台区,北京市,1,39.845673,116.385589,中国邮政储蓄银行24小时自助银行(角门南路),北京市,6ee01020b8de9bef52e5c5d3,,6ee01020b8de9bef52e5c5d3
北京市丰台区南大红门路13号,丰台区,北京市,1,39.804154,116.425066,中国邮政储蓄银行24小时自助银行服务(六营门营业所),北京市,6ee01020b8a29bef52e5c537,,6ee01020b8a29bef52e5c537
西客站南路华源三里小区3号楼,丰台区,北京市,1,39.88417,116.327048,中国邮政储蓄银行24小时自助银行(华源三里营业所),北京市,,,306e3396c582fc751d1d11e2
北京市丰台区靛厂路11号千禧购物中心F1,丰台区,北京市,1,39.896127,116.289197,中国邮政储蓄银行24小时自助银行(千禧街休闲购物广场),北京市,2137b6e8054cbf8eaeb22a2d,,95da5c1c3a6b4d80fb2d61eb
北京市丰台区花乡万年花城三期芳菲路88号院西北,丰台区,北京市,1,39.844343,116.327191,中国邮政储蓄银行24小时自助银行(万年花城营业所),北京市,74a6e3a303ec505abadf8f4a,,74a6e3a303ec505abadf8f4a
北京市丰台区万芳园一区2,丰台区,北京市,1,39.853659,116.326203,中国邮政储蓄银行24小时自助银行(丰台东路),北京市,721abd77d8898e7f6fc02c88,,721abd77d8898e7f6fc02c88
五里店小区13号楼,丰台区,北京市,1,39.861692,116.265043,中国邮政储蓄银行24小时自助银行(五里店营业所),北京市,9e1bddad693e43d6eb12e45a,,9e1bddad693e43d6eb12e45a
北京市丰台区文西路中段附近,丰台区,北京市,1,39.815184,116.166174,中国邮政储蓄银行24小时自助银行服务(北京丰台区云岗支行),北京市,,,fe8f2ae37c1b3fa2c27da2a8
北京市丰台区开阳里五区三号楼,丰台区,北京市,1,39.871679,116.377424,中国邮政储蓄银行24小时自助银行服务(开阳里支行),北京市,ddcf5635032820181e1d1124,,ddcf5635032820181e1d1124
石榴园北里44,丰台区,北京市,1,39.852307,116.424213,中国邮政储蓄银行24小时自助银行(石榴庄支行),北京市,504d6113316bbece47572683,,504d6113316bbece47572683
三路居88号院18号楼1层106,丰台区,北京市,1,39.877292,116.347471,中国邮政储蓄银行24小时自助银行服务(菜户营支行),北京市,8b3ef7bc191d96f0a2046403,,8b3ef7bc191d96f0a2046403
光彩路184号附近,丰台区,北京市,1,39.845047,116.422096,中国邮政储蓄银行个人贷款中心,北京市,91ef425e911713bc82288af0,,91ef425e911713bc82288af0
北京市丰台区方庄蒲方路芳群园(二区),丰台区,北京市,1,39.871711,116.436391,中国邮政储蓄银行个人贷款中心,北京市,e226575075bf76a54e5547dd,95580,e226575075bf76a54e5547dd
北京市丰台区南苑路9号一层(近天雅服装大厦),丰台区,北京市,1,39.858783,116.405691,中国邮政储蓄银行ATM(南苑路辅路),北京市,ef517545618f0e8bd23ce341,,ef517545618f0e8bd23ce341
大红门西前街8号,丰台区,北京市,1,39.84253,116.411212,中国邮政储蓄银行ATM(大红门支行),北京市,550fd5f9fedf6279931fc9d3,,550fd5f9fedf6279931fc9d3
北京市丰台区光彩路66号院5号楼1层103号,丰台区,北京市,1,39.84522,116.421875,中国邮政储蓄银行24小时自助银行(彩虹城支行),北京市,6113ef77e7133f698f772783,,6113ef77e7133f698f772783
北京市丰台区长辛店大街1号,丰台区,北京市,1,39.835903,116.215332,中国邮政储蓄银行ATM(长辛店支行),北京市,e3e2cd9dc2dff99ec6f50d99,,e3e2cd9dc2dff99ec6f50d99
槐岭四号院创成大厦,丰台区,北京市,1,39.867814,116.175149,中国邮政储蓄银行ATM(槐树岭支行),北京市,c3761a7ee735a65f49fd3f3f,,c3761a7ee735a65f49fd3f3f
北京市丰台区阳光大厦(银地家园东北60米),丰台区,北京市,1,39.829221,116.342975,中国邮政储蓄银行个人贷款中心(丰台南路支行),北京市,0b404a27238b5c89b11e36de,,0b404a27238b5c89b11e36de
丰台区槐树岭4号院201所院内,丰台区,北京市,1,39.867818,116.175149,中国邮政(槐树岭邮政所),北京市,407be79e5db453e0eb1e9779,11185,407be79e5db453e0eb1e9779
北京市丰台区马家堡路230号附近,丰台区,北京市,1,39.845685,116.385654,中国邮政银行24小时自助银行服务,北京市,,,c73e32bd79d18a51abf72920
大红门路28号附近,丰台区,北京市,1,39.856152,116.412167,中国邮政银行24小时自助银行服务(海慧寺支行),北京市,416f1ff5c976d143b75f1e7e,,416f1ff5c976d143b75f1e7e
北京市石景山区杨庄北区44号,石景山区,北京市,1,39.93472,116.20244,中国邮政储蓄银行(杨庄支行),北京市,2527be1ee2cbecce4bfc8db8,(010)52651257,2527be1ee2cbecce4bfc8db8
北京市石景山区鲁谷路39号,石景山区,北京市,1,39.909733,116.23197,中国邮政储蓄银行(鲁谷支行),北京市,4fc3161a6ab95daa3a13fd77,(010)88685282,4fc3161a6ab95daa3a13fd77
北京市石景山区鲁谷大街13号,石景山区,北京市,1,39.906514,116.235632,中国邮政储蓄银行(西永乐支行),北京市,8eb48fa129a841a5f32d8377,(010)68688481,8eb48fa129a841a5f32d8377
北京市石景山区金顶街二区甲2栋,石景山区,北京市,1,39.935229,116.175031,中国邮政储蓄银行(金顶街支行),北京市,680fb703ad4fc0e18ab988b8,(010)88713519,680fb703ad4fc0e18ab988b8
北京市石景山区八角街道景阳东街65号院3号楼底商邮储银行,石景山区,北京市,1,39.901754,116.211319,中国邮政储蓄银行(景阳东街营业所),北京市,,(010)68621900,771dc361055995014657265d
苹果园大街118号,石景山区,北京市,1,39.935579,116.191508,中国邮政储蓄银行(北京石景山区苹果园营业所),北京市,d8192475d9c0796e9e95de5b,(010)68873461,d8192475d9c0796e9e95de5b
老山南路老山东里46栋1层,石景山区,北京市,1,39.917211,116.229483,中国邮政储蓄银行(老山东里支行),北京市,5e53af1a8605e8214151c06d,"(010)88973664,(010)88976722",5e53af1a8605e8214151c06d
北京市石景山区八大处路28-1号,石景山区,北京市,1,39.951714,116.206467,中国邮政储蓄银行(西下庄支行),北京市,22e11407de0bb4b7d5b74ef8,(010)88961371,22e11407de0bb4b7d5b74ef8
北京市石景山区古城大街27号,石景山区,北京市,1,39.919531,116.192927,中国邮政储蓄银行(古城大街支行),北京市,0a15c7ecc040fdffed74f877,(010)68872521,0a15c7ecc040fdffed74f877
北京市石景山区建西苑晋元庄小区33号楼商业9号,石景山区,北京市,1,39.922815,116.213568,中国邮政储蓄银行(晋元庄支行),北京市,a5ef680ff2276daab8df8fb8,(010)58971472,a5ef680ff2276daab8df8fb8
北京市石景山区时代花园南路23号院15号楼,石景山区,北京市,1,39.925825,116.205246,中国邮政储蓄银行(杨庄东街邮储支行),北京市,83d72819441bff5e95f08c23,(010)88980844,83d72819441bff5e95f08c23
北京市石景山区古城东街123号,石景山区,北京市,1,39.916243,116.200606,中国邮政储蓄银行(古城东街营业所),北京市,c7eca12bca2b4734e115f977,(010)68849478,c7eca12bca2b4734e115f977
北京市石景山区石景山路52号,石景山区,北京市,1,39.912932,116.193994,中国邮政储蓄银行(新古城邮局营业部),北京市,a1418eb4e8ca187cebe58277,(010)68876096,a1418eb4e8ca187cebe58277
北京市石景山区鲁谷大街13号,石景山区,北京市,1,39.906598,116.235592,中国邮政储蓄银行24小时自助银行(西永乐营业所),北京市,31c148242a431998770269b3,,31c148242a431998770269b3
北京市石景山区鲁谷南路9-1,石景山区,北京市,1,39.90482,116.231436,中国邮政储蓄银行五芳园营业所(五芳园支行),北京市,8fa14fc37371596df7eafc77,(010)68644831,8fa14fc37371596df7eafc77
北京市石景山区老山西里甲7号,石景山区,北京市,1,39.915186,116.224925,中国邮政储蓄银行(老山西里邮局营业部),北京市,0ed20a15a587f69457bfff77,(010)88974900,0ed20a15a587f69457bfff77
北京市石景山区模式口西里社区工贸大厦2层,石景山区,北京市,1,39.938759,116.160776,中国邮政储蓄银行(石景山区模式口西里支行),北京市,4051164cec8cdbf86b49f384,(010)88722439,4051164cec8cdbf86b49f384
古城大街27-1号,石景山区,北京市,1,39.916372,116.20064,中国邮政储蓄银行24小时自助银行(古城大街支行),北京市,a5097bfa7af5171ef13cba97,,521964b2cf39a7dbbadf8fc3
重兴园甲1号,石景山区,北京市,1,39.898049,116.235438,中国邮政储蓄银行24小时自助银行服务(重兴园支行),北京市,eb367503491efd6501ec01b0,,eb367503491efd6501ec01b0
北京市石景山区鲁谷南路9-1号,石景山区,北京市,1,39.904783,116.23135,中国邮政储蓄银行24小时自助银行服务(五芳园支行),北京市,43b7e889d14d051759f6be97,,43b7e889d14d051759f6be97
苹果园北路与苹果园大街交叉口西北50米,石景山区,北京市,1,39.937723,116.190303,中国邮政储蓄银行24小时自助银行,北京市,,,e83e306fceeae9152bb97c77
北京市石景山区鲁谷路39号,石景山区,北京市,1,39.909825,116.232113,中国邮政储蓄银行24小时自助银行服务(鲁谷支行),北京市,9ee392b80597c53fbbbd635a,,9ee392b80597c53fbbbd635a
北京市石景山区金项街二区甲2,石景山区,北京市,1,39.934966,116.174988,中国邮政储蓄银行24小时自助银行(金顶街支行),北京市,39d43f8239f78cfba9059db8,,39d43f8239f78cfba9059db8
古城大街27-1号,石景山区,北京市,1,39.919523,116.192818,中国邮政储蓄24小时自助银行服务(古城大街支行),北京市,c4ce6881feefc701c61e51b9,,c4ce6881feefc701c61e51b9
首钢老山居民区,石景山区,北京市,1,39.917208,116.229495,中国邮政储蓄银行24小时自助银行服务,北京市,a74481d6d100ff3bf403b897,,a74481d6d100ff3bf403b897
北京市石景山区琅山苗圃南园子金辉苑小区C3配套服务楼底商,石景山区,北京市,1,39.934714,116.202412,中国邮政储蓄银行24小时自助银行(杨庄支行),北京市,b281baaf50368385d42ce221,,b281baaf50368385d42ce221
北京市石景山区衙门口融景城西区(锅炉厂南路南),石景山区,北京市,1,39.901837,116.211363,中国邮政储蓄银行24小时自助银行(景阳东街营业所),北京市,8a3c999c5d1bc37430169b69,,8a3c999c5d1bc37430169b69
玉泉西里一区2号楼1层101(远洋沁山水底商),石景山区,北京市,1,39.909636,116.256877,中国邮政储蓄银行24小时自助银行(玉泉西里营业所),北京市,5459c32b6551bded220220ee,,5459c32b6551bded220220ee
北京市石景山区建西苑南里10-9号,石景山区,北京市,1,39.923144,116.213627,中国邮政储蓄银行24小时自助银行服务(晋元庄支行),北京市,c61bd305813bbd15c37da2b8,,c61bd305813bbd15c37da2b8
北京市石景山区时代花园南路23号院15号楼101,石景山区,北京市,1,39.925757,116.205157,中国邮政储蓄银行24小时自助银行(杨庄东街营业所),北京市,514feb28c17a342802294fbc,,514feb28c17a342802294fbc
北京市石景山区古城南里2-3号楼,石景山区,北京市,1,39.912973,116.193454,中国邮政储蓄银行24小时自助银行(新古城支行),北京市,81e6d29224660e754bcc4a42,,81e6d29224660e754bcc4a42
北京市石景山区八大处路28-1号,石景山区,北京市,1,39.951757,116.206596,中国邮政储蓄银行ATM(西下庄支行),北京市,67faa295f535cc8c4107c18a,,67faa295f535cc8c4107c18a
金顶街金2区甲2栋1层,石景山区,北京市,1,39.935043,116.174886,中国邮政储蓄银行货币兑换国际汇款,北京市,,,ff578d374d6f29c997ec8429
西翠路5号今日家园西配楼1层,海淀区,北京市,1,39.907745,116.285376,中国邮政储蓄银行,北京市,058b5360e8233d25d7851fa4,95580,058b5360e8233d25d7851fa4
上庄镇馨瑞家园8号楼4单元沙阳路,海淀区,北京市,1,40.130618,116.223346,中国邮政储蓄银行,北京市,,95580,24c45aeac6bb76960aa8d48b
北京市海淀区颐和园路,海淀区,北京市,1,40.008436,116.283968,中国邮政储蓄银行ATM,北京市,8dae79814193945a40e1920c,,8dae79814193945a40e1920c
海淀区永泰中路永泰西里2号楼,海淀区,北京市,1,40.039511,116.362578,中国邮政储蓄银行(永泰支行),北京市,5c56edd6e795c95aa1d2306c,(010)62903483,5c56edd6e795c95aa1d2306c
北京市海淀区清河西二旗大街与西二旗中路交叉路口新领秀硅谷B区6号,海淀区,北京市,1,40.060336,116.321218,中国邮政储蓄银行(领秀硅谷支行),北京市,3c0f54dece29ee709868b461,(010)82439867,3c0f54dece29ee709868b461
北京市海淀区黑山扈路付家窑36号,海淀区,北京市,1,40.048115,116.265447,中国邮政储蓄银行(西北旺支行),北京市,844a750e9210f1b96268586f,(010)62899077,844a750e9210f1b96268586f
北京市海淀区西三环北路25号,海淀区,北京市,1,39.955706,116.315747,中国邮政储蓄银行(万寿寺支行),北京市,1c2bf3cdb56f3f7a1c389439,(010)88569680,1c2bf3cdb56f3f7a1c389439
北京市海淀区双清路30号清华大学照澜院,海淀区,北京市,1,40.0053,116.331092,中国邮政储蓄银行(清华大学支行),北京市,e56bf5e39aa7e7470682c295,(010)62780422,e56bf5e39aa7e7470682c295
学院路37号北京航空航天大学合一楼1层,海淀区,北京市,1,39.987484,116.351245,中国邮政储蓄银行24小时自助银行,北京市,88b7fe551884f616f603b8ad,,fa7da3e854b32f1c42d63e2c
北京市海淀区圆明园西路15号,海淀区,北京市,1,40.029342,116.286703,中国邮政储蓄银行(农业大学支行),北京市,1e5d3c765187acf94e2fdfd8,(010)62816132,1e5d3c765187acf94e2fdfd8
北京市海淀区永丰中路99号颐和山庄,海淀区,北京市,1,40.056595,116.246812,中国邮政储蓄银行(颐和山庄支行),北京市,0f8799eae425f99d5d17c33b,(010)62481351,0f8799eae425f99d5d17c33b
北京市海淀区八里庄恩济路定慧福里南100米,海淀区,北京市,1,39.935322,116.2835,中国邮政储蓄银行,北京市,54e0dfc7bb682aa822f0177e,,54e0dfc7bb682aa822f0177e
北京市海淀区西土城路10号北京邮电大学内(北京邮电大学西门),海淀区,北京市,1,39.967568,116.361966,中国邮政储蓄银行(邮电大学邮政支局),北京市,5ce2637d2855d051ae31e541,(010)62283605,5ce2637d2855d051ae31e541
北京市海淀区双清路30号清华大学照澜院,海淀区,北京市,1,40.005162,116.33102,中国邮政储蓄银行24小时自助银行(清华大学支行),北京市,b388f9fd01024c41b35c6a40,,b388f9fd01024c41b35c6a40
北京市海淀区永定路甲88号,海淀区,北京市,1,39.91031,116.272416,中国邮政储蓄银行(永定路邮局营业部),北京市,ffd6d403e03ee28c17b54b10,(010)68210854,ffd6d403e03ee28c17b54b10
北京市海淀区知春路1,海淀区,北京市,1,39.983265,116.360029,中国邮政储蓄银行24小时自助银行(知春路支行),北京市,d59ec12233899c8152e5c587,,d59ec12233899c8152e5c587
北京市海淀区学院路37号北京航空航天大学合一楼1层,海淀区,北京市,1,39.98742,116.351326,中国邮政储蓄银行(北京航空航天大学邮政所邮政),北京市,d0a3113a2c13ff00b2077de1,(010)82327117,d0a3113a2c13ff00b2077de1
北京市海淀区知春路1号学院国际大厦首层,海淀区,北京市,1,39.98319,116.360029,中国邮政储蓄银行(北京海淀区知春路支行),北京市,442076466930d516deee8bcb,(010)82310721,442076466930d516deee8bcb
北京市海淀区中关村南大街27号中央民族大学院内2号楼1层北侧,海淀区,北京市,1,39.957378,116.326278,中国邮政储蓄银行24小时自助银行(中央民族大学支行),北京市,1a162f20a44e0250afee7ace,,1a162f20a44e0250afee7ace
北京市海淀区西大街43号,海淀区,北京市,1,39.989519,116.313159,中国邮政储蓄银行(海淀区西大街营业所),北京市,71f023aa03dec4309e82eae7,(010)62572426,71f023aa03dec4309e82eae7
北辛村5号,海淀区,北京市,1,40.000153,116.210032,中国邮政储蓄银行(香山支行),北京市,4bb049d9e0dd0744990050f8,(010)82592744,4bb049d9e0dd0744990050f8
温泉路96号,海淀区,北京市,1,40.057905,116.172407,中国邮政储蓄银行(温泉支行),北京市,606ab0d068aeae290e3dda46,"(010)62493606,(010)62456658",606ab0d068aeae290e3dda46
海淀区花园路甲2号院4号楼1层103室,海淀区,北京市,1,39.986215,116.373363,中国邮政储蓄银行(金尚嘉园支行),北京市,59e5d2e2881be8e1b4265543,(010)82321657,fbdcd189189612e2d1f49e20
北京市海淀区悦秀路99通厦公元99大厦1层,海淀区,北京市,1,40.053203,116.343397,中国邮政储蓄银行(通厦营业所),北京市,19252803d78608aafbf0cbbf,,19252803d78608aafbf0cbbf
北京市海淀区罗庄西里13号,海淀区,北京市,1,39.979695,116.351512,中国邮政储蓄银行(罗庄营业所),北京市,fc6f65d346cedf9bf8dc85ab,(010)82356340,fc6f65d346cedf9bf8dc85ab
北京市海淀区车道沟10号,海淀区,北京市,1,39.952044,116.307106,中国邮政储蓄银行(车道沟支行),北京市,f633606a62b2934e0b69d942,"(010)62263141,(010)68728485",f633606a62b2934e0b69d942
北京市海淀区世纪城小区烟树园1号楼(蓝靛厂西十字路口),海淀区,北京市,1,39.968007,116.2861,中国邮政储蓄银行(世纪城支行),北京市,bf29b70205f1039a08b93a95,(010)88874740,bf29b70205f1039a08b93a95
北京市海淀区北洼路30号,海淀区,北京市,1,39.941016,116.30972,中国邮政储蓄银行(北洼路营业所),北京市,ab6e15fff9d0b51ffbf0cb56,(010)68421130,ab6e15fff9d0b51ffbf0cb56
北京市海淀区育新花园西路莱圳家园4号楼1层101,海淀区,北京市,1,40.05012,116.351129,中国邮政储蓄银行(莱圳营业所),北京市,771b4c88811392afce04ef6a,,771b4c88811392afce04ef6a
清河三街90号,海淀区,北京市,1,40.03667,116.347746,中国邮政储蓄银行(清河镇支行),北京市,edd64ce1a69299913fe2316c,(010)62953378,edd64ce1a69299913fe2316c
海淀区环山村11号,海淀区,北京市,1,40.043008,116.214604,中国邮政储蓄银行(冷泉邮政所),北京市,c21db9e5378516fe01ff2da2,"(010)62456220,(010)62456932",c21db9e5378516fe01ff2da2
北京市海淀区四季青路8号一层105-107号,海淀区,北京市,1,39.960026,116.277077,中国邮政储蓄银行(郦城营业所),北京市,8043f4e41fbfff6af4e73b79,,8043f4e41fbfff6af4e73b79
北京市海淀区永定路25号院1号,海淀区,北京市,1,39.924843,116.27067,中国邮政储蓄银行(铁家坟营业所),北京市,ddd2fefbb4fd5f5c0e3ddae3,,ddd2fefbb4fd5f5c0e3ddae3
北京市海淀区西三旗育新花园16号,海淀区,北京市,1,40.06528,116.350792,中国邮政储蓄银行(育新花园支行),北京市,18165334c4965704fb2d616f,(010)82908575,18165334c4965704fb2d616f
北京市海淀区清河三街126号清上园小区商业楼,海淀区,北京市,1,40.04499,116.338183,中国邮政储蓄银行(清上园支行),北京市,060f5e538672bdd4081cc77a,(010)82728663,060f5e538672bdd4081cc77a
北京市海淀区双榆树东里37号,海淀区,北京市,1,39.97435,116.33227,中国邮政储蓄银行(双榆树支行),北京市,d7fd2ad3fa9c0d540bccdd41,(010)82113805,d7fd2ad3fa9c0d540bccdd41
北京市海淀区西八里庄恩济里小区1号楼1层恩济里小区西北门附近,海淀区,北京市,1,39.938161,116.292914,中国邮政储蓄银行(恩济里邮政所),北京市,d5f93c0e669aab5ceddfca41,(010)88127210,d5f93c0e669aab5ceddfca41
海淀区西三环北路48号,海淀区,北京市,1,39.946232,116.317145,中国邮政储蓄银行(紫竹院支行),北京市,d5f93c0e89cc365fecdfca95,(010)68415625,d5f93c0e89cc365fecdfca95
北京市海淀区苏家坨苏三路2号,海淀区,北京市,1,40.117144,116.152838,中国邮政储蓄银行(苏家坨营业所),北京市,2474f1a3c581cba888fc062b,(010)62420664,2474f1a3c581cba888fc062b
朱房路99号附近,海淀区,北京市,1,40.034995,116.340966,中国邮政储蓄银行(学府树营业所),北京市,,95580,039a4c335e2afb50b817e70e
北京市海淀区成府路17号,海淀区,北京市,1,39.999269,116.357843,中国邮政储蓄银行(学院路支行),北京市,6ee010202d0606ec53e5c595,"(010)82373385,(010)62311309",6ee010202d0606ec53e5c595
北京市海淀区半壁店永定路乙1号院3号楼1层(近田村路邮电所),海淀区,北京市,1,39.935012,116.26752,中国邮政储蓄银行(田村路邮政所),北京市,bd5046e8b6821241d72ce241,(010)58976624,bd5046e8b6821241d72ce241
北京市海淀区中关村大街9号,海淀区,北京市,1,39.987925,116.322564,中国邮政储蓄银行(中关村邮局营业部),北京市,f60a15ed4ee33991ba17e7b3,(010)62610262,f60a15ed4ee33991ba17e7b3
北京市海淀区北蜂窝1号,海淀区,北京市,1,39.912431,116.335151,中国邮政储蓄银行(会城门邮局营业部),北京市,4eb3b53346c76a7643024510,(010)63952700,4eb3b53346c76a7643024510
花园东路8-33号,海淀区,北京市,1,39.98912,116.37646,中国邮政储蓄银行(北极寺邮局营业部),北京市,341c35de9f20efbde7073895,(010)82030377,341c35de9f20efbde7073895
北京市海淀区建材城富力桃园18号楼一层01-02号,海淀区,北京市,1,40.070398,116.387763,中国邮政储蓄银行(富力桃园营业所),北京市,,(010)82964311,590570ac51b8da4a81a12e9a
北京市海淀区文慧园小区15-16号楼底商,海淀区,北京市,1,39.95603,116.37009,中国邮政储蓄银行(文慧园西路支行),北京市,d52e2badfe996370a2d2305e,(010)62235092,d52e2badfe996370a2d2305e
建材城西路12号,海淀区,北京市,1,40.068372,116.363695,中国邮政储蓄银行(清河邮局营业部),北京市,29d9ece580a1f2cb2afc4876,(010)82916470,29d9ece580a1f2cb2afc4876
北京大学燕南园43号楼,海淀区,北京市,1,39.993607,116.313362,中国邮政储蓄银行(北京大学营业所),北京市,,(010)62757445,d887bc054e182a60f603b81f
北京市海淀区彩和坊路10号1加1大厦1层,海淀区,北京市,1,39.986056,116.315536,中国邮政储蓄银行(中关村西区支行),北京市,87c32b3a6433bc0cc9c3db12,"(010)82652740,(010)82483432",87c32b3a6433bc0cc9c3db12
海淀区颐慧佳园6号楼1层102号,海淀区,北京市,1,39.942133,116.297265,中国邮政储蓄银行(彰化南路营业所),北京市,a15e6423f8f8f4093310af12,(010)88858261,a15e6423f8f8f4093310af12
北京市海淀区恩济庄96-2号,海淀区,北京市,1,39.933219,116.291437,中国邮政储蓄银行(恩济庄邮局营业部),北京市,fa7da3e816156d6143d63e95,(010)88119021,fa7da3e816156d6143d63e95
北京市海淀区万寿路7号,海淀区,北京市,1,39.915692,116.301871,中国邮政储蓄银行(万寿路邮局营业部),北京市,d4034eb318bebdf5c0364410,95580,d4034eb318bebdf5c0364410
北京市海淀区西三环北路7号厂洼2号楼,海淀区,北京市,1,39.963506,116.31496,中国邮政储蓄银行(苏州街邮局营业部),北京市,5e53af1acd62ad5c4051c095,(010)68423230,5e53af1acd62ad5c4051c095
海淀区三里河路21号,海淀区,北京市,1,39.932645,116.339402,中国邮政储蓄银行(甘家口邮局营业部),北京市,bcaebff8de74fb57c8e33c95,(010)88392823,bcaebff8de74fb57c8e33c95
阜成路29号,海淀区,北京市,1,39.930108,116.321751,中国邮政储蓄银行(马神庙邮局营业部),北京市,,,aa1d9b639e2f2d70364aae37
知春东里13号,海淀区,北京市,1,39.979382,116.332069,中国邮政储蓄银行(北京海淀区报刊发行零售分局营业所),北京市,7f4ed4f9fbc4db282bd7ab40,"95580,(010)82133459",7f4ed4f9fbc4db282bd7ab40
北京市海淀区信息路19号,海淀区,北京市,1,40.036476,116.317594,中国邮政储蓄银行(海淀区上地信息产业开发区支行),北京市,134fb9a8a924ead84d2fdfcb,(010)62976102,134fb9a8a924ead84d2fdfcb
北京市海淀区圆明园西路49号,海淀区,北京市,1,40.018341,116.2932,中国邮政储蓄银行(北京海淀区直属支行),北京市,af1ae56bd28be4114207c17a,(010)62875156,af1ae56bd28be4114207c17a
北京市海淀区大慧寺路12号,海淀区,北京市,1,39.957233,116.333882,中国邮政储蓄银行(北京市海淀区大慧寺路支行),北京市,cdc3b8d19785c664593ac838,(010)62132447,cdc3b8d19785c664593ac838
北京市海淀区首体南路9号主语家园17号楼底商9-12号,海淀区,北京市,1,39.938429,116.330303,中国邮政储蓄银行(北京海淀区首体南路支行),北京市,53cebd505dc5eb1c2b02e1b3,(010)68790664,53cebd505dc5eb1c2b02e1b3
北京市海淀区建材城中路,海淀区,北京市,1,40.06582,116.371723,这个邮政储蓄银行24小时,北京市,,,a72391ff2f5c95664107c108
北京市海淀区信息路48号体育大学,海淀区,北京市,1,40.027374,116.32856,中国邮政储蓄银行24小时自助银行(体育大学邮政所),北京市,e01a51114b1abf7ead080fb7,,e01a51114b1abf7ead080fb7
北京市海淀区清华东路35号北京林业大学(东王庄社区卫生服务站北),海淀区,北京市,1,40.009891,116.355436,中国邮政储蓄银行24小时自助银行服务(静淑苑路),北京市,400df0797c38f6304c3a5959,,400df0797c38f6304c3a5959
北京市海淀区圆明园西路15号,海淀区,北京市,1,40.029238,116.286787,中国邮政储蓄银行24小时自助银行(北京海淀区农业大学支行),北京市,e6a6a79498a5483f9cf779b2,,e6a6a79498a5483f9cf779b2
永澄北路2号,海淀区,北京市,1,40.08363,116.234355,中国邮政储蓄银行软件研发中心,北京市,,,29828d287f8d8402eb56fa5d
北京市海淀区前沙涧路7号院中国邮政(后沙涧路),海淀区,北京市,1,40.117241,116.152837,中国邮政储蓄银行24小时自助银行,北京市,bf9cc3580d93abc9b64f54ca,,bf9cc3580d93abc9b64f54ca
颐和园北宫门青龙桥三叉口84号,海淀区,北京市,1,39.999925,116.298264,中国邮政储蓄银行24小时自助银行服务,北京市,899d5476861b9e56d4851f0e,,899d5476861b9e56d4851f0e
清河三街90号,海淀区,北京市,1,40.036642,116.347685,中国邮政储蓄银行24小时自助银行服务(清河镇支行),北京市,2aef5a3f48b44018b13c8158,,8ab0dfc4b1f7f66bd8eced5f
清上园2,海淀区,北京市,1,40.045149,116.338153,中国邮政储蓄银行24小时自助银行服务(清上园支行),北京市,,,13e689724a4a5518081cc792
北京市海淀区双榆树东里40号,海淀区,北京市,1,39.974299,116.332359,中国邮政储蓄银行24小时自助银行(双榆树支行),北京市,b1659e60a87f21fc593ac87c,,b1659e60a87f21fc593ac87c
中关村南大街17号院2,海淀区,北京市,1,39.960081,116.329143,中国邮政储蓄银行24小时自助银行(魏公村支行),北京市,68617bbff1082cd797ec847b,,68617bbff1082cd797ec847b
北京市海淀区海淀路87号,海淀区,北京市,1,39.987768,116.322441,中国邮政储蓄银行24小时自助银行,北京市,,,85daca822f90d8232e47331d
恩济庄96-2号,海淀区,北京市,1,39.933626,116.291527,中国邮政储蓄银行24小时自助银行服务(恩济庄支行),北京市,5e53af1a5e0a305f4151c043,,5e53af1a5e0a305f4151c043
北京市海淀区永泰西里2号楼,海淀区,北京市,1,40.039539,116.362625,中国邮政储蓄银行24小时自助银行(永泰支行),北京市,61f634f6a3f15b056b49f35f,,61f634f6a3f15b056b49f35f
四季青北辛庄55号,海淀区,北京市,1,40.0002,116.209954,中国邮政储蓄银行24小时自助银行(香山支行),北京市,dcabafabad47bb037069d36d,,dcabafabad47bb037069d36d
北京市海淀区西八里庄恩济里小区1号楼1层,海淀区,北京市,1,39.938082,116.292677,中国邮政储蓄银行24小时自助银行(恩济庄支行),北京市,6825a4fac6f157b550e5c5d9,,6825a4fac6f157b550e5c5d9
海淀区科学院南路73号,海淀区,北京市,1,39.983591,116.331428,中国邮政储蓄银行24小时自助银行服务(科东南支行),北京市,18165334c4835704fb2d6140,,18165334c4835704fb2d6140
北蜂窝路1-2号,海淀区,北京市,1,39.912528,116.334892,中国邮政储蓄银行ATM(会城门支行),北京市,f633606aa3c1d2330a69d98f,,f633606aa3c1d2330a69d98f
北京市海淀区展春园西路,海淀区,北京市,1,39.996157,116.34616,中国邮政储蓄银行24小时自助银行,北京市,,,1ecc3c5e00c97750e6e9654e
北京市海淀区西翠路5号今日家园西配楼1层,海淀区,北京市,1,39.907741,116.285313,中国邮政储蓄银行24小时自助银行(沙窝中路支行),北京市,5c56edd6183a1024a1d230c0,,5c56edd6183a1024a1d230c0
车公庄西路29号,海淀区,北京市,1,39.938934,116.321362,中国邮政储蓄银行24小时自助银行服务(花园村邮政储蓄),北京市,db8b7da8463492fae21103a3,,db8b7da8463492fae21103a3
苏州街万泉庄路12号,海淀区,北京市,1,39.974716,116.309054,中国邮政储蓄银行24小时自助银行(万泉庄营业所),北京市,,,67c26217e18e23a871455b89
北京市海淀区花园路甲2号院金尚园4号楼,海淀区,北京市,1,39.986183,116.373287,中国邮政储蓄银行24小时自助银行服务(金尚嘉园支行),北京市,4420764633cbfb16dfee8bb2,,4420764633cbfb16dfee8bb2
三里河路21号甘家口大厦写字楼,海淀区,北京市,1,39.932638,116.339362,中国邮政储蓄银行24小时自助银行(甘家口营业所),北京市,8cba4bb0c4f4ddf9ac0457b2,,8cba4bb0c4f4ddf9ac0457b2
永定路25号院1号,海淀区,北京市,1,39.924888,116.270661,中国邮政储蓄银行24小时自助银行服务(铁家坟邮政所),北京市,4fe7e49290a186abaeb22a35,,4fe7e49290a186abaeb22a35
北京市海淀区海淀大街31号籍海楼1层,海淀区,北京市,1,39.989415,116.313276,中国邮政(西大街邮政所),北京市,5c56edd654e85459a0d23095,(010)62572426,5c56edd654e85459a0d23095
清华东路西口地铁站内,海淀区,北京市,1,40.006176,116.346444,中国邮政储蓄银行ATM,北京市,8b8a6756b4fe630ff33cba5f,,8b8a6756b4fe630ff33cba5f
北京市海淀区学府树家园6-2,海淀区,北京市,1,40.040553,116.343331,中国邮政储蓄银行24小时自助银行服务(学府树北街),北京市,3825d2e4dc51417a6c3e1be6,,ebaa8bb15dbaf2392b201aaf
建材城西路12号,海淀区,北京市,1,40.06836,116.363604,中国邮政储蓄银行24小时自助银行服务(建材城西路支行),北京市,27b898dc44a97a3c631c6764,,27b898dc44a97a3c631c6764
西2旗西路2号院94号楼1层单元07,海淀区,北京市,1,40.060155,116.321248,中国邮政储蓄银行24小时自助银行(领秀硅谷支行),北京市,05f10ffd3e3dd51828d7abf0,,0630f036de7a6e82df1e52e2
北京大学43号楼,海淀区,北京市,1,39.993356,116.313377,中国邮政储蓄银行24小时自助银行(北京大学支行),北京市,e2ee629a462cf9102cb96d22,,e2ee629a462cf9102cb96d22
北京市海淀区西三环北路25号,海淀区,北京市,1,39.955759,116.315685,中国邮政储蓄银行24小时自助银行(万寿寺支行),北京市,44d25963408842b2e115f9d4,,44d25963408842b2e115f9d4
西四环北路64号附近,海淀区,北京市,1,39.948891,116.28199,中国邮政储蓄银行24小时自助银行(金雅园支行),北京市,77884bd56ab3a93e30169bfc,,77884bd56ab3a93e30169bfc
北京市海淀区世纪城小区烟树园1号楼,海淀区,北京市,1,39.968132,116.286362,中国邮政储蓄银行24小时自助银行(世纪城支行),北京市,49d959381a9ba143c61e5140,,49d959381a9ba143c61e5140
北京市海淀区阜成路29号附近,海淀区,北京市,1,39.930099,116.321718,中国邮政储蓄银行24小时自助银行服务(北京马神庙储蓄所),北京市,c7fb04bd3a1b206bfa0cad27,,56ebd6e607e86aa112293508
北京市海淀区永定路甲88号(尤萨洗衣店),海淀区,北京市,1,39.910311,116.272518,中国邮政储蓄银行24小时自助银行服务(永定路支行),北京市,6e7bb7dd03bd6539ebe582e7,,6e7bb7dd03bd6539ebe582e7
北京市海淀区学府树中街,海淀区,北京市,1,40.035068,116.340802,中国邮政储蓄银行24小时自助银行服务(学府树营业所),北京市,,,5fe8591a3bad4c6930169bef
北京市海淀区悦秀路99,海淀区,北京市,1,40.053248,116.343531,中国邮政储蓄银行24小时自助银行(通厦支行),北京市,02c17d99bc05579d4154d75b,,3310bf7bf1bb30c054bfff2e
北京市海淀区上地信息产业开发区信息路19号,海淀区,北京市,1,40.036488,116.317659,中国邮政储蓄银行24小时自助银行服务(上地信息产业开发区支行),北京市,3221336fbcd1fceceb1e97d6,,3221336fbcd1fceceb1e97d6
知春东里13号,海淀区,北京市,1,39.979393,116.331957,中国邮政储蓄银行24小时自助银行(北青云路),北京市,0f5ee9dd9ff0acc62fb96df8,,0f5ee9dd9ff0acc62fb96df8
北京市海淀区西三环北路7号,海淀区,北京市,1,39.963359,116.314991,中国邮政储蓄银行24小时自助银行服务(苏州街支行),北京市,874d80ff51bad383715e8033,,874d80ff51bad383715e8033
北京市海淀区万寿路15号院7号,海淀区,北京市,1,39.915834,116.301809,中国邮政储蓄银行24小时自助银行服务(万寿路支行),北京市,eb9e768cc905698b2b11d1a1,,eb9e768cc905698b2b11d1a1
北京市海淀区北洼路30号,海淀区,北京市,1,39.941067,116.309734,中国邮政储蓄银行24小时自助银行服务(华普超市航天桥店),北京市,3782e8eefabb603f02294fed,,3782e8eefabb603f02294fed
北京市海淀区常青园路与四季青路交叉口附近,海淀区,北京市,1,39.959904,116.276952,中国邮政储蓄银行24小时自助银行(郦城支行),北京市,60a47eab36c671462dfaa744,,60a47eab36c671462dfaa744
北京市海淀区温泉村96号,海淀区,北京市,1,40.057863,116.172478,中国邮政储蓄银行24小时自助银行(温泉支行),北京市,f68a9edfd463960dc9c3db11,,f68a9edfd463960dc9c3db11
东升乡南马坊村宝盛里3号楼1层6,海淀区,北京市,1,40.0414,116.373039,中国邮政储蓄银行24小时自助银行服务(宝盛里支行),北京市,37b047368a8ff027eaf85317,,37b047368a8ff027eaf85317
富力桃园c区18号楼底商附近,海淀区,北京市,1,40.070268,116.387782,中国邮政储蓄银行24小时自助银行(富力桃园营业所),北京市,be01c58c008fa6530c0a70bd,,be01c58c008fa6530c0a70bd
北京市海淀区莱圳家园4,海淀区,北京市,1,40.050071,116.351123,中国邮政储蓄银行24小时自助银行(莱圳营业所),北京市,343f85de7698bb6f21f01799,,343f85de7698bb6f21f01799
北京市海淀区温泉环山村11号,海淀区,北京市,1,40.042924,116.214515,中国邮政储蓄银行24小时自助银行(航材大道),北京市,5508504dff792acbc7f0257a,,5508504dff792acbc7f0257a
海淀区知春路22号(北京东达物业写字楼西),海淀区,北京市,1,39.979724,116.351378,中国邮政储蓄银行24小时自助银行服务(北京东达物业写字楼西),北京市,878cababfa5572746c476072,,878cababfa5572746c476072
北京市海淀区西土城路10号北京邮电大学,海淀区,北京市,1,39.967679,116.361964,中国邮政储蓄银行24小时自助银行服务(邮电大学邮政储蓄所),北京市,82d8b5a3c3f2ad6a9e82ea39,,82d8b5a3c3f2ad6a9e82ea39
北京市海淀区蓝靛厂南路西侧彰化南路颐慧佳园一期6号楼1层底商彰化南路附近,海淀区,北京市,1,39.942405,116.29724,中国邮政储蓄银行24小时自助银行服务(彰化南路营业所),北京市,7998d09920df5b570aa8d45f,,7998d09920df5b570aa8d45f
北京市海淀区文慧园小区15~16号楼底商A段一层,海淀区,北京市,1,39.956236,116.369911,中国邮政储蓄银行24小时自助银行(文慧园西路支行),北京市,72e57fd71c3fedd2f9dc85b2,,72e57fd71c3fedd2f9dc85b2
成府路17号,海淀区,北京市,1,39.999284,116.357858,中国邮政储蓄银行24小时自助银行(学院路支行),北京市,7fd72311573d81e25dbe86b2,,7fd72311573d81e25dbe86b2
永丰中路99号颐和山庄,海淀区,北京市,1,40.056478,116.24674,中国邮政储蓄银行24小时自助银行(颐和山庄支行),北京市,,,8dbac4130823fc08fe0eb047
北京市海淀区永定路乙1-32,海淀区,北京市,1,39.93509,116.267477,中国邮政储蓄银行ATM(田村路),北京市,e56bf5e305cf7a440782c243,,e56bf5e305cf7a440782c243
天秀路18-6,海淀区,北京市,1,40.026898,116.280267,中国邮政储蓄银行ATM(天秀路),北京市,b703e96b4655b3fa8f1a896c,,b703e96b4655b3fa8f1a896c
北京市海淀区科学院南路71,海淀区,北京市,1,39.98363,116.331519,中国邮政(邮政储蓄),北京市,8f0a7a4ce4b900f480a00c8f,,8f0a7a4ce4b900f480a00c8f
圆明园西路49号,海淀区,北京市,1,40.018229,116.293222,中国邮政储蓄银行ATM(海淀区支行),北京市,e3e1d9241ee21df79e82ea22,,e3e1d9241ee21df79e82ea22
北京市海淀区付家窑36号,海淀区,北京市,1,40.048219,116.265346,中国邮政储蓄银行ATM(西北旺支行),北京市,a5ef680f1ad8f5a9b9df8fc0,,a5ef680f1ad8f5a9b9df8fc0
北京市海淀区温泉乡太舟坞,海淀区,北京市,1,40.04642,116.211834,中国邮政储蓄银行ATM(大都加油站),北京市,a44fb57d4d57dc22f8dc8590,,a44fb57d4d57dc22f8dc8590
北京市海淀区西四环北路117号金四季购物中心F1,海淀区,北京市,1,39.949581,116.277781,中国邮政储蓄银行ATM(金四季购物中心),北京市,856168bc08d7b72a03ec01db,,856168bc08d7b72a03ec01db
北京市海淀区西苑交通枢纽首层城铁四号线A口,海淀区,北京市,1,40.00564,116.297137,中国邮政储蓄银行24小时自助银行(西苑交通枢纽),北京市,442076466931d516deee8bc8,,442076466931d516deee8bc8
西三旗育新花园16号,海淀区,北京市,1,40.06529,116.350808,中国邮政储蓄银行ATM(育新花园支行),北京市,34f68ab0f78512778f55ec5f,,34f68ab0f78512778f55ec5f
北京市海淀区西四环北路150号附近,海淀区,北京市,1,39.937402,116.282612,中国邮政储蓄银行个人消费信贷中心,北京市,07f87ea439387f609e82ea93,,07f87ea439387f609e82ea93
阜成路31号(近北京工商大学),海淀区,北京市,1,39.930132,116.32176,马神庙邮政所,北京市,e53826dd167e64ac3010afe8,,d6b06007a2f24ab040ab9ad5
北京市海淀区厢白旗甲15号,海淀区,北京市,1,40.002075,116.230085,中国邮政(邮政储蓄),北京市,f0a05b3676aa177eb54f546f,,f0a05b3676aa177eb54f546f
北京市海淀区志新西路10号二里庄小区,海淀区,北京市,1,40.001298,116.374478,中国邮政24小时自助银行服务(二里庄支行),北京市,570022199fcbb7d5d72ce2dc,,570022199fcbb7d5d72ce2dc
北京市门头沟区石龙北路62号,门头沟区,北京市,1,39.914371,116.118759,中国邮政储蓄银行(石龙支行),北京市,dbf4d6eeb241da296fa3cc79,(010)69804026,dbf4d6eeb241da296fa3cc79
北京市门头沟区滨河西区皓月园6号楼底商11-3,门头沟区,北京市,1,39.941248,116.117283,中国邮政储蓄银行(滨河路支行),北京市,b388f9fd9f73ae3fb25c6a89,(010)69828692,b388f9fd9f73ae3fb25c6a89
永定石门营A4小区14号楼底商,门头沟区,北京市,1,39.894109,116.107301,中国邮政储蓄银行(石门营营业所),北京市,1e2c7019f499a34df90cadc7,95580,1e2c7019f499a34df90cadc7
北京市门头沟区军庄镇军温路21号院7号一层商铺,门头沟区,北京市,1,40.012237,116.111883,中国邮政储蓄银行(军庄支行),北京市,5d30c4229837e9636f4760d9,"(010)60811504,95580",5d30c4229837e9636f4760d9
北京市门头沟区斋堂镇斋堂村27号,门头沟区,北京市,1,39.979617,115.705045,中国邮政储蓄银行(斋堂支行),北京市,,(010)69816804,5508504dbe136bb6c6f0259f
雁翅镇雁翅村中街61号,门头沟区,北京市,1,40.041264,115.905372,中国邮政储蓄银行(雁翅邮政支局),北京市,48eb00586f2b75d32ee67bb8,(010)61830189,48eb00586f2b75d32ee67bb8
北京市门头沟区大峪南路2号,门头沟区,北京市,1,39.940727,116.111781,中国邮政储蓄银行(双峪路邮政所),北京市,ea945171c0ce3c7931870a8b,(010)69842523,ea945171c0ce3c7931870a8b
北京市门头沟区潭柘寺镇赵家台新村,门头沟区,北京市,1,39.886124,116.037078,中国邮政储蓄银行(潭柘寺营业所),北京市,6924c3f38880e89c3904b1ef,95580,6924c3f38880e89c3904b1ef
北京市门头沟区017县道大台医院东,门头沟区,北京市,1,39.971099,115.946942,中国邮政储蓄银行(大台营业所),北京市,,(010)61870374,81d6a509dbdf5f436f20b9b9
北京市门头沟区水闸路11号,门头沟区,北京市,1,39.966266,116.112393,中国邮政储蓄银行(三家店邮局营业部),北京市,e85e2527b683615395f08c04,(010)69842177,e85e2527b683615395f08c04
北京市门头沟区河滩路2号,门头沟区,北京市,1,39.949682,116.106705,中国邮政储蓄银行(大峪邮局营业部),北京市,1334cebf6884b4c45d17c342,(010)69842927,1334cebf6884b4c45d17c342
北京市门头沟区中国邮政储蓄银行(木城涧路北),门头沟区,北京市,1,39.960772,115.923455,中国邮政(储蓄银行北京门头沟区木城涧营业所),北京市,,(010)61872380,e889a744b44f61b58605bf08
门头沟区新桥南大街月季园(二区),门头沟区,北京市,1,39.933388,116.117351,中国邮政储蓄银行24小时自助银行,北京市,76571093518d2fbe354aaed1,,76571093518d2fbe354aaed1
北京市门头沟区大峪南路2号,门头沟区,北京市,1,39.940641,116.111788,中国邮政储蓄银行24小时自助银行服务(双峪营业所),北京市,925c550fb4cc1bcc5b3ac8aa,,925c550fb4cc1bcc5b3ac8aa
北京市门头沟区滨河居住区承泽苑二号楼,门头沟区,北京市,1,39.937653,116.122742,中国邮政储蓄银行24小时自助银行服务(承泽苑邮政储蓄),北京市,5f034e9399f9b33cb726554f,,5f034e9399f9b33cb726554f
北京市门头沟区河滩路53号,门头沟区,北京市,1,39.950127,116.110856,中国邮政储蓄银行24小时自助银行服务(绿岛家园北),北京市,ba11a32bf52198ca4207c12c,,ba11a32bf52198ca4207c12c
北京市门头沟区河滩路6号,门头沟区,北京市,1,39.949898,116.106688,中国邮政储蓄银行24小时自助银行(北京门头沟区支行),北京市,41f46b44a93db2640f0a7077,,41f46b44a93db2640f0a7077
北京市门头沟区滨河西区皓月园6号楼底商11-3,门头沟区,北京市,1,39.941315,116.117275,中国邮政储蓄银行24小时自助银行(滨河路支行),北京市,b5b60d8be5391aa128201a66,,b5b60d8be5391aa128201a66
北京市门头沟区水闸路11号,门头沟区,北京市,1,39.96628,116.11215,中国邮政储蓄银行24小时自助银行(三家店新河路),北京市,07f3c8b5ee728a636240a904,,07f3c8b5ee728a636240a904
杨坨路口西北200米,门头沟区,北京市,1,40.012194,116.111989,中国邮政储蓄银行24小时自助银行(军庄营业所),北京市,,,1a37ac16481f31251e580015
北京市门头沟区中国邮政(木城涧路东100米),门头沟区,北京市,1,39.971107,115.946948,中国邮政储蓄银行ATM(大台营业所),北京市,,,e889a74423f3f2b68705bfb9
北京市门头沟区斋堂镇斋堂村27号,门头沟区,北京市,1,39.979618,115.705045,中国邮政储蓄银行ATM(斋堂营业所),北京市,,,850815e19f7b729842e192b9
王平大街13号附近,门头沟区,北京市,1,39.97554,115.995659,中国邮政储蓄银行ATM(王平大街东路),北京市,16efc433ccc7b3f6c61b758e,,16efc433ccc7b3f6c61b758e
石担路东50米,门头沟区,北京市,1,39.990941,116.047499,中国邮政24小时自助银行服务(石担路),北京市,888ccefc1a7ecdac58f6be38,,888ccefc1a7ecdac58f6be38
北京市房山区亚新路8号,房山区,北京市,1,39.67938,116.114719,中国邮政储蓄银行(交道营业所),北京市,,(010)80331103,638dbfc00ad6d1d2430245b7
北京市房山区周口店中心路2号,房山区,北京市,1,39.691761,115.945438,中国邮政储蓄银行(周口店营业所),北京市,,(010)69301289,7ce88c9d15e31a6b2102203c
悦盛路5号院2号楼1层102(悦都苑居委会旁),房山区,北京市,1,39.767067,116.191793,长阳邮政储蓄银行,北京市,,(010)61353391,ba6e628636997b3ffa0cadfc
北京市房山区新镇原新街2号,房山区,北京市,1,39.741495,116.068495,中国邮政储蓄银行(新镇支局),北京市,,(010)60386914,09185c56413e895df11937f8
窦店镇山水汇豪苑66号,房山区,北京市,1,39.659132,116.075724,中国邮政储蓄银行(窦店支行),北京市,,(010)80307206,ad2263cf2b235424c16c14b9
北京市房山区房易路长沟大街,房山区,北京市,1,39.585045,115.905515,中国邮政储蓄银行(长沟支行),北京市,,(010)61365548,f8a5292fb8a3499822f01729
北京市房山区良乡地区鸿顺园商业1号楼一层,房山区,北京市,1,39.72906,116.162819,中国邮政储蓄银行(长虹东路支行),北京市,1b48400d684e1da2373a71a3,(010)69387298,1b48400d684e1da2373a71a3
双泉路7号,房山区,北京市,1,39.762647,115.970386,中国邮政储蓄银行(东风营业所),北京市,,(010)69346338,56e88cbaf0941e66a5c756b9
北京市房山区大安山乡大安山煤矿820生活区,房山区,北京市,1,39.900729,115.778605,中国邮政储蓄银行(大安山储蓄所),北京市,,95580,9606790be1b1ba98100daa70
张坊镇张坊村中一区2号,房山区,北京市,1,39.577634,115.724193,中国邮政储蓄银行(张坊营业所),北京市,,(010)61339893,83e863c549c0bdcee011030d
北京市房山区大窦路,房山区,北京市,1,39.653678,116.075484,中国邮政储蓄银行(窦店营业所),北京市,,(010)69392320,6deee308996fa86928fc48ba
北京市房山区城关农林路燕宾鑫源商贸中心底商3号,房山区,北京市,1,39.693626,115.990747,中国邮政储蓄银行(农林路支行),北京市,5f0407eb54a33a0a04fef50a,(010)69323310,5f0407eb54a33a0a04fef50a
北京市房山区韩村河镇岳李路36号,房山区,北京市,1,39.609072,115.967849,中国邮政储蓄银行(韩村河营业所),北京市,,(010)80380147,e3a7fd1346d2495129b97cbd
韩村河镇岳各庄大街52号,房山区,北京市,1,39.621089,115.915098,中国邮政储蓄银行(岳各庄营业所),北京市,,(010)61311064,f1c3427d5012679bc909f094
北京市房山区良乡行宫园三里10号楼1单元102号,房山区,北京市,1,39.755922,116.153872,中国邮政储蓄银行(行宫园营业所),北京市,615e9ddf8e17de6ac6effb69,(010)89360394,615e9ddf8e17de6ac6effb69
北京市房山区燕化星城紫燕中路2号,房山区,北京市,1,39.715681,116.065898,中国邮政储蓄银行(星城邮政储蓄),北京市,,(010)81337729,f4460918f1be286ab11e36f8
河北镇(河北医院对面),房山区,北京市,1,39.824359,115.946867,中国邮政储蓄银行(河北营业所),北京市,c59ff28a14840c13e8e5824f,95580,c59ff28a14840c13e8e5824f
北京市房山区中国邮政(房琉路西),房山区,北京市,1,39.647568,115.986412,中国邮政储蓄银行(石楼邮政所),北京市,,(010)89300126,d86d1e748b2e89d294f08cae
北京市房山区良乡中路24号,房山区,北京市,1,39.737037,116.150062,中国邮政储蓄银行(良乡城内营业所),北京市,43b7e8890474d66959f6beb2,(010)69351203,43b7e8890474d66959f6beb2
北京市房山区良乡镇良乡西路11号,房山区,北京市,1,39.737452,116.137014,中国邮政储蓄银行(北京房山区支行),北京市,ea37ff43ee5a72df2bd7abda,(010)89358306,ea37ff43ee5a72df2bd7abda
北京市房山区X009(房东路),房山区,北京市,1,39.799191,115.997874,中国邮政储蓄银行(万佛堂矿区营业所),北京市,,(010)60311292,c1653405ce727479ab175aff
北京市房山区兴房大街19号,房山区,北京市,1,39.702763,115.996725,中国邮政储蓄银行北京房山区城关支行(房山区城关支行),北京市,d5464cf85cf1e22afda778dc,(010)69314309,d5464cf85cf1e22afda778dc
北京市房山区拱辰街道政通路23号,房山区,北京市,1,39.750479,116.142172,中国邮政储蓄银行(北京房山区政通路支行),北京市,881a28e744236d3af942b2ce,(010)89352352,881a28e744236d3af942b2ce
官道村东大街21号,房山区,北京市,1,39.687001,116.154845,中国邮政(储蓄银行北京房山区官道营业所),北京市,96b672aac1f8b175ce04eff5,(010)60332824,96b672aac1f8b175ce04eff5
京周路与翠柳西街交汇处,房山区,北京市,1,39.734599,116.126659,中国邮政储蓄银行24小时自助银行(苏庄北路),北京市,4903b28f432911f68f1a89c3,,4903b28f432911f68f1a89c3
京深路与弘盛路交叉口东100米,房山区,北京市,1,39.709958,116.221842,中国邮政储蓄银行24小时自助银行,北京市,,,28ac8e1f4ce947768b2fb5a8
良乡西路2号,房山区,北京市,1,39.73675,116.141987,中国邮政储蓄银行24小时自助银行(中大瑞祥),北京市,09d1cc667d746c1703ec0162,,09d1cc667d746c1703ec0162
良乡房山商业大楼良乡商场,房山区,北京市,1,39.74243,116.148738,中国邮政储蓄银行24小时自助银行,北京市,d5d57941c7b9d1fb11882471,,d5d57941c7b9d1fb11882471
北京市房山区官道村(良乡地区医院西北方),房山区,北京市,1,39.686907,116.15491,中国邮政储蓄银行24小时自助银行(官道营业所),北京市,3e243fad7db2502e8d77270b,,3e243fad7db2502e8d77270b
北京市房山区大窦路汇豪国际酒店,房山区,北京市,1,39.658999,116.075811,中国邮政储蓄银行24小时自助银行服务,北京市,,,98055a301bac6656c4f50d52
农林路6号,房山区,北京市,1,39.693699,115.990728,中国邮政储蓄银行24小时自助银行(祺兴缘家园西),北京市,4c5dacbd8984f516223bf292,,4c5dacbd8984f516223bf292
北京市房山区周口店镇房易路龙宝峪公交站,房山区,北京市,1,39.66225,115.94267,中国邮政(新街邮政所),北京市,,11185,3f9337d681a719b3f72310c3
北京市房山区琉璃河车站南街4号,房山区,北京市,1,39.602462,116.049469,中国邮政储蓄银行ATM,北京市,,,34059f97da6cfc2971455b36
北京市房山区良乡地区鸿顺园商业1号楼一层,房山区,北京市,1,39.72907,116.162831,中国邮政储蓄银行24小时自助银行(长虹东路支行),北京市,2f5f6faec6c21a3543ab9a6b,,2f5f6faec6c21a3543ab9a6b
北京市房山区拱辰街道政通路23号,房山区,北京市,1,39.750333,116.141921,中国邮政储蓄银行24小时自助银行服务(政通路支行),北京市,a0517f3a779ac0f8fb2d614d,,a0517f3a779ac0f8fb2d614d
北京市房山区良乡西路11号,房山区,北京市,1,39.737286,116.137523,中国邮政储蓄银行24小时自助银行(良乡西路),北京市,,,b8ec7cc2310811b425d2bbfe
北京市房山区张坊镇史各庄涞宝路张坊邮政所,房山区,北京市,1,39.577566,115.72406,中国邮政储蓄银行24小时自助银行(张坊邮政储蓄),北京市,,,28b339a33c7b0194250bd046
北京市房山区兴房大街19号,房山区,北京市,1,39.702863,115.996746,中国邮政储蓄银行24小时自助银行(房山区城关支行),北京市,b7021bf890825e87f4e73b34,,b7021bf890825e87f4e73b34
北京市房山区原新街2号附近,房山区,北京市,1,39.741495,116.068495,中国邮政储蓄银行ATM(新镇营业所),北京市,,,bcaebff84d956654c9e33cf8
紫燕中路2号,房山区,北京市,1,39.71571,116.065837,中国邮政储蓄银行ATM(星城营业所),北京市,,,e3e2cd9df1f12ae0c6f50db1
北京市房山区供电所西,房山区,北京市,1,39.824094,115.946694,中国邮政储蓄银行ATM(河北营业所),北京市,15bd4dedbf7929f0b64f546d,,15bd4dedbf7929f0b64f546d
迎风街43号,房山区,北京市,1,39.729429,115.959721,中国邮政储蓄银行ATM(迎风街支行),北京市,,,ef773a0f204bb634220220fd
北京市房山区房琉路,房山区,北京市,1,39.647658,115.986412,中国邮政储蓄银行ATM(石楼营业所),北京市,,,fa35e7e0a9c3e1f270455b94
北京市房山区窦店镇白草洼京深路现代管理大学南门,房山区,北京市,1,39.636303,116.061854,中国邮政储蓄银行ATM(良月乡南大街),北京市,,,45a66b03121ddca54c6d4651
北京市房山区周口店中心路2号(周口店社区卫生服务中心斜对面),房山区,北京市,1,39.691753,115.945475,中国邮政储蓄银行ATM(周口店营业所),北京市,05a817671dacc93b0d3ddad8,,05a817671dacc93b0d3ddad8
北京市房山区中国邮政(南土路南),房山区,北京市,1,39.545158,115.783568,中国邮政储蓄银行ATM(南尚乐邮政储蓄),北京市,,,c58c82bf6dec4d3cf942b28e
北京市房山区东大街1号附近,房山区,北京市,1,39.707854,115.991662,中国邮政ATM,北京市,,,2986f9a96ce420a6ee74f8d3
北京市通州区永顺西里46号楼,通州区,北京市,1,39.92331,116.649226,中国邮政储蓄银行(永顺支行),北京市,c810d2140d603029f90cad85,(010)81597149,c810d2140d603029f90cad85
S302潼关三区22-23号,通州区,北京市,1,39.768845,116.559626,中国邮政储蓄银行(金马桥营业所),北京市,7c5e480b2b8e02b7adb22a40,95580,7c5e480b2b8e02b7adb22a40
西集镇郎府政府路郎府邮政所内,通州区,北京市,1,39.80557,116.842147,中国邮政储蓄银行(郎府邮政所),北京市,,(010)61558704,e93761f6de704e0c223bf21e
北京市通州区富河园3号楼甲2-3号,通州区,北京市,1,39.931248,116.661767,中国邮政储蓄银行(富河园支行),北京市,50f7d14673b494c772210b4e,(010)69556323,50f7d14673b494c772210b4e
北京市通州区宋庄镇疃里大街疃里庄园疃里大街北50米,通州区,北京市,1,39.954054,116.703008,中国邮政储蓄银行(疃里庄园东南),北京市,6065ff92bbefd9669d82ea5b,(010)89599745,6065ff92bbefd9669d82ea5b
北京市通州区台湖镇政府大街19号,通州区,北京市,1,39.838155,116.655687,中国邮政储蓄银行(台湖邮政所),北京市,5c56edd6a0e68827a0d23094,(010)61531999,5c56edd6a0e68827a0d23094
北京市通州区徐尹路辅路,通州区,北京市,1,39.992482,116.70367,中国邮政储蓄银行(徐辛庄营业所),北京市,259621e6b87150be96f08c17,(010)89568014,259621e6b87150be96f08c17
北京市通州区玉桥北里10号楼底商,通州区,北京市,1,39.90014,116.689352,中国邮政储蓄银行(玉桥邮局营业部),北京市,606289fd837ba54ea20464c5,(010)81585043,606289fd837ba54ea20464c5
通州区运河西大街174号,通州区,北京市,1,39.89772,116.688579,中国邮政储蓄银行(北京通州区支行),北京市,61085211bd627fa1c51b7565,(010)81587584,61085211bd627fa1c51b7565
北京市通州区车站路28号,通州区,北京市,1,39.911723,116.669045,中国邮政储蓄银行(中仓支行),北京市,d146b388292537dd740269c5,(010)80882381,d146b388292537dd740269c5
北京市通州区云景东路417号,通州区,北京市,1,39.874146,116.668631,中国邮政储蓄银行(梨园支行),北京市,f2f15ffbd2ce048b631c67c5,(010)81579706,f2f15ffbd2ce048b631c67c5
北京市通州区宋庄镇政府大街挨着通州区宋庄地税所,通州区,北京市,1,39.947091,116.73605,中国邮政储蓄银行(宋庄支行),北京市,,(010)89578856,3dc9befd8e077716bea2400f
北京市通州区中国邮政(通州区漷县镇政府东),通州区,北京市,1,39.785971,116.800936,中国邮政储蓄银行(马头支行),北京市,,(010)80586032,26a7018dbf684da81ef74d35
北京市通州区紫运北街74号附近,通州区,北京市,1,39.919761,116.709118,中国邮政储蓄银行(紫运北街),北京市,,,72d4484f2321355d8d77277e
运河西大街143号,通州区,北京市,1,39.89879,116.66694,中国邮政储蓄银行(运河支行),北京市,6db6cd377fa6d7174afd3f1c,"(010)81579536,(010)81524148",6db6cd377fa6d7174afd3f1c
北京市通州区后南仓59号,通州区,北京市,1,39.907903,116.655878,中国邮政储蓄银行(后南仓邮政所),北京市,1801125d7995ac23eb12e40e,(010)80885979,1801125d7995ac23eb12e40e
九棵树西路273号(翠屏南里门口),通州区,北京市,1,39.889538,116.656193,中国邮政储蓄银行(翠屏南里支行),北京市,99943982b124cd16167643d3,(010)81570417,99943982b124cd16167643d3
北京市通州区中街409号,通州区,北京市,1,39.768004,116.69761,中国邮政储蓄银行(牛堡屯营业所),北京市,,(010)69581512,43ea230257c2e7ed471a3293
北京市通州区郭通路神龙潼关三区底商,通州区,北京市,1,39.760951,116.551585,中国邮政储蓄银行(马驹桥支行),北京市,,(010)60597058,f1d1418fa2d0132de5e9650d
西集中心街镇国防路29号,通州区,北京市,1,39.822657,116.888499,中国邮政储蓄银行(西集营业所),北京市,,(010)61576441,bb8a2964e710e29d7369d334
北京市通州区张家湾镇运河西大街174号,通州区,北京市,1,39.8604,116.727955,中国邮政储蓄银行(张家湾支行),北京市,b388f9fdafbade42b35c6ac5,"(010)69573001,(010)61507089",b388f9fdafbade42b35c6ac5
北京市通州区马驹桥镇大杜社村大杜社中学对面,通州区,北京市,1,39.758781,116.659684,中国邮政储蓄银行(大杜社邮政所),北京市,,"(010)61585922,(010)61580702",4ce10ce6b62a46dc451a3294
北京市通州区潞西路百发隆购物中心西北60米,通州区,北京市,1,39.808265,116.584653,中国邮政储蓄银行(次渠邮政所),北京市,fc767524adcc15fa4e776e1d,"95580,(010)69502729",fc767524adcc15fa4e776e1d
北京市通州区漷县镇觅子店村内,通州区,北京市,1,39.718408,116.886072,中国邮政储蓄银行(觅子店邮政所),北京市,,(010)80566055,9fbfeef2caa9f545ede4a560
北京市通州区新华西街57号,通州区,北京市,1,39.913644,116.653271,中国邮政储蓄银行(新华邮局营业部),北京市,25ec69fc06fe1500c36c14be,95580,25ec69fc06fe1500c36c14be
北京市通州区京通北京大唐高新技术创业园南门,通州区,北京市,1,39.913125,116.639068,中国邮政储蓄银行24小时自助银行服务(天时名苑北),北京市,dbec79e0c1f3f98840ab9a50,,dbec79e0c1f3f98840ab9a50
北京市通州区通胡大街25号院1-10号,通州区,北京市,1,39.919373,116.692732,中国邮政储蓄银行(北京通州区通胡大街支行),北京市,c1ec78656980058596ca0745,"(010)89537237,(010)89536781",c1ec78656980058596ca0745
北京市通州区云景东路417号,通州区,北京市,1,39.874235,116.668547,中国邮政储蓄银行24小时自助银行(梨园支行),北京市,d0b8923f1821f89fb4f42fbe,,d0b8923f1821f89fb4f42fbe
北京市通州区张家湾张凤路芳草园别墅国家电网旁,通州区,北京市,1,39.860576,116.728036,中国邮政储蓄银行24小时自助银行(张家湾支行),北京市,0ce65c2d2b3c3d242c4733be,,0ce65c2d2b3c3d242c4733be
北京市通州区富河园甲3-2号,通州区,北京市,1,39.931272,116.661921,中国邮政储蓄银行24小时自助银行(富河园支行),北京市,81d6a50908c68c3d6f20b9a0,,81d6a50908c68c3d6f20b9a0
北京市通州区西集镇郎府政府路,通州区,北京市,1,39.80571,116.841628,中国邮政储蓄银行24小时自助银行(宋庄支行),北京市,,,fa835ce22e1ea1b5e812e47f
北京市通州区运河西大街143号,通州区,北京市,1,39.898727,116.666794,中国邮政储蓄银行24小时自助银行(运河支行),北京市,923ffd00987fcccad82f28be,,923ffd00987fcccad82f28be
北京市通州区玉桥北里10号楼,通州区,北京市,1,39.900177,116.689427,中国邮政储蓄银行24小时自助银行服务(玉桥邮政储蓄所),北京市,ff8f58a828e3de9c16c9059a,,f109e835a413cd82ab0dd8ee
九棵树西路273号,通州区,北京市,1,39.889471,116.656056,中国邮政储蓄银行24小时自助银行(翠屏南里支行),北京市,72aa2513f5f21439067ce8a0,,72aa2513f5f21439067ce8a0
潼关三区2号楼,通州区,北京市,1,39.768845,116.559582,中国邮政储蓄银行24小时自助银行服务(金马桥营业所),北京市,2dec2811326f9a30734b87e1,,2dec2811326f9a30734b87e1
柴厂屯邮政所邮政储蓄,通州区,北京市,1,39.644236,116.78282,中国邮政储蓄银行24小时自助银行(柴厂屯营业所),北京市,,,c61bd3055c346e6bc37da2b7
徐辛庄,通州区,北京市,1,39.992468,116.70361,中国邮政储蓄银行24小时自助银行(徐辛庄营业所),北京市,631c41571a12e21f30f71d89,,631c41571a12e21f30f71d89
北京市通州区宋庄东潞苑东二区(潞苑四街南),通州区,北京市,1,39.941871,116.684848,中国邮政储蓄银行24小时自助银行(潞苑中路),北京市,0722bea12adb4f974f5547a3,,0722bea12adb4f974f5547a3
梨园北街186,通州区,北京市,1,39.897812,116.688657,中国邮政储蓄银行24小时自助银行(通州区支行),北京市,412b39f6bbe2d514a80dd88b,,412b39f6bbe2d514a80dd88b
潞苑南里1号院42号楼商6号,通州区,北京市,1,39.954081,116.703183,中国邮政储蓄银行24小时自助银行(疃里大街),北京市,c3ed24ae8d4b64a1f7eafc23,,c3ed24ae8d4b64a1f7eafc23
北京市通州区通胡大街25号院-1至-10号,通州区,北京市,1,39.919365,116.69278,中国邮政储蓄银行24小时自助银行(通胡大街支行),北京市,9bb51db189d928caaeb22a2f,,9bb51db189d928caaeb22a2f
北京市通州区荔景园新区北60米(紫运北街南),通州区,北京市,1,39.919726,116.709343,中国邮政储蓄银行24小时自助银行(紫运北街),北京市,2fae49e8ede1b42f01294f5d,,2fae49e8ede1b42f01294f5d
北京市通州区玉带河西街7号-5附近,通州区,北京市,1,39.907793,116.655845,中国邮政储蓄银行24小时自助银行(后南仓邮政所),北京市,,,45c654ae1a867a1b3010afcd
中街409号,通州区,北京市,1,39.767957,116.697502,中国邮政储蓄银行24小时自助银行(牛堡屯营业所),北京市,,,005861088f7085a646e2747c
北京市通州区故城东路71号旁,通州区,北京市,1,39.910132,116.682644,中国邮政储蓄银行24小时自助银行服务(新华小区),北京市,deb4be7be5125e181fe99942,,deb4be7be5125e181fe99942
北京市通州区潞苑南里1号院42号楼商6号,通州区,北京市,1,39.93697,116.694932,中国邮政储蓄银行24小时自助银行(京榆旧线),北京市,725b54da8be694219e82ea81,,725b54da8be694219e82ea81
北京市通州区永顺西里46号楼,通州区,北京市,1,39.923489,116.649298,中国邮政储蓄银行24小时自助银行(永顺支行),北京市,9783250e2a5ebc8ef60e777c,,9783250e2a5ebc8ef60e777c
北京市通州区杨庄南里丙66号楼D段01号商业,通州区,北京市,1,39.900091,116.638904,中国邮政储蓄银行24小时自助银行服务(北机支行),北京市,6f201b47457568e086420e31,,6f201b47457568e086420e31
北京市通州区新华东街142号附近,通州区,北京市,1,39.899413,116.649194,中国邮政储蓄银行24小时自助银行服务(通朝大街),北京市,c3baee862d930332b42655c7,,c3baee862d930332b42655c7
北京市通州区京洲园320号楼1层,通州区,北京市,1,39.880128,116.64117,中国邮政储蓄银行24小时自助银行(怡乐中路营业所),北京市,3332db44c74bdb7c16a1902a,,3332db44c74bdb7c16a1902a
北京市通州区中国邮政(九德路东),通州区,北京市,1,39.758984,116.659611,中国邮政储蓄银行24小时自助银行(九德路),北京市,,,610852110e78eca2c51b757c
北京市通州区宋梁路宋庄镇政府东100米,通州区,北京市,1,39.946993,116.735935,中国邮政储蓄银行24小时自助银行(宋庄支行),北京市,,,d6df91c1c5c06f69f7b9164e
北京市通州区邮政储蓄银行次渠支行,通州区,北京市,1,39.808289,116.584692,中国邮政储蓄银行24小时自助银行(次渠支行),北京市,9f97b1c5c6ef087bb74f5494,,9f97b1c5c6ef087bb74f5494
北京市通州区潼关三区2号楼,通州区,北京市,1,39.760951,116.551674,中国邮政储蓄银行24小时自助银行服务(马驹桥支行),北京市,84d9993eb1233c1080a12eb2,,84d9993eb1233c1080a12eb2
西集中心街镇国防路29号,通州区,北京市,1,39.822827,116.888456,中国邮政储蓄银行ATM(西尹路),北京市,,,eef2d528ba9d47a43be4a67e
永乐大街30号,通州区,北京市,1,39.714827,116.797816,中国邮政储蓄银行ATM(414乡道),北京市,,,5c56edd655de5b59a0d230a3
台湖大街19号,通州区,北京市,1,39.838117,116.655506,中国邮政储蓄银行ATM(台湖营业所),北京市,5211d219607c6f5b7dc8767c,,5211d219607c6f5b7dc8767c
车站路28号,通州区,北京市,1,39.911658,116.669051,中国邮政储蓄银行ATM(中仓支行),北京市,6302d4c2ebd327991894c6a9,,6302d4c2ebd327991894c6a9
云景南大街52号,通州区,北京市,1,39.881188,116.675634,中国邮政储蓄银行24小时自助银行(云景南大街),北京市,2ee1519ae15ceb0d31169b8e,,2ee1519ae15ceb0d31169b8e
北京市通州区潞苑南大街1027附近,通州区,北京市,1,39.935833,116.683059,中国邮政储蓄银行24小时自助银行(潞潮佳苑),北京市,28ed088ce0b5564fe0110335,,28ed088ce0b5564fe0110335
北京市通州区通惠北路永顺西里西区永顺西里38号楼,通州区,北京市,1,39.92351,116.649188,中国邮政储蓄银行个人贷款中心,北京市,2cd88a7bc8efd99c2cb96d97,,2cd88a7bc8efd99c2cb96d97
北京市通州区运河西大街64号附近,通州区,北京市,1,39.897548,116.688496,信贷营业部,北京市,f5c7146598c78bb68e772793,,f5c7146598c78bb68e772793
北京市通州区永觅路漷县镇觅子店幼儿园,通州区,北京市,1,39.718382,116.885999,中国邮政储蓄银行ATM(金地嘉苑西南),北京市,,,c165340520a8e67aaa175aa2
北京市通州区X007(九德路),通州区,北京市,1,39.75897,116.65965,24小时自助银行服务,北京市,,,7dc8e36b40de274a81288a6b
北京市通州区经海路东150米,通州区,北京市,1,39.823013,116.543387,邮储亦庄机房,北京市,98822c48565971714151c0b4,,98822c48565971714151c0b4
北京市顺义区双裕街甲7,顺义区,北京市,1,40.113891,116.563688,中国邮政储蓄银行(双裕街支行),北京市,691305239d060a75725e8055,(010)80490822,691305239d060a75725e8055
顺安北路34号,顺义区,北京市,1,40.1818,116.665698,中国邮政储蓄银行(马坡邮政储蓄),北京市,43b7e8899268446a59f6beb5,95580,43b7e8899268446a59f6beb5
北京市顺义区彩俸北区6-4号,顺义区,北京市,1,40.138013,116.705947,中国邮政储蓄银行(俸伯邮政储蓄所),北京市,691305235a654b08735e80bc,(010)89470953,691305235a654b08735e80bc
北京市顺义区赵全营镇牛板路板桥段6号,顺义区,北京市,1,40.216425,116.532626,中国邮政储蓄银行(板桥邮局营业部),北京市,6113ef77a6257e148f7727ba,(010)60442004,6113ef77a6257e148f7727ba
顺义区顺平路沙岭段65号,顺义区,北京市,1,40.159143,116.89064,中国邮政储蓄银行(沙岭),北京市,101bc61bc92c1ea3c52ba1b8,(010)61442931,101bc61bc92c1ea3c52ba1b8
太平小区8-5号,顺义区,北京市,1,40.1436,116.657192,中国邮政储蓄银行(北街支行),北京市,8eb48fa1b7e7d3a6f22d83bc,(010)69442785,8eb48fa1b7e7d3a6f22d83bc
北京市顺义区石园南区花园路南侧新华书店一层底商,顺义区,北京市,1,40.11429,116.669178,中国邮政储蓄银行(石园支行),北京市,25ec69fc2a53c97ec26c1411,95580,25ec69fc2a53c97ec26c1411
双阳南区甲14号楼08-09号,顺义区,北京市,1,40.162523,116.83968,中国邮政储蓄银行(杨镇分理处),北京市,8066838c32c30bbc43ab9ae9,(010)61459196,8066838c32c30bbc43ab9ae9
北京市顺义区牛山地区办事处牛板路牛山段6号,顺义区,北京市,1,40.217889,116.660649,中国邮政储蓄银行(牛栏山支行),北京市,7aea43b7dea562f87d29bdb5,(010)69411084,7aea43b7dea562f87d29bdb5
顺义区北小营镇府前街12号,顺义区,北京市,1,40.205437,116.735277,中国邮政储蓄银行(北小营支行),北京市,2527be1e14af72cd4afc8d5f,(010)60482274,2527be1e14af72cd4afc8d5f
北京市顺义区通顺路仓上小区甲2号,顺义区,北京市,1,40.121255,116.664077,中国邮政储蓄银行(仓上邮政储蓄),北京市,0523a14174904a1db33c81bc,(010)69448408,0523a14174904a1db33c81bc
北京市顺义区火沙辅线裕祥花园北门,顺义区,北京市,1,40.110445,116.552354,中国邮政储蓄银行(后沙峪支行),北京市,6fa4b593954f392f213bf20f,(010)80464230,6fa4b593954f392f213bf20f
北京市顺义区李桥镇南半壁店村樱花园小区路,顺义区,北京市,1,40.037808,116.63249,中国邮政储蓄银行(半壁店支行),北京市,e2c734e4fd724d5e15a19064,(010)81463489,e2c734e4fd724d5e15a19064
顺义区龙湾屯镇府南路54号,顺义区,北京市,1,40.231827,116.869377,中国邮政储蓄银行(龙湾屯营业所),北京市,92b806d288d083fe78b55cb7,(010)60461850,92b806d288d083fe78b55cb7
北京市顺义区李遂镇政府东侧,顺义区,北京市,1,40.097159,116.764375,中国邮政储蓄银行(李遂营业所),北京市,e116be54c3c1277bc81b95b9,(010)89483901,e116be54c3c1277bc81b95b9
裕龙六区19-6号,顺义区,北京市,1,40.123332,116.684834,中国邮政储蓄银行(滨河营业所),北京市,a1418eb476858a7feae582bc,(010)89496679,a1418eb476858a7feae582bc
北京市顺义区高丽营镇高丽营市场对面,顺义区,北京市,1,40.174441,116.507804,中国邮政储蓄银行(高丽营支行),北京市,504d6113725dffb3475726ba,95580,504d6113725dffb3475726ba
北京市顺义区府前二街7号,顺义区,北京市,1,40.069787,116.588426,中国邮政储蓄银行(北京顺义天竺支行),北京市,cc0849a0d50d7d539403196a,(010)80461008,cc0849a0d50d7d539403196a
北京市顺义区府前街3号,顺义区,北京市,1,40.092064,116.931622,中国邮政储蓄银行(大孙各庄营业所),北京市,c61bd305c236fc68c37da2b8,(010)61431855,c61bd305c236fc68c37da2b8
顺义区高丽营镇商业街东区74号,顺义区,北京市,1,40.152128,116.568936,中国邮政储蓄银行(张喜庄邮政储蓄),北京市,34c6f10d5724e58d28201a45,(010)69491082,34c6f10d5724e58d28201a45
北京市顺义区杨镇地区办事处政府街8号,顺义区,北京市,1,40.157271,116.838762,中国邮政储蓄银行(北京顺义区杨各庄支行),北京市,bf29b702e9b0dfe409b93a57,(010)61458227,bf29b702e9b0dfe409b93a57
南法信府前街6,顺义区,北京市,1,40.132594,116.616844,中国邮政储蓄银行(北京顺义区南法信支行),北京市,b388f9fd017d4c41b25c6a81,(010)69478710,b388f9fd017d4c41b25c6a81
北京市顺义区建新东街5号,顺义区,北京市,1,40.128376,116.659139,中国邮政储蓄银行(北京顺义区南关营业所),北京市,,(010)69424312,33351a7268ca84e8d92f28a8
高丽营镇高白路,顺义区,北京市,1,40.17452,116.507584,中国邮政储蓄银行(高丽营营业所)(装修中),北京市,,,a7523e2b12ef06779cf77919
马坡邮政储蓄附近,顺义区,北京市,1,40.181971,116.665676,中国邮政储蓄银行24小时自助银行,北京市,d4034eb38a1f2ff6c13644b4,,d4034eb38a1f2ff6c13644b4
前进花园1区18号楼,顺义区,北京市,1,40.144628,116.638998,中国邮政储蓄银行24小时自助银行服务(石门北街),北京市,27ce7625888cce46e115f996,,27ce7625888cce46e115f996
石门市场,顺义区,北京市,1,40.140126,116.631188,中国邮政储蓄银行24小时自助银行服务,北京市,29cb726e8c6c960ae6e965ce,,29cb726e8c6c960ae6e965ce
李魏路东100米,顺义区,北京市,1,40.0971,116.764381,中国邮政储蓄银行24小时自助银行服务,北京市,4b02009940110d61465726f3,,4b02009940110d61465726f3
高白路1号附近,顺义区,北京市,1,40.174697,116.507448,中国邮政储蓄银行24小时自助银行服务,北京市,fd007c5eea21e16ca9f729ba,,fd007c5eea21e16ca9f729ba
北小营府前街12号,顺义区,北京市,1,40.205418,116.73529,中国邮政储蓄银行24小时自助银行(北小营支行),北京市,6d24d07b800a145d3210af61,,6d24d07b800a145d3210af61
北京市顺义区牛山地区办事处牛板路牛山段6号,顺义区,北京市,1,40.217728,116.660732,中国邮政储蓄银行24小时自助银行服务(牛栏山支行),北京市,ea4a3dc982d1772e4f5547b4,,ea4a3dc982d1772e4f5547b4
北京市顺义区双裕街甲7,顺义区,北京市,1,40.113781,116.5636,中国邮政储蓄银行24小时自助银行(双裕街支行),北京市,2e5c6cc81df1eedc400245e0,,2e5c6cc81df1eedc400245e0
后沙峪地区办事处,顺义区,北京市,1,40.1105,116.552254,中国邮政储蓄银行24小时自助银行(后沙峪支行),北京市,72e57fd71c56edd2f8dc8555,,72e57fd71c56edd2f8dc8555
北京市顺义区李桥镇任李路沿河段38号,顺义区,北京市,1,40.045802,116.722888,中国邮政储蓄银行24小时自助银行(沿河营业所),北京市,11d0d695f605b39df60e7783,,11d0d695f605b39df60e7783
宏城花园16号楼,顺义区,北京市,1,40.13611,116.643282,中国邮政储蓄银行24小时自助银行服务(宏城营业所),北京市,881a28e729d40247f842b2bc,,881a28e729d40247f842b2bc
邮政储蓄银行半壁店支行,顺义区,北京市,1,40.037693,116.632339,中国邮政储蓄银行24小时自助银行(半壁店支行),北京市,d52831f927d46cda2efaa7cd,,d52831f927d46cda2efaa7cd
高丽营镇商业街东区74号,顺义区,北京市,1,40.152184,116.56901,中国邮政储蓄银行24小时自助银行(张喜庄邮政储蓄),北京市,28dc6737b3623badacee7a12,,28dc6737b3623badacee7a12
北京市顺义区牛板路板桥段6号,顺义区,北京市,1,40.2165,116.532665,中国邮政储蓄银行24小时自助银行服务,北京市,d056d4110f262c4c87154190,,d056d4110f262c4c87154190
政府街8号,顺义区,北京市,1,40.157148,116.838471,中国邮政储蓄银行ATM,北京市,35debf29444a9f39a6da3957,,35debf29444a9f39a6da3957
石园南区花园路南侧新华书店1层底商,顺义区,北京市,1,40.114482,116.669018,中国邮政储蓄银行24小时自助银行服务(石园支行),北京市,dffd46421202f1cf3c9a5e57,,bfecd69a02bbdf02d5b74e56
裕龙花园四区25号,顺义区,北京市,1,40.126494,116.676623,中国邮政储蓄银行24小时自助银行服务(裕龙支行),北京市,06d2dffdd10a008b88f15d57,,06d2dffdd10a008b88f15d57
西辛北区5,顺义区,北京市,1,40.144265,116.648784,中国邮政储蓄银行24小时自助银行(西外街辅路),北京市,33bba57daccd7fed84154110,,33bba57daccd7fed84154110
北京市顺义区府前二街7号,顺义区,北京市,1,40.069737,116.588245,中国邮政储蓄银行24小时自助银行服务(北京顺义天竺支行),北京市,a3f21eee6302c8392fb17e5b,,a3f21eee6302c8392fb17e5b
双阳南区甲14号楼8-9号,顺义区,北京市,1,40.162525,116.839738,中国邮政储蓄银行24小时自助银行(双阳南区支行),北京市,fe7af1dfc99486f03ce23166,,fe7af1dfc99486f03ce23166
南法信府前街6,顺义区,北京市,1,40.132653,116.616762,中国邮政储蓄银行ATM(南法信支行),北京市,126e71d214d335a1843304d7,,126e71d214d335a1843304d7
首都机场李天路南半壁店段11号环宇商务科技园A座,顺义区,北京市,1,40.041449,116.640411,中国邮政储蓄银行ATM(国门支行),北京市,,,6683d3e78278363a6cc02c95
北京市顺义区北务镇府前街18号,顺义区,北京市,1,40.071309,116.83567,中国邮政储蓄银行ATM(北务营业所),北京市,35589ec64ed0cc074251c0da,,35589ec64ed0cc074251c0da
北京市顺义区太平小区8-5号,顺义区,北京市,1,40.143741,116.657166,中国邮政储蓄银行ATM(北街营业所),北京市,e3a7fd13839e022c28b97c73,,e3a7fd13839e022c28b97c73
北京市顺义区府南路与龙林路交叉口东50米,顺义区,北京市,1,40.231769,116.869114,中国邮政储蓄银行ATM(龙湾屯邮政储蓄),北京市,,,ec368ed25e5e0e50a80dd829
北京市顺义区俸彩北区6-4,顺义区,北京市,1,40.138047,116.705708,中国邮政储蓄银行ATM(俸伯邮政储蓄所),北京市,59987749c501f37226d2bbfa,,59987749c501f37226d2bbfa
北京市顺义区双兴东区21号鑫海韵通大卖场(双兴店)1层,顺义区,北京市,1,40.148577,116.663592,中国邮政储蓄银行ATM(双兴北区东北),北京市,4a701cf725360815a20464ca,,4a701cf725360815a20464ca
建新东街5号,顺义区,北京市,1,40.128364,116.659037,中国邮政储蓄银行ATM(南关邮政储蓄所),北京市,3473b00b5a611e7341d63e41,,3473b00b5a611e7341d63e41
北京市顺义区建新东街5号,顺义区,北京市,1,40.128452,116.659,中国邮政-二十四小时自助银行,北京市,dc0b9de44adcc0aef92213f3,,dc0b9de44adcc0aef92213f3
新顺南大街3号13号,顺义区,北京市,1,40.134461,116.657215,中国邮政ATM(新顺南大街),北京市,d8a9cb492fef005eabf7296e,,d8a9cb492fef005eabf7296e
天通东苑一区18-20,昌平区,北京市,1,40.0732,116.436077,中国邮政储蓄银行24小时自助银行服务,北京市,,,c7e79b9e4737fd0bf60e77cc
昌平区东关路与燕平路交叉口西北30米,昌平区,北京市,1,40.23083,116.250655,中国邮政储蓄银行(东关路店),北京市,0a46dc0f834f265e3062120d,95580,0a46dc0f834f265e3062120d
北京市昌平区回龙观东大街27号23,昌平区,北京市,1,40.08955,116.37327,中国邮政储蓄银行(黄平路支行),北京市,2c055bd77df0ab70fe0eb046,(010)60788518,2c055bd77df0ab70fe0eb046
北京市昌平区回龙观镇育知路1号,昌平区,北京市,1,40.0837,116.334306,中国邮政储蓄银行(回龙观支行),北京市,8d96925c64678d46c1f1cf7a,(010)81799120,8d96925c64678d46c1f1cf7a
建安里18,昌平区,北京市,1,40.228145,116.266164,中国邮政储蓄银行(府学路支行),北京市,accb02648feb8fd1ca09f041,(010)69726590,accb02648feb8fd1ca09f041
北京市昌平区回龙观文化居住区龙腾苑5区3号楼2门,昌平区,北京市,1,40.081033,116.343127,中国邮政储蓄银行(龙腾苑营业所),北京市,d51ca60a1c6cece2ab059db4,(010)81710689,d51ca60a1c6cece2ab059db4
北京市昌平区龙乡小区(龙乡邮政所内),昌平区,北京市,1,40.066313,116.345468,中国邮政储蓄银行(龙乡营业所),北京市,6113ef77a68e7e148e772763,,6113ef77a68e7e148e772763
北京市昌平区回龙观西大街118号龙冠置业大厦B座1层,昌平区,北京市,1,40.080132,116.325487,中国邮政储蓄银行(回龙观西大街支行),北京市,c8fe89e02d5a5a8d8505bf71,(010)59812456,c8fe89e02d5a5a8d8505bf71
北京市昌平区中滩村6号院4,昌平区,北京市,1,40.064121,116.415857,中国邮政储蓄银行24小时自助银行服务(东小口支行),北京市,ce95d85156aeb055cf06a44f,,ce95d85156aeb055cf06a44f
北京市昌平区天通西苑一区25号,昌平区,北京市,1,40.07393,116.416151,中国邮政储蓄银行24小时自助银行服务(天通西苑支行),北京市,bc2829639735e4dc0a5cb3cc,,bc2829639735e4dc0a5cb3cc
北京市昌平区北七家镇定泗路北侧雅安商厦C号商业一层部分底商,昌平区,北京市,1,40.123826,116.429156,中国邮政储蓄银行24小时自助银行(北七家支行),北京市,6e19feff37c079a7270bd023,,6e19feff37c079a7270bd023
天通西苑25号楼8门,昌平区,北京市,1,40.073905,116.41599,中国邮政储蓄银行(天通西苑邮局营业部),北京市,b388f9fdc2210d3cb35c6a58,(010)84840197,b388f9fdc2210d3cb35c6a58
南环南路11号附近,昌平区,北京市,1,40.213432,116.308348,中国邮政储蓄银行(金家坟村),北京市,,,439d0bfe444c7d1c0c0e6b33
北京市昌平区阳坊村西大街,昌平区,北京市,1,40.14713,116.149382,中国邮政储蓄银行(阳坊支行),北京市,,(010)69760536,00f1c7fb6cf87062c056ac5b
和平街与鼓楼西街交叉口东南50米,昌平区,北京市,1,40.229822,116.238578,中国邮政储蓄银行(西大街储蓄所),北京市,4cf8d24e977e58e79cf77908,(010)69742245,4cf8d24e977e58e79cf77908
南口育新双语幼儿园旁,昌平区,北京市,1,40.250783,116.142977,中国邮政储蓄银行(南口营业所),北京市,,95580,e1978029453948378e7727e4
北京市昌平区中滩村6号院6号楼,昌平区,北京市,1,40.063926,116.416028,中国邮政储蓄银行(东小口支行),北京市,b53e2d8155d10acfa8059db9,95580,b53e2d8155d10acfa8059db9
北京市昌平区天通北苑二区甲11号楼1门,昌平区,北京市,1,40.081507,116.428024,中国邮政储蓄银行(天通北苑支行),北京市,93df0dc3f6a9a32b882fb51d,(010)81771247,93df0dc3f6a9a32b882fb51d
北京市昌平区昌崔路201天运通大厦1层,昌平区,北京市,1,40.228419,116.273346,中国邮政储蓄银行(昌崔路支行),北京市,f757e6ee174be614260bd005,"(010)80107709,(010)80107660",f757e6ee174be614260bd005
北京市昌平区小汤山镇小汤山村小汤山邮政支局内,昌平区,北京市,1,40.184333,116.393082,中国邮政储蓄银行(小汤山支行),北京市,5211d2191556bc257dc87650,(010)61781285,5211d2191556bc257dc87650
北京市昌平区北七家镇东三旗村,昌平区,北京市,1,40.095283,116.420404,中国邮政储蓄银行(东三旗支行),北京市,fd007c5eab4da011a8f72955,(010)61758836,fd007c5eab4da011a8f72955
文华东路1号,昌平区,北京市,1,40.086794,116.35684,中国邮政储蓄银行(龙锦苑支行),北京市,87248d96a0340db02806ce7a,(010)80757025,87248d96a0340db02806ce7a
政府街25号,昌平区,北京市,1,40.226153,116.234138,中国邮政储蓄银行(北京昌平区支行),北京市,28e700f1aeb1807c095cb356,(010)69746413,28e700f1aeb1807c095cb356
沙河镇兆丰家园12-1号,昌平区,北京市,1,40.156853,116.285171,中国邮政储蓄银行(兆丰家园营业所),北京市,4a0108ecee617e50853304a6,,4a0108ecee617e50853304a6
西环路29-28号,昌平区,北京市,1,40.224115,116.23337,中国邮政储蓄银行(北京昌平区支行),北京市,d3eafc364991e630c4f0257a,(010)80103279,d3eafc364991e630c4f0257a
北京市昌平区天通东苑一区21号楼,昌平区,北京市,1,40.073249,116.43614,中国邮政储蓄银行(天通东苑营业所),北京市,5c4ce01b8e67e135d42ce2ce,(010)61749658,5c4ce01b8e67e135d42ce2ce
北京市昌平区天通苑中国邮政(太平庄中街北),昌平区,北京市,1,40.073381,116.433737,中国邮政储蓄银行(天通中苑储蓄所),北京市,6ce0d4037af0df0bfa0cad8d,95580,6ce0d4037af0df0bfa0cad8d
北京市昌平区北七家镇定泗路北侧雅安商厦C号商业1层部分底商,昌平区,北京市,1,40.123906,116.429172,中国邮政储蓄银行(北京昌平区北七家支行),北京市,a141c7b0de303b8149fc8ddf,"95580,(010)80126276",a141c7b0de303b8149fc8ddf
畅春阁小区龙水路22号院1号楼一层101号,昌平区,北京市,1,40.220204,116.265556,中国邮政储蓄银行(北京昌平区龙水路支行),北京市,7fd72311f20f22e15dbe8683,95580,7fd72311f20f22e15dbe8683
北京市昌平区巩华城大街23号,昌平区,北京市,1,40.131004,116.275664,中国邮政储蓄银行(北京昌平区沙河支行),北京市,75d0881abf66584e3a04b11d,(010)69732648,75d0881abf66584e3a04b11d
北京市昌平区永安路10-1号,昌平区,北京市,1,40.21574,116.240797,中国邮政储蓄银行24小时自助银行服务(振兴路),北京市,5fb418833f9eb672f603b83b,,5fb418833f9eb672f603b83b
西环路29-25,昌平区,北京市,1,40.224029,116.233313,中国邮政储蓄银行(北京昌平区支行信贷营业部),北京市,d7fbc805227078b5631c67ad,95580,d7fbc805227078b5631c67ad
北京市昌平区西环路小区南区(商业街南),昌平区,北京市,1,40.220866,116.234059,中国邮政储蓄银行24小时自助银行(利阳大厦南),北京市,7a2c9e16c6df518d83a00c2a,,7a2c9e16c6df518d83a00c2a
建安里18,昌平区,北京市,1,40.228145,116.266164,中国邮政储蓄银行24小时自助银行(府学路营业所),北京市,a2152aace3530c424151c08a,,a2152aace3530c424151c08a
龙跃苑三区1号楼1层,昌平区,北京市,1,40.081111,116.360037,中国邮政储蓄银行24小时自助银行,北京市,78aed940e391d55f5e17c39a,,78aed940e391d55f5e17c39a
龙禧二街2-楼号附近,昌平区,北京市,1,40.091741,116.346662,中国邮政储蓄银行24小时自助银行服务,北京市,f9077b6945e050b25b1093cf,,f9077b6945e050b25b1093cf
北京市昌平区东环路2号楼1门西50米,昌平区,北京市,1,40.2352,116.245734,中国邮政储蓄银行24小时自助银行(东环路),北京市,,,58d87b237528c48f2fe67b30
北京市昌平区政府街15号,昌平区,北京市,1,40.226688,116.241035,中国邮政储蓄银行24小时自助银行服务(政府街),北京市,2340f0872f3e0e1380a12ea7,,2340f0872f3e0e1380a12ea7
北京市昌平区中国邮政(安四路西),昌平区,北京市,1,40.232183,116.421364,中国邮政储蓄银行24小时自助银行(兴寿营业所),北京市,93ad93245f6eb9b209b93a85,,93ad93245f6eb9b209b93a85
北京市昌平区邮政储蓄银行东三旗支行,昌平区,北京市,1,40.095122,116.420448,中国邮政储蓄银行24小时自助银行(东三旗支行),北京市,d0b8923f1846f89fb5f42f55,,d0b8923f1846f89fb5f42f55
北京市昌平区鼓楼西街14,昌平区,北京市,1,40.229697,116.23658,中国邮政储蓄银行24小时自助银行,北京市,dfd73f7247e2d4f73b221c18,,dfd73f7247e2d4f73b221c18
华北电力大学南街与基杨路交叉口西50米北京农学院大学科技园附近,昌平区,北京市,1,40.100414,116.328068,中国邮政储蓄银行24小时自助银行,北京市,,,1672d23cddc4e626e6e9651f
回龙观东大街27-23,昌平区,北京市,1,40.087931,116.376547,中国邮政储蓄银行24小时自助银行,北京市,bf29b702aa799e9909b93a63,,bf29b702aa799e9909b93a63
北京市昌平区昌崔路203号,昌平区,北京市,1,40.228362,116.272242,中国邮政储蓄银行24小时自助银行,北京市,9ccec967c52d8d688f1a8948,,9ccec967c52d8d688f1a8948
北京市昌平区府学路29号阳光商厦F1,昌平区,北京市,1,40.227305,116.250764,中国邮政储蓄银行24小时自助银行(阳光商厦),北京市,b6269c246198780a6140a9ee,,b6269c246198780a6140a9ee
回龙观镇文化居住区风雅园1区19号楼,昌平区,北京市,1,40.090742,116.329332,中国邮政储蓄银行24小时自助银行(风雅园支行),北京市,0a15c7ec956a2e81ed74f85f,,0a15c7ec956a2e81ed74f85f
行宫路与龙脉西路交叉口东南150米,昌平区,北京市,1,40.186222,116.405895,中国邮政储蓄银行24小时自助银行,北京市,,,130b1e0192ce4d4cb55f1ee8
北京市昌平区天通西苑二区12号楼104号,昌平区,北京市,1,40.078635,116.415779,中国邮政储蓄银行24小时自助银行(天通西苑支行),北京市,cc788fdec78f6ff788fc0658,,cc788fdec78f6ff788fc0658
西环路29-28号,昌平区,北京市,1,40.224123,116.233279,中国邮政储蓄银行24小时自助银行服务(北京昌平区支行),北京市,b9a14e4b0e6a7842715e8060,,b9a14e4b0e6a7842715e8060
北京市昌平区马庄村南响路,昌平区,北京市,1,40.248576,116.125525,中国邮政储蓄银行24小时自助银行服务(南口电气化学校),北京市,e876e261885204294c3a59ce,,e876e261885204294c3a59ce
天通北苑二区甲11号,昌平区,北京市,1,40.081457,116.428008,中国邮政储蓄银行24小时自助银行服务(天通北苑支行),北京市,22e11407286a26b4d5b74e1c,,22e11407286a26b4d5b74e1c
北京市昌平区昌崔路201号大厦一层,昌平区,北京市,1,40.22827,116.273593,中国邮政储蓄银行24小时自助银行(北京昌平区支行),北京市,995e0efa218d2fe2990050bc,,995e0efa218d2fe2990050bc
北京市昌平区回龙观镇回龙苑小区商业楼1层104玉泉超市,昌平区,北京市,1,40.093631,116.350797,中国邮政储蓄银行24小时自助银行服务(回龙观玉泉超市),北京市,369b8f0e052338b7ede4a527,,369b8f0e052338b7ede4a527
北京市昌平区S216(G6辅路),昌平区,北京市,1,40.250797,116.143082,中国邮政储蓄银行ATM,北京市,3be122e1934de92f1ef74d51,,3be122e1934de92f1ef74d51
黄平路202号院1号楼,昌平区,北京市,1,40.08947,116.373512,中国邮政储蓄银行24小时自助银行(黄平路支行),北京市,322462162c014479110daa6d,,322462162c014479110daa6d
白浮泉路28号,昌平区,北京市,1,40.205925,116.252835,中国邮政储蓄银行24小时自助银行(白浮泉路),北京市,,,0aa5f1244ea5550b0a5cb371
北沙河中路与高教园南三街交叉口东150米,昌平区,北京市,1,40.15713,116.285034,中国邮政储蓄银行24小时自助银行(兆丰家园),北京市,87f2e420f709b1a7c4f50dc6,,ef5b2fbb7e0832ff100daa07
回龙观文华东路1号,昌平区,北京市,1,40.086634,116.357065,中国邮政储蓄银行24小时自助银行服务(龙锦苑支行),北京市,161a0ed23c54432d5cd4fe5f,,161a0ed23c54432d5cd4fe5f
定泗路66号,昌平区,北京市,1,40.121857,116.364129,中国邮政储蓄银行24小时自助银行(白各庄支行),北京市,c29d2195ad16a20fa7c7567e,,c29d2195ad16a20fa7c7567e
太平庄东路与太平庄中街交叉口西200米,昌平区,北京市,1,40.07323,116.433704,中国邮政储蓄银行24小时自助银行服务(天通中苑储蓄所),北京市,ed34b4f23f67704a441a32d1,,d184566c08c6f27180a00cad
北京市昌平区城北街道鼓楼南街宽街小区南门,昌平区,北京市,1,40.220713,116.240025,中国邮政储蓄银行24小时自助银行(鼓楼南街),北京市,c7969e40eb9ed43c8936eef1,,c7969e40eb9ed43c8936eef1
龙水路22号,昌平区,北京市,1,40.220207,116.265487,中国邮政储蓄银行24小时自助银行(龙水路支行),北京市,a308a6c91382d59ba01de9f0,,a308a6c91382d59ba01de9f0
政府街25号,昌平区,北京市,1,40.226148,116.234728,中国邮政储蓄银行24小时自助银行(北京昌平区支行),北京市,15cad97a06987789fa0cad08,,15cad97a06987789fa0cad08
北京市昌平区回龙观镇北店家园22号底商,昌平区,北京市,1,40.08774,116.339995,中国邮政储蓄银行24小时自助银行服务(北店家园健安堂药店),北京市,dc17dce81ba78d3c82a12e4a,,dc17dce81ba78d3c82a12e4a
北京市昌平区北龙路7号东50米,昌平区,北京市,1,40.097332,116.31328,中国邮政储蓄银行24小时自助银行(北农路),北京市,,,42f286d66f2c9031970319f8
北京市昌平区阳坊中国邮政(阳坊村西大街南),昌平区,北京市,1,40.14709,116.149294,中国邮政储蓄银行24小时自助银行服务(阳坊支行),北京市,,,9ab81f54f7333c3f9e9d68d5
北京市昌平区鼓楼西街新华书店对面,昌平区,北京市,1,40.229859,116.238398,中国邮政储蓄银行24小时自助银行(昌平区西大街营业所),北京市,6ae4896e9761d4442fb17e26,,6ae4896e9761d4442fb17e26
风雅园二区3号,昌平区,北京市,1,40.089205,116.327331,中国邮政储蓄银行24小时自助银行(颐和中医院),北京市,3b5142d873694e033c9a5e25,,3b5142d873694e033c9a5e25
北京市昌平区沙阳路16号院1号楼,昌平区,北京市,1,40.126915,116.256383,中国邮政储蓄银行24小时自助银行(老牛湾路),北京市,49151d9c90b02801100daa1f,,49151d9c90b02801100daa1f
北京市昌平区回龙观文化居住区龙腾苑5区3号楼2门,昌平区,北京市,1,40.081075,116.343315,中国邮政储蓄银行24小时自助银行(龙腾苑邮政储蓄所),北京市,38c9ce1073cc107f6da3cc53,,38c9ce1073cc107f6da3cc53
东关路与燕平路交叉口西50米,昌平区,北京市,1,40.230791,116.25061,中国邮政储蓄银行ATM(东关路),北京市,15a93810b63ecec314c8f654,,15a93810b63ecec314c8f654
沙河镇巩华大街西街中西结合医院,昌平区,北京市,1,40.131191,116.274515,中国邮政储蓄银行ATM(站前路),北京市,7d2d658f228baa297402696b,,7d2d658f228baa297402696b
沙河镇松兰堡村西昌职路富雷1号楼,昌平区,北京市,1,40.156406,116.299458,中国邮政储蓄银行ATM(沙河京康医院),北京市,7dc07336271e83553be4a6db,,7dc07336271e83553be4a6db
北京市昌平区北清路1号永旺F1,昌平区,北京市,1,40.102651,116.295689,中国邮政储蓄银行ATM(永旺国际商城购物中心),北京市,bbc593a604e793ba71455b3a,,bbc593a604e793ba71455b3a
北京市昌平区西环路商业楼29号楼,昌平区,北京市,1,40.223822,116.233175,中国邮政储蓄银行北京昌平区支行中小企业贷款中心,北京市,,(010)80103279,320809f6796bae5d31f71dfc
北京市昌平区回龙观龙回苑(文华路东),昌平区,北京市,1,40.093565,116.350632,24小时自助银行服务,北京市,,,e48dd5d071456d1ca5da3924
北京市昌平区城南街道南环东路畅椿阁北区南门,昌平区,北京市,1,40.220119,116.265673,个人贷款中心,北京市,a0edce9289cce4b76fc02cd5,,a0edce9289cce4b76fc02cd5
北京市昌平区城南街道龙水路畅椿阁(北区),昌平区,北京市,1,40.220266,116.265514,中小企业贷款中心,北京市,264e1053a58f132e9d95deef,,264e1053a58f132e9d95deef
东关环岛府学路1号,昌平区,北京市,1,40.228788,116.267686,杭州银行24小时自助银行(北京昌平支行),北京市,611d91cc6408ed011ee99951,,611d91cc6408ed011ee99951
北京市大兴区中国邮政储蓄银行(团河苑小区北),大兴区,北京市,1,39.747588,116.378327,中国邮政储蓄银行(团河支行),北京市,d7fd2ad368f69f570accdda9,(010)61296974,d7fd2ad368f69f570accdda9
旧宫镇清逸园西区商品楼1层甲一号,大兴区,北京市,1,39.811503,116.450891,中国邮政储蓄银行(旧宫支行),北京市,dfdc474129bbee782dfaa7f2,(010)87965943,dfdc474129bbee782dfaa7f2
北京市大兴区青老路联合沃美超市西北侧60米,大兴区,北京市,1,39.684928,116.520291,中国邮政储蓄银行(邮政储蓄银行),北京市,,(010)80281171,925c550f1101f8b25a3ac8e8
黄鹅路,大兴区,北京市,1,39.759452,116.296381,中国邮政储蓄银行(芦城营业所),北京市,d991e1160d7fec2b1e3894b0,(010)61239806,d991e1160d7fec2b1e3894b0
北京市大兴区西红门镇宏旭路223号,大兴区,北京市,1,39.790884,116.337432,中国邮政储蓄银行(西红门支行),北京市,74c933fbb5ca0b5d9e82ea55,(010)60251478,74c933fbb5ca0b5d9e82ea55
北京市大兴区经济技术开发区天宝园五里一区22号楼A9号,大兴区,北京市,1,39.796868,116.503388,中国邮政储蓄银行(天宝园路营业所),北京市,dd29cbde1dfb448e1fe9995a,"(010)67820362,(010)67829682",dd29cbde1dfb448e1fe9995a
武警路临48号,大兴区,北京市,1,39.790877,116.292827,中国邮政储蓄银行(狼垡支行),北京市,dc0a7d89a3abe10b51e5c5cc,95580,dc0a7d89a3abe10b51e5c5cc
兴华园彩虹新城S2商业楼,大兴区,北京市,1,39.754631,116.339512,中国邮政储蓄银行(兴华大街),北京市,2b85843fdb6b8f837bf796e6,(010)69292355,2b85843fdb6b8f837bf796e6
北京市大兴区滨河街27号水晶之星底商一层,大兴区,北京市,1,39.763277,116.346807,中国邮政储蓄银行(康庄路店),北京市,0883aec3f66a6b7945e274de,"(010)81294291,(010)81294094",0883aec3f66a6b7945e274de
采辛路农村商业银行东北侧90米,大兴区,北京市,1,39.661332,116.633831,中国邮政储蓄银行(采辛路店),北京市,,95580,4ea3f2f1010bdcaaaecb66f0
北京市大兴区魏善庄镇黄徐路附近,大兴区,北京市,1,39.671543,116.419854,中国邮政储蓄银行(魏善庄),北京市,,,7524cb4fb4a9773404026ff1
北京市大兴区黄村镇北臧村天河西路19号,大兴区,北京市,1,39.697936,116.326158,中国邮政储蓄银行(埝坛支行),北京市,2cc3c8e8b40637d54c2fdfa9,(010)61252695,2cc3c8e8b40637d54c2fdfa9
黄村镇广茂大街西侧5号,大兴区,北京市,1,39.766279,116.354436,中国邮政储蓄银行(广茂大街支行),北京市,f300a8e93aecff4b09a8d445,(010)61274264,f300a8e93aecff4b09a8d445
北京市大兴区兴丰大街3段88号,大兴区,北京市,1,39.73533,116.34649,中国邮政储蓄银行(大兴区支行),北京市,637df60acb1e977240afe6ed,(010)69243272,637df60acb1e977240afe6ed
北京市大兴区凤河营村凤福街,大兴区,北京市,1,39.619994,116.702579,中国邮政储蓄银行(凤河营营业所),北京市,,(010)80202990,d7b7b73452366173d3ff230a
青采路,大兴区,北京市,1,39.688594,116.60946,中国邮政储蓄银行(长子营邮政所),北京市,,(010)80266424,945bab7f44f36e320f0e6b39
北京市大兴区天堂河农场天利路6号,大兴区,北京市,1,39.675721,116.33318,中国邮政储蓄银行(天堂河支行),北京市,,(010)60277571,2ad32cc38bdda18c9c95dea9
北京市大兴区亦庄镇贵园中路五号院2号楼101室,大兴区,北京市,1,39.800809,116.482863,中国邮政储蓄银行(贵园中路邮政所),北京市,c91725d7a99b3028f942b226,(010)67898861,c91725d7a99b3028f942b226
北京市大兴区黄村镇兴盛接北程庄路交叉口,大兴区,北京市,1,39.765219,116.323561,中国邮政储蓄银行(骏城小区营业所),北京市,957dd7e99da48fcd14948ebe,(010)60297501,957dd7e99da48fcd14948ebe
北京市大兴区黄村兴华大街中段27号,大兴区,北京市,1,39.738008,116.33839,中国邮政储蓄银行(黄村西大街支行),北京市,ebbd951debb4c66d0289723d,(010)89295357,ebbd951debb4c66d0289723d
北京市大兴区黄村镇兴华路二段六号院,大兴区,北京市,1,39.767985,116.338894,中国邮政储蓄银行(兴华路邮局营业部),北京市,251374c963b2ad3ca11de955,(010)60243749,251374c963b2ad3ca11de955
黄村丽园路30号院23号楼1层,大兴区,北京市,1,39.752983,116.320586,中国邮政储蓄银行(清源北路营业所),北京市,2ae3df3f0c058545f9f0cb6f,,2ae3df3f0c058545f9f0cb6f
黄村镇兴华路二段六号院,大兴区,北京市,1,39.767983,116.3389,中国邮政储蓄银行(兴华路支行电费代收点),北京市,88e750399a755c273ae4a6b2,95580,88e750399a755c273ae4a6b2
北京市大兴区采育镇凤河营村凤福街,大兴区,北京市,1,39.620007,116.702384,中国邮政储蓄银行(凤河营营业所电费代收点),北京市,,(010)80202990,fef4fd7e9c3b27759b68b4a6
北京市大兴区旧宫镇清逸园西区商品楼一层甲一号,大兴区,北京市,1,39.811721,116.450874,中国邮政储蓄银行24小时自助银行(旧宫支行),北京市,d6ee87248a90169da9f0cd9a,,d6ee87248a90169da9f0cd9a
兴丰南大街22,大兴区,北京市,1,39.735153,116.346398,中国邮政储蓄银行24小时自助银行(北京大兴区支行),北京市,82e7893fc465ff80f9f0cb57,,32ed740d90a756a91811d5b8
黄村兴华大街中段27号,大兴区,北京市,1,39.743058,116.333924,中国邮政储蓄银行24小时自助银行服务,北京市,0ed20a15321f659757bfffed,,0ed20a15321f659757bfffed
采育邮政支局邮政储蓄,大兴区,北京市,1,39.661378,116.633791,中国邮政储蓄银行24小时自助银行(采育营业所),北京市,,,b703e96b340a21f98e1a89b4
北京市大兴区凤福街与凤荣巷交叉口东南50米,大兴区,北京市,1,39.62002,116.702412,中国邮政储蓄银行24小时自助银行,北京市,,,f0a946c857f6113259bbbc4e
北京市大兴区清源东路,大兴区,北京市,1,39.747628,116.378295,中国邮政储蓄银行24小时自助银行(团河支行),北京市,4fc3161af921cea93a13fded,,4fc3161af921cea93a13fded
北京市大兴区泰中花园2号,大兴区,北京市,1,39.76636,116.354414,中国邮政储蓄银行24小时自助银行服务(广茂大街支行),北京市,25ec69fc06dc1500c36c1498,,25ec69fc06dc1500c36c1498
北京市大兴区魏善庄镇黄徐路中国邮政储蓄银行,大兴区,北京市,1,39.671597,116.41981,中国邮政储蓄银行24小时自助银行服务(魏善庄邮政储蓄),北京市,,,3645ce8c4c25f44a9e9d6867
中国邮政储蓄银行榆垡支行,大兴区,北京市,1,39.523857,116.332068,中国邮政储蓄银行ATM,北京市,,,87248d96a17a02b02906ceb8
北京市大兴区经济技术开发区隆庆街4号,大兴区,北京市,1,39.806371,116.513389,中国邮政储蓄银行24小时自助银行(经济技术开发区支行),北京市,4cf8d24e3ae3c5e49df77998,,4cf8d24e3ae3c5e49df77998
北京市大兴区旧头路秀水花园东侧,大兴区,北京市,1,39.805004,116.469393,中国邮政储蓄银行24小时自助银行(旧忠路),北京市,b19ddf0d6e9ab0db354aae77,,b19ddf0d6e9ab0db354aae77
北京市大兴区长丰园一区22,大兴区,北京市,1,39.788947,116.29538,中国邮政储蓄银行24小时自助银行服务(狼垡营业所),北京市,a3b61249ef37d075a8f729ed,,a3b61249ef37d075a8f729ed
双河南里甲15号,大兴区,北京市,1,39.738289,116.353422,中国邮政储蓄银行24小时自助银行(双河南巷),北京市,a0bed16d76c2915082a12e23,,a0bed16d76c2915082a12e23
贵园中路5号院2,大兴区,北京市,1,39.800784,116.482762,中国邮政储蓄银行24小时自助银行(贵园中路营业所),北京市,5c3a3d4cdadf906ed4851f2f,,5c3a3d4cdadf906ed4851f2f
京福路与黄亦路交叉口东50米,大兴区,北京市,1,39.771803,116.455194,中国邮政储蓄银行24小时自助银行服务(瀛海邮政储蓄所),北京市,8d42a470005bb6590482c20e,,8d42a470005bb6590482c20e
北京市大兴区兴盛街207号,大兴区,北京市,1,39.765194,116.323551,中国邮政储蓄银行24小时自助银行(骏城小区营业所),北京市,064cbad792fc20dc49fd3fd5,,064cbad792fc20dc49fd3fd5
北京市大兴区圣和巷8附近,大兴区,北京市,1,39.75302,116.320716,中国邮政储蓄银行24小时自助银行(圣和巷),北京市,7731b46322bedb44d2f49efb,,7731b46322bedb44d2f49efb
黄村兴华大街中段27号,大兴区,北京市,1,39.738047,116.338251,中国邮政储蓄银行24小时自助银行(黄村西大街支行),北京市,961e1409def03cabcd04efcc,,961e1409def03cabcd04efcc
北京市大兴区黄村镇兴华路二段六号院,大兴区,北京市,1,39.767953,116.338768,中国邮政储蓄银行24小时自助银行(兴华路支行),北京市,69fcd6df5ec2bb52cb291598,,69fcd6df5ec2bb52cb291598
北京市大兴区黄徐路,大兴区,北京市,1,39.623541,116.502191,中国邮政储蓄银行24小时自助银行(兴安大街),北京市,,,9673901b61c7ab2bd8131827
北京市大兴区西红门镇宏旭路223号,大兴区,北京市,1,39.790895,116.337314,中国邮政储蓄银行24小时自助银行(西红门支行),北京市,ba42a88a3ecba74230169bcb,,ba42a88a3ecba74230169bcb
北京市大兴区中国邮政(青老路西),大兴区,北京市,1,39.684994,116.520381,中国邮政储蓄银行24小时自助银行(青云店营业所),北京市,,,5ce2637dba364252af31e5a6
兴安大街29号附近,大兴区,北京市,1,39.623546,116.502011,中国邮政邮政储蓄(安定镇邮政储蓄),北京市,,(010)80231537,fa5b0c7884b7ac96b54f544b
北京市大兴区滨河街27号,大兴区,北京市,1,39.763364,116.346789,中国邮政储蓄银行ATM(水晶城支行),北京市,83ba6eee62c349dd9fec2b16,,83ba6eee62c349dd9fec2b16
北京市大兴区中国邮政储蓄银行庞各庄支行,大兴区,北京市,1,39.629915,116.331423,中国邮政储蓄银行ATM(庞各庄支行),北京市,,,cd9d05dd8e776db584420eb5
北京市大兴区天利路6号,大兴区,北京市,1,39.675777,116.33301,中国邮政储蓄银行ATM(天堂河支行),北京市,,,e96b44201973255a83288aa9
北京市大兴区天河西路19号,大兴区,北京市,1,39.697892,116.326237,中国邮政储蓄银行ATM(埝坛支行),北京市,442076461cd02868dfee8ba9,,442076461cd02868dfee8ba9
北京市大兴区天堂河农场,大兴区,北京市,1,39.678057,116.336109,邮储银行天堂河支行,北京市,,(010)60277571,37d2cd50a5283212d23ce303
北京市怀柔区南大街16号-301室,怀柔区,北京市,1,40.318105,116.63933,中国邮政储蓄银行,北京市,b9d1a6edf201105680a00c19,95580,b9d1a6edf201105680a00c19
北京市怀柔区G111(京加路),怀柔区,北京市,1,40.419394,116.687361,中国邮政储蓄银行(怀北庄营业所),北京市,,(010)69661672,23a14702f5416e7e17b54be7
北京市怀柔区青春路18号,怀柔区,北京市,1,40.323565,116.637358,中国邮政储蓄银行(北京怀柔区支行),北京市,b0d056f2cb33ab7dcac3db39,(010)69626806,b0d056f2cb33ab7dcac3db39
青春苑邮政所邮政储蓄,怀柔区,北京市,1,40.325829,116.63447,中国邮政储蓄银行24小时自助银行服务(青春苑邮政所邮政储蓄),北京市,a5bc44671bdf22ebb2077d79,,a5bc44671bdf22ebb2077d79
北京市怀柔区滨湖小区1号,怀柔区,北京市,1,40.331749,116.644195,中国邮政储蓄银行(迎宾路支行),北京市,2fd3bfb352059afccac3db4a,(010)60639501,2fd3bfb352059afccac3db4a
北京市怀柔区杨宋庄镇杨宋庄村凤翔公园旁,怀柔区,北京市,1,40.296568,116.68887,中国邮政储蓄银行(杨宋庄支行),北京市,631c41579f9f6f1c31f71d3c,(010)61675495,631c41579f9f6f1c31f71d3c
怀柔镇东关一区83号,怀柔区,北京市,1,40.320029,116.645623,中国邮政储蓄银行(东关营业所),北京市,6f16ad7c21a618d7f4c59c87,95580,6f16ad7c21a618d7f4c59c87
汤河口镇汤河口大街11号,怀柔区,北京市,1,40.742933,116.650426,中国邮政储蓄银行(汤河口支行),北京市,,95580,f2f15ffb456f9788631c676b
幸福大街8号,怀柔区,北京市,1,40.331893,116.703989,中国邮政储蓄银行(北房营业所),北京市,38749874296500b4c61e51b9,(010)61682650,38749874296500b4c61e51b9
北京市怀柔区于家园一区88号,怀柔区,北京市,1,40.338065,116.646908,中国邮政储蓄银行(于家园营业所),北京市,a3e8341c80ac7b954afd3f72,(010)69625909,a3e8341c80ac7b954afd3f72
北京市怀柔区范崎路和京加路交叉口,怀柔区,北京市,1,40.367362,116.667305,中国邮政储蓄银行(范各庄支行),北京市,92b806d2ad43ec8379b55cdd,(010)61641339,92b806d2ad43ec8379b55cdd
北京市怀柔区中国邮政,怀柔区,北京市,1,40.41949,116.687125,中国邮政储蓄银行24小时自助银行(京加路),北京市,8a31d673c551b8b4adcb663f,,8a31d673c551b8b4adcb663f
北京市怀柔区滨湖小区1号,怀柔区,北京市,1,40.33174,116.644054,中国邮政储蓄银行24小时自助银行服务(迎宾路支行),北京市,97cdefb530f644d42ce67b85,,97cdefb530f644d42ce67b85
北京市怀柔区兴杨路26号北60米,怀柔区,北京市,1,40.296592,116.688881,中国邮政储蓄银行24小时自助银行(杨宋庄支行),北京市,7991b28a147be67552e5c5eb,,7991b28a147be67552e5c5eb
南大街25-3号附近,怀柔区,北京市,1,40.318105,116.63933,中国邮政储蓄银行24小时自助银行,北京市,,,8eb1062addaa816740ab9a0b
北京市怀柔区青春路18号附近,怀柔区,北京市,1,40.323212,116.637293,中国邮政储蓄银行24小时自助银行服务(北京怀柔区支行),北京市,4ea3f2f1599004d4aecb6670,,4ea3f2f1599004d4aecb6670
北京市怀柔区于家园一区88号,怀柔区,北京市,1,40.341859,116.643365,中国邮政储蓄银行24小时自助银行(北大街支行),北京市,2a7a25ecc2637c1e6c3e1b3c,,2a7a25ecc2637c1e6c3e1b3c
东关邮政所邮政储蓄,怀柔区,北京市,1,40.320087,116.645991,中国邮政储蓄银行24小时自助银行(南大街),北京市,60e6930339c70bc51d580049,,60e6930339c70bc51d580049
北京市怀柔区北房幸福东园(幸福大街北),怀柔区,北京市,1,40.332017,116.716132,中国邮政储蓄银行24小时自助银行(幸福大街),北京市,5730c24e8012a3f4364aae60,,5730c24e8012a3f4364aae60
北京市怀柔区S308(怀长路),怀柔区,北京市,1,40.29655,116.579809,中国邮政邮政储蓄(桥梓支行),北京市,2ca58b6e18cf4711b9df8fae,(010)69675841,2ca58b6e18cf4711b9df8fae
北京市怀柔区北房镇北房村幸福大街8号,怀柔区,北京市,1,40.331948,116.704021,中国邮政储蓄银行ATM(富密路),北京市,8bc54dedfd58b25058f6be24,,8bc54dedfd58b25058f6be24
于家园一区88号,怀柔区,北京市,1,40.337929,116.646932,中国邮政储蓄银行24小时自助银行(于家园路),北京市,3b9167d5b087ad5d5cd4fe8b,,3b9167d5b087ad5d5cd4fe8b
北京市怀柔区燕城中国邮政(京加路北),怀柔区,北京市,1,40.367307,116.66721,中国邮政储蓄银行ATM(范各庄支行),北京市,87248d9672feffce2806ce39,,87248d9672feffce2806ce39
北京市怀柔区怀柔镇开放路下元市场中区,怀柔区,北京市,1,40.333106,116.652807,中国邮政储蓄银行ATM(下元邮政储蓄),北京市,,,6adde1b27062fe0c1ef74d85
金海湖镇韩庄北街207号,平谷区,北京市,1,40.187511,117.274401,中国邮政储蓄银行(金海湖支行),北京市,,95580,803708f1753e6004018972d0
平谷区平谷镇西环南路3号,平谷区,北京市,1,40.145169,117.102384,中国邮政储蓄银行(金海邮政所),北京市,b703e96b59ebdc878f1a89d1,95580,b703e96b59ebdc878f1a89d1
平谷区王辛庄镇西杏元村乐园路27号,平谷区,北京市,1,40.202472,117.063776,中国邮政储蓄银行(乐政务邮政所),北京市,63d0e7eb88ca69202bb97c2b,(010)61921914,63d0e7eb88ca69202bb97c2b
华山镇后北宫路99号,平谷区,北京市,1,40.257219,117.058035,中国邮政储蓄银行(后北宫支行),北京市,,95580,bba873884626a6a0bca822c5
北京市平谷区东高村路与平三路交叉口东南50米,平谷区,北京市,1,40.114306,117.121283,中国邮政储蓄银行ATM(东高村营业所),北京市,d49b8f7a89e2d47240ab9a7a,,d49b8f7a89e2d47240ab9a7a
北京市平谷区紫贵庄园13号楼1至2层10-12室,平谷区,北京市,1,40.151331,117.107155,中国邮政储蓄银行(北京平谷区紫贵支行),北京市,1b246aa8742f5d2216764383,95580,1b246aa8742f5d2216764383
北京市平谷区平谷镇新平南路110号,平谷区,北京市,1,40.139923,117.126058,中国邮政储蓄银行(北京平谷区寺渠支行),北京市,,(010)69971403,ec82d87a06ddc6836c47606d
平谷镇太和园小区1号楼,平谷区,北京市,1,40.156185,117.13896,中国邮政储蓄银行24小时自助银行(太和园储蓄所),北京市,4b2d2584d26cf18378f796a7,,4b2d2584d26cf18378f796a7
平蓟路北50米,平谷区,北京市,1,40.177668,117.230652,中国邮政储蓄银行24小时自助银行,北京市,,,2c6d57b5d31f4db36fa3cc0b
新平南路110号,平谷区,北京市,1,40.139903,117.125813,中国邮政储蓄银行24小时自助银行服务,北京市,136d711f7a1be339631c67c1,,136d711f7a1be339631c67c1
平谷镇金海小区15号楼,平谷区,北京市,1,40.145269,117.10222,中国邮政储蓄银行24小时自助银行,北京市,50f7d1461e3009c472210bc9,,50f7d1461e3009c472210bc9
北京市平谷区中国邮政储蓄银行(管庄邮政支局邮政储蓄),平谷区,北京市,1,40.14933,117.0306,官庄邮政储蓄,北京市,1df592628b96993446e27490,(010)61982798,1df592628b96993446e27490
文化南街7号,平谷区,北京市,1,40.143638,117.118564,中国邮政储蓄银行24小时自助银行,北京市,,,14d22013197c4e0615c90553
北京市平谷区新平南路110号,平谷区,北京市,1,40.139878,117.126011,中国邮政(邮政储蓄),北京市,a50f70299ac54add8c55ec5d,(010)69971403,a50f70299ac54add8c55ec5d
北京市平谷区胡熊路,平谷区,北京市,1,40.283002,117.073873,中国邮政储蓄银行24小时自助银行服务,北京市,b313ae06cdfa4a9e9d9d682e,,b313ae06cdfa4a9e9d9d682e
北京市平谷区靠郭路,平谷区,北京市,1,40.203972,117.32477,中国邮政储蓄银行24小时自助银行服务,北京市,,,2e86482d8643711a82288aa2
乐园路27号,平谷区,北京市,1,40.202462,117.063717,中国邮政储蓄银行ATM,北京市,64778bf1c8f5391f6d20b9d1,,64778bf1c8f5391f6d20b9d1
韩庄北街207号,平谷区,北京市,1,40.187358,117.274328,中国邮政储蓄银行24小时自助银行(金海湖支行),北京市,,,0e9f4d70c69590b6b320a86f
旧城街16号,平谷区,北京市,1,40.146305,117.130719,中国邮政储蓄银行24小时自助银行(北京平谷区营业部),北京市,05dd7d5fbeddbd01ad080fc9,,05dd7d5fbeddbd01ad080fc9
府前西街20号22号,平谷区,北京市,1,40.145931,117.11125,中国邮政储蓄银行24小时自助银行(大龙环岛),北京市,9d2ac767b1c290d93686f439,,9d2ac767b1c290d93686f439
紫贵庄园13号楼1至2层10-12,平谷区,北京市,1,40.151336,117.1073,中国邮政储蓄银行24小时自助银行服务(紫贵支行),北京市,e558cf32c3343ffa84330439,,e558cf32c3343ffa84330439
北京市平谷区峪口镇密三路中国邮政(峪口小区西50米),平谷区,北京市,1,40.191339,117.021844,中国邮政储蓄银行24小时自助银行(峪口支行信贷营业部),北京市,b06a271cb7f8c0f92cb17e17,,b06a271cb7f8c0f92cb17e17
北京市平谷区旧城街16号,平谷区,北京市,1,40.191331,117.021716,中国邮政邮政储蓄(峪口支行),北京市,9e71ed977772f401b1077df6,11185,9e71ed977772f401b1077df6
北京市平谷区马昌营魏辛庄云打路中国邮政,平谷区,北京市,1,40.136582,117.010428,中国邮政邮政储蓄(马昌营营业所),北京市,,(010)61982901,558c7236db2ef983e812e49d
北京市平谷区后北宫路99号,平谷区,北京市,1,40.257109,117.058072,中国邮政储蓄银行ATM(后北宫支行),北京市,,,07a5e549ac7bc2d336b06cbf
北京市平谷区平谷镇迎宾环岛紫贵庄园,平谷区,北京市,1,40.151333,117.107101,中国邮政储蓄银行小企业金融服务中心,北京市,a83ebb89378b87baebe5823d,95580,a83ebb89378b87baebe5823d
北京市平谷区中国邮政储蓄银行(管庄邮政支局邮政储蓄),平谷区,北京市,1,40.149233,117.030414,中国邮政储蓄银行ATM(官庄邮政储蓄),北京市,dfd8e5c329828ddcb64f547b,,dfd8e5c329828ddcb64f547b
永安街145号,密云区,北京市,1,40.543886,117.133599,中国邮政储蓄银行(太师屯支行),北京市,,(010)69032534,f5e3bcae6c3550bc5e17c3d2
北京市密云区新西路77-12号,密云区,北京市,1,40.38121,116.840926,中国邮政储蓄银行(新西路支行),北京市,f696f3c2dea35d961b11d53c,(010)69025585,f696f3c2dea35d961b11d53c
北京市密云区西田各庄村五街138号附近,密云区,北京市,1,40.406519,116.778176,中国邮政储蓄银行(西田各庄营业所),北京市,8fa14fc304d9a413f7eafcd9,(010)61018092,8fa14fc304d9a413f7eafcd9
北京市密云区S310(琉辛路),密云区,北京市,1,40.572415,116.984326,中国邮政储蓄银行(不老屯支行),北京市,,(010)81091774,6b38540dac08dee3ca213d4c
北京市密云区双燕街6号1幢,密云区,北京市,1,40.373328,116.825482,中国邮政储蓄银行(双燕街支行),北京市,5ffa5317c951a6d5220220a0,95580,5ffa5317c951a6d5220220a0
北京市密云区宾阳西里中区(新东路西),密云区,北京市,1,40.387972,116.864996,中国邮政储蓄银行(宾阳邮政所),北京市,923ffd00c2c1e2cad92f283c,(010)69026845,923ffd00c2c1e2cad92f283c
新中街18-1号,密云区,北京市,1,40.385092,116.85806,中国邮政储蓄银行(新中街邮电所),北京市,,(010)69022565,80a957bfc9bb77aff7b916ca
北京市密云区鼓楼东大街38号,密云区,北京市,1,40.381737,116.853606,中国邮政储蓄银行(北京密云区支行),北京市,d1469ee756e7251f8433043c,(010)69042963,d1469ee756e7251f8433043c
北京市密云区行宫街36-7号,密云区,北京市,1,40.395504,116.869295,中国邮政储蓄银行24小时自助银行服务(行宫街),北京市,034f47f14bee7eba4e2fdf0e,,034f47f14bee7eba4e2fdf0e
邮政储蓄银行太师屯支行,密云区,北京市,1,40.543909,117.133684,中国邮政储蓄银行24小时自助银行(永安街),北京市,,,05dd7d5fa5ddd27cad080fc4
北京市密云县阳光街388号院3号,密云县,北京市,1,40.377797,116.872996,中国邮政储蓄银行24小时自助银行(阳光街),北京市,18d15d54b8f56742cac3dbd6,,18d15d54b8f56742cac3dbd6
中国邮政(水库南线南),密云区,北京市,1,40.480199,116.85145,中国邮政储蓄银行24小时自助银行,北京市,b9be18c035dbae91df1e520a,,b9be18c035dbae91df1e520a
北京市密云区宾阳西里中区(新东路西),密云区,北京市,1,40.388145,116.865037,中国邮政储蓄银行24小时自助银行,北京市,,,965b40e091374e802afc4828
果园西路19-34号,密云区,北京市,1,40.382574,116.832434,中国邮政储蓄银行24小时自助银行,北京市,26b56f3c1369f70d1df74dde,,26b56f3c1369f70d1df74dde
北京市密云区富民路129号西南70米,密云区,北京市,1,40.355322,116.794738,中国邮政储蓄银行24小时自助银行服务,北京市,,,eded8db55215de2394ec84ac
北京市密云区行宫街104号,密云区,北京市,1,40.386724,116.869234,中国邮政储蓄银行24小时自助银行(旧密古路),北京市,8d96925c911f1045c0f1cf90,,8d96925c911f1045c0f1cf90
北京市密云区宾阳里甲51,密云区,北京市,1,40.384491,116.868343,中国邮政储蓄银行24小时自助银行服务(宾阳里东南),北京市,1bed51d404c49d99e50738d9,,1bed51d404c49d99e50738d9
北京市密云区双燕街6号1幢,密云区,北京市,1,40.373153,116.825517,中国邮政储蓄银行24小时自助银行服务(双燕街支行),北京市,3b5e118aece51c4f76e5b60b,,3b5e118aece51c4f76e5b60b
果园西路44号,密云区,北京市,1,40.374082,116.83384,中国邮政储蓄银行24小时自助银行(果园西路支行),北京市,65ac4bd7d9cde4c19cf779f3,,65ac4bd7d9cde4c19cf779f3
北京市密云区花园小区26号,密云区,北京市,1,40.380152,116.859387,中国邮政储蓄银行24小时自助银行(东鱼市胡同),北京市,6f00e9e2abe4aac80c0e6b5e,,6f00e9e2abe4aac80c0e6b5e
新中街16-15,密云区,北京市,1,40.38521,116.858124,中国邮政储蓄银行24小时自助银行(新中街),北京市,,,12867249b93f70c358f6bedf
北京市密云区西田各庄镇派出所南附近,密云区,北京市,1,40.406585,116.778201,中国邮政储蓄银行24小时自助银行(西田各庄营业所),北京市,b360cd6c1c6e1cc29d9d68dd,,b360cd6c1c6e1cc29d9d68dd
北京市密云区新中街177号12,密云区,北京市,1,40.374471,116.858212,中国邮政储蓄银行ATM(新中街),北京市,9d220923ab0752bb10293527,,9d220923ab0752bb10293527
密云区新西路77-12号,密云区,北京市,1,40.381262,116.840837,中国邮政储蓄银行ATM(新西路支行),北京市,aaeb08952b77614825d2bbf3,,aaeb08952b77614825d2bbf3
北京市密云区新中街2号,密云区,北京市,1,40.393981,116.861248,中国邮政储蓄银行ATM(车站路支行),北京市,d5ab2d82224881dfe115f910,,d5ab2d82224881dfe115f910
百莲路与菜园中街交叉口西100米,延庆区,北京市,1,40.452517,115.983644,中国邮政储蓄银行,北京市,c4a5c446c1867d4cf7e73b49,(010)61117085,c4a5c446c1867d4cf7e73b49
北京市延庆区康庄镇站南,延庆区,北京市,1,40.377703,115.910885,中国邮政储蓄银行(康庄支行),北京市,cc0849a0f946a12d950319a3,(010)61163242,cc0849a0f946a12d950319a3
庆园街16号,延庆区,北京市,1,40.476506,115.984277,中国邮政储蓄银行(庆园街支行),北京市,db1f39d467bfea12f4c59ca3,95580,db1f39d467bfea12f4c59ca3
北京市延庆区张山营镇文化活动中心旁,延庆区,北京市,1,40.484419,115.865977,中国邮政储蓄银行(张山营营业所),北京市,ab16a8090150de194d55470b,(010)69111574,ab16a8090150de194d55470b
北京市延庆区东外大街72,延庆区,北京市,1,40.46841,115.991965,中国邮政储蓄银行(延庆区支行),北京市,d305db1f60e9bb43922ca3a3,(010)69185122,d305db1f60e9bb43922ca3a3
北京市延庆区延庆镇高塔路格兰山水小区11号楼DS11-22号,延庆区,北京市,1,40.470919,115.981275,中国邮政储蓄银行24小时自助银行(高塔路营业所),北京市,918b684498b78152c7f0250a,,918b684498b78152c7f0250a
北京市延庆区康庄四街,延庆区,北京市,1,40.387289,115.907707,中国邮政储蓄银行(康庄四街营业所),北京市,,95580,48a50458080a773031870ab1
北京市延庆区八峪路辅路,延庆区,北京市,1,40.557003,116.095468,中国邮政储蓄银行(旧县支行),北京市,435d7aea7b762c355abbbc20,95580,435d7aea7b762c355abbbc20
延庆区八达岭镇西拨子村三枪电动车有限公司西北150米,延庆区,北京市,1,40.369556,115.973387,中国邮政储蓄银行(西拨子营业所),北京市,bd458983764a96160e3ddae6,(010)69120544,bd458983764a96160e3ddae6
北京市延庆区东外大街中国人寿保险股份有限公司,延庆区,北京市,1,40.469492,115.997451,中国邮政储蓄银行24小时自助银行(东外大街),北京市,0ab28c208796d6a0b04c495a,,0ab28c208796d6a0b04c495a
百莲路28-10号附近,延庆区,北京市,1,40.452508,115.983607,中国邮政储蓄银行24小时自助银行,北京市,52332c1784faa649ad04579a,,52332c1784faa649ad04579a
216省道(西拨子村卫生室西),延庆区,北京市,1,40.36957,115.973538,中国邮政储蓄银行24小时自助银行,北京市,1ea33bd3f143a4be343a7177,,1ea33bd3f143a4be343a7177
妫川中路22号,延庆区,北京市,1,40.467991,115.984688,中国邮政储蓄银行24小时自助银行(妫水北街),北京市,4cae97e52422a6f38bfc0698,,4cae97e52422a6f38bfc0698
北京市延庆区东外大街72,延庆区,北京市,1,40.468057,115.992972,中国邮政储蓄银行24小时自助银行(北京延庆区支行),北京市,d305db1ff80e2340932ca3c1,,d305db1ff80e2340932ca3c1
北京市延庆区香苑街,延庆区,北京市,1,40.475834,115.994103,中国邮政储蓄银行24小时自助银行服务(新兴小区邮政储蓄所),北京市,dffd631cd9e9eabc38221c26,,dffd631cd9e9eabc38221c26
北京市延庆区南街与黄甲巷交叉口北150米,延庆区,北京市,1,40.530568,116.173199,中国邮政储蓄银行ATM(永宁支行),北京市,a457a9ff4e431cbcfa0cadb9,,a457a9ff4e431cbcfa0cadb9
北京市延庆区八峪路辅路,延庆区,北京市,1,40.557162,116.095898,中国邮政储蓄银行ATM(旧县支行),北京市,d16032355287fa8beb1e973f,,d16032355287fa8beb1e973f
北京市延庆区新城街新兴小区内,延庆区,北京市,1,40.475423,115.994197,新兴小区邮政储蓄(新兴小区邮政储蓄所),北京市,70924240e4a6055fd4851f80,(010)69180774,70924240e4a6055fd4851f80
北京市延庆区西官路南150米,延庆区,北京市,1,40.378831,115.905412,中国邮政储蓄银行ATM(康庄三街西南),北京市,69ee613632aef430cd04eff6,,69ee613632aef430cd04eff6
北京市延庆区康庄镇政府南,延庆区,北京市,1,40.387274,115.907761,中国邮政储蓄银行ATM(康庄四街营业所),北京市,,,4a66a128fbe64fdd9122e000
