address,area,city,detail,lat,lng,name,province,street_id,telephone,uid
北京市东城区建国门内大街19号中纺大厦1层,东城区,北京市,1,39.915256,116.429398,北京银行(东单支行),北京市,32d9e6a377490578901fc968,(010)65262730,32d9e6a377490578901fc968
北京市东城区东直门北小街青龙胡同1号歌华大厦首层,东城区,北京市,1,39.954949,116.431295,北京银行(雍和支行),北京市,9b8542f85e3e1bb600ff2d9b,(010)84186329,9b8542f85e3e1bb600ff2d9b
北京市东城区珠市口东大街3号,东城区,北京市,1,39.899651,116.422079,北京银行(天桥支行),北京市,cf5fdd5bb32ac88c0869d94b,95526,cf5fdd5bb32ac88c0869d94b
北京市东城区东四北大街303-6号,东城区,北京市,1,39.936059,116.423425,北京银行(东四支行),北京市,5c37d36ade9355bb9868b43a,(010)64062934,5c37d36ade9355bb9868b43a
北京市东城区东直门南大街5号中青旅大厦首层,东城区,北京市,1,39.943727,116.439191,北京银行(海运支行),北京市,a1ec80265a64dec5c8213d8b,(010)58156081,a1ec80265a64dec5c8213d8b
北京市东城区安德路16号(洲际大厦首层),东城区,北京市,1,39.957382,116.404191,北京银行(中轴路支行),北京市,33ddf832c2d7244952e5c51e,95526,33ddf832c2d7244952e5c51e
北京市东城区东四十条24号青蓝大厦1层西侧,东城区,北京市,1,39.939263,116.435854,北京银行(景山支行),北京市,f3e95868c15418d6130daa85,(010)64016958,f3e95868c15418d6130daa85
北京市东城区王府井金鱼胡同18号丽苑公寓1层,东城区,北京市,1,39.92144,116.421103,北京银行(长城支行),北京市,ef615a92efd3feb61d1d118e,"95526,(010)65258088",ef615a92efd3feb61d1d118e
东城区和平里东街1号爱地大厦,东城区,北京市,1,39.964985,116.431163,北京银行(和平里支行),北京市,db7c7809027ac83a4151c073,(010)84232288,db7c7809027ac83a4151c073
北京市东城区广渠家园5号首东国际大厦1层101号,东城区,北京市,1,39.898841,116.453683,北京银行(广渠门外大街支行),北京市,597a982d6efe48e0a204640a,(010)87521580,597a982d6efe48e0a204640a
北京市东城区新中西里13号巨石大厦首层,东城区,北京市,1,39.939833,116.446228,北京银行(工体北路支行),北京市,aced1ca3b44e8bbc132935ad,(010)51909857,aced1ca3b44e8bbc132935ad
东城区光明路13-3号北玉大厦西楼1层,东城区,北京市,1,39.890676,116.442024,北京银行(光明支行),北京市,a2fe0ee55fdc6d6bd518b79e,"(010)67189883,(010)67129143,(010)67116880,(010)67129144",a2fe0ee55fdc6d6bd518b79e
东城区东花市北里中区甲27号楼,东城区,北京市,1,39.904153,116.438563,北京银行(花市支行),北京市,7ebb0e460a3a6fbe7f29bdad,"95526,(010)67150079,(010)67189320",7ebb0e460a3a6fbe7f29bdad
北京市东城区灯市口大街50号,东城区,北京市,1,39.924777,116.422102,北京银行(灯市口支行),北京市,8e0d850966a04d93a4c756ae,(010)65232533,8e0d850966a04d93a4c756ae
北京市东城区东直门南大街9号4号楼一层,东城区,北京市,1,39.941254,116.439523,北京银行(东直门支行),北京市,b6a7fcb4987e0ba514b54bd0,(010)84098610,b6a7fcb4987e0ba514b54bd0
东直门外斜街42号宏天商务一层,东城区,北京市,1,39.950673,116.447197,北京银行(东直门外支行),北京市,440de43852838bb587420e4f,(010)64606691,440de43852838bb587420e4f
北京市东城区北河沿大街95号6层97号一层,东城区,北京市,1,39.929203,116.412428,北京银行(沙滩支行),北京市,9ca676f2a814373a43e19275,(010)65220219,9ca676f2a814373a43e19275
北京市东城区夕照寺街2号电信工程局办公大楼1层,东城区,北京市,1,39.897953,116.446918,北京银行(广渠门支行),北京市,c2fface6105451a430870af6,(010)67153212,c2fface6105451a430870af6
北京市东城区交道口南大街16号,东城区,北京市,1,39.945686,116.415507,北京银行(安定门支行),北京市,08d89cd331ba06df5d0d02f0,(010)64075243,08d89cd331ba06df5d0d02f0
北京市东城区毛家湾胡同甲13号北京站F1,东城区,北京市,1,39.909377,116.432086,北京银行ATM,北京市,f96fc385bbeab2423b221c71,,f96fc385bbeab2423b221c71
北京市东城区美术馆后街23号北京中医医院-门诊大厅,东城区,北京市,1,39.938098,116.414582,北京银行ATM,北京市,1d14f477cb08bce00a5cb397,,1d14f477cb08bce00a5cb397
天坛西里4号,东城区,北京市,1,39.884326,116.408039,北京银行ATM,北京市,8a6613ca6e5cd97388db732b,,8a6613ca6e5cd97388db732b
北京市东城区东四北大街303号,东城区,北京市,1,39.93617,116.423424,北京银行24小时自助银行服务(东四支行),北京市,1cea15a9d7f50cc507fef5ff,,1cea15a9d7f50cc507fef5ff
王府井大街255号北京市百货大楼,东城区,北京市,1,39.921553,116.421186,北京银行24小时自助银行(长城支行),北京市,31f9101b0552cec726e0a056,,31f9101b0552cec726e0a056
光明路13-3号亿兴大厦西楼1层,东城区,北京市,1,39.890541,116.442024,北京银行24小时自助银行服务(光明支行),北京市,d1469ee7ea53911c853304b0,,d1469ee7ea53911c853304b0
东花市北里中区甲27-2,东城区,北京市,1,39.904092,116.438558,北京银行24小时自助银行服务(花市支行),北京市,fa7da3e882cbf16242d63ec9,,fa7da3e882cbf16242d63ec9
新中西里13号巨石大厦东区1层,东城区,北京市,1,39.939835,116.44617,北京银行24小时自助银行服务(工体北路支行),北京市,8c125e73dcf474f32e47330f,,8c125e73dcf474f32e47330f
北京市东城区北河沿大街97号,东城区,北京市,1,39.929248,116.412427,北京银行24小时自助银行(沙滩支行),北京市,1c8bcc2e57ffaa899cf779e4,,1c8bcc2e57ffaa899cf779e4
北京市东城区建国门内大街18号恒基商城F1,东城区,北京市,1,39.911513,116.43524,北京银行24小时自助银行(恒基商场),北京市,45ce16e6f7bdb7aa97031946,,45ce16e6f7bdb7aa97031946
西打磨厂街46号,东城区,北京市,1,39.905445,116.419987,北京银行24小时自助银行服务(东打磨厂街),北京市,8c04056046fc77d74c3a5916,,8c04056046fc77d74c3a5916
北京站街20号附近,东城区,北京市,1,39.911919,116.434159,北京银行24小时自助银行服务,北京市,ff9340553dffb56eb7265565,,ff9340553dffb56eb7265565
北京市东城区建国门内大街19号,东城区,北京市,1,39.915281,116.429261,北京银行24小时自助银行(东单支行),北京市,11c9642135dc7617130daaaa,,11c9642135dc7617130daaaa
东直门南大街9号船检大厦,东城区,北京市,1,39.941267,116.43968,北京银行24小时自助银行(东直门支行),北京市,0ed20a153209659757bfffff,,0ed20a153209659757bfffff
夕照寺街2号,东城区,北京市,1,39.897893,116.446858,北京银行24小时自助银行(广渠门支行),北京市,1bf85b25a3ea14daa1a93433,,1bf85b25a3ea14daa1a93433
北京市东城区天桥南大街1号,东城区,北京市,1,39.891142,116.404624,北京银行24小时自助银行(永外支行),北京市,d2ea069f72a3e497d8eced54,,d2ea069f72a3e497d8eced54
青龙胡同1号歌华大厦,东城区,北京市,1,39.954949,116.431295,北京银行24小时自助银行(雍和支行),北京市,15ed53ce3b105c2a9222e05f,,15ed53ce3b105c2a9222e05f
北京市东城区东四十条24号,东城区,北京市,1,39.939291,116.4356,北京银行24小时自助银行(景山支行),北京市,836473cc2f1b9f5c4c6d460c,,836473cc2f1b9f5c4c6d460c
东直门南大街5号中青旅大厦,东城区,北京市,1,39.943769,116.439501,北京银行24小时自助银行(海运支行),北京市,35b0cb53cd7adc6528b97c31,,35b0cb53cd7adc6528b97c31
北京市东城区毛家湾胡同甲13号北京站F1,东城区,北京市,1,39.910058,116.43396,北京银行24小时自助银行(北京站西街),北京市,0fbddca7ed163ea70ab93af6,,0fbddca7ed163ea70ab93af6
北京市东城区东直门外斜街甲42号,东城区,北京市,1,39.950369,116.447281,北京银行24小时自助银行服务(东直门外支行),北京市,40fffabaa66e7ef1373a7110,,40fffabaa66e7ef1373a7110
灯市口大街50号好润大厦,东城区,北京市,1,39.924863,116.422103,北京银行24小时自助银行服务(灯市口支行),北京市,2bf8bc1d428e89d79e95de09,,2bf8bc1d428e89d79e95de09
北京市东城区广渠家园5,东城区,北京市,1,39.899061,116.453657,北京银行24小时自助银行(广渠门外大街支行),北京市,cf6bd2d50777356a15c905d4,,cf6bd2d50777356a15c905d4
北京市东城区和平里东街1号,东城区,北京市,1,39.964991,116.431164,北京银行24小时自助银行服务(和平里东街),北京市,e88a908d569dd8af4e5547fe,,e88a908d569dd8af4e5547fe
交道口南大街16,东城区,北京市,1,39.945808,116.41555,北京银行24小时自助银行服务(安定门支行),北京市,108b1ceae54cfcac3586f4ff,,108b1ceae54cfcac3586f4ff
北京市朝阳区朝外大街20号,朝阳区,北京市,1,39.926088,116.440681,北京银行24小时自助银行(银河SOHO社区支行),北京市,262928f0518efa2c33169b02,,262928f0518efa2c33169b02
北京市东城区珠市口东大街3号附近,东城区,北京市,1,39.899752,116.421962,北京银行24小时自助银行服务(磁器口支行),北京市,cb7b031dd840100e3d9a5ead,,cb7b031dd840100e3d9a5ead
大都市街南8楼自助,东城区,北京市,1,39.897474,116.405995,北京银行离行自助电费代收点,北京市,8541a9d5662bc7d794031911,,8541a9d5662bc7d794031911
东城区天坛东路76号支行营业厅内,东城区,北京市,1,39.882474,116.428012,北京银行离行自助电费代收点,北京市,56147cc8d84a6d1454bfffd4,,56147cc8d84a6d1454bfffd4
北京市西城区复兴门内大街156号北京招商国际金融中心(正门)1层,西城区,北京市,1,39.912122,116.368219,北京银行(西单支行),北京市,b90ba1126fd9391a21f017ea,"(010)66426677,(010)66426675",b90ba1126fd9391a21f017ea
北京市西城区西单北大街30号,西城区,北京市,1,39.923711,116.380392,北京银行(西四支行),北京市,2e565fe985bcb2cb04fef506,,2e565fe985bcb2cb04fef506
北京市西城区教场口街9号院7号楼及巳9号楼一层,西城区,北京市,1,39.960512,116.386305,北京银行(慧园支行),北京市,fa3273f570b47c9e7069d3ed,"95526,(010)82061216",fa3273f570b47c9e7069d3ed
北京市西城区北三环中路6号伦洋大厦西边,西城区,北京市,1,39.974255,116.395287,北京银行(北三环支行),北京市,2fcf8d47cb37b630b34c49b1,(010)82087500,2fcf8d47cb37b630b34c49b1
北京市西城区永定门内西街5号,西城区,北京市,1,39.879333,116.396697,北京银行(陶然支行),北京市,947b457d32e03a582bd7ab1d,(010)83162549,947b457d32e03a582bd7ab1d
北京市西城区平安里西大街22号国家京剧院大厦1-2层,西城区,北京市,1,39.937904,116.371948,北京银行(官园支行),北京市,7880a3d447d24107adb22a92,"(010)66251347,(010)66110674",7880a3d447d24107adb22a92
北京市西城区广安门内大街6-2号,西城区,北京市,1,39.894541,116.379294,北京银行(宣武门支行),北京市,43f49936107ebe079ce321d7,"(010)83529116,(010)83513740",43f49936107ebe079ce321d7
北京市西城区西直门外南路八号,西城区,北京市,1,39.94272,116.351808,北京银行(展览路支行),北京市,cf6a6d58fe837b4c932ca381,(010)68362807,cf6a6d58fe837b4c932ca381
北京市西城区广安门内大街甲306-3号,西城区,北京市,1,39.894649,116.36505,北京银行(报国寺支行),北京市,2a6037e49f870f1bc26c148a,(010)63546867,2a6037e49f870f1bc26c148a
北京市西城区地安门西大街171号,西城区,北京市,1,39.939301,116.383812,北京银行(华安支行),北京市,3e6eec83c6e8d8f77adbd244,(010)66559087,3e6eec83c6e8d8f77adbd244
广安门外大街305号院广源小区7号楼西区1层,西城区,北京市,1,39.897478,116.340992,北京银行(广源支行),北京市,dffd4642776352cc3d9a5eb1,(010)63458690,dffd4642776352cc3d9a5eb1
北京市西城区南新华街58号厂甸市场,西城区,北京市,1,39.900519,116.391331,北京银行(琉璃厂支行),北京市,c51abd61251adece3310afb8,(010)63174316,c51abd61251adece3310afb8
北京市西城区真武庙路1号中国职工之家C座首层,西城区,北京市,1,39.91245,116.352369,北京银行(长安街支行),北京市,8405db3ee1bd3135e6e965ed,95526,8405db3ee1bd3135e6e965ed
北京市西城区西大街正阳市场1号楼底商,西城区,北京市,1,39.906018,116.401304,北京银行(前门支行),北京市,be2d09340d0b5c0035b06c31,(010)63048577,be2d09340d0b5c0035b06c31
北京市西城区马连道南街1号院2号楼,西城区,北京市,1,39.890323,116.33488,北京银行(马连道支行),北京市,de0212acde0dfdec7ab55c8a,(010)63287090,de0212acde0dfdec7ab55c8a
北京市西城区莲花池东路24号院甲1号楼,西城区,北京市,1,39.902523,116.345182,北京银行(白云支行),北京市,463758172dd52769223bf283,(010)63443075,463758172dd52769223bf283
北京市西城区枣林前街119号,西城区,北京市,1,39.889239,116.36063,北京银行(滨河路支行),北京市,e02e07f6e14d19071fe999ad,(010)63545695,e02e07f6e14d19071fe999ad
北京市西城区阜成门外大街27号敦煌大厦1层,西城区,北京市,1,39.92954,116.352527,北京银行(月坛支行),北京市,a06ee62635f2a9212e473315,"(010)95526,(010)68104632",a06ee62635f2a9212e473315
北京市西城区右安门内大街65号,西城区,北京市,1,39.881682,116.370267,北京银行(右安门支行),北京市,077020dc7f7f94013c9a5e2f,(010)63514476,077020dc7f7f94013c9a5e2f
北京市西城区核桃园西街36号丹通大厦,西城区,北京市,1,39.898175,116.358416,北京银行(天宁支行),北京市,0d16e48778d5b7db5a3ac888,(010)63041992,0d16e48778d5b7db5a3ac888
北京市西城区广安门外大街乙6号,西城区,北京市,1,39.895031,116.351647,北京银行(广安支行),北京市,56940c728eedc62f26e0a0ab,(010)63264141,56940c728eedc62f26e0a0ab
北京市西城区月坛南街14号月新大厦1层,西城区,北京市,1,39.919053,116.35139,北京银行(复兴支行),北京市,26a16c01cd1d54b0fa0cadb3,(010)68576085,26a16c01cd1d54b0fa0cadb3
北京市西城区复外大街19号燕京饭店西配楼,西城区,北京市,1,39.913374,116.348847,北京银行(燕京支行),北京市,5ab2eb44c7b9d00c2a02e1ee,,5ab2eb44c7b9d00c2a02e1ee
西城区车公庄大街9号五栋大楼A座,西城区,北京市,1,39.938566,116.353897,北京银行(车公庄大街社区支行),北京市,b450c4b93d98f13708ccdd0f,95526,b450c4b93d98f13708ccdd0f
月坛南街85号,西城区,北京市,1,39.91985,116.342982,北京银行(三里河支行),北京市,2a06d7fab3cea9af008972be,(010)68587528,2a06d7fab3cea9af008972be
北京市西城区天桥南大街1号1座1层,西城区,北京市,1,39.891138,116.404566,北京银行(永定门支行),北京市,38ec55220d07737d49fc8d3f,(010)67275011,38ec55220d07737d49fc8d3f
北京市西城区太平桥大街8号院10号楼1~2层25~26号,西城区,北京市,1,39.926686,116.371765,北京银行(白塔寺支行),北京市,002b2a474043ec20e011037f,95526,002b2a474043ec20e011037f
北京市西城区赵登禹路冠英园西区31号,西城区,北京市,1,39.943458,116.374706,北京银行(西直门支行),北京市,42a7bfd9bf34d14e90114ced,95526,42a7bfd9bf34d14e90114ced
北京市西城区陶然亭路45号,西城区,北京市,1,39.885205,116.386368,北京银行(陶然亭路支行),北京市,ab3bd44df669d236a8175ac4,(010)83555569,ab3bd44df669d236a8175ac4
北京市西城区金融大街丁26号,西城区,北京市,1,39.918411,116.366692,北京银行(金融街支行),北京市,cb91a8bc280386891e5800f8,(010)88087435,cb91a8bc280386891e5800f8
北京市西城区百万庄大街21号院1号楼配套底商1号及2号商铺,西城区,北京市,1,39.934097,116.352577,北京银行(百万庄社区支行),北京市,1572cd50736823659868b44c,(010)68104621,1572cd50736823659868b44c
北京市西城区金融大街丙17号北京银行大厦,西城区,北京市,1,39.921324,116.365054,北京银行股份有限公司,北京市,6319f43c89130e3d46572647,(010)66426500,6319f43c89130e3d46572647
北京市西城区金融大街丙17号,西城区,北京市,1,39.921496,116.365058,北京银行大厦,北京市,eb36750313aa271b00ec0101,,eb36750313aa271b00ec0101
金融大街丙17号北京银行大厦16楼,西城区,北京市,1,39.921896,116.364876,北京银行员工餐厅,北京市,60d21c7ef489f9592a06ce56,(010)66223021,60d21c7ef489f9592a06ce56
永安路95号F1层,西城区,北京市,1,39.891837,116.40009,北京银行ATM(东经路),北京市,05ad05ba794bad6c03ff2d0a,,05ad05ba794bad6c03ff2d0a
北京市西城区西什库大街8号门诊楼1F层,西城区,北京市,1,39.938855,116.387404,北京银行ATM(门诊楼),北京市,f415f4270494a323a5da3911,,f415f4270494a323a5da3911
冠英园西区31-1号,西城区,北京市,1,39.94323,116.374697,北京银行24小时自助银行服务(西直门支行),北京市,d0d154e7d73114016140a96c,,d0d154e7d73114016140a96c
右安门内大街65号右安门商务大厦,西城区,北京市,1,39.881763,116.370278,北京银行24小时自助银行服务(右安门支行),北京市,e85e2527b9e6605395f08ce9,,e85e2527b9e6605395f08ce9
枣林前街119-3,西城区,北京市,1,39.88924,116.360653,北京银行24小时自助银行服务(滨河路支行),北京市,af1ae56b91fca76c4307c1bc,,af1ae56b91fca76c4307c1bc
北京市西城区堂子胡同9号西单新一代商城F2,西城区,北京市,1,39.917655,116.381742,北京银行24小时自助银行(西单新一代商城),北京市,842f44ab2a6593de7f29bd35,,8b7a8a6173428f1ec16c14ec
地安门西大街171号,西城区,北京市,1,39.938327,116.383685,北京银行24小时自助银行(华安支行),北京市,bdc8cdfd2b06e34ccac3db1b,,bdc8cdfd2b06e34ccac3db1b
西城区前门西大街正阳市场1号,西城区,北京市,1,39.905998,116.400954,北京银行24小时自助银行(前门支行),北京市,08f1f1f5a23b39ca88db73e6,,08f1f1f5a23b39ca88db73e6
北京市西城区永定门内西街5号,西城区,北京市,1,39.879267,116.396679,北京银行24小时自助银行(陶然支行),北京市,115e2774e382d231d72ce28b,,115e2774e382d231d72ce28b
广安门内大街6-2号,西城区,北京市,1,39.894625,116.379365,北京银行24小时自助银行(宣武门支行),北京市,34e485081f192de2d8d891e9,,34e485081f192de2d8d891e9
北京市西城区阜成门外大街27号,西城区,北京市,1,39.929438,116.35247,北京银行24小时自助银行(月坛支行),北京市,f8953f92bb4e0cfa373a71ba,,f8953f92bb4e0cfa373a71ba
北京市西城区金融大街丙17号北京银行大厦,西城区,北京市,1,39.921346,116.366189,北京银行24小时自助银行(总行营业部),北京市,f732eca3e0ed10ed7c29bda7,,f732eca3e0ed10ed7c29bda7
月坛南街14号月新大厦,西城区,北京市,1,39.919161,116.351425,北京银行24小时自助银行服务(复兴支行),北京市,797e0e6fd907bcef626858be,,797e0e6fd907bcef626858be
北京市西城区南新华街58-3号,西城区,北京市,1,39.900547,116.391323,北京银行24小时自助银行服务(琉璃厂支行),北京市,cac5fc7613da0ef32cb96de6,,cac5fc7613da0ef32cb96de6
北京市西城区核桃园西街36,西城区,北京市,1,39.894908,116.351566,北京银行24小时自助银行服务(广安支行),北京市,61f634f663161b786b49f33e,,61f634f663161b786b49f33e
北京市西城区广安门内大街6-1号附近,西城区,北京市,1,39.894524,116.379407,北京银行货币兑换,北京市,9e40f23ba9334776d6b74e66,,9e40f23ba9334776d6b74e66
西城区广安门内大街6号,西城区,北京市,1,39.894651,116.379281,北京银行财富中心,北京市,6684ea653e9ec3eeadee7a5b,,6684ea653e9ec3eeadee7a5b
北京市西城区金融大街甲17附近,西城区,北京市,1,39.921386,116.366145,北京银行财富中心,北京市,,,6d8d0982c43ae7e3e812e4c2
前门西大街正阳市场1号楼北京银行前门支行2层,西城区,北京市,1,39.906005,116.401277,北京银行文化创客中心,北京市,,,05b5f25c148d7985b64f543c
平安里西大街48号,西城区,北京市,1,39.937895,116.371709,北京银行24小时自助银行,北京市,fffdb24d78784ba0ede4a5f6,,fffdb24d78784ba0ede4a5f6
北京市西城区百万庄大街23-3附近,西城区,北京市,1,39.934081,116.352515,北京银行24小时自助银行,北京市,,,7755c45897de26d8fbdc8587
新街口外大街28号,西城区,北京市,1,39.959775,116.378396,北京银行24小时自助银行服务,北京市,cd2454646b4b6ba0c5f50d08,,cd2454646b4b6ba0c5f50d08
北京市西城区桃柳园西巷16号,西城区,北京市,1,39.943468,116.355298,北京银行24小时自助银行服务,北京市,,,92dfd296e65af2245a3ac8b7
北京市西城区新街口东街31号1F层,西城区,北京市,1,39.94952,116.382007,北京银行ATM(积水潭医院门诊部),北京市,cecbaca7c7468b9712882401,,cecbaca7c7468b9712882401
北三环中路6号创意大厦1层,西城区,北京市,1,39.974288,116.395286,北京银行24小时自助银行(北三环支行),北京市,1e5440b5028fca11bca822e7,,1e5440b5028fca11bca822e7
北京市西城区太平桥大街8之25-26,西城区,北京市,1,39.926788,116.37159,北京银行24小时自助银行(白塔寺支行),北京市,4b3d3238c3096b1ac51e51e1,,4b3d3238c3096b1ac51e51e1
真武庙路1号中国职工之家C座1层,西城区,北京市,1,39.912552,116.352369,北京银行24小时自助银行(长安街支行),北京市,9ac21359cb130f8e7f29bd26,,da0b049e097409f8c9291507
广安门内大街甲306-3号,西城区,北京市,1,39.894595,116.365057,北京银行24小时自助银行(报国寺支行),北京市,b8ecf3d7b769f80db9df8ff6,,b8ecf3d7b769f80db9df8ff6
马连道南街1号院2-5,西城区,北京市,1,39.890421,116.334821,北京银行24小时自助银行(马连道支行),北京市,f2cf6cd25fa09da90aa8d427,,f2cf6cd25fa09da90aa8d427
北京市西城区复兴门内大街156号泰康人寿大厦,西城区,北京市,1,39.912192,116.367872,北京银行24小时自助银行(西单支行),北京市,2b9922d498255a144d2fdf76,,2b9922d498255a144d2fdf76
北京市西城区复兴门外大街１９－１,西城区,北京市,1,39.913457,116.349252,北京银行24小时自助银行(燕京支行),北京市,e93761f6de504e0c223bf23e,,e93761f6de504e0c223bf23e
莲花池东路24号院甲1,西城区,北京市,1,39.902577,116.345278,北京银行24小时自助银行(白云支行),北京市,ac1c09093c925c0d28201ac2,,ac1c09093c925c0d28201ac2
核桃园西街36,西城区,北京市,1,39.898175,116.358387,北京银行24小时自助银行(天宁支行),北京市,83ff656a0f15d5bb95f08c13,,83ff656a0f15d5bb95f08c13
新外大街1号宝岛国际妇产医院,西城区,北京市,1,39.967534,116.385333,北京银行24小时自助银行服务(新风街),北京市,,,9f5a119eeba4e09c246e9890
北京市西城区西单北大街甲30号,西城区,北京市,1,39.923718,116.380313,北京银行24小时自助银行(西四支行),北京市,231109686a6388e61e1d11c1,,b7021bf801a9ef84f4e73b13
北京市西城区桦皮厂胡同30号,西城区,北京市,1,39.946698,116.365984,北京银行24小时自助银行(西内大街支行),北京市,0eed967d1c90c445bd484289,,0eed967d1c90c445bd484289
月坛南街85-2,西城区,北京市,1,39.919869,116.342279,北京银行24小时自助银行服务(三里河支行),北京市,605ccb2510726f5bb8bd63f9,,605ccb2510726f5bb8bd63f9
广安门外大街305号广源小区7号楼西区1层,西城区,北京市,1,39.8977,116.341019,北京银行24小时自助银行服务(广源支行),北京市,97b39f38c85b3163725e80f3,,97b39f38c85b3163725e80f3
北京市西城区教场口街9号院7号楼及巳9号楼一层,西城区,北京市,1,39.960511,116.386305,北京银行24小时自助银行服务(慧园支行),北京市,0dc4ff2c2b39a75af9f0cb5a,,0dc4ff2c2b39a75af9f0cb5a
西直门外南路8号,西城区,北京市,1,39.942762,116.351598,北京银行24小时自助银行服务(展览路支行),北京市,89a17a04a4a02394f7e73ba5,,bf4babe62304ceaeda2f2807
陶然亭路45,西城区,北京市,1,39.885275,116.386646,北京银行24小时自助银行(陶然亭路支行),北京市,290bd97fefd3546d4e776efc,,1e0c9e5a00175f2bc03644dd
陶然亭路45号,西城区,北京市,1,39.885137,116.386314,北京银行离行自助电费代收点,北京市,ac16716baeace6cdb42655b7,,ac16716baeace6cdb42655b7
北京市朝阳区广顺北大街望京西园429号楼底商101-102-201号,朝阳区,北京市,1,39.999441,116.476118,北京银行(望京支行),北京市,8dec62e3b0db57cc3be4a6be,(010)64775720,8dec62e3b0db57cc3be4a6be
朝阳区红军营南路天乐园1号楼1楼1-6号,朝阳区,北京市,1,40.039485,116.418587,北京银行(奥北支行),北京市,85e14f63b86c33eafda7783b,(010)84921829,85e14f63b86c33eafda7783b
北京市朝阳区酒仙桥路3号,朝阳区,北京市,1,39.992525,116.49575,北京银行(酒仙桥支行),北京市,f0ef6dbbe516b849abf729d6,(010)84564649,f0ef6dbbe516b849abf729d6
北京市朝阳区双柳北街39号双桥天籁轩1层,朝阳区,北京市,1,39.911231,116.573159,北京银行(双桥支行),北京市,6ee6a74c1f60e7b6da2f287f,(010)65734009,6ee6a74c1f60e7b6da2f287f
北京市朝阳区朝阳北路102号楼1层,朝阳区,北京市,1,39.928797,116.52081,北京银行(朝阳北路支行),北京市,95bf668b4dc959ee932ca385,(010)85790016,95bf668b4dc959ee932ca385
朝阳区建国路88号院SOHO现代城D座北京银行,朝阳区,北京市,1,39.913338,116.481084,北京银行(现代城支行),北京市,3bb50bf5bcb4d93f4bcc4a38,,3bb50bf5bcb4d93f4bcc4a38
北京市朝阳区广渠路28号甲201号楼1层,朝阳区,北京市,1,39.897064,116.48444,北京银行(大望路支行),北京市,d8db6eab1af14e3326e0a0a9,(010)57528600,d8db6eab1af14e3326e0a0a9
高碑店北路5号(路西侧),朝阳区,北京市,1,39.92006,116.527888,北京银行(高碑店支行),北京市,ea5121d2a293be7b4102450d,(010)50961730,ea5121d2a293be7b4102450d
北京市朝阳区关东店17号新瑞大厦1层,朝阳区,北京市,1,39.927483,116.4603,北京银行(关东店支行),北京市,6f9b1fa4d3c1f07b2afc4804,(010)65062512,6f9b1fa4d3c1f07b2afc4804
北京市朝阳区蓝堡中心2座,朝阳区,北京市,1,39.916581,116.484022,北京银行(蓝堡小微支行),北京市,8405fe375f0d84a0fd0eb084,,8405fe375f0d84a0fd0eb084
朝阳门外大街20号联合大厦1层,朝阳区,北京市,1,39.928479,116.445326,北京银行(红星支行),北京市,e639c50465e6740dbd4842a1,(010)65885739,e639c50465e6740dbd4842a1
北京市朝阳区团结湖路52号,朝阳区,北京市,1,39.929405,116.473929,北京银行(金台路支行),北京市,d643c7684d0611c2b726556b,,d643c7684d0611c2b726556b
北京市朝阳区周庄山水文园202-2号,朝阳区,北京市,1,39.873456,116.470685,北京银行(松榆里支行),北京市,f349450c8c75a24cb01e36bc,"(010)95526,(010)67278353",5de427604cc5859a430245d3
北京市朝阳区北苑路172号欧陆大厦1楼,朝阳区,北京市,1,40.001596,116.423948,北京银行(北苑支行),北京市,f9bdc51fde3c0bb2b04c49f4,,f9bdc51fde3c0bb2b04c49f4
惠新西街19号,朝阳区,北京市,1,39.989049,116.423502,北京银行(奥东支行),北京市,e25dbda721d2ed9f2afc481b,(010)51300080,e25dbda721d2ed9f2afc481b
北京市朝阳区北三环东路15号(北京化工大学校门旁),朝阳区,北京市,1,39.97574,116.4287,北京银行(樱花支行),北京市,7fbc25fae7c6ec5ec26c1452,"95526,(010)64418052",7fbc25fae7c6ec5ec26c1452
北京市朝阳区北辰西路8号北辰世纪中心A座1楼,朝阳区,北京市,1,40.005757,116.39441,北京银行(奥运村支行),北京市,d6d4d218abb74966c909f08b,(010)84378380,d6d4d218abb74966c909f08b
北京市朝阳区新东路甲5号,朝阳区,北京市,1,39.94658,116.456719,北京银行(东大桥支行),北京市,2bbb1850d6697a2181288a69,,2bbb1850d6697a2181288a69
北京市朝阳区慧忠北里天创世缘309楼A座首层,朝阳区,北京市,1,40.010089,116.413658,北京银行(亚运村支行),北京市,d6551032aa5f5cdd17948e05,(010)64802929,d6551032aa5f5cdd17948e05
北京市朝阳区农光里117号,朝阳区,北京市,1,39.889731,116.468809,北京银行(九龙山支行),北京市,c498fd20149daaaaa8059d93,(010)67342062,c498fd20149daaaaa8059d93
北京市朝阳区朝外大街甲12号,朝阳区,北京市,1,39.928591,116.450836,北京银行(朝外支行),北京市,850815e1e00be39b43e1924c,(010)65993342,850815e1e00be39b43e1924c
北京市朝阳区安翔北里甲11号北京创业大厦B座1层,朝阳区,北京市,1,39.999806,116.384244,北京银行(健翔支行),北京市,126be0ccbb1489500ab93a2e,(010)64889928,126be0ccbb1489500ab93a2e
北京市朝阳区北三环东路6号,朝阳区,北京市,1,39.967414,116.446664,北京银行(新源支行),北京市,c745e99ff265f5f5c356ac1a,(010)95526,c745e99ff265f5f5c356ac1a
北京市朝阳区星火西路19号楼1-2层,朝阳区,北京市,1,39.944069,116.507561,北京银行(姚家园支行),北京市,cd82de8b6f0ab4c40d3ddad3,(010)85855636,cd82de8b6f0ab4c40d3ddad3
北京市朝阳区东大桥路10号,朝阳区,北京市,1,39.92392,116.457323,北京银行(芳草地支行),北京市,9882690934f26c0b56bffff1,"(010)65867822,(010)85952968",9882690934f26c0b56bffff1
北京市朝阳区慈云寺北里210号楼1层102(慈云寺桥东北角),朝阳区,北京市,1,39.921988,116.497788,北京银行(东四环支行),北京市,b22aae875e0ed154adcb6665,"95526,(010)85886440",b22aae875e0ed154adcb6665
北京市朝阳区芍药居16号楼,朝阳区,北京市,1,39.989118,116.439986,北京银行(芍药居支行),北京市,ef35c6e0f43dcabd71455bab,,ef35c6e0f43dcabd71455bab
北京市朝阳区西坝河路甲8号,朝阳区,北京市,1,39.978454,116.449818,北京银行(西坝河支行),北京市,98953ebef0fc49d244e27460,(010)84299756,98953ebef0fc49d244e27460
北京市朝阳区朝新嘉园东里七区4号楼1层,朝阳区,北京市,1,39.957103,116.557609,北京银行(东坝支行),北京市,d5d7606d8c02ae5128201a76,95526,d5d7606d8c02ae5128201a76
北京市朝阳区夏家园11号楼底商,朝阳区,北京市,1,39.976905,116.456802,北京银行(太阳宫支行),北京市,c9889bd59a8bde1402ec015a,95526,c9889bd59a8bde1402ec015a
北京市朝阳区惠新东街4号,朝阳区,北京市,1,39.992226,116.431219,北京银行(惠新支行),北京市,07598d07bdd76547eaf85325,(010)84663956,07598d07bdd76547eaf85325
北京市朝阳区北辰东路8号汇珍楼一层,朝阳区,北京市,1,39.999138,116.41363,北京银行(北辰路支行),北京市,70a8023b570f07813617dc07,"(010)84971480,(010)84977095",70a8023b570f07813617dc07
北京市朝阳区金蝉欢乐园2号院甲1号,朝阳区,北京市,1,39.873577,116.50806,北京银行(华侨城支行),北京市,876b7a275fc383f683288afd,(010)67366850,876b7a275fc383f683288afd
力源里北街2号院5号楼,朝阳区,北京市,1,39.916095,116.502404,北京银行(力源里社区支行),北京市,feb670826716cd80eaf85379,(010)85757767,feb670826716cd80eaf85379
朝阳区孙河乡康营家园小区KY15区D8R号楼,朝阳区,北京市,1,40.042227,116.548417,北京银行(孙河支行),北京市,136d59a4d6fd1c2c5abbbc33,(010)84591236,136d59a4d6fd1c2c5abbbc33
外馆东街51-5凯景铭座,朝阳区,北京市,1,39.968917,116.409839,北京银行(安华路支行),北京市,,,33eddfb3c47901890f0e6bcc
北京市朝阳区崔各庄乡京旺家园一区8号楼3-6门底商,朝阳区,北京市,1,40.014777,116.536105,北京银行(崔各庄支行),北京市,fe4ac716e7d6439e7f29bd26,95526,fe4ac716e7d6439e7f29bd26
朝阳区豆各庄黄厂南里2号院31号楼1层,朝阳区,北京市,1,39.851627,116.567259,北京银行(富力又一城支行),北京市,0b2cf4f19065c0af96ca076d,"(010)95526,(010)59643825",0b2cf4f19065c0af96ca076d
北京市朝阳区东四环中路56号远洋国际中心A座107室,朝阳区,北京市,1,39.92094,116.497779,北京银行(远洋国际中心支行),北京市,d192fa45a37e015c2b201af8,(010)85865177,d192fa45a37e015c2b201af8
北京市朝阳区朝阳门外大街6号院-22号,朝阳区,北京市,1,39.924703,116.461458,北京银行(新城国际小微支行),北京市,,95526,789662dbf2f0976da1046456
北京市朝阳区光华路丙12号数码01大厦首层,朝阳区,北京市,1,39.918952,116.465831,北京银行(商务中心区支行),北京市,7a28addf8bac01524d2fdfa7,(010)65083280,7a28addf8bac01524d2fdfa7
北京市朝阳区望京西园429号楼底商101-102-201,朝阳区,北京市,1,39.999473,116.476236,北京银行(离行自助电费代收点),北京市,9472fb24b453437512882409,,9472fb24b453437512882409
惠新东街10号对外经济贸易大学,朝阳区,北京市,1,39.986224,116.4343,北京银行24小时自助银行服务(ATM),北京市,,,a22a7269f41c158558109387
管庄东街49号京客隆管庄店,朝阳区,北京市,1,39.920538,116.598087,北京银行24小时自助银行,北京市,2fc3d2e246e8231e14948eb2,,2fc3d2e246e8231e14948eb2
北京市朝阳区樱花园东街2号中日友好医院B栋F2,朝阳区,北京市,1,39.980108,116.432776,北京银行ATM,北京市,,,791f200d85620a4f4f6d468e
北京市朝阳区立汤路188号院-2,朝阳区,北京市,1,40.063557,116.421203,北京银行理财中心,北京市,d2f7f411ee07e79ab7265549,,d2f7f411ee07e79ab7265549
建外大街四惠公交枢纽站二层,朝阳区,北京市,1,39.913544,116.502452,北京银行ATM(建国路),北京市,ba49b69bc936585a0bf5eb9b,,ba49b69bc936585a0bf5eb9b
平乐园100号北京工业大学,朝阳区,北京市,1,39.879612,116.487728,北京银行24小时自助银行(日新路),北京市,4ea3f2f103d7deaaafcb66b4,,4ea3f2f103d7deaaafcb66b4
松榆里28号楼京客隆松榆里店内,朝阳区,北京市,1,39.880814,116.474676,北京银行ATM(武圣路),北京市,f12ec0163896055ff4e73bb5,,f12ec0163896055ff4e73bb5
北京市朝阳区北京市朝阳区广顺南大街16号新世界百货F1,朝阳区,北京市,1,39.992873,116.486372,北京银行ATM(新世界百货),北京市,334c363d37503d57b626556c,,334c363d37503d57b626556c
北京市朝阳区酒仙桥路39号久隆百货B1,朝阳区,北京市,1,39.968218,116.501179,北京银行ATM(久隆百货),北京市,2d006b346c8d69d2aa175a97,,2d006b346c8d69d2aa175a97
甜水园北里16-1号京客隆超市甜水园店B1层,朝阳区,北京市,1,39.935227,116.485208,北京银行ATM(甜水园街),北京市,e89437805f56edb9f822138d,,e89437805f56edb9f822138d
朝阳区北三环东路6-2号,朝阳区,北京市,1,39.967309,116.446558,北京银行24小时自助银行(新源支行),北京市,1ab77173e1c187dac61e5147,,1ab77173e1c187dac61e5147
新东路甲5-1号,朝阳区,北京市,1,39.946483,116.456605,北京银行24小时自助银行服务(东大桥支行),北京市,4bb049d9136d96479900504f,,4bb049d9136d96479900504f
北京市朝阳区关东店17号新瑞大厦1层,朝阳区,北京市,1,39.927577,116.460555,北京银行24小时自助银行服务(关东店支行),北京市,3fd4ac8f25ea19e7c91b959f,,3fd4ac8f25ea19e7c91b959f
广渠路21号金海国际2号楼1层4号,朝阳区,北京市,1,39.899568,116.499586,北京银行24小时自助银行,北京市,9880697a62405d0981a12eec,,9880697a62405d0981a12eec
望京西路48号金隅国际B座1层大厅,朝阳区,北京市,1,39.991242,116.464519,北京银行ATM(望京西路),北京市,8bd761c79aa8f2ac8d77277c,,8bd761c79aa8f2ac8d77277c
北京市朝阳区建国路88号院-10号SOHO现代城D座,朝阳区,北京市,1,39.913262,116.481245,北京银行24小时自助银行服务(现代城支行),北京市,449b30bc78c47b8871455b71,,449b30bc78c47b8871455b71
北京市朝阳区安贞路2号安贞医院门诊部1F层,朝阳区,北京市,1,39.978557,116.408897,北京银行ATM(安贞医院门诊部),北京市,a3b62ec673444fe53b221c43,,a3b62ec673444fe53b221c43
黄厂南里2号院31号,朝阳区,北京市,1,39.851596,116.56734,北京银行24小时自助银行服务(富力又一城支行),北京市,815e15266bf26fa84c3a5991,,815e15266bf26fa84c3a5991
利泽西街8号院1号楼1层附近,朝阳区,北京市,1,40.013817,116.468637,北京银行24小时自助银行服务,北京市,7d8cce318f5ea000bda240d5,,7d8cce318f5ea000bda240d5
北京市朝阳区建国路甲92号,朝阳区,北京市,1,39.913175,116.478335,北京银行ATM(世茂大厦B座),北京市,d991966bd342d20ad618b706,,d991966bd342d20ad618b706
北京市朝阳区姚家园路251号北京妇产医院门诊楼F1,朝阳区,北京市,1,39.936972,116.477321,北京银行ATM(北京妇产医院门诊楼),北京市,bf28899b5b07394aa8f729c9,,bf28899b5b07394aa8f729c9
北京市朝阳区北京市朝阳区东大桥路9号北京侨福芳草地B2,朝阳区,北京市,1,39.925113,116.454916,北京银行ATM(北京侨福芳草地大厦),北京市,414e588a1c807f0dc3f1cf6e,,414e588a1c807f0dc3f1cf6e
北京市朝阳区朝阳北路17号北京华联常营购物中心F1,朝阳区,北京市,1,39.93172,116.602495,北京银行24小时自助银行(北京华联常营购物中心),北京市,81027020a5da88e68bb988f4,,81027020a5da88e68bb988f4
北辰西路8号院2号楼北辰世纪中心A座1层,朝阳区,北京市,1,40.005997,116.393856,北京银行24小时自助银行(奥运村支行),北京市,ed45ec397ed6bda646572623,,ed45ec397ed6bda646572623
酒仙桥路5号,朝阳区,北京市,1,39.992594,116.495843,北京银行24小时自助银行(酒仙桥支行),北京市,3a0fbba836cac53f9ee32159,,3a0fbba836cac53f9ee32159
北京市朝阳区东北四环73号未来广场购物中心F1,朝阳区,北京市,1,39.996165,116.438717,北京银行ATM(远洋未来广场购物中心),北京市,ea4c490575f1362d3617dcc7,,ea4c490575f1362d3617dcc7
北京市朝阳区西坝河火星园(西坝河路),朝阳区,北京市,1,39.978417,116.449747,北京银行24小时自助银行(西坝河支行),北京市,,,6b92109746f6d01687154143
北辰东路8号院27-2,朝阳区,北京市,1,39.999013,116.414464,北京银行24小时自助银行(北辰路支行),北京市,2848ffd69456880f48cc4a4f,,2848ffd69456880f48cc4a4f
北京市朝阳区金蝉欢乐园2号院甲1,朝阳区,北京市,1,39.873556,116.508141,北京银行24小时自助银行服务(华侨城支行),北京市,072bfa6984cd2e6f5e0d0231,,072bfa6984cd2e6f5e0d0231
星火西路19号楼1层,朝阳区,北京市,1,39.944092,116.507737,北京银行24小时自助银行服务(姚家园支行),北京市,bb6bae6fb6f106598c55ecfc,,4f5104329384ecf9c7f025a3
北京市朝阳区芍药居16号楼,朝阳区,北京市,1,39.989252,116.439947,北京银行24小时自助银行服务(芍药居支行),北京市,adc7e64e50392471e8e58296,,adc7e64e50392471e8e58296
北京市朝阳区东四环与朝阳路交叉路口的慈云寺桥东远洋未来汇购物中心B1,朝阳区,北京市,1,39.922171,116.498726,北京银行24小时自助银行(远洋未来汇购物中心),北京市,1dd96e32fffd7805a4c756b9,,ba0a1bd34a240b3988f15dbc
朝阳门外大街20号联合大厦1层,朝阳区,北京市,1,39.928566,116.444711,北京银行财富中心,北京市,7af8aff87e5aeaa990114cd6,,96baa274286f61141f38949b
东四环北路10号,朝阳区,北京市,1,39.967307,116.492474,北京银行24小时自助银行,北京市,,,4bdb4b96c0a45506da2f28de
北京市朝阳区酒仙桥路甲一号将台乡政府门口,朝阳区,北京市,1,39.97449,116.495319,北京银行24小时自助银行,北京市,2d8c8d1f8d76e2cea10464b8,,2d8c8d1f8d76e2cea10464b8
北京市朝阳区西大望路19号院12,朝阳区,北京市,1,39.904673,116.488723,北京银行24小时自助银行,北京市,87c8a12368982deaf11937fd,,87c8a12368982deaf11937fd
北京市朝阳区东坝朝新嘉园东里稻香村(东坝中路专卖店),朝阳区,北京市,1,39.956985,116.557637,北京银行24小时自助银行,北京市,385614c82d79a412fe0eb06f,,385614c82d79a412fe0eb06f
北京市朝阳区南磨房路16号院-甲1-9附近,朝阳区,北京市,1,39.889762,116.482904,北京银行24小时自助银行,北京市,,,ae7336f93bee9d5c1b11d5a3
北京市朝阳区来广营地铁站A西北口西北100米,朝阳区,北京市,1,40.027193,116.471753,北京银行24小时自助银行,北京市,,,def3696bd898b6b6b04c497f
北京市朝阳区青年路达美中心广场东门,朝阳区,北京市,1,39.943756,116.523298,北京银行24小时自助银行,北京市,838da4e8e4a3790d2e473385,,838da4e8e4a3790d2e473385
北京市朝阳区双桥中路(广渠路辅路附近),朝阳区,北京市,1,39.901127,116.607567,北京银行24小时自助银行服务,北京市,,,dcaa14e7960d240abca82225
北京市朝阳区周庄山水文园202-2,朝阳区,北京市,1,39.873395,116.470725,北京银行24小时自助银行(弘燕路),北京市,e860fef84b98503279b55c84,,e860fef84b98503279b55c84
朝阳区立汤路188号,朝阳区,北京市,1,40.063701,116.421318,北京银行24小时自助银行(天通苑支行),北京市,b1c556e8c1d18d0cb4265575,,b1c556e8c1d18d0cb4265575
安翔北里甲11号北京创业大厦B座1层,朝阳区,北京市,1,39.999793,116.383965,北京银行24小时自助银行(健翔支行),北京市,1deae534188ef9a32cb90821,,bba873889bbf79debca82259
芍药居甲1,朝阳区,北京市,1,39.977088,116.426394,北京银行24小时自助银行(北三环东路),北京市,8fd7955929d1a1ad75e5b611,,8fd7955929d1a1ad75e5b611
北京市朝阳区长店大街,朝阳区,北京市,1,40.01524,116.536599,北京银行24小时自助银行(崔各庄支行),北京市,d1f7cfcdcb3ad9f97adbd22c,,d1f7cfcdcb3ad9f97adbd22c
北京市朝阳区红军营南路天乐园1号楼1层1-6号,朝阳区,北京市,1,40.039374,116.418634,北京银行24小时自助银行(奥北支行),北京市,56e88cba07db8f65a4c75675,,56e88cba07db8f65a4c75675
惠新西街19国投贸易1层,朝阳区,北京市,1,39.989276,116.423342,北京银行24小时自助银行(奥东支行),北京市,89697a82177d3b217ec87667,,89697a82177d3b217ec87667
北苑路172号,朝阳区,北京市,1,40.00136,116.424248,北京银行24小时自助银行(北苑路支行),北京市,07f3c8b50111551d6240a99d,,07f3c8b50111551d6240a99d
北京市朝阳区慧忠北里309号楼,朝阳区,北京市,1,40.010007,116.413679,北京银行24小时自助银行(亚运村支行),北京市,8cba4bb002b29f84ad045775,,8cba4bb002b29f84ad045775
北京市朝阳区东大桥路16,朝阳区,北京市,1,39.923834,116.457308,北京银行24小时自助银行(关东店支行),北京市,f8582e2c8710d15f03ff2d4a,,07f3c8b50684521d6240a970
团结湖路52-3,朝阳区,北京市,1,39.929405,116.47389,北京银行24小时自助银行(金台路支行),北京市,56e88cba07e58f65a4c7564f,,56e88cba07e58f65a4c7564f
北三环东路15号,朝阳区,北京市,1,39.97577,116.428349,北京银行24小时自助银行(樱花支行),北京市,116884652ee6b813a1a93420,,116884652ee6b813a1a93420
北京市朝阳区朝阳门外大街12号昆泰商城1层,朝阳区,北京市,1,39.928593,116.450771,北京银行24小时自助银行(朝外支行),北京市,82c3b68d676d66b28c1a89ba,,82c3b68d676d66b28c1a89ba
北京市朝阳区东三环中南路辅路劲松大厦1层,朝阳区,北京市,1,39.889713,116.468745,北京银行24小时自助银行(九龙山支行),北京市,18165334c7cf5404fa2d61b4,,18165334c7cf5404fa2d61b4
北京市朝阳区驼房营南路,朝阳区,北京市,1,39.976744,116.509822,北京银行24小时自助银行(将府家园社区支行),北京市,,,11c311e08b79ffdde3110385
夏家园11号楼1层5号、2层11号,朝阳区,北京市,1,39.976921,116.456781,北京银行24小时自助银行服务(太阳宫支行),北京市,4b9e1d26705352b18bf15d68,,4b9e1d26705352b18bf15d68
北京市朝阳区广渠路28号甲201号楼1层甲201-北105,朝阳区,北京市,1,39.896799,116.484551,北京银行24小时自助银行服务(大望路支行),北京市,466a3ba8f845109ceb12e45e,,6f6f7a5e561e968752e5c5ae
康营家园15区8号楼,朝阳区,北京市,1,40.042146,116.548281,北京银行24小时自助银行服务(康营中路),北京市,0afff19ef850b4aa1ce99936,,0afff19ef850b4aa1ce99936
惠新东街4号富盛大厦2座1层,朝阳区,北京市,1,39.992217,116.43136,北京银行24小时自助银行服务(惠新支行),北京市,617f3414b9203d0e2811d180,,617f3414b9203d0e2811d180
东方东路与亮马桥路交叉口西北100米,朝阳区,北京市,1,39.95637,116.470753,北京银行24小时自助银行服务(燕沙支行),北京市,03dc072bb94eed58f72310f1,,03dc072bb94eed58f72310f1
北京市朝阳区高碑店北路5-1,朝阳区,北京市,1,39.92006,116.527888,北京银行24小时自助银行服务(高碑店支行),北京市,db040f1e882189cea21de94a,,db040f1e882189cea21de94a
朝阳北路102号楼1层,朝阳区,北京市,1,39.928737,116.521101,北京银行24小时自助银行(朝阳北路支行),北京市,3f3cceafcca8bbc1223bf268,,48f3aac9f2a56e0ccac3db3c
北京市朝阳区青年路西里5号院1号楼11号,朝阳区,北京市,1,39.934569,116.522687,北京银行24小时自助银行(青年路西里社区支行),北京市,,,5053c7b08d6dec04dbecedbc
东四环中路62号远洋国际中心,朝阳区,北京市,1,39.92058,116.497754,北京银行24小时自助银行服务(远洋国际中心支行),北京市,89fd4ea3afdd9947e4e965b4,,89fd4ea3afdd9947e4e965b4
北京市朝阳区西大望路3号院2号,朝阳区,北京市,1,39.916974,116.483901,北京银行24小时自助银行(蓝堡小微支行),北京市,5b5f216a71cf72762cb96d81,,5b5f216a71cf72762cb96d81
光华路丙12号数码01大厦1层,朝阳区,北京市,1,39.918949,116.465781,北京银行24小时自助银行(商务中心区支行),北京市,d879d74e4f17f2aa2fe67bd9,,d879d74e4f17f2aa2fe67bd9
双柳北街39号天籁轩1层,朝阳区,北京市,1,39.910998,116.573125,北京银行24小时自助银行服务(双桥支行),北京市,fcf2063a1bcbb6f26fc02cdd,,fcf2063a1bcbb6f26fc02cdd
苇子坑35号北京信息科技大学健翔桥校区,朝阳区,北京市,1,39.994871,116.388695,北京银行24小时自助银行(信息科技大学),北京市,4eb3b533d71ffb754302454f,,4eb3b533d71ffb754302454f
北京市朝阳区力源里北街2号院5号楼1层108,朝阳区,北京市,1,39.915922,116.502287,北京银行24小时自助银行(力源里社区支行),北京市,06535d6ddd8592aa25e0a030,,06535d6ddd8592aa25e0a030
北京市朝阳区彩和坊路中关村西区18号联合大厦,朝阳区,北京市,1,39.928476,116.445268,北京银行24小时自助银行服务(红星支行),北京市,e3df5fee2b19e6e4d13ce3da,,e3df5fee2b19e6e4d13ce3da
建国门外大街乙12号双子座大厦西塔,朝阳区,北京市,1,39.913603,116.454517,北京银行24小时自助银行(东长安街支行),北京市,67000d3a4e6fba72f603b87d,,67000d3a4e6fba72f603b87d
北京市朝阳区松榆南路38号院1-12,朝阳区,北京市,1,39.876664,116.475121,北京银行24小时自助银行服务(松榆南路社区支行),北京市,bd9e352f66e96543d5851f0b,,bd9e352f66e96543d5851f0b
呼家楼北街7号,朝阳区,北京市,1,39.928695,116.473448,南京银行24小时自助银行服务(北京呼家楼支行),北京市,d4a96430cf46cb9abbbd6392,,d4a96430cf46cb9abbbd6392
北三环东路6-2号,朝阳区,北京市,1,39.967408,116.446698,北京银行离行自助电费代收点,北京市,dfec37652305e3c2441a32c5,,dfec37652305e3c2441a32c5
北京市丰台区南四环西路188号17区15号1层,丰台区,北京市,1,39.83055,116.297019,北京银行(金融港支行),北京市,8a1202a78724439822f01785,(010)95526,8a1202a78724439822f01785
北京市丰台区芳星园二区6-1号,丰台区,北京市,1,39.871472,116.441465,北京银行(方庄支行),北京市,f2a597263610c93b81a12e14,(010)67642846,f2a597263610c93b81a12e14
西四环南路31号,丰台区,北京市,1,39.876607,116.286384,北京银行(两桥支行),北京市,3041f290dab638d8eee4a542,"(010)63825979,(010)63825046,(010)63811374",3041f290dab638d8eee4a542
丰台区东安街1号(近北京十二中),丰台区,北京市,1,39.854919,116.288721,北京银行(丰台支行),北京市,11ee437a4933c6c7744ff169,,11ee437a4933c6c7744ff169
北京市丰台区丰桥路7号院8号楼28号,丰台区,北京市,1,39.857477,116.316386,北京银行(三环新城支行),北京市,d348cce582573437902ca322,(010)83631804,d348cce582573437902ca322
北京市丰台区西三环南路1号北京市政务服务中心大厦1层,丰台区,北京市,1,39.887831,116.316137,北京银行(政务中心支行),北京市,,"(010)89151001,(010)89151002",e290caa7a98f0ed3ab175a9a
北京市丰台区南三环西路16号搜宝商务中心3-101号,丰台区,北京市,1,39.86132,116.374743,北京银行(玉泉营支行),北京市,186369e9fbba0ec68bf15d16,(010)87576165,186369e9fbba0ec68bf15d16
北京市丰台区星河苑2号院9号楼底商,丰台区,北京市,1,39.845381,116.377116,北京银行(马家堡支行),北京市,3ad6c075712f02395bf6bee5,"(010)67500773,(010)95526",3ad6c075712f02395bf6bee5
丰台区南三环四方景园二区配套商业1-5号(近华润万家),丰台区,北京市,1,39.86424,116.448015,北京银行(成寿寺支行),北京市,e48c2a377b0dd28e2cb96d28,(010)87647377,e48c2a377b0dd28e2cb96d28
北京市丰台区万源西里41栋,丰台区,北京市,1,39.805446,116.429089,北京银行(东高地支行),北京市,ba2d35efc95aef05d12dd6e7,(010)88524555,ba2d35efc95aef05d12dd6e7
北京市丰台区青塔西路9号,丰台区,北京市,1,39.89702,116.270787,北京银行(青塔支行),北京市,6d46a9da724798e803ff2d2c,,6d46a9da724798e803ff2d2c
北京市丰台区南四环西路188号总部基地三区5号101-102室,丰台区,北京市,1,39.831452,116.291627,北京银行(总部基地支行),北京市,fa8a68a21e2fe5db902ca3fc,(010)63702466,fa8a68a21e2fe5db902ca3fc
北京市丰台区洋桥12号综合楼1层101,丰台区,北京市,1,39.856159,116.393028,北京银行(西罗园支行),北京市,38e4803762203449373a71d3,95526,38e4803762203449373a71d3
北京市丰台区华源4里甲2号,丰台区,北京市,1,39.887521,116.327204,北京银行(太平桥支行),北京市,129d872807ce0a13ca09f0b0,(010)63380829,129d872807ce0a13ca09f0b0
北京市丰台区西马场路6号院3号楼1层105,丰台区,北京市,1,39.846889,116.392237,北京银行(西马场路社区支行),北京市,d06944ebc9dc0c9ba0acc415,95526,d06944ebc9dc0c9ba0acc415
北京市丰台区杜家坎南路9号,丰台区,北京市,1,39.845166,116.215392,北京银行(长辛店支行),北京市,9e93f6863213073ba8059d50,(010)83872032,9e93f6863213073ba8059d50
北京市丰台区靛厂路26号院科兴佳园12号楼一层底商,丰台区,北京市,1,39.895462,116.288755,北京银行(科兴佳园社区支行),北京市,,(010)68271040,ea0fc06527d17d75d2f49ee3
北京市丰台区大屯路美域家园北区8号楼底商,丰台区,北京市,1,39.881778,116.254059,北京银行(美域家园社区支行),北京市,ff3f748165510a7ca7c756c7,(010)88609078,ff3f748165510a7ca7c756c7
北京市丰台区丰体南路3号(物美卖场旁),丰台区,北京市,1,39.872226,116.2757,北京银行(丰体南路社区支行),北京市,c5fca96c912a8186373a719e,(010)63876516,c5fca96c912a8186373a719e
北京市丰台区张仪村路甲78号附近,丰台区,北京市,1,39.881007,116.23208,北京银行超市,北京市,,,80ea4a7e264d066fb54f54e9
南四环西路188号十七区15,丰台区,北京市,1,39.830329,116.297544,北京银行24小时自助银行(金融港支行),北京市,22e11407284426b4d5b74e3a,,22e11407284426b4d5b74e3a
菜户营桥工商局办事大厅,丰台区,北京市,1,39.872011,116.353251,北京银行ATM,北京市,,,abe7fe1912f614d428fc4881
北京市丰台区四方景园二区配套商业1-5号,丰台区,北京市,1,39.864232,116.44816,北京银行24小时自助银行(成寿寺支行),北京市,38139da46b82c73117c8f6c7,,38139da46b82c73117c8f6c7
丰台区芳星园二区6-1号,丰台区,北京市,1,39.871567,116.441557,北京银行24小时自助银行服务(方庄支行),北京市,48eb005879434fd32fe67b50,,48eb005879434fd32fe67b50
北京市丰台区丰管路甲3号亿潼隆丰益购物中心F1,丰台区,北京市,1,39.864914,116.308667,北京银行ATM(亿潼隆丰益购物中心),北京市,,,b704ccfad2634863902ca322
北京市丰台区东高地万源南路万源西里40号楼,丰台区,北京市,1,39.805399,116.428986,北京银行理财中心,北京市,3ef23971fff919031c38943e,,3ef23971fff919031c38943e
星河苑2号院4,丰台区,北京市,1,39.845382,116.377074,北京银行24小时自助银行服务(马家堡支行),北京市,2d1ab50d3fd581865fbe8608,,2d1ab50d3fd581865fbe8608
北京市贾家花园3号院13号,丰台区,北京市,1,39.857446,116.421437,北京银行24小时自助银行(光彩路支行),北京市,efd29c21aade21c0b11e3630,,efd29c21aade21c0b11e3630
北京市丰台区右安门外西头条10号首都医科大学内,丰台区,北京市,1,39.871414,116.359642,北京银行ATM(德信路),北京市,,,e0f8e97dad74ad4d0bf5eb94
北京市丰台区丰台镇东安街1号,丰台区,北京市,1,39.854694,116.288808,北京银行24小时自助银行(丰台支行),北京市,bcaebff84dbe6654c9e33cdd,,bcaebff84dbe6654c9e33cdd
南三环中路34号祥龙赵公口长途客运汽车站内,丰台区,北京市,1,39.86073,116.416632,北京银行ATM(南三环中路),北京市,41a0ea441b76f1a6d22dd618,,41a0ea441b76f1a6d22dd618
北京市丰台区洋桥12号综合楼1层附近,丰台区,北京市,1,39.855945,116.392985,北京银行24小时自助银行(西罗园支行),北京市,0c4988c888d819f0eb12e4cb,,cb22b1beff4054cdca213d4a
周口店路10号附近,丰台区,北京市,1,39.844993,116.215321,北京银行24小时自助银行服务,北京市,d9cb11bed0b164fb8505bfcb,,d9cb11bed0b164fb8505bfcb
万丰路305号亿潼隆万丰购物中心1层,丰台区,北京市,1,39.879369,116.302529,北京银行ATM(亿潼隆万丰店),北京市,d360169f33f3b6c945572658,,d360169f33f3b6c945572658
北京市丰台区东高地万源西里41栋,丰台区,北京市,1,39.80544,116.429392,北京银行24小时自助银行(东高地支行),北京市,8c05035d5dfc93fa4bcc4a7e,,8c05035d5dfc93fa4bcc4a7e
北京市丰台区万丰路68号银座和谐广场F1,丰台区,北京市,1,39.88799,116.304532,北京银行ATM(北京银座和谐广场购物中心),北京市,dce6b48dbbd49f49213bf235,,dce6b48dbbd49f49213bf235
北京市丰台区大红门西路20号西60米,丰台区,北京市,1,39.84687,116.392296,北京银行24小时自助银行,北京市,,,1d195e9b2d7ca5a69d82ea28
北京市丰台区马家堡东路阳光花园一号楼底商,丰台区,北京市,1,39.851456,116.388277,北京银行24小时自助银行(角门路),北京市,,,8d4ae5bc485819967f29bd0d
北京市丰台区南三环西路16号搜宝商务中心3号楼1层,丰台区,北京市,1,39.860804,116.375074,北京银行24小时自助银行(玉泉营支行),北京市,7d5f3a0abcadd4362db9088f,(010)87576165,7d5f3a0abcadd4362db9088f
北京市丰台区西四环南路31号,丰台区,北京市,1,39.876607,116.286385,北京银行24小时自助银行(两桥支行),北京市,bff8fa7d152bf1a0c8213ddd,,bff8fa7d152bf1a0c8213ddd
北京市丰台区华源4里甲2号,丰台区,北京市,1,39.887486,116.32716,北京银行24小时自助银行(太平桥支行),北京市,aa13ff98a1c559e87369d341,,aa13ff98a1c559e87369d341
青塔西路11号苏宁电器青塔西路店,丰台区,北京市,1,39.897014,116.270787,北京银行24小时自助银行(青塔西路),北京市,7b9bfba4ca920a35ee74f858,,c5994d943f25828a2fb90826
北京市丰台区青塔西路52号院紫台商铺甲23,丰台区,北京市,1,39.887763,116.271487,北京银行24小时自助银行服务(青塔西路),北京市,9281980927e6bcfac336449e,,9281980927e6bcfac336449e
大屯路与小屯西路交叉口东50米,丰台区,北京市,1,39.881837,116.254913,北京银行24小时自助银行(美域家园社区支行),北京市,daf8d5bf73d81f96306212b5,,de7a74d7a1a792eb31870a88
北京市南四环西路188号三区5,丰台区,北京市,1,39.831426,116.291777,北京银行24小时自助银行(总部基地支行),北京市,6f73bd3ac6294b2152e5c51b,,6f73bd3ac6294b2152e5c51b
四方景园二区2,丰台区,北京市,1,39.864241,116.448192,南京银行24小时自助银行服务(北京方庄支行),北京市,ff65bff617395c2d734b87bc,,ff65bff617395c2d734b87bc
北京市石景山区八角东街39号附近,石景山区,北京市,1,39.924153,116.212481,北京银行,北京市,,,18f65495b6a32f5a88fc06ea
北京市石景山区石景山路23号中础大厦A座,石景山区,北京市,1,39.913836,116.220535,北京银行(京源路支行),北京市,f49351578992f467bfa82258,(010)88706621,f49351578992f467bfa82258
北京市石景山区玉泉西里二区18号楼一层,石景山区,北京市,1,39.90672,116.24942,北京银行(远洋山水支行),北京市,74cf1cf3716d02012bd7ab4e,(010)68547511,74cf1cf3716d02012bd7ab4e
北京市石景山区实兴大街30号院16楼号一楼,石景山区,北京市,1,39.943061,116.198086,北京银行(中关村石景山园支行),北京市,2ccaecaee9cdf131bea2400c,(010)68868994,2ccaecaee9cdf131bea2400c
石门路368号北京工业职业技术学院学生公寓,石景山区,北京市,1,39.968172,116.126061,北京银行ATM,北京市,,,b9de2a51d0a8d560e111036d
石景山路23号中础大厦首层,石景山区,北京市,1,39.913847,116.220455,北京银行24小时自助银行服务(京源路支行),北京市,fb531e7e9ccc959feddfcafe,,1020060fe09b6ba61894c6d8
北京市石景山区八角东街39号,石景山区,北京市,1,39.924227,116.212552,北京银行24小时自助银行服务,北京市,,,29a3bbb5c5578b9e77026997
北京市石景山区金府路32号院3号楼,石景山区,北京市,1,39.948724,116.191135,北京银行保险产业园-3号楼,北京市,,,0912fa8ec95a9e89b13c814b
北京市石景山区双锦园16号楼1层1-3,石景山区,北京市,1,39.907186,116.228446,北京银行24小时自助银行(银河大街社区支行),北京市,d97f4afe6b876468c5effbbe,(010)68635090,d97f4afe6b876468c5effbbe
石景山路5号,石景山区,北京市,1,39.913979,116.253129,北京银行24小时自助银行(石景山路),北京市,11aca872d22a96e46b49f3c4,,11aca872d22a96e46b49f3c4
北京市石景山区杨庄路21-12号附近,石景山区,北京市,1,39.928389,116.200147,北京银行24小时自助银行(杨庄中区社区支行),北京市,b8f79542377b0a90f60e77c9,,b8f79542377b0a90f60e77c9
石景山路42,石景山区,北京市,1,39.912957,116.20058,北京银行24小时自助银行(石景山支行),北京市,0f290e88f50b510ba5da39c8,,0f290e88f50b510ba5da39c8
北京市石景山区雕塑园南街14号附近,石景山区,北京市,1,39.906916,116.249389,北京银行24小时自助银行(远洋山水支行),北京市,2864d3f8f751f9f849cc4aa5,,2864d3f8f751f9f849cc4aa5
实兴大街30号17号楼一层创新平台,石景山区,北京市,1,39.943078,116.198031,北京银行24小时自助银行服务(石景山园支行),北京市,5dc4584c30213fffb23c81b4,,5dc4584c30213fffb23c81b4
上地信息路1号院3号楼1层东部,海淀区,北京市,1,40.051949,116.310755,北京银行(上地支行),北京市,6d55c9e26d159c1048cc4a51,(010)82895594,6d55c9e26d159c1048cc4a51
北京市海淀区双清路西王庄同方大厦A座1层,海淀区,北京市,1,40.003076,116.341247,北京银行(清华园支行),北京市,ce85ade6bbfd40f8b21e36c1,(010)62770466,ce85ade6bbfd40f8b21e36c1
海淀区永丰路9号院21号楼,海淀区,北京市,1,40.074596,116.252115,北京银行(北清路支行),北京市,64b4c1b1607f2e66c7f50d03,,64b4c1b1607f2e66c7f50d03
北京市海淀区学院路35号世宁大厦首层102,海淀区,北京市,1,39.991573,116.358557,北京银行(北航支行),北京市,03fef7848342acab14b54b67,(010)82338398,03fef7848342acab14b54b67
北京市海淀区北三环中路辅路31号泰思特大厦,海淀区,北京市,1,39.974839,116.384021,北京银行(双秀支行),北京市,5a906f23a98b86be97ec84f5,,5a906f23a98b86be97ec84f5
北京市海淀区中关村科学院南路12号,海淀区,北京市,1,39.986601,116.331795,北京银行(中关村支行),北京市,dbc67bba37ff2c0421022017,(010)62563804,dbc67bba37ff2c0421022017
海淀区学院路30号,海淀区,北京市,1,39.994813,116.371566,北京银行(学院路支行),北京市,898a3f75c3d8857c59bbbc86,"95526,(010)62313296,(010)82370216",898a3f75c3d8857c59bbbc86
北京市海淀区中关村南大街3号海淀科技大厦一层,海淀区,北京市,1,39.966992,116.328672,北京银行(友谊支行),北京市,cadb2785975b27daabf0cd77,(010)68945858,cadb2785975b27daabf0cd77
北京市海淀区海淀南路30号航天精密大厦一楼,海淀区,北京市,1,39.981292,116.312227,北京银行(航天支行),北京市,b6f00d8a346477ad128824d7,(010)82671123,b6f00d8a346477ad128824d7
北京市海淀区北洼路28号金红都商厦,海淀区,北京市,1,39.943541,116.311232,北京银行(北洼路支行),北京市,4dbd03143efce71de115f9b9,(010)68451673,4dbd03143efce71de115f9b9
北京市海淀区学府树家园二区1号楼底商,海淀区,北京市,1,40.038899,116.340164,北京银行(橡树湾支行),北京市,b45e5bcf5e5d3333b11e36bd,(010)82816756,b45e5bcf5e5d3333b11e36bd
北京市海淀区羊坊店路21号瑞海大厦1层,海淀区,北京市,1,39.903793,116.32689,北京银行(西客站支行),北京市,ded076a76b325aa999005066,,ded076a76b325aa999005066
海淀区西直门北大街甲43号金运大厦A座,海淀区,北京市,1,39.956552,116.361769,北京银行(金运支行),北京市,fd6e25d1ed275a21a21de948,"95526,(010)52129223",fd6e25d1ed275a21a21de948
阜成路101号永兴花园饭店一层东北侧,海淀区,北京市,1,39.931685,116.29336,北京银行(阜裕支行),北京市,,,0a873f3690cd7097a11de983
北京市海淀区首都体育馆南路20号5号楼,海淀区,北京市,1,39.938688,116.334015,北京银行(国兴家园支行),北京市,532a0f3a2f319baa4f6d4687,"95526,(010)88355019",532a0f3a2f319baa4f6d4687
北京市海淀区紫竹院路69号中国兵器大厦1层,海淀区,北京市,1,39.951623,116.308981,北京银行(紫竹支行),北京市,0b41bfca983df534b34c49b2,(010)58830099,0b41bfca983df534b34c49b2
北京市海淀区北三环中路戊40号,海淀区,北京市,1,39.973197,116.368973,北京银行(北太平庄支行),北京市,f2b109f8795b3dbdd72ce2e5,95526,f2b109f8795b3dbdd72ce2e5
美丽园中路16号,海淀区,北京市,1,39.941068,116.289477,北京银行(玉渊潭支行),北京市,b749f100263f7776c27da247,(010)88509001,b749f100263f7776c27da247
皂君庙路5号,海淀区,北京市,1,39.968279,116.340966,北京银行(大钟寺支行),北京市,c879fa010268a44ac909f041,"95526,(010)62154096,(010)62153742",c879fa010268a44ac909f041
北京市海淀区万柳中路15号一层底商,海淀区,北京市,1,39.972549,116.30361,北京银行(新华支行),北京市,c0963ac4fab6e72e2bb97c53,(010)82565337,c0963ac4fab6e72e2bb97c53
北京市海淀区中关村大街22号中科大厦B座1层,海淀区,北京市,1,39.98737,116.323671,北京银行(海淀路支行),北京市,77d6308e163c1d084d55471d,"(010)62628358,(010)62628329",77d6308e163c1d084d55471d
北京市海淀区颐和园路2-1号硅谷电脑大厦一层,海淀区,北京市,1,39.993267,116.311499,北京银行(燕园支行),北京市,15cf6bfd882a2beb1fe999c8,(010)82852397,15cf6bfd882a2beb1fe999c8
北京市海淀区双榆树东里甲22号,海淀区,北京市,1,39.973555,116.337305,北京银行(双榆树支行),北京市,5f4235dc78729c6b88db73ef,(010)82131191,5f4235dc78729c6b88db73ef
北京市海淀区田村路畅茜园圣华里小区9号楼一层,海淀区,北京市,1,39.9351,116.249421,北京银行(田村支行),北京市,98c9f06626fa2ce784330490,(010)68162290,98c9f06626fa2ce784330490
北京市海淀区复兴路75号国家开放大学F1,海淀区,北京市,1,39.915184,116.279455,北京银行(五棵松支行),北京市,53ccb147994418f07ab55c2b,(010)56765771,53ccb147994418f07ab55c2b
北京市海淀区蓝靛厂西路世纪城三期时雨园甲1-1号,海淀区,北京市,1,39.967519,116.287006,北京银行(四季青支行),北京市,163217ba819a69c54e2fdfc1,(010)88892385,163217ba819a69c54e2fdfc1
北京市海淀区板井路69号世纪金源国际公寓东区首层,海淀区,北京市,1,39.958267,116.287221,北京银行(世纪城支行),北京市,,(010)88462505,2890515eecf1b719c7f025a1
北京市海淀区成府路298号方正大厦1层,海淀区,北京市,1,39.997428,116.322896,北京银行(北京大学支行),北京市,45a836a1552a41926f3e1b1e,(010)82529701,45a836a1552a41926f3e1b1e
复兴路40号中国铁建科研大厦1层,海淀区,北京市,1,39.91282,116.262092,北京银行(永定路支行),北京市,271e094a0484b950774ff1eb,(010)52689307,271e094a0484b950774ff1eb
北京市海淀区三里河路39号,海淀区,北京市,1,39.930913,116.340472,北京银行(甘家口支行),北京市,2c25d672dee82a4c250bd06c,(010)68349787,2c25d672dee82a4c250bd06c
北京市海淀区中关村南大街48-1号,海淀区,北京市,1,39.951328,116.33186,北京银行(白石桥支行),北京市,f6334d069686250117a19019,(010)62196712,f6334d069686250117a19019
北京市海淀区西小口路66号东升科技园B-2-105B号,海淀区,北京市,1,40.05128,116.362678,北京银行(东升科技园支行),北京市,f7fd83413a8c6d958f55ec34,(010)82830283,f7fd83413a8c6d958f55ec34
北京市海淀区新建宫门路1号,海淀区,北京市,1,39.996976,116.303481,北京银行(万泉路支行),北京市,df27562ec6424ee0c356acb2,"(010)62878394,(010)62872154",df27562ec6424ee0c356acb2
万寿路17号(天天假日饭店B座),海淀区,北京市,1,39.917476,116.301114,北京银行(万寿路支行),北京市,d64041d9052b502522f01771,,d64041d9052b502522f01771
北京市海淀区德胜门西大街15号远洋风景小区东门一层底商,海淀区,北京市,1,39.952696,116.367484,北京银行(新北支行),北京市,e93a8be274875b052fb96ddc,(010)82293543,e93a8be274875b052fb96ddc
北京市海淀区万柳中路7号,海淀区,北京市,1,39.976851,116.3025,北京银行(万柳支行),北京市,77e88ae329d6dfe86c3e1b5e,(010)82560112,77e88ae329d6dfe86c3e1b5e
北京市海淀区西三环北路甲二号院3号一层,海淀区,北京市,1,39.966121,116.315789,北京银行(魏公村支行),北京市,,,9e5b513774fe30bd276e98c1
北京市海淀区双清路30号清华大学照澜院商业楼1楼(近五道口),海淀区,北京市,1,40.004457,116.330983,北京银行(清华大学支行),北京市,13f8e9f512c160ffb64f5452,95526,13f8e9f512c160ffb64f5452
北京市海淀区清华大学照澜院商业楼1层,海淀区,北京市,1,40.004514,116.330707,北京银行(离行自助电费代收点),北京市,b5796bdd328e0d1ba11de9d1,95526,b5796bdd328e0d1ba11de9d1
北京市海淀区中关村大街甲28号海淀文化艺术大厦b座一层,海淀区,北京市,1,39.982321,116.326524,北京银行(中关村科技园区支行),北京市,5db7815e80260f989222e08c,(010)82533045,5db7815e80260f989222e08c
北京市海淀区学院路35号世宁大厦首层,海淀区,北京市,1,39.991566,116.358663,北京银行(离行自助电费代收点),北京市,9818765cb22da716f02d83f8,,9818765cb22da716f02d83f8
北京市海淀区丹棱街1号互联网金融中心1楼,海淀区,北京市,1,39.985129,116.319735,北京银行(互联网金融中心支行),北京市,04b636eaa6365f55a2d230f5,(010)82362456,04b636eaa6365f55a2d230f5
双清路30号清华大学,海淀区,北京市,1,40.004456,116.330984,北京银行((清华大学支行)财富中心),北京市,a4c1ff39a8f43780d5b74e5e,95526,a4c1ff39a8f43780d5b74e5e
北京市海淀区海淀西大街29号院1层,海淀区,北京市,1,39.990172,116.312992,北京银行(中关村创业大街小微支行),北京市,3acd2f55b2e66a0d2cb96d6f,95526,3acd2f55b2e66a0d2cb96d6f
北京市海淀区万柳中路29号院B1京客隆万柳店内,海淀区,北京市,1,39.967286,116.304545,北京银行ATM,北京市,,,e75c5f848e09e33cadcb66ce
中关村北大街47号,海淀区,北京市,1,40.021561,116.321592,北京银行ATM,北京市,161a0ed29598dc2e5cd4fe12,,161a0ed29598dc2e5cd4fe12
阜成路33号北京工商大学学生食堂,海淀区,北京市,1,39.931878,116.321494,北京银行ATM,北京市,,,ed2b7f98c030a6b342d63e3c
北京市海淀区西三环北路105号首都师范大学内,海淀区,北京市,1,39.935158,116.31084,北京银行24小时自助银行服务,北京市,f5e3bcaede94e6bf5e17c373,,f5e3bcaede94e6bf5e17c373
北京市海淀区美丽园中路16号院5号楼裕友大厦,海淀区,北京市,1,39.940951,116.289369,北京银行理财中心,北京市,6076de0a3209cce435b06cce,(010)88509001,6076de0a3209cce435b06cce
北京市海淀区二里沟中街国兴家园(建设部大院北),海淀区,北京市,1,39.938535,116.33395,北京银行理财中心,北京市,0a36eae081236dde79dbd26a,,0a36eae081236dde79dbd26a
上地七街西侧上地办公大楼西门大堂,海淀区,北京市,1,40.048462,116.301452,北京银行ATM(东北旺南站),北京市,e176ad06ea2a026cd2f49e2c,,e176ad06ea2a026cd2f49e2c
北京市海淀区学院路37北京航空航天大学,海淀区,北京市,1,39.991573,116.358557,北京银行ATM(知行楼西南),北京市,dffd4642840b6fcc3c9a5e5e,,dffd4642840b6fcc3c9a5e5e
北京市海淀区后八家路62号附近,海淀区,北京市,1,40.020952,116.350456,北京银行24小时自助银行,北京市,6670c35fdbc44a16a80dd827,,6670c35fdbc44a16a80dd827
北京市海淀区中关村南大街5号北京理工大学中心教学楼1层大堂,海淀区,北京市,1,39.965152,116.323834,北京银行24小时自助银行(校园南路),北京市,,,e704b38fd8a26a1d21f017ef
海淀南路30,海淀区,北京市,1,39.981292,116.312227,北京银行24小时自助银行(航天支行),北京市,6f8cc638da8203c67adbd2cd,,6f8cc638da8203c67adbd2cd
北京市海淀区海淀中街6号新东方大厦1层,海淀区,北京市,1,39.986809,116.3186,北京银行ATM(冰窖胡同),北京市,e8ec67f34a002c2428d7ab98,,e8ec67f34a002c2428d7ab98
北京市海淀区中关村软件园05号,海淀区,北京市,1,40.05339,116.304677,北京银行24小时自助银行服务(汉王大厦),北京市,d51010c29a60b84d744ff104,,d51010c29a60b84d744ff104
北京市海淀区万柳中路与万柳华府南街交叉口北150米,海淀区,北京市,1,39.976876,116.302549,北京银行ATM(万柳支行),北京市,,,5d4d3c70ff9a00ac364aae0b
北京市海淀区西四环北路73号,海淀区,北京市,1,39.955666,116.279871,北京银行ATM自动取款机,北京市,bba6707eb5eb2c3be1110372,,bba6707eb5eb2c3be1110372
上地东路1号院1号,海淀区,北京市,1,40.060493,116.309689,北京银行ATM(上地东路),北京市,3721b1d110223291ca29158c,,3721b1d110223291ca29158c
北京市海淀区复兴路33号翠微百货F1,海淀区,北京市,1,39.914424,116.312346,北京银行ATM(翠微百货),北京市,34c9a7afe03306e7d13ce3cb,,34c9a7afe03306e7d13ce3cb
什坊院6号京都信苑饭店1层,海淀区,北京市,1,39.903759,116.318718,北京银行ATM(什坊院路),北京市,8e713bbffa3d8573843304df,,8e713bbffa3d8573843304df
双清路30号清华大学,海淀区,北京市,1,40.004469,116.331187,北京银行24小时自助银行服务(清华大学支行),北京市,6979410ff221beaff8f0cbce,,6979410ff221beaff8f0cbce
北京市海淀区双清路30号清华大学内,海淀区,北京市,1,40.012635,116.330607,北京银行ATM(清华大学2号楼),北京市,1bc6f0a433690b3ba1a9344f,,1bc6f0a433690b3ba1a9344f
中关村南大街3号附近,海淀区,北京市,1,39.966669,116.328836,北京银行友谊支行理财中心,北京市,,"(010)62164202,(010)62164203",a109f49043c53497c2f1cff9
北京市海淀区北四环西路爱奇艺创新大厦(普天大厦东),海淀区,北京市,1,39.989642,116.319373,北京银行中小企业信贷工厂,北京市,42d603bd9c5f0cf3b14c4913,,42d603bd9c5f0cf3b14c4913
北京市海淀区北京市海淀区中关村大街19号新中关购物中心B1,海淀区,北京市,1,39.984162,116.322861,北京银行ATM(新中关购物中心),北京市,e407dccaeb499e612811d124,,e407dccaeb499e612811d124
北京市海淀区小马厂6号华天大厦,海淀区,北京市,1,39.903584,116.342784,北京银行ATM(莲花池东路辅路),北京市,15ed53cec443612a9322e088,,15ed53cec443612a9322e088
北京市海淀区清华东路35号北京林业大学,海淀区,北京市,1,40.011754,116.352956,北京银行24小时自助银行服务(文成杰座住宅楼西南),北京市,31b8f3a54e6b48e6b9df8fa5,,31b8f3a54e6b48e6b9df8fa5
海淀北一街2号爱奇艺创新大厦1楼,海淀区,北京市,1,39.989714,116.319876,北京银行24小时自助银行(中关村海淀园支行),北京市,b24080020439d7fe8c55ecf3,,b24080020439d7fe8c55ecf3
紫竹院路69号中国兵器大厦1层,海淀区,北京市,1,39.951631,116.308728,北京银行24小时自助银行(紫竹支行),北京市,16b01b0b4ca0bf5c61685842,,16b01b0b4ca0bf5c61685842
清华东路35号林业大学3号楼,海淀区,北京市,1,40.007868,116.349481,北京银行24小时自助银行(清华东路),北京市,f6a9551699204fc27f29bd49,,f6a9551699204fc27f29bd49
显龙山路与白家疃西路交叉口西北50米,海淀区,北京市,1,40.054691,116.187575,北京银行24小时自助银行(显龙山路),北京市,399cee78f2701c049a00504b,,399cee78f2701c049a00504b
北京市海淀区彩和坊路6号朔黄发展大厦一层,海淀区,北京市,1,39.988947,116.314898,北京银行24小时自助银行(中关村分行),北京市,583d44f10bed26e9abf0cd87,,583d44f10bed26e9abf0cd87
北京市海淀区双清路30号清华大学内,海淀区,北京市,1,40.016718,116.33491,北京银行24小时自助银行服务(清华园荷清苑7东南),北京市,62647d830d27d9905d0d027c,,62647d830d27d9905d0d027c
北京市海淀区中关村南大街3号海淀科技大厦,海淀区,北京市,1,39.966813,116.328823,北京银行24小时自助银行服务(友谊支行),北京市,407d8bff994f5573c61b7574,,407d8bff994f5573c61b7574
万柳中路15号楼1层,海淀区,北京市,1,39.972564,116.303557,北京银行24小时自助银行服务(新华支行),北京市,d1ce6d36721c981e80a12ea1,,d1ce6d36721c981e80a12ea1
北京市海淀区美丽园中路16号院5,海淀区,北京市,1,39.941349,116.289284,北京银行24小时自助银行服务(玉渊潭支行),北京市,26369deed224ccf22cb908b0,,26369deed224ccf22cb908b0
复兴路83号景藏健康大厦,海淀区,北京市,1,39.912881,116.261958,北京银行24小时自助银行服务(永定路支行),北京市,bc637d4cd420aafbc42ba184,,bc637d4cd420aafbc42ba184
北京市海淀区成府路298号方正大厦,海淀区,北京市,1,39.997434,116.322898,北京银行24小时自助银行服务(清华大学支行),北京市,7a222195ba96bac5e856fa71,,7a222195ba96bac5e856fa71
北京市海淀区万寿寺路1号北京舞蹈学院,海淀区,北京市,1,39.953227,116.325353,北京银行24小时自助银行(民族学院南路19号院东南),北京市,42df80d631c6b60b89fc06aa,,42df80d631c6b60b89fc06aa
首都体育馆南路22-2,海淀区,北京市,1,39.938627,116.333889,北京银行24小时自助银行(国兴家园支行),北京市,844a750e3f252ec76268585e,,844a750e3f252ec76268585e
北三环中路31,海淀区,北京市,1,39.974972,116.384221,北京银行财富中心,北京市,8f8b175627e9376104fef52f,,8f8b175627e9376104fef52f
北京市海淀区南大街48号-a座附近,海淀区,北京市,1,39.951415,116.331846,北京银行24小时自助银行服务,北京市,,,07bdc701c9d1c60f17b54b50
北京市海淀区蓝靛厂西路21号东南90米,海淀区,北京市,1,39.967588,116.28724,北京银行24小时自助银行服务,北京市,18c4e6f4537c8870aeb22ae2,,18c4e6f4537c8870aeb22ae2
北京市海淀区畅茜园圣华里9号,海淀区,北京市,1,39.935146,116.249446,北京银行24小时自助银行服务,北京市,63f57f65eff42707e1110302,,63f57f65eff42707e1110302
北京市海淀区学院路30号,海淀区,北京市,1,39.994751,116.371546,北京银行24小时自助银行(学院路支行),北京市,28e700f11743197f095cb327,,28e700f11743197f095cb327
海淀区西直门北大街甲43号金运大厦,海淀区,北京市,1,39.956671,116.361694,北京银行24小时自助银行(金运支行),北京市,b9d216a20f55ef20aecb66f6,,b9d216a20f55ef20aecb66f6
新建宫门路1号,海淀区,北京市,1,39.997023,116.303487,北京银行24小时自助银行(万泉路支行),北京市,d7fd2ad36fc990570accdd94,,d7fd2ad36fc990570accdd94
皂君庙路5号卉园大楼,海淀区,北京市,1,39.968271,116.34096,北京银行24小时自助银行(大钟寺支行),北京市,8f4f430ac68f0d3c8b2fb5fb,,8f4f430ac68f0d3c8b2fb5fb
科学院南路12,海淀区,北京市,1,39.986618,116.33191,北京银行24小时自助银行(中关村支行),北京市,cb5c3e6962585333843304ea,,cb5c3e6962585333843304ea
双榆树东里甲22号,海淀区,北京市,1,39.973423,116.337457,北京银行24小时自助银行(双榆树支行),北京市,1020060f3b19b2d81894c651,,1020060f3b19b2d81894c651
万寿路17,海淀区,北京市,1,39.917526,116.301115,北京银行24小时自助银行(万寿路支行),北京市,b3aa435d11c8d10a147643bd,,b3aa435d11c8d10a147643bd
双清路同方大厦A座1层,海淀区,北京市,1,40.003192,116.341597,北京银行24小时自助银行(清华园支行),北京市,af1ae56b911ea76c4207c1e2,,af1ae56b911ea76c4207c1e2
茉莉园甲19号,海淀区,北京市,1,40.054902,116.263566,北京银行24小时自助银行(永丰支行),北京市,35f5017337547182bbbd63b5,,53cebd50c4a2721f2a02e151
北京市海淀区中关村大街19号新中关4层,海淀区,北京市,1,39.98748,116.3237,北京银行24小时自助银行(海淀路支行),北京市,f321cb404c266d7714b54b49,,f321cb404c266d7714b54b49
北洼路28号金红都商厦1层,海淀区,北京市,1,39.943495,116.311308,北京银行24小时自助银行(北洼路支行),北京市,d53101fae77a9eb3afee7a32,,d53101fae77a9eb3afee7a32
海淀区德胜门西大街15号8,海淀区,北京市,1,39.952796,116.367601,北京银行24小时自助银行(新北支行),北京市,1047ac39d8e5cd968f55ec26,,898dc407b321d4f8b11e36cc
清景园5号商业楼地上1层,海淀区,北京市,1,40.036961,116.358513,北京银行24小时自助银行(清河支行),北京市,e93761f6305e2071223bf234,,e93761f6305e2071223bf234
温泉路58号1层,海淀区,北京市,1,40.046233,116.197273,北京银行24小时自助银行(温泉支行),北京市,88de180ecd650b24c909f086,,88de180ecd650b24c909f086
羊坊店路21号瑞海国际1层,海淀区,北京市,1,39.90379,116.327032,北京银行24小时自助银行(西客站支行),北京市,1eb4cef7d23a88f38433042f,,1eb4cef7d23a88f38433042f
北三环中路31号,海淀区,北京市,1,39.974761,116.383994,北京银行24小时自助银行服务(双秀支行),北京市,6ea371e6c68797a09d9d68a7,,6ea371e6c68797a09d9d68a7
北京市海淀区西小口路66号东升科技园B-2-105B号,海淀区,北京市,1,40.051282,116.362762,北京银行24小时自助银行服务(东升科技园支行),北京市,604b820ff6582d5f0f0a703d,,604b820ff6582d5f0f0a703d
北京市海淀区复兴路75号,海淀区,北京市,1,39.915298,116.279517,北京银行24小时自助银行服务(五棵松支行),北京市,047e78b65c4291988f55ec1e,,047e78b65c4291988f55ec1e
丹棱街与海淀东三街交叉口北50米互联网金融中心,海淀区,北京市,1,39.985126,116.319784,北京银行24小时自助银行服务(互联网金融中心支行),北京市,255853e62064fc148d772759,,255853e62064fc148d772759
三里河路39号,海淀区,北京市,1,39.930722,116.340596,北京银行24小时自助银行服务(甘家口支行),北京市,96b672aa003ef008cf04efb3,,96b672aa003ef008cf04efb3
北京市海淀区学府树家园二区1号1,海淀区,北京市,1,40.038931,116.340136,北京银行24小时自助银行服务(橡树湾支行),北京市,6da305981bed91b2b23c819b,,6da305981bed91b2b23c819b
中关村大街甲28海淀文化艺术大厦B座1层,海淀区,北京市,1,39.982321,116.326511,北京银行24小时自助银行服务(中关村科技园区支行),北京市,b4d7f137ef1d4f1ea31de91a,,b4d7f137ef1d4f1ea31de91a
北三环中路戊40号,海淀区,北京市,1,39.973231,116.36915,北京银行24小时自助银行(北太平庄支行),北京市,248d83f74a43c26c1fe999aa,,248d83f74a43c26c1fe999aa
北三环中路31号附近,海淀区,北京市,1,39.974994,116.384295,中小企业信贷工厂,北京市,e5ba69582846b7c11e3894e9,,e5ba69582846b7c11e3894e9
北京市海淀区中关村软件园05号,海淀区,北京市,1,40.051966,116.3107,24小时自助银行服务(上地支行),北京市,925c550f168df9b25a3ac86c,,925c550f168df9b25a3ac86c
北京市海淀区中关村大街甲28号海淀文化艺术大厦B座一层,海淀区,北京市,1,39.982326,116.326386,北京银行离行自助电费代收点,北京市,7163c1301b73d000d8d891f2,,7163c1301b73d000d8d891f2
海淀区北一街2号CEO首创拓展大厦1层自助银行,海淀区,北京市,1,39.989704,116.320037,北京银行离行自助电费代收点,北京市,36cfa233fa0706fd88b98864,,36cfa233fa0706fd88b98864
北京市海淀区成府路298号方正大厦一层北侧,海淀区,北京市,1,39.997693,116.32282,北京银行离行自助电费代收点,北京市,13f554446701b2bc59bbbc1c,,13f554446701b2bc59bbbc1c
石龙南路与石龙西路交叉口西南150米,门头沟区,北京市,1,39.910764,116.117235,北京银行(暂停营业),北京市,,,f8424dfb142e5b9a9cec2b2f
北京市门头沟区永安路16,门头沟区,北京市,1,39.902826,116.133556,北京银行(石龙经济开发区支行),北京市,,95526,7f52d6b1f3ba09ab32870a23
双峪路5号,门头沟区,北京市,1,39.941136,116.114943,北京银行24小时自助银行(门头沟支行),北京市,9fbfeef2cab5f545ede4a504,,9fbfeef2cab5f545ede4a504
永安路20号,门头沟区,北京市,1,39.902748,116.133611,北京银行24小时自助银行(石龙经济开发区支行),北京市,739547c8a28f999417c8f6fd,,739547c8a28f999417c8f6fd
北京市房山区良乡西潞街道长虹西路71号,房山区,北京市,1,39.729048,116.13852,北京银行(良乡支行),北京市,35da233a6468c84c75e5b691,(010)60330532,35da233a6468c84c75e5b691
北京市房山区良乡月华大街3号龙建大厦首层,房山区,北京市,1,39.74833,116.145439,北京银行(房山支行),北京市,a78a98750e6d6f5288f15d74,"(010)81388365,(010)81388150",a78a98750e6d6f5288f15d74
北京市房山区长阳镇昊天北大街48号,房山区,北京市,1,39.773561,116.174599,北京银行(加州水郡支行),北京市,0cbc4c52b2fd03abda2f2847,(010)80393723,0cbc4c52b2fd03abda2f2847
北京市房山区东大街4号,房山区,北京市,1,39.708382,115.992199,北京银行(城关支行),北京市,,"(010)61375251,(010)61375285,(010)61375085",4284ebb70b41bed6f8dc858a
北京市房山区窦店镇大窦路257号院21号楼,房山区,北京市,1,39.66124,116.075047,北京银行(窦店支行),北京市,,(010)80320110,ae99130410b6db88130daae5
北京市房山区燕山岗南路东一巷6号C座一层,房山区,北京市,1,39.732621,115.969747,北京银行(燕山支行),北京市,,(010)69344836,ff09b62e0d8c94e69fec2b6c
燕山岗南路东1巷6号,房山区,北京市,1,39.732611,115.969675,北京银行24小时自助银行服务(燕山支行),北京市,,,083a55fa924acc07246e985e
北京市房山区良乡镇良乡月华大街3号龙建大厦2层北京银行财富中心,房山区,北京市,1,39.748381,116.145382,北京银行财富中心,北京市,,,a1ad1a52a305515da3acc4cf
良乡长虹西路71号,房山区,北京市,1,39.728971,116.13856,北京银行24小时自助银行服务,北京市,,,191735ac5c71a497b11e3633
大窦路257号附近,房山区,北京市,1,39.661513,116.074976,北京银行24小时自助银行服务,北京市,,,04769fa6aa66859aa4c75688
北京市房山区城关东大街4号,房山区,北京市,1,39.708255,115.992493,北京银行24小时自助银行(城关支行),北京市,,,c30477ca4118827bf80cad59
北京市房山区月华大街3号龙建大厦1层,房山区,北京市,1,39.74833,116.145439,北京银行24小时自助银行(房山支行),北京市,dbb3cf5dd6946b6eb34c49dc,,dbb3cf5dd6946b6eb34c49dc
昊天北大街48号加州水郡东区商业楼A座106室,房山区,北京市,1,39.773393,116.17445,北京银行24小时自助银行(加州水郡支行),北京市,bb84e3f276a941444d776eef,,bb84e3f276a941444d776eef
北京市通州区小堡南街1号院附近,通州区,北京市,1,39.949642,116.730318,北京银行,北京市,,(010)80859772,860a4e39d8f5ea098936ee85
北京市通州区梨园南街326号,通州区,北京市,1,39.886203,116.686817,北京银行(国际新城支行),北京市,39606a0cb52793321c389407,(010)81533588,39606a0cb52793321c389407
北京市通州区通胡大街11-1号,通州区,北京市,1,39.922094,116.700258,北京银行(运河支行),北京市,18b3a2b9586d013915c905e2,,18b3a2b9586d013915c905e2
北京市通州区九棵树街165号,通州区,北京市,1,39.894783,116.663004,北京银行(瑞都支行),北京市,ad89152ed38037f2a8f729fa,(010)89501820,ad89152ed38037f2a8f729fa
兴华嘉园245号院12号,通州区,北京市,1,39.758613,116.562434,北京银行(马驹桥支行),北京市,cfba415e40547aae1e1d110e,(010)80840720,cfba415e40547aae1e1d110e
北京市通州区次渠镇次渠西口次二村南1幢一层,通州区,北京市,1,39.808397,116.577532,北京银行(光机电园区支行),北京市,dcdb0e4fce176197fa42b2e1,"95526,(010)81509316",dcdb0e4fce176197fa42b2e1
三水潞城西区古月佳园27号楼,通州区,北京市,1,39.914563,116.736847,北京银行(潞城支行),北京市,,,ef4c65477b369fb3fb2d61f2
北京市通州区次渠西口次二村南6号1幢1层,通州区,北京市,1,39.808384,116.577388,北京银行24小时自助银行(光机电园区支行),北京市,1d4edd4cc3ca662f1029359c,,1d4edd4cc3ca662f1029359c
玉桥西里中街72号,通州区,北京市,1,39.894158,116.679977,北京银行24小时自助银行(玉桥西里社区支行),北京市,a937d118330f7f70f503b88c,,83f3a8f0c412f25adbd8915a
北京市通州区兴华嘉园245号院12号,通州区,北京市,1,39.758657,116.562425,北京银行24小时自助银行服务(马驹桥支行),北京市,cb858b0205c570dbd13ce3d3,,cb858b0205c570dbd13ce3d3
小堡南街1号院附近,通州区,北京市,1,39.949655,116.730305,北京银行24小时自助银行,北京市,,,05a12ab023d19b6a0b1cc703
梨园西里27号楼,通州区,北京市,1,39.88801,116.679453,北京银行24小时自助银行(梨园西里社区支行),北京市,9f404a01a8bc6a477c29bdc4,,9f404a01a8bc6a477c29bdc4
杨庄南里8号楼-1,通州区,北京市,1,39.900677,116.649233,北京银行24小时自助银行(新华联家园社区支行),北京市,0d1a7bc6019e3c98c51e51d3,,0d1a7bc6019e3c98c51e51d3
九棵树街165/167/171/175号,通州区,北京市,1,39.89484,116.662924,北京银行24小时自助银行(瑞都支行),北京市,b6953bd10c10ae25c51b75fd,,b6953bd10c10ae25c51b75fd
北京市通州区通胡大街11号,通州区,北京市,1,39.922123,116.700151,北京银行24小时自助银行(运河支行),北京市,cd167f6be5f8c145bfa8225d,,cd167f6be5f8c145bfa8225d
北京市通州区怡乐北街92号,通州区,北京市,1,39.894433,116.647636,北京银行24小时自助银行(怡乐北街社区支行),北京市,6ba9e6bbe12d8e8aca2915e2,,6ba9e6bbe12d8e8aca2915e2
北京市通州区临河里北京银行(梨园南街南),通州区,北京市,1,39.886207,116.686815,北京银行24小时自助银行服务(梨园南街),北京市,223671536a127a82a2a9346e,,223671536a127a82a2a9346e
九棵树街翠景北里5号楼165号,通州区,北京市,1,39.895109,116.663395,北京银行离行自助电费代收点,北京市,78cf3e815cca6d27ad31e5e9,,78cf3e815cca6d27ad31e5e9
北京市顺义区后沙峪双裕街45号地上1层,顺义区,北京市,1,40.111605,116.549213,北京银行,北京市,,"95526,(010)80478816",a95ae00ef3f63afb9868b4d9
天竺镇府前一街38号天韵阁1层,顺义区,北京市,1,40.067887,116.572058,北京银行(天竺支行),北京市,f1fd8f7f4f767cf1b4265583,(010)64561937,f1fd8f7f4f767cf1b4265583
站前街粮食局商办楼1层,顺义区,北京市,1,40.132493,116.661052,北京银行(顺义支行),北京市,25d63fcc58c72ce425e0a099,,25d63fcc58c72ce425e0a099
顺义区四纬路2号,顺义区,北京市,1,40.050132,116.629833,北京银行(绿港国际中心支行),北京市,92e959cafb5900e138e4a6c5,(010)84169618,92e959cafb5900e138e4a6c5
北京市顺义区仁和镇前进花园石门苑甲13号(国泰宏城购物广场F1-2),顺义区,北京市,1,40.135845,116.640416,北京银行(石门支行),北京市,b18b27f033070b78b9df8f26,(010)89418302,b18b27f033070b78b9df8f26
北京市顺义区顺平辅线177,顺义区,北京市,1,40.13901,116.706271,北京银行(南彩支行),北京市,,95526,94eed592207add0df82d61b3
北京市顺义区南法信镇顺平路566号ACLP国际大厦,顺义区,北京市,1,40.120339,116.615454,北京银行(航港支行),北京市,181ddbbdd2e113909e9d6878,(010)69479251,181ddbbdd2e113909e9d6878
北京市顺义区裕龙花园三区7号,顺义区,北京市,1,40.129559,116.679624,北京银行(裕龙支行),北京市,c1327f42d4aed2e0b11e36a0,95526,c1327f42d4aed2e0b11e36a0
仁和镇石园南区33号楼102号,顺义区,北京市,1,40.1145,116.667713,北京银行(石园支行),北京市,b703e96b4605b3fa8e1a89bc,(010)89452680,b703e96b4605b3fa8e1a89bc
佳和宜园1号楼101号,顺义区,北京市,1,40.181683,116.658551,北京银行(顺义新城支行),北京市,57917cdb6c055cdd8c1a895e,(010)56441347,57917cdb6c055cdd8c1a895e
北京市顺义区天竺空港工业区B区空港融慧园4号楼,顺义区,北京市,1,40.093872,116.556931,北京银行(新国展支行),北京市,a8e580262e18027e79dbd21f,(010)80470126,a8e580262e18027e79dbd21f
李遂镇首都医科大学附属北京地坛医院顺义院区,顺义区,北京市,1,40.106141,116.764829,北京银行ATM,北京市,8538ca833aeadbb19f09f7c9,,8538ca833aeadbb19f09f7c9
北京市顺义区仁和地区燕京桥东1000米顺康路1号妇幼保健院住院处,顺义区,北京市,1,40.120354,116.679544,北京银行ATM,北京市,,,9510ffed5805c2a29c09f773
杨镇鲜花港南路9号(白马路北侧)北京国际鲜花港内,顺义区,北京市,1,40.183323,116.806745,北京银行ATM,北京市,,,f75219a09704a4ff58f6be25
顺成大街,顺义区,北京市,1,40.176876,116.66115,北京银行ATM,北京市,ea9360bf4115740fc16c1401,,ea9360bf4115740fc16c1401
牛栏山工业园区闽京蒲企业园2期,顺义区,北京市,1,40.230877,116.640722,北京银行24小时自助银行,北京市,694da3898900b4e4f5c59c37,,694da3898900b4e4f5c59c37
首都机场四纬路2,顺义区,北京市,1,40.049996,116.630041,北京银行郊区管理部,北京市,,,718b934995a4085a6b49f3b2
北京市顺义区仁和镇石园南区33号楼102号,顺义区,北京市,1,40.114455,116.668826,北京银行个人贷款中心,北京市,1dd9f490f9c8fdae90114c31,,1dd9f490f9c8fdae90114c31
机场北街8号,顺义区,北京市,1,40.120333,116.615371,北京银行24小时自助银行(航港支行),北京市,e90ae46801fef5c610293589,,e90ae46801fef5c610293589
北京市顺义区火沙路45号附近,顺义区,北京市,1,40.111396,116.548969,北京银行24小时自助银行服务,北京市,,,243478e5476d71e0c5effbee
3号航站楼C2层国内到达公共区域A口东侧,顺义区,北京市,1,40.06228,116.621214,北京银行ATM(首都国际机场支行),北京市,,,9047b4d07187ea9cf03cba6a
佳和宜园1号楼101号,顺义区,北京市,1,40.181704,116.658381,北京银行24小时自助银行服务(顺安北路),北京市,751d61bbc75ea15eb8bd636e,,751d61bbc75ea15eb8bd636e
东兴路与顺沙路交叉口东北150米,顺义区,北京市,1,40.143928,116.667466,北京银行24小时自助银行,北京市,,,047a56458f0207c975e5b68d
裕龙花园三区7,顺义区,北京市,1,40.129514,116.679856,北京银行24小时自助银行(裕龙支行),北京市,a86f2fb161a70087354aae3a,,a86f2fb161a70087354aae3a
石园南区33号楼1层,顺义区,北京市,1,40.114487,116.667821,北京银行24小时自助银行(石园支行),北京市,d6c5d991f1337be831169bbc,,d6c5d991f1337be831169bbc
北京市顺义区306省道177号院附近,顺义区,北京市,1,40.138827,116.705953,北京银行24小时自助银行(南彩支行),北京市,24896d63ad9c4f638bfc060b,,24896d63ad9c4f638bfc060b
北京市顺义区光明新华书店(顺义店),顺义区,北京市,1,40.132369,116.660857,北京银行24小时自助银行(顺义支行),北京市,d991e116b17108551e3894bc,,d991e116b17108551e3894bc
前进花园石门苑甲13,顺义区,北京市,1,40.135827,116.640435,北京银行24小时自助银行(石门支行),北京市,e4ab94ccffda36197bf79663,,e4ab94ccffda36197bf79663
空港融慧园4,顺义区,北京市,1,40.093871,116.557035,北京银行24小时自助银行(新国展支行),北京市,28e700f101ef237f085cb38b,,28e700f101ef237f085cb38b
首都国际机场四纬路02,顺义区,北京市,1,40.050167,116.630272,北京银行24小时自助银行(绿港国际中心支行),北京市,610852117d5d3fdcc51b755b,,610852117d5d3fdcc51b755b
北京市顺义区天竺镇天竺花园天韵阁1层,顺义区,北京市,1,40.067948,116.572281,北京银行24小时自助银行服务(天竺支行),北京市,f26a71a22edeb2880b69d9f7,,f26a71a22edeb2880b69d9f7
北京市顺义区天竺镇府前一街38号,顺义区,北京市,1,40.067847,116.572504,中国银行24小时自助银行(北京天竺支行),北京市,bb57b71a96f0aa3c9c09f7fa,,bb57b71a96f0aa3c9c09f7fa
南法信镇顺平路566号ACLP国际大厦首层航港支行,顺义区,北京市,1,40.120026,116.615551,北京银行离行自助电费代收点,北京市,9db1f90fe68a566840ab9a43,,9db1f90fe68a566840ab9a43
北京市昌平区回龙观西大街北店时代广场E座1层,昌平区,北京市,1,40.086087,116.34452,北京银行(回龙观支行),北京市,c13807f5abb1d7389d95dedb,,c13807f5abb1d7389d95dedb
北京市昌平区府学路9号,昌平区,北京市,1,40.227898,116.264369,北京银行(东关支行),北京市,,(010)80103702,487f5155a9da7ceba7c75679
北京市朝阳区东小口镇立汤路188号北方明珠大厦商业首层,朝阳区,北京市,1,40.063898,116.421358,北京银行(天通苑支行),北京市,4d87808ee282f8d95b1093fe,"(010)95526,(010)58608601",4d87808ee282f8d95b1093fe
北京市昌平区建材城西路87号院2上奥世纪B座1楼,昌平区,北京市,1,40.062964,116.33609,北京银行(西三旗支行),北京市,bdf192ead1ffd36f2dfaa718,(010)82969620,bdf192ead1ffd36f2dfaa718
北京市昌平区宏福大道商业街D栋,昌平区,北京市,1,40.108118,116.380453,北京银行(宏福大道),北京市,5b08edd49931a70e00ff2d5c,(010)81775199,5b08edd49931a70e00ff2d5c
政府街2号,昌平区,北京市,1,40.226947,116.245337,北京银行(昌平支行),北京市,9bdc73548b699f95c6effb66,(010)80103925,9bdc73548b699f95c6effb66
北京市昌平区北七家镇立汤路58号,昌平区,北京市,1,40.123205,116.419609,北京银行(北七家支行),北京市,41572e00f6ebebcab55f1ea5,(010)89756407,41572e00f6ebebcab55f1ea5
小汤山镇温泉街390号小汤山医院门诊楼,昌平区,北京市,1,40.185402,116.397185,北京银行ATM,北京市,,,49076f0eb3b9761151e5c553
北京市昌平区回龙观西大街19号,昌平区,北京市,1,40.086473,116.344876,北京银行理财中心,北京市,c3efa661d259128d52e5c5db,,c3efa661d259128d52e5c5db
北京市昌平区建材城西路87号2号楼1层,昌平区,北京市,1,40.06257,116.33678,北京银行24小时自助银行服务(西三旗支行),北京市,b07f44e3c30d2fba94ec8498,,b07f44e3c30d2fba94ec8498
北京市昌平区宏福大道,昌平区,北京市,1,40.108176,116.380392,北京银行24小时自助银行(宏福科技园支行),北京市,e50cfc7cc93999a02811d12a,,e50cfc7cc93999a02811d12a
北京市昌平区回龙观西大街北店时代广场E段,昌平区,北京市,1,40.085936,116.344623,北京银行24小时自助银行(回龙观支行),北京市,,,0ed20a155aedbde956bfff9e
北京市昌平区北京银行培训中心(怀昌路北),昌平区,北京市,1,40.242734,116.462916,北京银行培训中心,北京市,,,e84c4778094814b3b6f42f2f
北京市昌平区政府街2号,昌平区,北京市,1,40.22685,116.246108,北京银行24小时自助银行(昌平支行),北京市,d97e0f04902a66194c3a59cc,,d97e0f04902a66194c3a59cc
南店北路北50米,昌平区,北京市,1,40.073407,116.329529,北京银行24小时自助银行服务(南店北路),北京市,e66e9b5193c74a3eca291589,,e66e9b5193c74a3eca291589
北京市昌平区回龙观东大街199号南100米,昌平区,北京市,1,40.085778,116.353438,北京银行24小时自助银行,北京市,,,e2ca52c96d94569a17c8f69b
北七家镇立汤路58号1幢1层,昌平区,北京市,1,40.123197,116.419513,北京银行24小时自助银行(北七家支行),北京市,b388f9fd9f46ae3fb25c6aba,,b388f9fd9f46ae3fb25c6aba
北京市北京经济技术开发区宏达北路12号,大兴区,北京市,1,39.807102,116.51519,北京银行(经济技术开发区支行),北京市,e31f7c7d74b2ea86102935ac,,e31f7c7d74b2ea86102935ac
北京市大兴区永华南里1号楼1楼,大兴区,北京市,1,39.732626,116.338147,北京银行(大兴支行),北京市,90048cae23ee639500ff2d3b,(010)69261010,90048cae23ee639500ff2d3b
北京市大兴区黄村镇兴华路212号,大兴区,北京市,1,39.761855,116.339608,北京银行(黄村支行),北京市,b40d969b1a165e342802e12b,(010)69238897,b40d969b1a165e342802e12b
"北京市大兴区文化园西路8号院25号楼1层108,2层204",大兴区,北京市,1,39.810429,116.5009,北京银行(亦庄支行),北京市,4f6d28fd06cc343657bfffb8,(010)87927933,4f6d28fd06cc343657bfffb8
北京市大兴区西红门北一街1号院24号楼1层103号,大兴区,北京市,1,39.800312,116.351028,北京银行(西红门支行),北京市,e738b32c159d09b2ee74f8ca,"95526,(010)80258221",e738b32c159d09b2ee74f8ca
北京市大兴区利民西巷5号,大兴区,北京市,1,39.740944,116.346594,北京银行(利民西巷社区支行),北京市,b227a44596e22c2f6c476089,(010)81299378,b227a44596e22c2f6c476089
黄村镇兴华大街二段19号院16,大兴区,北京市,1,39.781149,116.33665,北京银行(兴华大街社区支行),北京市,,,601118473b9b64d5f90cadc4
北京市大兴区金星路12号院2号楼,大兴区,北京市,1,39.768104,116.356688,北京银行(大兴经济开发区支行),北京市,2fb60db3b664ef424251c062,(010)69221707,2fb60db3b664ef424251c062
北京市大兴区魏善庄镇魏北路28号院18号楼,大兴区,北京市,1,39.674232,116.426008,北京银行(魏善庄支行),北京市,,(010)89232810,9f143a9d3ff43151aecb6626
文化园西路8号院25号楼1-2层108/204,大兴区,北京市,1,39.810342,116.500918,北京银行24小时自助银行服务(亦庄支行),北京市,a0c19ef1feab7de99f82ea1b,,a0c19ef1feab7de99f82ea1b
北京市大兴区京良路10号乐家购物中心F2,大兴区,北京市,1,39.804988,116.339064,北京银行ATM,北京市,e4635980004b1b2542d63e84,,e4635980004b1b2542d63e84
黄村镇清源路北京交通学校,大兴区,北京市,1,39.750904,116.349173,北京银行ATM,北京市,6c8fa53af7b7a4422a3a9fae,,6c8fa53af7b7a4422a3a9fae
西红门北一街1号院24号楼1层103号,大兴区,北京市,1,39.800415,116.351113,北京银行24小时自助银行服务(西红门支行),北京市,119162df35dba9157bf79657,,119162df35dba9157bf79657
北京市大兴区金星路12号院2号,大兴区,北京市,1,39.768179,116.356437,北京银行24小时自助银行服务(大兴经济开发区支行),北京市,ee481a4ea01ae0a446572621,,ee481a4ea01ae0a446572621
北京市大兴区利民西巷5号,大兴区,北京市,1,39.740944,116.346594,北京银行24小时自助银行(利民西巷社区支行),北京市,3b3f02131f631d7c9c82ea00,,3b3f02131f631d7c9c82ea00
北京市大兴区清源北路北京石油化工学院,大兴区,北京市,1,39.753274,116.333058,北京银行24小时自助银行(校长大厦东北),北京市,a39cd7ec02d21a0cfbf0cb47,,a39cd7ec02d21a0cfbf0cb47
宏达北路12,大兴区,北京市,1,39.807167,116.515124,北京银行24小时自助银行(经济技术开发区支行),北京市,4eb3b53376b95a74430245ec,,4eb3b53376b95a74430245ec
北京市大兴区富强路155,大兴区,北京市,1,39.743532,116.333078,北京银行24小时自助银行服务(富强西路社区支行),北京市,a2cd3fca6ec27f0a095cb30b,,a2cd3fca6ec27f0a095cb30b
永华南里1号楼1层,大兴区,北京市,1,39.732684,116.338093,北京银行24小时自助银行(大兴支行),北京市,,,3240d8aa07a6acce82288a9f
北京市大兴区黄村镇兴华路212号,大兴区,北京市,1,39.76246,116.339887,北京银行24小时自助银行(黄村支行),北京市,8a2d0987f9e90e1a81a12ea4,,8a2d0987f9e90e1a81a12ea4
北京市大兴区兴华大街(二段)19号院16-102,大兴区,北京市,1,39.781215,116.336608,北京银行24小时自助银行服务(兴华大街社区支行),北京市,,,1fd675e5ad8095049cec2bb8
怀柔区府前西街2号楼,怀柔区,北京市,1,40.320527,116.635326,北京银行(怀柔支行),北京市,,"95526,(010)69697033",ecb676b0e7572425c42ba1bb
怀耿路120号院5号楼,怀柔区,北京市,1,40.295919,116.685046,北京银行(杨宋支行),北京市,4460b790539d349d17948e73,(010)50951777,4460b790539d349d17948e73
北京市怀柔区迎宾路8,怀柔区,北京市,1,40.318335,116.645034,北京银行24小时自助银行,北京市,,,6f0e8c7ec444c7018bdb73de
北京市怀柔区凤翔大街,怀柔区,北京市,1,40.296003,116.685062,北京银行24小时自助银行服务,北京市,,,a452a8826282ae5bb21e364d
北京市怀柔区府前西街新悦百货,怀柔区,北京市,1,40.320646,116.635702,北京银行24小时自助银行服务(新悦百货店),北京市,a466aded1d5276d79d9d6887,,a466aded1d5276d79d9d6887
平谷区平谷镇新平东路13号,平谷区,北京市,1,40.146436,117.129872,北京银行(府前街支行),北京市,3363dff2754882a92bd7ab50,(010)61995896,3363dff2754882a92bd7ab50
平谷镇新平东路13号华业大厦1层,平谷区,北京市,1,40.146483,117.129762,北京银行24小时自助银行(府前街支行),北京市,d1fb18ab12b5afce9ee32134,,d1fb18ab12b5afce9ee32134
北京市密云区鼓楼东大街19-5号,密云区,北京市,1,40.382622,116.864196,北京银行(密云支行),北京市,eb088db81d4e01a0fbf0cbef,(010)69087741,eb088db81d4e01a0fbf0cbef
果园新里北区威霖大厦1层,密云区,北京市,1,40.383154,116.837581,北京银行(季庄支行),北京市,e1c5ce46ef15cf026e3e1b6c,(010)69026927,e1c5ce46ef15cf026e3e1b6c
北京市密云区鼓楼东大街19-5,密云区,北京市,1,40.382576,116.864383,北京银行24小时自助银行(密云支行),北京市,a5097bfa9653cb60f03cba33,,a5097bfa9653cb60f03cba33
西门外大街10号,密云区,北京市,1,40.383005,116.837436,北京银行24小时自助银行(季庄支行),北京市,c2ff2a5e1ca5a39129fc48c0,,c2ff2a5e1ca5a39129fc48c0
北京市延庆区s220省道西边北京世界园艺博览会教育与未来展示区内,延庆区,北京市,1,40.444875,115.953375,北京银行展园,北京市,,,93d8b20a62addc3f744ff166
北京市延庆区湖北西路5号,延庆区,北京市,1,40.461958,115.979782,北京银行(世园支行),北京市,,,6eb4e33568b47e237bf796aa
北京市延庆区高塔街67号,延庆区,北京市,1,40.471595,115.990727,北京银行(延庆支行),北京市,6a3341b4d98bf96a601c6753,(010)61123410,6a3341b4d98bf96a601c6753
北京市延庆区恒安西街二巷12号,延庆区,北京市,1,40.472143,115.987914,北京银行24小时自助银行服务(广兴街),北京市,b4aad46f73ff4a44a8f0cd4f,,e884f844cca49769b05c6a7d
北京市延庆区高塔街五十六号,延庆区,北京市,1,40.471773,115.990732,北京银行24小时自助银行,北京市,,,eb5e3af21eee1d82740269da
