address,area,city,detail,lat,lng,name,province,street_id,telephone,uid
北京市东城区东兴隆街56号北京·商界A段1层,东城区,北京市,1,39.903355,116.420918,交通银行(北京崇文门支行),北京市,750ec1656502592b4d3a5999,,750ec1656502592b4d3a5999
北京市东城区安乐林路10,东城区,北京市,1,39.871337,116.419912,交通银行ATM(北京京坛医院西),北京市,6b7e583a572ad6dc2fe67bba,,6b7e583a572ad6dc2fe67bba
建国门内大街17号好苑建国酒店1层,东城区,北京市,1,39.915675,116.42981,交通银行ATM(好苑建国酒店),北京市,,,b5ed4053d1552c80c4f0251f
北京市东城区中新街68,东城区,北京市,1,39.935926,116.447132,交通银行24小时自助银行(工人体育场南路),北京市,593850fb96942723df1e5273,,593850fb96942723df1e5273
金宝街61号鑫海锦江大酒店1层,东城区,北京市,1,39.921861,116.43221,交通银行24小时自助银行(金宝街),北京市,16d191a12eef5366c5effbcd,,16d191a12eef5366c5effbcd
东直门外大街48号银座百货L1层,东城区,北京市,1,39.946263,116.442041,交通银行24小时自助银行服务(银座百货),北京市,49de1b6a01594c50882fb5bb,,49de1b6a01594c50882fb5bb
东城区东单北大街乙112号,东城区,北京市,1,39.916728,116.424703,交通银行24小时自助银行服务(北京东单北大街支行),北京市,9dae0bcc50a36539f33cba7e,,9dae0bcc50a36539f33cba7e
和平里北街18号,东城区,北京市,1,39.965174,116.42033,交通银行24小时自助银行服务(和平里医院店),北京市,8e3a8a2f35bae1174f6d4691,,8e3a8a2f35bae1174f6d4691
北京市东城区王府井大街301号新燕莎金街购物广场,东城区,北京市,1,39.915724,116.417406,交通银行ATM(新燕莎金街购物广场),北京市,5f5a4581ab7ce21a38221cd6,,5f5a4581ab7ce21a38221cd6
北京市东城区和平里西街51号雍和壹中心B7,东城区,北京市,1,39.959168,116.426006,交通银行信用卡中心北京分中心,北京市,,,9b9f2d885806f6dff6eafcee
北京市东城区王府井大街200号北京工美集团工美大厦1层,东城区,北京市,1,39.91722,116.418124,交通银行24小时自助银行(王府井支行),北京市,64ff3be1d3fc0fc591114cbd,,64ff3be1d3fc0fc591114cbd
天坛东里北区12,东城区,北京市,1,39.885149,116.427121,交通银行24小时自助银行(天坛支行),北京市,bba8738847faa5a0bda82299,,bba8738847faa5a0bda82299
大雅宝胡同8,东城区,北京市,1,39.921252,116.438835,交通银行24小时自助银行(东单支行),北京市,aec88894579bc6781c389461,,aec88894579bc6781c389461
兴化路11-1,东城区,北京市,1,39.968088,116.419328,交通银行24小时自助银行服务(北京兴化路支行),北京市,bdccd509482a7bb346e27421,,bdccd509482a7bb346e27421
东城区和平里东街民旺园31号楼1层,东城区,北京市,1,39.959088,116.432157,交通银行24小时自助银行(北京和平里东街支行),北京市,b0d2f45c1492d3dd07026f69,,b0d2f45c1492d3dd07026f69
北京市东城区东兴隆街56号,东城区,北京市,1,39.903355,116.420978,交通银行24小时自助银行(北京崇文门支行),北京市,34089a199f1299d501ec01a9,,adb8b7e2635383c9f4e73b87
北京市西城区车公庄路新华里16-3号京侨国际公馆1层,西城区,北京市,1,39.940197,116.35643,交通银行(官园支行),北京市,aa9693a48e0fea0ff33cba9c,(010)88359267,aa9693a48e0fea0ff33cba9c
北京市西城区白纸坊东街10号,西城区,北京市,1,39.884228,116.377552,交通银行(右安门支行),北京市,34f68ab03833530a8f55ece9,"(010)63559939,(010)63513255",34f68ab03833530a8f55ece9
北京市西城区金融大街33号,西城区,北京市,1,39.91642,116.364427,交通银行(北京市分行营业部),北京市,550fd5f9ffa86379931fc93e,(010)66101616,550fd5f9ffa86379931fc93e
北京市西城区德外大街德胜国际中心1层,西城区,北京市,1,39.960044,116.385251,交通银行(北京德胜门支行),北京市,ef773a0f6790f749230220a7,(010)82015220,ef773a0f6790f749230220a7
北京市西城区三里河东路30号院1号楼,西城区,北京市,1,39.916655,116.352662,交通银行(西长安支行),北京市,,,46b2e92006e4990e2a02e191
北京市西城区金融大街33号,西城区,北京市,1,39.916415,116.364472,交通银行(贵金属交易及回购中心),北京市,cb78bf1ece61e2ddb9df8f9c,95559,cb78bf1ece61e2ddb9df8f9c
北京市西城区西单图书大厦八层交行研发中心,西城区,北京市,1,39.914012,116.383483,交行北京研发中心,北京市,,,14307ef160a1118ab4265538
北京市西城区金融街22号交银大厦A座19层,西城区,北京市,1,39.921416,116.36573,交通银行北京管理部集团,北京市,,,dc4338e046b30db4ad31e50c
北京市西城区金融大街17号,西城区,北京市,1,39.922329,116.366138,交通银行(离行式中国人寿中心),北京市,,,a0fdb0bd5253d96338221c57
宣武门外大街12号庄胜崇光百货新馆1层,西城区,北京市,1,39.901715,116.381622,交通银行ATM(宣武门外大街),北京市,a221214b2ed09c9a40afe66d,,a221214b2ed09c9a40afe66d
北京市西城区平安里西大街30号楼远通维景国际大酒店,西城区,北京市,1,39.937168,116.363691,交通银行ATM(远通维景国际大酒店),北京市,6900a2a9ba0e9f739dec2b97,,6900a2a9ba0e9f739dec2b97
北京市西城区车公庄大街9号五栋大楼1号楼一层,西城区,北京市,1,39.938322,116.355558,交通银行24小时自助银行(阜外支行),北京市,355e716e5cd62f3140afe69f,,355e716e5cd62f3140afe69f
小石桥胡同3号院4号楼,西城区,北京市,1,39.952575,116.400083,交通银行24小时自助银行服务(旧鼓楼大街),北京市,7fd72311ce9f1ee15cbe8613,,7fd72311ce9f1ee15cbe8613
北京市西城区西单北大街131号西单大悦城,西城区,北京市,1,39.917428,116.379217,交通银行ATM(西单大悦城),北京市,d44f75a0c61ad13ab11e36a7,,d44f75a0c61ad13ab11e36a7
金城坊东街1号北京金融街丽思卡尔顿酒店1层,西城区,北京市,1,39.920957,116.36936,交通银行ATM(金融街购物中心),北京市,09c70d0c404ee8ffd81318ce,,09c70d0c404ee8ffd81318ce
北京市西城区西长安街甲17,西城区,北京市,1,39.913922,116.383076,交通银行24小时自助银行服务(北京西单支行),北京市,80592c6b421fc9e343024599,,80592c6b421fc9e343024599
北京市西城区金融大街丙9号北京金融街威斯汀大酒店1层大堂,西城区,北京市,1,39.923129,116.365898,交通银行ATM(金融街威斯汀酒店),北京市,00a47ada604a20d62d473399,,00a47ada604a20d62d473399
北京市西城区广外大街248号机械大厦一层,西城区,北京市,1,39.89501,116.333347,交通银行24小时自助银行(马连道支行),北京市,dbf6fabcb4c15647c6f50d37,,dbf6fabcb4c15647c6f50d37
北京市西城区广安门内大街319号C-D座,西城区,北京市,1,39.895761,116.360349,交通银行24小时自助银行(宣武支行),北京市,e31f5865885ec39009b93aa7,,54ec08c287070e23754ff1f7
北京市西城区德胜门外大街5号,西城区,北京市,1,39.970431,116.385918,交通银行24小时自助银行(马甸支行),北京市,f13370f56ad70ce2a0d2309e,,f13370f56ad70ce2a0d2309e
北京市西城区月坛北街11-6号,西城区,北京市,1,39.921797,116.351218,交通银行24小时自助银行(月坛北街),北京市,6919e17c4b6b8b51100daabc,,6919e17c4b6b8b51100daabc
北京市西城区金融大街20号,西城区,北京市,1,39.920793,116.366686,交通银行24小时自助银行服务(北京金融大街支行),北京市,f764ab7eea075ffe4e2fdf5b,,f764ab7eea075ffe4e2fdf5b
德胜门外大街85号德胜国际中心A座,西城区,北京市,1,39.960105,116.385249,交通银行24小时自助银行(北京德胜门支行),北京市,a1418eb4b598cb02eae582a7,,a1418eb4b598cb02eae582a7
北京市西城区百万庄大街11-1,西城区,北京市,1,39.934098,116.356945,交通银行24小时自助银行(北京百万庄支行),北京市,1aedac4ee174bab5abf0cd64,,56979863be0a12fd4d5547b2
北京市西城区金融大街33号,西城区,北京市,1,39.916322,116.364402,交通银行24小时自助银行(北京市分行营业部),北京市,902043d75423aafb902ca303,,902043d75423aafb902ca303
白纸坊东街10-1号,西城区,北京市,1,39.884354,116.37754,交通银行24小时自助银行(北京右安门支行),北京市,b7021bf801dbef84f4e73b9d,,b7021bf801dbef84f4e73b9d
西长安街17号,西城区,北京市,1,39.913921,116.383249,个人外汇交易中心,北京市,29f8df583c4dd29017948e2e,,29f8df583c4dd29017948e2e
北京市西城区车公庄北街6号-8,西城区,北京市,1,39.940043,116.356472,个人信贷金融服务中心,北京市,27e4ce5f93fa1d967069d39c,,27e4ce5f93fa1d967069d39c
北京市朝阳区酒仙桥路10号星城国际大厦内(798艺术区南侧),朝阳区,北京市,1,39.985918,116.497222,交通银行(酒仙桥支行),北京市,51475764c92c34cdc51e5159,"95559,(010)64350991,(010)64354445,(010)64351150",51475764c92c34cdc51e5159
曙光西里28号中冶大厦,朝阳区,北京市,1,39.966005,116.458955,交通银行(北京三元支行),北京市,1694336d7d3aa2f9157643d3,(010)64686512,1694336d7d3aa2f9157643d3
望京宏泰东街浦项中心B座,朝阳区,北京市,1,40.004603,116.494625,交通银行(北京望京东路支行),北京市,604efc9312b82ef8100daa7b,,604efc9312b82ef8100daa7b
北京市朝阳区光华路甲8号和乔大厦C座一层,朝阳区,北京市,1,39.919074,116.477788,交通银行(北京光华路支行),北京市,764672e581fce5ad95ec84b5,(010)65832085,764672e581fce5ad95ec84b5
北京市朝阳区阜通西大街望京西园四区416号楼,朝阳区,北京市,1,40.001723,116.479255,交通银行(北京望京西园支行),北京市,925c550f17adfab25a3ac84c,(010)64713569,925c550f17adfab25a3ac84c
北京市朝阳区广渠路36号5号楼,朝阳区,北京市,1,39.897417,116.476038,交通银行(北京双井支行),北京市,5e4a57856546eab22902e12a,,5e4a57856546eab22902e12a
北京市朝阳区朝阳北路99号,朝阳区,北京市,1,39.930244,116.526596,交通银行(北京朝阳北路支行),北京市,eb561108edb433b67adbd29c,(010)85526505,eb561108edb433b67adbd29c
北京市朝阳区小营路12号亚运花园B座一层,朝阳区,北京市,1,40.000211,116.431013,交通银行(北京育惠东路支行),北京市,d6ee872448c254e0a8f0cd4c,(010)84624402,d6ee872448c254e0a8f0cd4c
北京市朝阳区东三环北路19号中青大厦1-2层,朝阳区,北京市,1,39.935555,116.467471,交通银行(北京东三环支行),北京市,cdff994660a4b0824207c1db,(010)65869850,cdff994660a4b0824207c1db
北京市朝阳区广渠门外大街8号优士阁大厦b座c座首层,朝阳区,北京市,1,39.898647,116.465909,交通银行(北京广渠路支行),北京市,442076468dceb96bdfee8bb5,(010)58614201,442076468dceb96bdfee8bb5
青年路27号院1号楼,朝阳区,北京市,1,39.93813,116.523214,交通银行(北京青年路支行),北京市,556c733e816047426f4760eb,(010)56089566,556c733e816047426f4760eb
北京市朝阳区慧忠北里413号,朝阳区,北京市,1,40.010191,116.40721,交通银行(北京慧忠里支行),北京市,c7fb04bdd1c8fb15fa0cad7a,(010)64924239,c7fb04bdd1c8fb15fa0cad7a
朝阳区安贞西里三区26号,朝阳区,北京市,1,39.975622,116.405984,交通银行(北京中轴路支行),北京市,3f9337d686fe18b3f7231028,(010)84134538,3f9337d686fe18b3f7231028
北京市朝阳区外馆东街51号,朝阳区,北京市,1,39.968787,116.410049,交通银行(北京和平里支行),北京市,e56bf5e3064b7b440782c2ff,(010)64408115,e56bf5e3064b7b440782c2ff
朝阳区太阳宫中路火星园10号楼,朝阳区,北京市,1,39.976493,116.451674,交通银行(北京太阳宫支行),北京市,8f13c155e230731f83a00cab,"(010)84158623,(010)84158643",8f13c155e230731f83a00cab
北京市朝阳区水碓子北里19号楼,朝阳区,北京市,1,39.934282,116.484516,交通银行(北京水碓子支行),北京市,6ee01020bb5b98ef52e5c54c,"(010)85961006,(010)85960974,(010)85978605",6ee01020bb5b98ef52e5c54c
朝阳区望京南湖中园K3-301,朝阳区,北京市,1,40.00625,116.468967,交通银行(望京南湖中园支行电费代收点),北京市,c4a41f6a5c31da662db96de1,(010)84713883,c4a41f6a5c31da662db96de1
北京市朝阳区林萃路倚林家园24号楼108-1,朝阳区,北京市,1,40.019756,116.377616,交通银行(林萃路支行营业室电费代收点),北京市,3994eb568b2976fac61e51c9,95559,3994eb568b2976fac61e51c9
北京市朝阳区吕营大街56号附近,朝阳区,北京市,1,39.848979,116.475453,交通银行ATM,北京市,,,add0ec2c40a8af74f4eafce4
北京市朝阳区松园北路8号,朝阳区,北京市,1,39.971973,116.557642,交通银行ATM,北京市,30f0bb8df8e758e9306212dd,,30f0bb8df8e758e9306212dd
立清路8号明天第一城小区立水桥海鲜农贸市场1层,朝阳区,北京市,1,40.053674,116.416238,交通银行ATM(立军路),北京市,,,21d116d538f40880f942b223
安外北苑路3号院,朝阳区,北京市,1,40.035153,116.425059,交通银行24小时自助银行(北苑路),北京市,c95859e7aec372b39ee3211f,,c95859e7aec372b39ee3211f
常营中路1号院11-8号,朝阳区,北京市,1,39.935808,116.614225,交通银行ATM(常营中路),北京市,a79f2281e9e05ddd40afe6d2,,a79f2281e9e05ddd40afe6d2
北京市朝阳区新源南路2号昆仑饭店1层,朝阳区,北京市,1,39.953939,116.466428,交通银行ATM(昆仑饭店),北京市,cdd3c150b9f80ecd45e274fe,,cdd3c150b9f80ecd45e274fe
东三环北路19号中青大厦,朝阳区,北京市,1,39.935631,116.467383,交通银行24小时自助银行(白家庄路),北京市,a820f82ee3272cc15e0d02cf,,a820f82ee3272cc15e0d02cf
垂杨柳南街2号北京市垂杨柳医院F1层,朝阳区,北京市,1,39.893265,116.465745,交通银行ATM(垂杨柳南街),北京市,6df8c63ea15f5e4902ff2d42,,6df8c63ea15f5e4902ff2d42
北三环中冶大厦一楼,朝阳区,北京市,1,39.965963,116.458908,交通银行24小时自助银行(凤凰城西),北京市,2b9a9bab7dc0538cf60e7747,,2b9a9bab7dc0538cf60e7747
北京市朝阳区朝阳门外大街16号中国人寿大厦,朝阳区,北京市,1,39.929341,116.446831,交通银行24小时自助银行服务(朝外支行),北京市,593850fb97032023df1e52e2,,593850fb97032023df1e52e2
北京市朝阳区华威里18号,朝阳区,北京市,1,39.881691,116.464809,交通银行24小时自助银行(潘家园路),北京市,31299df7cdc509abbb17e718,,31299df7cdc509abbb17e718
北京市朝阳区北四环东路108号华堂商场F1,朝阳区,北京市,1,39.9943,116.426857,交通银行ATM(华堂商场),北京市,a76ed7892d676d81be484298,,a76ed7892d676d81be484298
麦子店西街盛福大厦1楼,朝阳区,北京市,1,39.952705,116.471392,交通银行ATM(盛福大厦店),北京市,0f8c862aa6133e84d92f28e6,,0f8c862aa6133e84d92f28e6
西坝河西里28号英特公寓,朝阳区,北京市,1,39.973411,116.445173,交通银行24小时自助银行服务(西坝河支行),北京市,6fddd7fdfc86ea7f3517dc4f,,6fddd7fdfc86ea7f3517dc4f
小关东里12号院101室,朝阳区,北京市,1,39.98374,116.422063,交通银行ATM(北土城东路),北京市,08710bc496fa4b80de1e52ad,,08710bc496fa4b80de1e52ad
朝阳区方庄东路9号(近离行式高新医院),朝阳区,北京市,1,39.873151,116.451847,交通银行ATM(高新医院店),北京市,,,126a6260e4efc437ad0457ba
观筑庭园801号楼1层,朝阳区,北京市,1,39.845279,116.476981,交通银行ATM(金洋国际东),北京市,207111aa0ea558bc78f79679,,207111aa0ea558bc78f79679
安慧里三区六号楼一层,朝阳区,北京市,1,40.000769,116.414456,交通银行24小时自助银行服务,北京市,09cddaae79f0b2604107c123,,09cddaae79f0b2604107c123
西坝河东里2号院6-11,朝阳区,北京市,1,39.972735,116.457316,交通银行24小时自助银行服务(UHN国际村东南),北京市,75d0881afc191b333a04b19d,,75d0881afc191b333a04b19d
水碓子北里19-2号,朝阳区,北京市,1,39.934253,116.48453,交通银行24小时自助银行服务(北京水碓子支行),北京市,7fd723119546c39f5cbe864f,,7fd723119546c39f5cbe864f
北京市朝阳区垡头翠城馨园甲401号楼,朝阳区,北京市,1,39.863115,116.511619,交通银行ATM(永辉超市垡头店),北京市,20d8672204b8046a13293563,,20d8672204b8046a13293563
清河营南街7号院华贸天地1楼,朝阳区,北京市,1,40.052629,116.438028,交通银行24小时自助银行服务(北京华贸天地支行),北京市,915e27e3f9acb24bc26c1492,,915e27e3f9acb24bc26c1492
北京市朝阳区东三环南路17号京瑞大厦东侧,朝阳区,北京市,1,39.875477,116.466749,交通银行ATM(京瑞温泉国际酒店东),北京市,3deeddf0d46ec1af79b55ca7,,3deeddf0d46ec1af79b55ca7
西大望路3号,朝阳区,北京市,1,39.917673,116.483794,交通银行24小时自助银行(大望路支行),北京市,11540d213647bd04744ff14d,,11540d213647bd04744ff14d
北京市朝阳区广渠路38号院5,朝阳区,北京市,1,39.897443,116.475947,交通银行24小时自助银行(双井支行),北京市,a6f4f8f84a26e60bcac3dbf5,,a6f4f8f84a26e60bcac3dbf5
北京市朝阳区北苑6号院103-2天怡家园底商首层,朝阳区,北京市,1,40.047352,116.428221,交通银行24小时自助银行(北苑支行),北京市,e137194ae588985c601c6722,,9405615f7dad414604026fb0
小武基路160号(金蝉西路),朝阳区,北京市,1,39.87215,116.504507,交通银行24小时自助银行(金蝉西路),北京市,642885ece0529e5758f6bec6,,642885ece0529e5758f6bec6
北京市朝阳区太阳宫火星园10-12,朝阳区,北京市,1,39.976402,116.451471,交通银行24小时自助银行(太阳宫支行),北京市,bccfa8b3c6b8598e715e80fc,,bccfa8b3c6b8598e715e80fc
光华路甲8-1号,朝阳区,北京市,1,39.919155,116.47783,交通银行24小时自助银行(光华路支行),北京市,d5f93c0ecb757422eddfca2f,,d5f93c0ecb757422eddfca2f
北京市朝阳区南湖中园317号,朝阳区,北京市,1,40.006116,116.469205,交通银行24小时自助银行服务(北京望京南湖中园支行),北京市,99521a1b2282fdc13517dc97,,99521a1b2282fdc13517dc97
北京市朝阳区阜通东大街6号方恒购物中心F1,朝阳区,北京市,1,39.995102,116.488069,交通银行24小时自助银行(方恒购物中心),北京市,b4e67e9122ea41a20f0e6b7a,,b4e67e9122ea41a20f0e6b7a
慧忠北里111号楼金利大厦1楼,朝阳区,北京市,1,40.011829,116.411398,交通银行24小时自助银行(北京慧忠北里支行),北京市,24d055081a0f7bd112882459,,24d055081a0f7bd112882459
安立路60号院-6润枫德尚苑6号楼,朝阳区,北京市,1,40.011938,116.416043,交通银行24小时自助银行(北京亚北支行),北京市,18c13a6991c67fcdbb17e7ab,,18c13a6991c67fcdbb17e7ab
小营路12号亚运花园B座1层,朝阳区,北京市,1,40.000208,116.430904,交通银行24小时自助银行(北京育惠东路支行),北京市,ccd735f1604253611e1d1199,,ccd735f1604253611e1d1199
青年路75附近(华纺易城3号楼),朝阳区,北京市,1,39.938046,116.523053,交通银行24小时自助银行服务(北京青年路支行),北京市,96ea68573fa5cb02095cb38f,,96ea68573fa5cb02095cb38f
东三环中路39号院-15建外SOHO西区15号楼,朝阳区,北京市,1,39.911143,116.457431,交通银行24小时自助银行(建外SOHO西区15号楼东北),北京市,719d3132484c48192b3a9f43,,22e114078057fecad5b74e21
北京市朝阳区工人体育场东路20号春平广场,朝阳区,北京市,1,39.929643,116.457734,交通银行24小时自助银行(北京东大桥支行),北京市,628471aafd929048f603b8d6,,628471aafd929048f603b8d6
外馆东街51-4,朝阳区,北京市,1,39.968791,116.410043,交通银行24小时自助银行服务(北京和平里支行),北京市,4f31b088f290fe300782c291,,4f31b088f290fe300782c291
北京市朝阳区安贞西里三区26号楼,朝阳区,北京市,1,39.975622,116.405869,交通银行24小时自助银行(北京中轴路支行),北京市,7aea43b73c9380867d29bd81,,7aea43b73c9380867d29bd81
北京市朝阳区金蝉欢乐谷2号院甲1,朝阳区,北京市,1,39.873503,116.508439,交通银行24小时自助银行(维吉奥广场店),北京市,38e4803700c9d637363a71a7,,38e4803700c9d637363a71a7
北京市朝阳区弘燕路山水文园西园1号楼103号,朝阳区,北京市,1,39.873311,116.473549,交通银行24小时自助银行服务(北京松榆里支行),北京市,9a452f6139ef5c23cc06a4ff,,9a452f6139ef5c23cc06a4ff
北京市朝阳区广渠门外大街8号优士阁B座,朝阳区,北京市,1,39.898703,116.465955,交通银行24小时自助银行(北京广渠路支行),北京市,bd2f90ac85955df688fc06b9,,bd2f90ac85955df688fc06b9
北京市朝阳区浦项中心B座1层,朝阳区,北京市,1,40.004652,116.494475,交通银行24小时自助银行(北京望京东路支行),北京市,,,a1791c6cd46610d4aeb22a7f
北京市朝阳区安立路8号汇中广场1层,朝阳区,北京市,1,40.038609,116.42052,交通银行24小时自助银行(北京媒体村支行),北京市,f81430fb1bbc38c493114c7b,,acb4c2cd561d71ce59f6bee7
北京市朝阳区慧忠北里413号,朝阳区,北京市,1,40.010269,116.40721,交通银行24小时自助银行(北京慧忠里支行),北京市,180976d6158e00e6e956fa97,,180976d6158e00e6e956fa97
安翔里24,朝阳区,北京市,1,39.99696,116.389295,交通银行24小时自助银行(北京安翔里支行),北京市,a3fd23ad6f04c6dbfd0eb01e,,a3fd23ad6f04c6dbfd0eb01e
北京市朝阳区南十里居28号院3-2,朝阳区,北京市,1,39.960181,116.502741,交通银行24小时自助银行服务(东润支行),北京市,0bb243e933a1ddcbb5147fb7,,6f86b79f3902c8260969d90f
北京市朝阳区农展馆北路甲5-1号,朝阳区,北京市,1,39.949971,116.475937,交通银行24小时自助银行(北京麦子店支行),北京市,e3a7fd13bc48032c28b97c21,,e3a7fd13bc48032c28b97c21
北京市朝阳区农展馆南路13号瑞晨国际中心首层,朝阳区,北京市,1,39.93991,116.473017,交通银行24小时自助银行服务(北京团结湖支行),北京市,da535b63ae795ec0a1d23027,,da535b63ae795ec0a1d23027
北京市朝阳区胜古家园3号楼,朝阳区,北京市,1,39.976065,116.41806,交通银行24小时自助银行(北京胜古园支行),北京市,38136909d3aa06628a36ee54,,38136909d3aa06628a36ee54
春秀路甲1号成业大厦,朝阳区,北京市,1,39.943973,116.451044,交通银行24小时自助银行(北京春秀路支行),北京市,46e86fddcec4ae12d03ce3a7,,46e86fddcec4ae12d03ce3a7
北京市朝阳区平乐园村100号北京工业大学,朝阳区,北京市,1,39.883859,116.487938,交通银行24小时自助银行(工业大学社区卫生服务中心西南),北京市,e4afc85c4cc75b492cb96d23,,e4afc85c4cc75b492cb96d23
北京市朝阳区东四环南路9号,朝阳区,北京市,1,39.883672,116.494697,交通银行24小时自助银行(燕莎奥特莱斯购物中心),北京市,fe33e2f0ff427bdfc9e33c41,,fe33e2f0ff427bdfc9e33c41
北京市朝阳区华威西里8号,朝阳区,北京市,1,39.884609,116.463037,交通银行24小时自助银行服务(华威路支行),北京市,00191f960353b3993686f4cc,,00191f960353b3993686f4cc
北京市朝阳区望京西园304号,朝阳区,北京市,1,40.007185,116.482592,交通银行24小时自助银行(北京望京中环路支行),北京市,675a88b00dfb2f53a5da399f,,675a88b00dfb2f53a5da399f
望京西园4区416,朝阳区,北京市,1,40.00151,116.479606,交通银行24小时自助银行(北京望京西园支行),北京市,4aa8c8a0bb036c511ef74d12,,4aa8c8a0bb036c511ef74d12
北京市朝阳区奥运村北辰东路慧忠北里第一社区西区,朝阳区,北京市,1,40.010127,116.407211,交通银行个人信贷金融服务中心(北辰东路店),北京市,0e8bee9036681fdbacee7a18,,0e8bee9036681fdbacee7a18
北京市朝阳区林萃路倚林佳园24号楼108-1,朝阳区,北京市,1,40.019727,116.377452,交通银行24小时自助银行服务(北京林萃路支行),北京市,6eaeb1fc375be8ad3fe23189,,6eaeb1fc375be8ad3fe23189
北京市朝阳区酒仙桥路甲10号星城国际大厦,朝阳区,北京市,1,39.985958,116.497155,交通银行北京酒仙桥中小企业金融服务中心,北京市,cf5ffbd2d255d38a5dd4feb0,,cf5ffbd2d255d38a5dd4feb0
北京市朝阳区酒仙桥路甲10号星城国际大厦,朝阳区,北京市,1,39.985913,116.497212,交通银行24小时自助银行(北京酒仙桥支行),北京市,a547f0dc704a640f8c55ec3b,,a547f0dc704a640f8c55ec3b
北京市朝阳区朝阳北路99号,朝阳区,北京市,1,39.930367,116.526647,交通银行24小时自助银行(北京朝阳北路支行),北京市,d5b9d58bbd52957715a19083,,d5b9d58bbd52957715a19083
广渠路21号,朝阳区,北京市,1,39.899591,116.500489,交通银行24小时自助银行(北京东区支行),北京市,78bd50f7f96e802530870ab7,,78bd50f7f96e802530870ab7
常营丽景园6号楼1层117号,朝阳区,北京市,1,39.930287,116.619423,交通银行24小时自助银行(北京常营支行),北京市,ed36fc7c71aecb492bd7ab14,,ed36fc7c71aecb492bd7ab14
亚运村北四环中路33号,朝阳区,北京市,1,39.995502,116.39243,交通银行24小时自助银行服务(盘古大观西),北京市,782b9a627cafd17a4e776e9c,,782b9a627cafd17a4e776e9c
东三环中路61号北京富力万丽酒店附近,朝阳区,北京市,1,39.903508,116.467384,交通银行24小时自助银行(北京东三环中路支行),北京市,37a2841d8432e65e38221c7b,,37a2841d8432e65e38221c7b
北京市朝阳区北三环北路69号附近,朝阳区,北京市,1,39.97559,116.40582,24小时自助银行服务,北京市,2a5dfebaa24205041df74d15,,2a5dfebaa24205041df74d15
南四环西路188号五区24号,丰台区,北京市,1,39.830357,116.292498,交通银行(丰台支行),北京市,fed60d3d2a44b93a2902e147,"(010)63705569,(010)63705559,(010)63705539",fed60d3d2a44b93a2902e147
北京市丰台区南苑路5号福海国际大厦1楼,丰台区,北京市,1,39.861135,116.404865,交通银行(北京福海国际支行),北京市,f4abb781db96f2e8f7e73bd9,(010)87202341,f4abb781db96f2e8f7e73bd9
北京市丰台区张郭庄南路16号,丰台区,北京市,1,39.855969,116.204216,交通银行(长辛店支行),北京市,6841e5d24a1ebfc8be4842ef,(010)83880276,6841e5d24a1ebfc8be4842ef
北京市丰台区西三环南路1号北京市政务服务中心,丰台区,北京市,1,39.887466,116.315204,交通银行(北京政务中心支行),北京市,,(010)89151024,54749fb8d6784de3b75f1e31
北京市丰台区丰台北路36号,丰台区,北京市,1,39.872007,116.304478,交通银行(北京丰台北路支行),北京市,1b90c577dbd46a901d580047,(010)83897709,1b90c577dbd46a901d580047
丰台区芳城东里9-1号(近方庄东路),丰台区,北京市,1,39.87221,116.448887,交通银行(东方庄支行),北京市,eb13753730868a053f9a5e61,95559,eb13753730868a053f9a5e61
北京市丰台区南苑路警备东路6号方仕国际酒店一层,丰台区,北京市,1,39.799713,116.425931,交通银行(北京东高地支行),北京市,b7021bf8eb8831faf4e73b37,(010)67063671,b7021bf8eb8831faf4e73b37
北京市丰台区大成路25号1-1-2,丰台区,北京市,1,39.895779,116.261584,交通银行(北京大成路支行),北京市,a9805657fb25340b1b11d57f,,a9805657fb25340b1b11d57f
五圈路与汽车博物馆东路交叉口西北100米,丰台区,北京市,1,39.831864,116.308851,交通银行(北京丰台科技园支行),北京市,,,040148bc0d98d550223bf292
北京市丰台区看丹路30号附近,丰台区,北京市,1,39.846237,116.288665,交通银行ATM,北京市,,,4c780c799608747e3904b1d7
北京市丰台区南四环西路188号五区24,丰台区,北京市,1,39.830241,116.292629,交通银行24小时自助银行(丰台支行),北京市,4bb049d9129295479900503a,,4bb049d9129295479900503a
建欣苑小区,丰台区,北京市,1,39.84678,116.40463,交通银行ATM(建欣路),北京市,ed80aab3f27434c1f219371c,,ed80aab3f27434c1f219371c
北京市丰台区邻枫路1号欧尚1层(屈臣氏门口),丰台区,北京市,1,39.842028,116.294988,交通银行ATM(邻枫路),北京市,40ac3892a5bad0765f17c384,,40ac3892a5bad0765f17c384
北京市丰台区芳古路芳星园三区25号,丰台区,北京市,1,39.866641,116.438904,交通银行ATM(芳星园三区),北京市,e1e4863da264fbc1471a325a,,e1e4863da264fbc1471a325a
丰台区方庄路1-1号,丰台区,北京市,1,39.872059,116.44877,交通银行24小时自助银行(方庄东路),北京市,1052869b107f02ecc909f074,,1052869b107f02ecc909f074
首经贸中街1号院1号楼底商,丰台区,北京市,1,39.846642,116.330391,交通银行24小时自助银行服务(首经贸中街),北京市,b2dd2ac19256f944c0364499,,b2dd2ac19256f944c0364499
北京市丰台区汽车博物馆东路,丰台区,北京市,1,39.831846,116.308932,交通银行24小时自助银行,北京市,,,4f2c49cff7d96bcabca8229b
南苑路7号福成服装大厦1层,丰台区,北京市,1,39.859693,116.405852,交通银行ATM(福成服装大厦),北京市,8f07d62f924d91b2f4eafc17,,8f07d62f924d91b2f4eafc17
北京市丰台区宋庄路71号院3,丰台区,北京市,1,39.851559,116.432733,交通银行24小时自助银行服务,北京市,11b5b30225daaeafa6da399b,,11b5b30225daaeafa6da399b
大成路22号天泰大厦1层,丰台区,北京市,1,39.895776,116.261452,交通银行24小时自助银行(大成路),北京市,25e2a7c6b565fd868d772766,,9073f00cefbeb6efa1acc47f
丰管路甲52号院1,丰台区,北京市,1,39.864292,116.306087,交通银行24小时自助银行(丰管路支行),北京市,470262a843aa0a2d09b93a6c,,470262a843aa0a2d09b93a6c
张郭庄南路16号,丰台区,北京市,1,39.856015,116.20422,交通银行24小时自助银行服务(服务区),北京市,39d43f82d06f15f8a8059d23,,39d43f82d06f15f8a8059d23
沙子口路65号,丰台区,北京市,1,39.86382,116.412121,交通银行24小时自助银行服务(木樨园支行),北京市,1a5dba278c3cbe90931fc9e5,,1a5dba278c3cbe90931fc9e5
北京市丰台区芳庄芳群园4区23号,丰台区,北京市,1,39.865966,116.438234,交通银行24小时自助银行服务(北京芳群园支行),北京市,6ea47f6f06f1881385420ee9,,6ea47f6f06f1881385420ee9
丰台北路36号1号楼1层,丰台区,北京市,1,39.871968,116.304486,交通银行24小时自助银行(北京丰台北路支行),北京市,307131b0cc2f0e1cd7851f9f,,307131b0cc2f0e1cd7851f9f
万芳园1区1号楼,丰台区,北京市,1,39.853562,116.326786,交通银行24小时自助银行(丰台东路支行),北京市,c627bd8c7f95792f78f796ab,,c627bd8c7f95792f78f796ab
南苑警备东路6号2区,丰台区,北京市,1,39.799642,116.425946,交通银行24小时自助银行服务(北京东高地支行),北京市,af1ae56b4f4e79124207c137,,af1ae56b4f4e79124207c137
草桥欣园一区6号楼底商,丰台区,北京市,1,39.851991,116.362594,交通银行24小时自助银行(北京玉泉营支行),北京市,2527be1ea32badb34afc8ddd,,2527be1ea32badb34afc8ddd
海特花园57号楼,石景山区,北京市,1,39.939118,116.198077,交通银行(北京海特花园支行),北京市,,,6c26781397939f7a31f71de4
北京市石景山区石景山路29号京燕大厦1层,石景山区,北京市,1,39.913565,116.209949,交通银行24小时自助银行(北京石景山支行),北京市,15ed53ce619882549222e0d8,,15ed53ce619882549222e0d8
海淀区上地创业路17号,海淀区,北京市,1,40.043056,116.318639,交通银行(北京上地支行),北京市,91633c3370323519b8bd638c,(010)62964297,91633c3370323519b8bd638c
北京市海淀区中关村东路123-4号都市网景E座1层,海淀区,北京市,1,39.976054,116.340398,交通银行(北京双榆树支行),北京市,37d60a465650cf601e1d1141,(010)62142618,37d60a465650cf601e1d1141
蓝靛厂世纪城小区金夕园甲1号,海淀区,北京市,1,39.967489,116.286511,交通银行(北京世纪城支行),北京市,0a46dc0f8383265e30621241,(010)88463291,0a46dc0f8383265e30621241
海淀区复兴路40号中铁建大厦(近玉泉路),海淀区,北京市,1,39.912745,116.264303,交通银行(北京西区支行),北京市,b3aa435dacfe64751476438a,(010)95559,b3aa435dacfe64751476438a
黑泉路8号宝盛广场1层,海淀区,北京市,1,40.042284,116.378587,交通银行(北京宝盛里支行),北京市,3f0132840884be7c6140a96e,(010)62999936,3f0132840884be7c6140a96e
北京市海淀区阜成路16号航天科技大厦1层,海淀区,北京市,1,39.92948,116.319746,交通银行(北京阜成路支行),北京市,0adce3e24ac2c06180a00c41,(010)68767164,0adce3e24ac2c06180a00c41
北京市海淀区西土城路1号院6-8号1-2层6-8,海淀区,北京市,1,39.979605,116.359204,交通银行(北京蓟门桥支行),北京市,,,8d5b1a31a2090dc71e1d117b
北京市海淀区复兴路69号中国中铁广场C座,海淀区,北京市,1,39.920056,116.286751,交通银行(北京五棵松支行),北京市,d991e116ee4449281e38948c,"(010)88212665,(010)88213725",d991e116ee4449281e38948c
北京市海淀区永定路66号,海淀区,北京市,1,39.916068,116.271473,交通银行(北京永定路支行),北京市,8eb48fa1b783d3a6f22d83a0,"(010)68230978,(010)68230977",8eb48fa1b783d3a6f22d83a0
北京市海淀区学院南路55号6号楼1层,海淀区,北京市,1,39.963954,116.341374,交通银行(农科院支行电费代收点),北京市,4bab97da424374f1f503b80c,95559,4bab97da424374f1f503b80c
北京市海淀区西三环北路87号国际财经中心A座109室,海淀区,北京市,1,39.941905,116.315888,交通银行(西三环支行营业室电费代收点),北京市,d7608118e83c6510ab175af9,95559,d7608118e83c6510ab175af9
科学院南路37号,海淀区,北京市,1,39.987173,116.330881,交通银行北京中关村中小企业金融服务中心,北京市,94d4be8954a2bef9eddfca6b,(010)82523200,94d4be8954a2bef9eddfca6b
北京市海淀区三里河路5-6号附近,海淀区,北京市,1,39.939775,116.338316,交通银行ATM,北京市,a36c3baacf069548b75f1e5c,,a36c3baacf069548b75f1e5c
北京市海淀区上庄路78附近,海淀区,北京市,1,40.1055,116.221395,交通银行ATM,北京市,f05e975b4949f0051676430c,,f05e975b4949f0051676430c
海淀区花园路甲13号,海淀区,北京市,1,39.978626,116.371982,交通银行24小时自助银行服务(花园路),北京市,bd8fba74ab2ba8b49868b4fd,,bd8fba74ab2ba8b49868b4fd
北京市海淀区中关村南大街12号院北70米,海淀区,北京市,1,39.966061,116.336519,交通银行24小时自助银行,北京市,3502e4951ada61d3d1f49e92,,3502e4951ada61d3d1f49e92
北京市海淀区复兴路40号中铁建大厦1层,海淀区,北京市,1,39.912707,116.264408,交通银行24小时自助银行服务(西区支行),北京市,74b280b193e03c37cbfa5f70,,74b280b193e03c37cbfa5f70
北京市海淀区西土城路5号西南60米,海淀区,北京市,1,39.979628,116.35927,交通银行24小时自助银行,北京市,,,fc16c3813f1e564ab5f42fc2
海淀南路33号(艾瑟顿国际公寓西北),海淀区,北京市,1,39.981502,116.309076,交通银行ATM(海淀南路),北京市,38aacda888395c591c38944a,,38aacda888395c591c38944a
北京市海淀区中关村东路31号东70米,海淀区,北京市,1,39.995104,116.34015,交通银行24小时自助银行服务,北京市,e656a1e6f9a60bdc7369d30d,,e656a1e6f9a60bdc7369d30d
水磨新区37号,海淀区,北京市,1,40.010114,116.32203,交通银行ATM(中关村北大街),北京市,94f16d667b759be8f6c59c8e,,94f16d667b759be8f6c59c8e
肖家河桥与S50北五环交叉口东南150米,海淀区,北京市,1,40.017881,116.285725,交通银行自助服务(上河沿路),北京市,7daf1d59aa7b19bf08f5ebd6,,7daf1d59aa7b19bf08f5ebd6
北京市海淀区西三环北路19号院,海淀区,北京市,1,39.960095,116.314714,交通银行ATM(外研社大厦西南),北京市,7dae4d4a1b5cda14081cc7dd,,7dae4d4a1b5cda14081cc7dd
北京市海淀区阜成路23号,海淀区,北京市,1,39.928381,116.316158,交通银行ATM(西三环中路辅路),北京市,d6ee8724e3dc8f9ea8f0cd51,,d6ee8724e3dc8f9ea8f0cd51
北京市海淀区西四环北路136号,海淀区,北京市,1,39.943982,116.281499,交通银行ATM(二商美丽园店),北京市,,,e2fc2df53f09645bc9e33cd5
北京市海淀区北京市海淀区翠微路12号印象城F1,海淀区,北京市,1,39.918069,116.309107,交通银行24小时自助银行(印象城),北京市,c7eca12b30f80d49e115f927,,c7eca12b30f80d49e115f927
高梁桥斜街59号院2号,海淀区,北京市,1,39.949959,116.355664,交通银行24小时自助银行(交通大学路),北京市,96b672aaab0d6f0bcf04efbd,,96b672aaab0d6f0bcf04efbd
北京市海淀区紫竹院路人济山庄一期底商,海淀区,北京市,1,39.947546,116.319842,交通银行24小时自助银行(三虎桥路),北京市,ffd6d4030ed2708f17b54b43,,ffd6d4030ed2708f17b54b43
北京市海淀区巴沟路2号北京华联万柳购物中心F1,海淀区,北京市,1,39.97959,116.301381,交通银行24小时自助银行(北京华联),北京市,c22ecf2eef4783069c82ea3b,,c22ecf2eef4783069c82ea3b
北京市海淀区上地佳园35号,海淀区,北京市,1,40.038801,116.325335,交通银行24小时自助银行(上地东二路),北京市,90b3c1d65fd27648b13c8125,,90b3c1d65fd27648b13c8125
上地三街9号金隅嘉华大厦,海淀区,北京市,1,40.04216,116.314802,交通银行24小时自助银行(上地三街),北京市,1d7905c130a927bbe60738e3,,1d7905c130a927bbe60738e3
阜成路58-1,海淀区,北京市,1,39.92997,116.29281,交通银行24小时自助银行(定慧寺支行),北京市,5cd5eafad0525e54ad0457ef,,5cd5eafad0525e54ad0457ef
永定路66号,海淀区,北京市,1,39.915871,116.271426,交通银行24小时自助银行(永定路支行),北京市,3f826ed38bb50245d1f49e13,,3f826ed38bb50245d1f49e13
建材城西路27-119号附近,海淀区,北京市,1,40.068222,116.363308,交通银行24小时自助银行(北京建材城西路支行),北京市,9bafdb0760f762138d7727bc,,9bafdb0760f762138d7727bc
北京市海淀区龙岗路清景园4号楼一层,海淀区,北京市,1,40.036311,116.35869,交通银行24小时自助银行(北京清河支行),北京市,a08082d72937e6e4afb22ad2,,a08082d72937e6e4afb22ad2
北京市海淀区学院南路55号,海淀区,北京市,1,39.963899,116.341344,交通银行24小时自助银行(北京农科院支行),北京市,4449d8afa42175652efaa72c,,4449d8afa42175652efaa72c
苏州街16号神州数码大厦,海淀区,北京市,1,39.985782,116.31298,交通银行24小时自助银行(北京海淀支行),北京市,2bd4ddedab95d9134107c1d5,,2bd4ddedab95d9134107c1d5
北京市海淀区西三环北路89号国际财经中心A座,海淀区,北京市,1,39.941934,116.315986,交通银行24小时自助银行服务(北京西三环支行),北京市,6a54ffb32647ec28c42ba12c,,6a54ffb32647ec28c42ba12c
北京市海淀区田村路景宜里(兰德华庭北),海淀区,北京市,1,39.936026,116.255072,交通银行24小时自助银行服务(北京田村路支行),北京市,f8f5df4f4611b3e8770269af,,f8f5df4f4611b3e8770269af
北京市海淀区花园东路32号,海淀区,北京市,1,39.983633,116.377059,交通银行24小时自助银行(北京北太平庄支行),北京市,d31d88deedf1ce02465726ef,,d31d88deedf1ce02465726ef
北京市海淀区北蜂窝路乙15号,海淀区,北京市,1,39.906662,116.33533,交通银行24小时自助银行服务(北京北蜂窝路支行),北京市,a704804f42fc0e67c4f50d4f,,a704804f42fc0e67c4f50d4f
阜成路16号航天科技大厦,海淀区,北京市,1,39.929554,116.320178,交通银行24小时自助银行(北京阜成路支行),北京市,2fde0097c49e9ee4715e80ed,,2fde0097c49e9ee4715e80ed
海淀区上地科技路甲2号金辉大厦1楼(近上地三街),海淀区,北京市,1,40.042945,116.318714,交通银行24小时自助银行服务(北京上地支行),北京市,ee559b954e0cfa74f5c59c9c,,ee559b954e0cfa74f5c59c9c
成府路121,海淀区,北京市,1,39.998554,116.329777,交通银行24小时自助银行(北京中关村支行),北京市,05895ee901a62da10f0e6b03,,05895ee901a62da10f0e6b03
长春桥路11-1号万柳亿城中心B座,海淀区,北京市,1,39.966768,116.309187,交通银行24小时自助银行服务(万柳支行),北京市,75cee446b15f0afdf8f0cbbd,,75cee446b15f0afdf8f0cbbd
北京市海淀区蓝靛厂金夕园4号,海淀区,北京市,1,39.967436,116.286303,交通银行24小时自助银行(北京世纪城支行),北京市,e2e083dc9dc359f3eb12e407,,e2e083dc9dc359f3eb12e407
北京市海淀区车公庄西路乙20号,海淀区,北京市,1,39.937749,116.329477,交通银行24小时自助银行服务(北京车公庄西路支行),北京市,10b253bc84f17b620bccdd21,,10b253bc84f17b620bccdd21
闵庄南路9,海淀区,北京市,1,39.972912,116.253058,交通银行24小时自助银行服务(北京闵庄路支行),北京市,,,306775201b702797eb56fa78
海淀区科学院南路新科祥园甲6号,海淀区,北京市,1,39.987193,116.331159,交通银行24小时自助银行(北京中关村园区支行),北京市,9ee805327b2d2c4a87330433,,9ee805327b2d2c4a87330433
中关村东路123-4,海淀区,北京市,1,39.976041,116.340296,交通银行24小时自助银行(北京双榆树支行),北京市,2caa5b8d361201f5d0f49ee0,,2caa5b8d361201f5d0f49ee0
北京市海淀区三里河路17号甘家口大厦F1,海淀区,北京市,1,39.933095,116.339623,交通银行24小时自助银行(北京市海淀区甘家口百货商场),北京市,88c431aceb0ca8d9ae04570f,,88c431aceb0ca8d9ae04570f
复兴路69号中国中铁广场C座,海淀区,北京市,1,39.919697,116.286546,交通银行24小时自助银行(北京五棵松支行),北京市,2fd2beabd1e5522f7bdbd28f,,2fd2beabd1e5522f7bdbd28f
北京市海淀区西翠路5号上品折扣B1,海淀区,北京市,1,39.906848,116.288257,交通银行信用卡办理处(上品折扣),北京市,,,3814454e302804bd7369d387
北京市海淀区苏州街16号神州数码大厦1层,海淀区,北京市,1,39.985527,116.31298,24自助银行服务,北京市,9e3ba7e93afbde39d0ff2343,,9e3ba7e93afbde39d0ff2343
北蜂窝路15-2号附近,海淀区,北京市,1,39.906445,116.335429,个人信贷金融服务中心,北京市,,,86e072f3298be4922fb90808
北京市门头沟区新桥南大街16号,门头沟区,北京市,1,39.937854,116.113611,交通银行ATM(物美超市新隆店),北京市,0b0aa143042fdb179a005004,,0b0aa143042fdb179a005004
北京市通州区九棵树街187号-195号,通州区,北京市,1,39.89494,116.663432,交通银行(北京通州支行),北京市,4642844ab7d696dac9fa5fc5,(010)81511872,4642844ab7d696dac9fa5fc5
北京市通州区杨庄南里5-2,通州区,北京市,1,39.900216,116.649347,交通银行ATM,北京市,0031f222b2a91d1e970319df,,0031f222b2a91d1e970319df
北京市通州区通朝大街307号,通州区,北京市,1,39.899006,116.640359,交通银行24小时自助银行(北京世纪星支行),北京市,,,b86628f617073e4830169b64
北京市通州区乔庄北街76号,通州区,北京市,1,39.90181,116.694912,交通银行ATM(乔庄北街),北京市,,,662d00a0a24e18e83617dc4b
北京市通州区云景北里55,通州区,北京市,1,39.889118,116.673034,交通银行ATM(园景公寓南),北京市,e488a200ef692ed4c27da253,,e488a200ef692ed4c27da253
北京市通州区通朝大街新华联家园小区8号楼301-402,通州区,北京市,1,39.898144,116.647453,交通银行24小时自助银行(通州区交通局东),北京市,5231acabb4e03eb5fa2d6185,,5231acabb4e03eb5fa2d6185
九棵树东路156号,通州区,北京市,1,39.887908,116.678588,交通银行24小时自助银行(北京通州梨园支行),北京市,dbc5f8ceeae3a4ec51e5c59c,,dbc5f8ceeae3a4ec51e5c59c
北京市通州区通胡大街甲3号华联商厦F1,通州区,北京市,1,39.92417,116.707045,交通银行ATM(北京华联武夷购物中心),北京市,ecfb8105072d04c79d9d6885,,ecfb8105072d04c79d9d6885
通州区九棵树大街187号瑞都国际中心5号楼1-2楼,通州区,北京市,1,39.894827,116.663028,交通银行24小时自助银行(北京通州支行),北京市,923ffd006d871fb4d92f28c5,,923ffd006d871fb4d92f28c5
北京市顺义区仓上街2号AMB大厦B区一层,顺义区,北京市,1,40.117419,116.664793,交通银行(北京顺义支行),北京市,0bee77147b19773895f08c9e,(010)89448050,0bee77147b19773895f08c9e
北京市顺义区石门街6号供销大厦一层,顺义区,北京市,1,40.135143,116.641704,交通银行(北京顺义石门支行),北京市,bb92ee62fb1115c6841541eb,(010)60416581,bb92ee62fb1115c6841541eb
北京市顺义区府前一街60号北京临空皇冠假日酒店1层,顺义区,北京市,1,40.069949,116.562905,交通银行ATM(天北路),北京市,5b77a79b22ddedf65e17c327,,5b77a79b22ddedf65e17c327
平沿路仁和燕京啤酒厂北门,顺义区,北京市,1,40.109088,116.691853,交通银行ATM(顺福路),北京市,3da907f3eb900853b220a8bc,,3da907f3eb900853b220a8bc
北京市顺义区府前西街1号鑫海韵通百货F1,顺义区,北京市,1,40.13657,116.65654,交通银行ATM(鑫海韵通百货),北京市,85c36f818d696bf67bdbd2af,,85c36f818d696bf67bdbd2af
北京市顺义区府前西街1号鑫海韵通大卖场F1,顺义区,北京市,1,40.115199,116.6673,中国交通银行ATM(鑫海韵通大卖场),北京市,f861e3c7bd7f05a5704b87db,,f861e3c7bd7f05a5704b87db
北京市顺义区仓上街2AMB大厦1层,顺义区,北京市,1,40.117563,116.664813,交通银行24小时自助银行(北京顺义支行),北京市,07f3c8b5efca8b636340a9bc,,07f3c8b5efca8b636340a9bc
北京市顺义区石门街6号供销大厦1层,顺义区,北京市,1,40.13521,116.641753,交通银行24小时自助银行(北京顺义石门支行),北京市,1e80226938f5234cd13ce399,,1e80226938f5234cd13ce399
天竺花园天韵广场109-4商铺,顺义区,北京市,1,40.068161,116.570185,交通银行24小时自助银行(北京顺义天竺支行),北京市,d991e116137eea2b1e3894b1,,d991e116137eea2b1e3894b1
回龙观镇天龙苑25号1层01号(近矩阵小区),昌平区,北京市,1,40.086786,116.361581,交通银行(北京回龙观支行),北京市,060f5e53f50dc2a9091cc784,(010)81748371,060f5e53f50dc2a9091cc784
北京市昌平区北清路1号院珠江摩尔5号楼一层底商,昌平区,北京市,1,40.104887,116.296604,交通银行(北京北清路支行),北京市,,(010)80700789,6fe394ef735311681f3894a8
昌平区建材城西路87号院8号楼,昌平区,北京市,1,40.06361,116.33518,交通银行(北京西三旗支行),北京市,269cbd05fc388963c7effb55,,269cbd05fc388963c7effb55
北七家镇平西府村1号,昌平区,北京市,1,40.106577,116.381062,交通银行24小时自助银行,北京市,70f476c148ed8d1a5d0d0262,,70f476c148ed8d1a5d0d0262
政府街15号沣懋国际大厦1层,昌平区,北京市,1,40.226689,116.239552,交通银行ATM,北京市,,,8dca238d02ca768ba4c7567a
北京市昌平区珠江摩尔国际中心(八达岭高速公路),昌平区,北京市,1,40.104819,116.296586,交通银行24小时自助银行(北京北清路支行),北京市,d43773b67fa2914d07026fea,,d43773b67fa2914d07026fea
北京市昌平区东三旗路天通中苑F区北京华联天通苑购物中心B1,昌平区,北京市,1,40.076385,116.421132,交通银行ATM(北京华联天通苑购物中心),北京市,,,20b3c794a16c0e05ab0dd882
东小口天通苑小区203B-4单元,昌平区,北京市,1,40.069142,116.423654,交通银行24小时自助银行(北京天通苑支行),北京市,bca5c6c132a17d058f55ec83,,bca5c6c132a17d058f55ec83
北京市昌平区天通东苑三区2号国泰百货F1,昌平区,北京市,1,40.079674,116.442338,交通银行ATM(国泰百货),北京市,48e84917ebfda4dad8ecedb5,,48e84917ebfda4dad8ecedb5
北京市昌平区天通西苑二区17号楼航空医院门诊部,昌平区,北京市,1,40.079802,116.417242,交通银行ATM(立水桥西路),北京市,4d41891dd425d3c94afc8da7,,4d41891dd425d3c94afc8da7
北京市昌平区西三旗建材城西路87号院新龙大厦,昌平区,北京市,1,40.063756,116.335519,交通银行24小时自助银行服务(北京西三旗支行),北京市,0523a14174c04a1db23c816c,,0523a14174c04a1db23c816c
北京市昌平区回龙观天龙苑25号,昌平区,北京市,1,40.086905,116.361586,交通银行24小时自助银行服务(北京回龙观支行),北京市,b297547289a79bc08e7727c6,,1020060f054488d81994c684
北京市昌平区昌崔路203号果岭假日广场1层沃尔玛内,昌平区,北京市,1,40.22848,116.271111,交通银行沃尔玛信用卡申办点(昌平东关店),北京市,cbe8e65af6abdc24b34c49ca,,cbe8e65af6abdc24b34c49ca
北京市大兴区富强路106号,大兴区,北京市,1,39.743074,116.334214,交通银行(北京清城支行),北京市,bb53f773aa4dcafe100daa0b,(010)89293651,bb53f773aa4dcafe100daa0b
北京市大兴区欣荣北大街97附近,大兴区,北京市,1,39.798153,116.348209,交通银行(西红门支行),北京市,b6e9515abcfb9a37704b87cd,,b6e9515abcfb9a37704b87cd
北京市大兴区兴华大街13号院3-2,大兴区,北京市,1,39.771087,116.337277,交通银行(北京兴华大街支行),北京市,faff82e7f5a5eb078605bfc7,(010)80220732,faff82e7f5a5eb078605bfc7
天华西路北口东北200米,大兴区,北京市,1,39.809128,116.498558,交通银行(北京文化园西路支行),北京市,f2de52f3f77665e8373a71f8,(010)87220063,f2de52f3f77665e8373a71f8
北京市大兴区旧桥路与旧宫东路交叉口西南100米,大兴区,北京市,1,39.811992,116.46188,交通银行(北京旧宫支行),北京市,67acf941c601253a84154165,(010)56407580,67acf941c601253a84154165
北京市亦庄经济开发区天宝南街4号上海沙龙天宝商业中心B16号,大兴区,北京市,1,39.797574,116.504698,交通银行ATM(天宝南街),北京市,d3980a42b65685438d77275b,,d3980a42b65685438d77275b
北京市大兴区经济技术开发区龙庆街3号,大兴区,北京市,1,39.818996,116.538477,交通银行ATM(科创三街),北京市,8afb6db807ba9de799005011,,8afb6db807ba9de799005011
隆庆街3,大兴区,北京市,1,39.806833,116.513156,交通银行24小时自助银行(北京经济技术开发区支行),北京市,fd13a3f268e610fab0077d98,,fd13a3f268e610fab0077d98
北京市大兴区郁花园一里商业街3-3号正南方向77米,大兴区,北京市,1,39.779284,116.342032,交通银行ATM(兴丰大街),北京市,c92f5d80509f10a5f7eafc90,,c92f5d80509f10a5f7eafc90
北京市大兴区文化园西路8号院30号楼108,大兴区,北京市,1,39.809114,116.49868,交通银行24小时自助银行(北京文化园西路支行),北京市,,,78a7acce858dc44b2efaa7f0
北京市大兴区旧宫镇旧桥路1号院1号楼103,大兴区,北京市,1,39.812046,116.462032,交通银行24小时自助银行(旧宫支行),北京市,cfcfa10b94d894d63ce23163,,cfcfa10b94d894d63ce23163
北京市大兴区清澄名苑南2号,大兴区,北京市,1,39.743139,116.334213,交通银行24小时自助银行(北京清城支行),北京市,ba268d4eec33fd46b23c81de,,ba268d4eec33fd46b23c81de
北京市大兴区宏欣路鸿坤·理想城(北区)(鸿坤广场北),大兴区,北京市,1,39.798173,116.34786,交通银行24小时自助银行服务(西红门支行),北京市,e6027ed10d426e8fb34c4998,,e6027ed10d426e8fb34c4998
北京市怀柔区兴怀大街23号附近,怀柔区,北京市,1,40.327692,116.638874,交通银行ATM(怀柔兴怀大街),北京市,,,5bf37978ffe8599b2fe67bfe
府前街甲31号,平谷区,北京市,1,40.14697,117.118958,交通银行ATM(府前街),北京市,a4b19e878b3e59b56f476063,,a4b19e878b3e59b56f476063
密云区鼓楼南大街1,密云区,北京市,1,40.381128,116.85201,交通银行ATM(物美大卖场密云店),北京市,168dd375bf7d391429fc4884,,168dd375bf7d391429fc4884
北京市延庆区妫水北街46号环球新意百货B2,延庆区,北京市,1,40.46715,115.982571,交通银行ATM(环球新意百货),北京市,14d0b5705b7de452213bf281,,14d0b5705b7de452213bf281
