address,area,city,detail,lat,lng,name,province,street_id,telephone,uid
北京市丰台区南四环西路188号17区15号1层,丰台区,北京市,1,39.83055,116.297019,北京银行(金融港支行),北京市,8a1202a78724439822f01785,(010)95526,8a1202a78724439822f01785
北京市丰台区芳星园二区6-1号,丰台区,北京市,1,39.871472,116.441465,北京银行(方庄支行),北京市,f2a597263610c93b81a12e14,(010)67642846,f2a597263610c93b81a12e14
西四环南路31号,丰台区,北京市,1,39.876607,116.286384,北京银行(两桥支行),北京市,3041f290dab638d8eee4a542,"(010)63825979,(010)63825046,(010)63811374",3041f290dab638d8eee4a542
丰台区东安街1号(近北京十二中),丰台区,北京市,1,39.854919,116.288721,北京银行(丰台支行),北京市,11ee437a4933c6c7744ff169,,11ee437a4933c6c7744ff169
北京市丰台区丰桥路7号院8号楼28号,丰台区,北京市,1,39.857477,116.316386,北京银行(三环新城支行),北京市,d348cce582573437902ca322,(010)83631804,d348cce582573437902ca322
北京市丰台区西三环南路1号北京市政务服务中心大厦1层,丰台区,北京市,1,39.887831,116.316137,北京银行(政务中心支行),北京市,,"(010)89151001,(010)89151002",e290caa7a98f0ed3ab175a9a
北京市丰台区南三环西路16号搜宝商务中心3-101号,丰台区,北京市,1,39.86132,116.374743,北京银行(玉泉营支行),北京市,186369e9fbba0ec68bf15d16,(010)87576165,186369e9fbba0ec68bf15d16
北京市丰台区星河苑2号院9号楼底商,丰台区,北京市,1,39.845381,116.377116,北京银行(马家堡支行),北京市,3ad6c075712f02395bf6bee5,"(010)67500773,(010)95526",3ad6c075712f02395bf6bee5
丰台区南三环四方景园二区配套商业1-5号(近华润万家),丰台区,北京市,1,39.86424,116.448015,北京银行(成寿寺支行),北京市,e48c2a377b0dd28e2cb96d28,(010)87647377,e48c2a377b0dd28e2cb96d28
北京市丰台区万源西里41栋,丰台区,北京市,1,39.805446,116.429089,北京银行(东高地支行),北京市,ba2d35efc95aef05d12dd6e7,(010)88524555,ba2d35efc95aef05d12dd6e7
北京市丰台区青塔西路9号,丰台区,北京市,1,39.89702,116.270787,北京银行(青塔支行),北京市,6d46a9da724798e803ff2d2c,,6d46a9da724798e803ff2d2c
北京市丰台区南四环西路188号总部基地三区5号101-102室,丰台区,北京市,1,39.831452,116.291627,北京银行(总部基地支行),北京市,fa8a68a21e2fe5db902ca3fc,(010)63702466,fa8a68a21e2fe5db902ca3fc
北京市丰台区洋桥12号综合楼1层101,丰台区,北京市,1,39.856159,116.393028,北京银行(西罗园支行),北京市,38e4803762203449373a71d3,95526,38e4803762203449373a71d3
北京市丰台区华源4里甲2号,丰台区,北京市,1,39.887521,116.327204,北京银行(太平桥支行),北京市,129d872807ce0a13ca09f0b0,(010)63380829,129d872807ce0a13ca09f0b0
北京市丰台区西马场路6号院3号楼1层105,丰台区,北京市,1,39.846889,116.392237,北京银行(西马场路社区支行),北京市,d06944ebc9dc0c9ba0acc415,95526,d06944ebc9dc0c9ba0acc415
北京市丰台区杜家坎南路9号,丰台区,北京市,1,39.845166,116.215392,北京银行(长辛店支行),北京市,9e93f6863213073ba8059d50,(010)83872032,9e93f6863213073ba8059d50
北京市丰台区靛厂路26号院科兴佳园12号楼一层底商,丰台区,北京市,1,39.895462,116.288755,北京银行(科兴佳园社区支行),北京市,,(010)68271040,ea0fc06527d17d75d2f49ee3
北京市丰台区大屯路美域家园北区8号楼底商,丰台区,北京市,1,39.881778,116.254059,北京银行(美域家园社区支行),北京市,ff3f748165510a7ca7c756c7,(010)88609078,ff3f748165510a7ca7c756c7
北京市丰台区丰体南路3号(物美卖场旁),丰台区,北京市,1,39.872226,116.2757,北京银行(丰体南路社区支行),北京市,c5fca96c912a8186373a719e,(010)63876516,c5fca96c912a8186373a719e
北京市丰台区张仪村路甲78号附近,丰台区,北京市,1,39.881007,116.23208,北京银行超市,北京市,,,80ea4a7e264d066fb54f54e9
南四环西路188号十七区15,丰台区,北京市,1,39.830329,116.297544,北京银行24小时自助银行(金融港支行),北京市,22e11407284426b4d5b74e3a,,22e11407284426b4d5b74e3a
菜户营桥工商局办事大厅,丰台区,北京市,1,39.872011,116.353251,北京银行ATM,北京市,,,abe7fe1912f614d428fc4881
北京市丰台区四方景园二区配套商业1-5号,丰台区,北京市,1,39.864232,116.44816,北京银行24小时自助银行(成寿寺支行),北京市,38139da46b82c73117c8f6c7,,38139da46b82c73117c8f6c7
丰台区芳星园二区6-1号,丰台区,北京市,1,39.871567,116.441557,北京银行24小时自助银行服务(方庄支行),北京市,48eb005879434fd32fe67b50,,48eb005879434fd32fe67b50
北京市丰台区丰管路甲3号亿潼隆丰益购物中心F1,丰台区,北京市,1,39.864914,116.308667,北京银行ATM(亿潼隆丰益购物中心),北京市,,,b704ccfad2634863902ca322
北京市丰台区东高地万源南路万源西里40号楼,丰台区,北京市,1,39.805399,116.428986,北京银行理财中心,北京市,3ef23971fff919031c38943e,,3ef23971fff919031c38943e
星河苑2号院4,丰台区,北京市,1,39.845382,116.377074,北京银行24小时自助银行服务(马家堡支行),北京市,2d1ab50d3fd581865fbe8608,,2d1ab50d3fd581865fbe8608
北京市贾家花园3号院13号,丰台区,北京市,1,39.857446,116.421437,北京银行24小时自助银行(光彩路支行),北京市,efd29c21aade21c0b11e3630,,efd29c21aade21c0b11e3630
北京市丰台区右安门外西头条10号首都医科大学内,丰台区,北京市,1,39.871414,116.359642,北京银行ATM(德信路),北京市,,,e0f8e97dad74ad4d0bf5eb94
北京市丰台区丰台镇东安街1号,丰台区,北京市,1,39.854694,116.288808,北京银行24小时自助银行(丰台支行),北京市,bcaebff84dbe6654c9e33cdd,,bcaebff84dbe6654c9e33cdd
南三环中路34号祥龙赵公口长途客运汽车站内,丰台区,北京市,1,39.86073,116.416632,北京银行ATM(南三环中路),北京市,41a0ea441b76f1a6d22dd618,,41a0ea441b76f1a6d22dd618
北京市丰台区洋桥12号综合楼1层附近,丰台区,北京市,1,39.855945,116.392985,北京银行24小时自助银行(西罗园支行),北京市,0c4988c888d819f0eb12e4cb,,cb22b1beff4054cdca213d4a
周口店路10号附近,丰台区,北京市,1,39.844993,116.215321,北京银行24小时自助银行服务,北京市,d9cb11bed0b164fb8505bfcb,,d9cb11bed0b164fb8505bfcb
万丰路305号亿潼隆万丰购物中心1层,丰台区,北京市,1,39.879369,116.302529,北京银行ATM(亿潼隆万丰店),北京市,d360169f33f3b6c945572658,,d360169f33f3b6c945572658
北京市丰台区东高地万源西里41栋,丰台区,北京市,1,39.80544,116.429392,北京银行24小时自助银行(东高地支行),北京市,8c05035d5dfc93fa4bcc4a7e,,8c05035d5dfc93fa4bcc4a7e
北京市丰台区万丰路68号银座和谐广场F1,丰台区,北京市,1,39.88799,116.304532,北京银行ATM(北京银座和谐广场购物中心),北京市,dce6b48dbbd49f49213bf235,,dce6b48dbbd49f49213bf235
北京市丰台区大红门西路20号西60米,丰台区,北京市,1,39.84687,116.392296,北京银行24小时自助银行,北京市,,,1d195e9b2d7ca5a69d82ea28
北京市丰台区马家堡东路阳光花园一号楼底商,丰台区,北京市,1,39.851456,116.388277,北京银行24小时自助银行(角门路),北京市,,,8d4ae5bc485819967f29bd0d
北京市丰台区南三环西路16号搜宝商务中心3号楼1层,丰台区,北京市,1,39.860804,116.375074,北京银行24小时自助银行(玉泉营支行),北京市,7d5f3a0abcadd4362db9088f,(010)87576165,7d5f3a0abcadd4362db9088f
北京市丰台区西四环南路31号,丰台区,北京市,1,39.876607,116.286385,北京银行24小时自助银行(两桥支行),北京市,bff8fa7d152bf1a0c8213ddd,,bff8fa7d152bf1a0c8213ddd
北京市丰台区华源4里甲2号,丰台区,北京市,1,39.887486,116.32716,北京银行24小时自助银行(太平桥支行),北京市,aa13ff98a1c559e87369d341,,aa13ff98a1c559e87369d341
青塔西路11号苏宁电器青塔西路店,丰台区,北京市,1,39.897014,116.270787,北京银行24小时自助银行(青塔西路),北京市,7b9bfba4ca920a35ee74f858,,c5994d943f25828a2fb90826
北京市丰台区青塔西路52号院紫台商铺甲23,丰台区,北京市,1,39.887763,116.271487,北京银行24小时自助银行服务(青塔西路),北京市,9281980927e6bcfac336449e,,9281980927e6bcfac336449e
大屯路与小屯西路交叉口东50米,丰台区,北京市,1,39.881837,116.254913,北京银行24小时自助银行(美域家园社区支行),北京市,daf8d5bf73d81f96306212b5,,de7a74d7a1a792eb31870a88
北京市南四环西路188号三区5,丰台区,北京市,1,39.831426,116.291777,北京银行24小时自助银行(总部基地支行),北京市,6f73bd3ac6294b2152e5c51b,,6f73bd3ac6294b2152e5c51b
四方景园二区2,丰台区,北京市,1,39.864241,116.448192,南京银行24小时自助银行服务(北京方庄支行),北京市,ff65bff617395c2d734b87bc,,ff65bff617395c2d734b87bc
