address,area,city,detail,lat,lng,name,province,street_id,telephone,uid
深圳市宝安区裕安一路3030号,宝安区,深圳市,1,22.565932,113.893321,中国工商银行(尚都支行),广东省,61f634f6505e0c786b49f3f6,(0755)29639055,61f634f6505e0c786b49f3f6
深圳市福田区福强路4001号深圳文化创意园创意中心B座1层,福田区,深圳市,1,22.524472,114.051732,中国工商银行(益田支行),广东省,b533ea4a12646d414f6d4637,(0755)83818831,b533ea4a12646d414f6d4637
深圳市福田区福华路319号,福田区,深圳市,1,22.540259,114.074196,中国工商银行,广东省,80d439187a5607f5f9f0cb1e,,80d439187a5607f5f9f0cb1e
深圳市福田区莲花路2018号万科金色家园1楼C号,福田区,深圳市,1,22.55969,114.050544,中国工商银行(景田支行),广东省,08fc93df2c6e0b919b68b434,"(0755)83193145,(0755)83193144",08fc93df2c6e0b919b68b434
新湖路圣淘沙骏园1楼29-33号商铺,宝安区,深圳市,1,22.58078,113.869659,中国工商银行(西乡支行),广东省,cbb10880058b9d8251e5c51a,(0755)29653106,ffd6d403d36edd8c17b54bc0
深圳市龙华区龙华镇龙华人民路4086号工行大楼,龙华区,深圳市,1,22.658438,114.030859,中国工商银行(深圳龙华支行营业部),广东省,0a15c7ec44d379fced74f8e8,"(0755)27747189,(0755)29190608",0a15c7ec44d379fced74f8e8
广东省深圳市宝安区沙井街道新沙路510号,宝安区,深圳市,1,22.738105,113.816011,中国工商银行(沙井支行),广东省,78bd50f7a3464a5b30870ae0,(0755)27202391,78bd50f7a3464a5b30870ae0
深圳市宝安区建安一路56号,宝安区,深圳市,1,22.564288,113.916338,中国工商银行(深圳宝安支行营业部),广东省,ba78021a959410c3a2a93430,,ba78021a959410c3a2a93430
深圳市福田区滨河路联合广场A座首层,福田区,深圳市,1,22.535483,114.075355,中国工商银行(深圳福田支行营业部),广东省,2848ffd6e7ae9d0f48cc4a37,,2848ffd6e7ae9d0f48cc4a37
深圳市光明区光明街道华夏路怡景园7栋裙楼,光明区,深圳市,1,22.759925,113.948491,中国工商银行(深圳光明支行营业部),广东省,043272ec1ec5ca3a901fc940,"(0755)29199166,(0755)88219557",0dc3d82d20e2d91175e5b66b
深圳市福田区振华路中航苑飞亚达大厦首层,福田区,深圳市,1,22.550132,114.090522,中国工商银行(深圳振华支行),广东省,d4034eb3849e39f6c0364437,"(0755)83256049,(0755)83252976",d4034eb3849e39f6c0364437
福田区泰然五路天济大厦1楼,福田区,深圳市,1,22.537921,114.037425,中国工商银行(车公庙支行),广东省,04bdf4a32a04d44f354aae34,"(0755)83879119,(0755)83583807,(0755)83418812,(0755)83405025",04bdf4a32a04d44f354aae34
深圳市罗湖区宝安北路深圳国际商品交易大厦一楼层2039号,罗湖区,深圳市,1,22.567328,114.115283,中国工商银行(深圳深港支行),广东省,,(0755)82461392,677942b57de3865742d63eb6
深圳市光明区公明办事处宝安路第12号1楼A1号,光明区,深圳市,1,22.787144,113.895709,中国工商银行(深圳合水口支行),广东省,,"(0755)29199684,(0755)29429481",f9fd6062f081e2620f0e6b63
深圳市宝安区沙井街道中心路沙井时代中心一楼,宝安区,深圳市,1,22.735138,113.836472,中国工商银行(深圳新沙支行营业部),广东省,6fd22cd125a04af1e8f853f4,(0755)23015002,6fd22cd125a04af1e8f853f4
广东省深圳市龙岗区布吉新区吉华路237-239号附近,龙岗区,深圳市,1,22.6176,114.118165,中国工商银行24小时自助银行(吉华路),广东省,48eb0058ce3cd4d02ee67bab,,48eb0058ce3cd4d02ee67bab
竹子林紫竹七道8号求是大厦2层,福田区,深圳市,1,22.540905,114.017117,中国工商银行(竹子林支行),广东省,ffd6d4037c1e668f17b54b37,(0755)82871126,ffd6d4037c1e668f17b54b37
福田区莲花北村吉莲大厦1栋1层,福田区,深圳市,1,22.563989,114.055886,中国工商银行(深圳莲花北支行),广东省,f3cb93a543ef25feb5147f8c,(0755)83065835,f3cb93a543ef25feb5147f8c
泰然九路23号,福田区,深圳市,1,22.541019,114.030179,中国工商银行(喜年支行),广东省,e47f156a796aa3c9734b87e4,(0755)82024469,b3aa435d5047900b15764337
深圳市福田区红荔路四川大厦北附楼,福田区,深圳市,1,22.554858,114.101332,中国工商银行(深圳上步支行营业部),广东省,9ebc577a34af05282b3a9f75,"(0755)83673745,(0755)83673949",43b7e88980e9526a58f6be34
深圳市福田区深南大道6008号特区报业大厦,福田区,深圳市,1,22.546759,114.05196,中国工商银行(深圳湾支行营业部),广东省,bdb4a3baf762a565ca09f02c,"(0755)83516296,(0755)83534120",bdb4a3baf762a565ca09f02c
福田区香梅西路香蜜湖水榭花都会所1楼,福田区,深圳市,1,22.553945,114.044984,中国工商银行(香梅支行),广东省,befdb2929f0790e187154137,(0755)83052574,befdb2929f0790e187154137
深圳市龙岗区葵涌街道葵新北路13号,龙岗区,深圳市,1,22.637866,114.428159,中国工商银行(龙岗葵涌支行),广东省,fd007c5edcc1f76ca8f729da,"(0755)84206177,(0755)84207045",fd007c5edcc1f76ca8f729da
深圳市龙岗区白灰围一路天安数码创新园3号厂房B座1层B102层,龙岗区,深圳市,1,22.728103,114.223472,中国工商银行(深圳龙城支行),广东省,2aa036d16ae52c05e01103a7,(0755)28996249,2aa036d16ae52c05e01103a7
深圳市龙华区观澜街道广培社区高尔夫大道8号5栋1楼,龙华区,深圳市,1,22.729575,114.083874,中国工商银行(深圳观澜湖支行),广东省,,(0755)23773461,257ba692e55afc865abbbcc6
新澜大街93号,龙华区,深圳市,1,22.724104,114.061633,中国工商银行(新澜支行),广东省,acc33d7619ba4d1ada2f2835,"(0755)29050463,(0755)27983923",acc33d7619ba4d1ada2f2835
深圳市龙岗区横岗街道龙岗大道与保康路交汇处北侧荣德雨辰公寓104-108号,龙岗区,深圳市,1,22.656381,114.214915,中国工商银行(荣德支行),广东省,,(0755)28682953,85924c5dbfad3bd141e19262
深圳市罗湖区深南东路地王商务中心附楼首层,罗湖区,深圳市,1,22.548946,114.117094,中国工商银行(红围支行),广东省,1204aca628eeda4a100daa7c,(0755)22983424,dc94ad65eb0ba0c204fef57f
广东省深圳市龙岗区中心城志联佳大厦一层,龙岗区,深圳市,1,22.717309,114.243862,中国工商银行(龙翔支行),广东省,9f2528136a9c90dcfe0eb065,"(0755)28939413,(0755)28939513",aa40108bfe3cc615c5effbce
深汕公路与爱南路交叉口东北100米,龙岗区,深圳市,1,22.72784,114.302878,中国工商银行(龙东支行),广东省,,(0755)84586923,dade59a93ab5ce384bcc4a04
深圳市罗湖区深南东路2017号华乐大厦一至三层,罗湖区,深圳市,1,22.550534,114.134444,中国工商银行(深东支行),广东省,a82cdf8db0d981b06e20b9b3,(0755)22279906,a82cdf8db0d981b06e20b9b3
深圳市南山区玉泉路麒麟花园B区6栋A座首层,南山区,深圳市,1,22.551712,113.934931,中国工商银行(麒麟支行),广东省,d146b388ad90b3de74026977,"(0755)26550251,(0755)26550269",d146b388ad90b3de74026977
广东省深圳市罗湖区东门南路2019号芙蓉宾馆1楼,罗湖区,深圳市,1,22.546123,114.129958,中国工商银行(文锦支行),广东省,07f3c8b5d9659d636240a91b,"(0755)82329691,(0755)82337795",07f3c8b5d9659d636240a91b
深圳市宝安区福永镇福永大道349号,宝安区,深圳市,1,22.677725,113.832977,中国工商银行(福永支行),广东省,50f7d146efe718c473210be0,"(0755)27391417,(0755)27333688,(0755)27389350",50f7d146efe718c473210be0
深圳市宝安区石岩镇宝石东路413号,宝安区,深圳市,1,22.685463,113.943111,中国工商银行(石岩支行),广东省,b1c556e8b3bf9f0cb526559f,"(0755)27763424,(0755)27350749",b1c556e8b3bf9f0cb526559f
深圳市罗湖区水贝二路贝丽花园21栋一楼,罗湖区,深圳市,1,22.577356,114.132897,中国工商银行(水贝支行),广东省,c8b5cdef5d554c03130daa1b,"(0755)25506877,(0755)25531036,(0755)25635621",c8b5cdef5d554c03130daa1b
创业路3012海王大厦1层,南山区,深圳市,1,22.521439,113.932987,中国工商银行(海王支行),广东省,19b606798d27070846e274f5,(0755)26403202,19b606798d27070846e274f5
平湖大街591号,龙岗区,深圳市,1,22.701309,114.135584,中国工商银行(平湖支行),广东省,fc7675249c8002fa4e776ed1,(0755)28854951,fc7675249c8002fa4e776ed1
深圳市罗湖区怡景路1025号,罗湖区,深圳市,1,22.560239,114.147749,中国工商银行(黄贝支行),广东省,eef2d5283e73c3a73be4a61b,"(0755)25529069,(0755)25420019",eef2d5283e73c3a73be4a61b
广东省深圳市罗湖区桂园路28号,罗湖区,深圳市,1,22.552614,114.119463,中国工商银行(桂园支行),广东省,0a15c7ec8fb920fded74f812,(0755)25596569,0a15c7ec8fb920fded74f812
深圳市福田区园岭西路园中花园B座首层,福田区,深圳市,1,22.558122,114.104835,中国工商银行(园岭支行),广东省,4eb3b533dae7ee7543024537,(0755)25881313,4eb3b533dae7ee7543024537
罗湖区红岭中路1008号,罗湖区,深圳市,1,22.55131,114.11165,中国工商银行(红宝支行),广东省,56f2f69632bde4800aa8d461,(0755)25589706,56f2f69632bde4800aa8d461
百花二路百花公寓3号楼1楼,福田区,深圳市,1,22.557765,114.099396,中国工商银行(百花支行),广东省,f445cae4c07b2d4417c8f674,"(0755)83670312,(0755)83669582",f445cae4c07b2d4417c8f674
深圳市龙岗区坪地街道办教育中路31号坪地工行综合楼首层,龙岗区,深圳市,1,22.776102,114.307419,中国工商银行(坪地支行),广东省,c1653405dc4c6279ab175ac5,(0755)84068813,c1653405dc4c6279ab175ac5
宝安区松岗街道沿河南路5号工行大楼,宝安区,深圳市,1,22.771883,113.852148,中国工商银行(松岗支行),广东省,d5f93c0e15cdba5cecdfca98,(0755)27098284,d5f93c0e15cdba5cecdfca98
人民南路2008-1,罗湖区,深圳市,1,22.543999,114.125603,中国工商银行(友谊支行),广东省,2ad32cc30f97258f9d95de61,(0755)25181332,2ad32cc30f97258f9d95de61
广东省深圳市坪山区坪山大道潮商广场1楼,坪山区,深圳市,1,22.688351,114.342649,中国工商银行(深圳坪山支行),广东省,,,34fa98e1b2ac1c7c2fe67b80
"深圳市龙岗区龙岗镇首创八意府7栋商场01层03号,半地下室层03号",龙岗区,深圳市,1,22.736136,114.238644,中国工商银行(深圳龙平支行),广东省,,"(0755)89213754,(0755)89213612",4e1ebc68cca8037c7f29bd70
广东省深圳市盐田区明珠大道和亨广场F1,盐田区,深圳市,1,22.595168,114.257713,中国工商银行(盐田港区支行),广东省,2fd24e08ab8dbaad7702690b,(0755)25200034,2fd24e08ab8dbaad7702690b
广东省深圳市龙岗区布澜路31号李朗国际珠宝产业园A2栋一层,龙岗区,深圳市,1,22.649142,114.133545,中国工商银行(深圳李朗支行),广东省,8d96925c36f7f33bc1f1cfe7,(0755)84156098,8d96925c36f7f33bc1f1cfe7
深圳市龙岗区百鸽路367,龙岗区,深圳市,1,22.604625,114.12794,中国工商银行(深圳百合支行),广东省,9ee392b84c130c41bbbd6323,(0755)89969242,9ee392b84c130c41bbbd6323
深圳市龙岗区布吉镇布沙路172号南景豪庭一楼,龙岗区,深圳市,1,22.6141,114.146421,中国工商银行(深圳南岭支行),广东省,,(0755)84705128,74f41d4410ae39312fe67b5f
深圳市龙岗区布吉街道布吉路85号吉信大厦首层,龙岗区,深圳市,1,22.60675,114.123484,中国工商银行(深圳布吉支行),广东省,,,02869fe634e2dcc66340a9b2
深圳市罗湖区人民南路3005号深房广场,罗湖区,深圳市,1,22.547718,114.124475,中国工商银行(深圳罗湖支行),广东省,11f0c3c37b8b8937eddfcaa3,(0755)82288453,11f0c3c37b8b8937eddfcaa3
东环一路天汇大厦A105-106号,龙华区,深圳市,1,22.648719,114.052692,中国工商银行(深圳东环支行),广东省,4e7b65d14a932f2888db7339,(0755)29567830,4e7b65d14a932f2888db7339
深南大道2012号深圳证券交易所广场1层111号,福田区,深圳市,1,22.547101,114.059713,中国工商银行(中心区支行),广东省,aa78daa2b1b3252a3904b1cd,(0755)83220257,aa78daa2b1b3252a3904b1cd
福中路国际人才大厦一楼,福田区,深圳市,1,22.550213,114.077458,中国工商银行(深圳国财支行),广东省,75d0881a344ad34d3a04b134,(0755)83272972,75d0881a344ad34d3a04b134
莲花路彩田村综合楼1层,福田区,深圳市,1,22.566593,114.069969,中国工商银行(深圳彩田支行),广东省,8e8860de8e2a1316f6c59c52,,8e8860de8e2a1316f6c59c52
深圳市福田区益田路皇庭世纪裙楼金海马国际家居世博中心首层商铺,福田区,深圳市,1,22.530818,114.063658,中国工商银行(深圳福民支行),广东省,00f1c7fb1d10271fc056ac34,(0755)23971362,00f1c7fb1d10271fc056ac34
宝安区宝城龙井二路118号人民医院新门诊大楼1楼大厅,宝安区,深圳市,1,22.568099,113.920302,中国工商银行(自动柜员机店),广东省,e8092f2d84c40ae5d22dd626,,e8092f2d84c40ae5d22dd626
广东省深圳市南山区兰月三街,南山区,深圳市,1,22.514401,113.949028,中国工商银行(阿里巴巴大厦),广东省,,,e35ef742f0a4d368774ff198
深圳市宝安区福永街道工业大道天福城大厦1-2层商铺,宝安区,深圳市,1,22.712408,113.806975,中国工商银行(深圳塘尾支行),广东省,f5e3bcae6e9056bc5e17c377,"(0755)23495626,(0755)23495620",f5e3bcae6e9056bc5e17c377
深圳市宝安区建安一路华盛盛荟二楼,宝安区,深圳市,1,22.580065,113.900044,中国工商银行(深圳弘雅支行),广东省,cd8da7410f833a1dd42ce29b,"(0755)27806066,(0755)27803967",cd8da7410f833a1dd42ce29b
龙岗镇首创八意府7栋商场01层03、半地下室层03,龙岗区,深圳市,1,22.7361,114.238731,中国工商银行-24小时自助银行,广东省,dc5358f236aa3d83e856fae8,,dc5358f236aa3d83e856fae8
龙岗区平湖街道华南大道1号华南国际纸品包装原辅料物流区(一期)P-2栋物流管理服务中心首层101号,龙岗区,深圳市,1,22.681571,114.133232,中国工商银行(华南城支行),广东省,7524cb4f8789603404026fd1,(0755)89633363,7524cb4f8789603404026fd1
广东省深圳市龙华区观澜街道大水坑村鸿观科技园C22栋1层,龙华区,深圳市,1,22.743684,114.01897,中国工商银行(富士康支行),广东省,,"(0755)33810375,(0755)33810373",86c2012552c47f4732f71ded
深圳市龙华区华旺路大浪商业中心C栋F1层,龙华区,深圳市,1,22.680393,113.999895,中国工商银行(深圳大浪支行),广东省,9bc723250375481a1f580098,,9bc723250375481a1f580098
布吉街道布吉路85号吉信大厦一层,龙岗区,深圳市,1,22.60663,114.122948,中国工商银行-24小时自助银行,广东省,77b62c42d250e2876f3e1b22,,9208c71eeca61a2facee7a3f
广东省深圳市罗湖区国威路152号莲塘工业D小区内,罗湖区,深圳市,1,22.570393,114.17546,中国工商银行(自动柜员机店),广东省,9c8cb77da9bbfe416e20b990,,9c8cb77da9bbfe416e20b990
深圳市罗湖区莲塘聚宝路48号聚宝楼首层,罗湖区,深圳市,1,22.567793,114.176255,中国工商银行(深圳莲塘支行),广东省,4edf9fbfff780694cc06a41b,(0755)25701894,4edf9fbfff780694cc06a41b
罗湖区深南大道1095号城市广场1楼吉之岛商场,罗湖区,深圳市,1,22.551304,114.111683,中国工商银行-24小时自助银行,广东省,58c22b557bc683d2430245dd,,b60bb9bbe672a099f03cba45
深圳市罗湖区嘉宾路4051号金威大厦首层104房,罗湖区,深圳市,1,22.545054,114.120059,中国工商银行(深圳和平支行),广东省,,(0755)25893744,193df6a66ba668b78505bf9b
福田区福虹路华强花园ABC座裙楼C座102B,福田区,深圳市,1,22.544741,114.090543,中国工商银行(深圳福虹支行),广东省,c7fb04bdec0eee15fa0cad34,"(0755)83798304,(0755)83798358,(0755)83798361,(0755)83798326",c7fb04bdec0eee15fa0cad34
华强北路1016号宝华大厦A座,福田区,深圳市,1,22.547935,114.093577,中国工商银行(深圳宝华支行),广东省,572b475033d49d53fb2d6199,(0755)83781344,572b475033d49d53fb2d6199
深圳市福田区八卦一路50号鹏基商务时空大厦首层商铺,福田区,深圳市,1,22.566559,114.102071,中国工商银行(八卦岭支行),广东省,3da907f3dd181e53b320a834,"(0755)82416665,(0755)82416662",3da907f3dd181e53b320a834
深圳市南山区侨城西街50-2号,南山区,深圳市,1,22.543301,113.989514,中国工商银行(侨城西街支行),广东省,c7eca12ba12dbc4ae115f973,,c7eca12ba12dbc4ae115f973
广东省深圳市南山区桃园路56号,南山区,深圳市,1,22.538542,113.929398,中国工商银行(南山桃园支行),广东省,f4128e7b0b9f97224c3a59d7,,f4128e7b0b9f97224c3a59d7
深圳市南山区南山大道光彩新世纪花园一楼,南山区,深圳市,1,22.529064,113.931082,中国工商银行(深圳南新支行),广东省,f9fd6062db909d1f0f0e6b77,"(0755)86128531,(0755)86128052",f9fd6062db909d1f0f0e6b77
深圳市南山区前海路星海名城33号铺,南山区,深圳市,1,22.542546,113.921058,中国工商银行(星海名城支行),广东省,cb4fd146e6e52a419d9d6877,"(0755)26495931,(0755)26495932",cb4fd146e6e52a419d9d6877
广东省深圳市南山区科园路1003号深圳软件产业基地4栋C座首层,南山区,深圳市,1,22.529271,113.944783,中国工商银行(软件园支行),广东省,5c7de0b0194485aeb2077d1e,"(0755)26403254,(0755)86713334",5c7de0b0194485aeb2077d1e
深圳市宝安区楼岗大道63号,宝安区,深圳市,1,22.770703,113.85812,中国工商银行(深圳楼岗支行),广东省,7aca37908e8c245aa1a934a9,(0755)29628922,7aca37908e8c245aa1a934a9
深圳市宝安区鸿德园商铺1-66号,宝安区,深圳市,1,22.695052,113.81062,中国工商银行(深圳桥头支行),广东省,a60693dd1c3266dcc51b7594,,a60693dd1c3266dcc51b7594
深圳市宝安区西乡街道前进路与西乡大道交汇处美兰商务中心首层101-104室,宝安区,深圳市,1,22.597417,113.889651,中国工商银行(深圳丽景支行),广东省,c8b5cdef5d2b4c03130daaed,"(0755)29956551,(0755)29956553,(0755)29956567",c8b5cdef5d2b4c03130daaed
龙潭路81号,龙岗区,深圳市,1,22.726865,114.246609,中国工商银行(龙岗碧湖支行),广东省,7a8ee1eba488db3b3f9a5e48,(0755)89628341,7a8ee1eba488db3b3f9a5e48
深圳市罗湖区笋岗东路1002号宝安广场A座首层东单元,罗湖区,深圳市,1,22.563119,114.128629,中国工商银行(深圳宝湖支行),广东省,4a6933b9b1e0d0e817948ef4,(0755)25170954,4a6933b9b1e0d0e817948ef4
深圳市罗湖区田贝四路69号一栋首层117商铺,罗湖区,深圳市,1,22.5727,114.133469,中国工商银行(深圳洪湖支行),广东省,31f9101bcb9100b926e0a01b,(0755)25600486,31f9101bcb9100b926e0a01b
深圳市罗湖区解放路2052号,罗湖区,深圳市,1,22.55208,114.12406,中国工商银行(深圳华城支行),广东省,a9b0ef1a3b9c7c64a9f0cdbd,(0755)82237485,a9b0ef1a3b9c7c64a9f0cdbd
深圳市龙岗区坂田街道五和大道黄君山区111号B栋首层,龙岗区,深圳市,1,22.645025,114.067131,中国工商银行(深圳坂田支行),广东省,53349ee3d979d56e22026223,"(0755)28774728,(0755)28774738,(0755)28893815",53349ee3d979d56e22026223
广东省深圳市龙华区民塘路与中梅路交叉口,龙华区,深圳市,1,22.633396,114.033422,中国工商银行(水榭春天支行),广东省,3bd15d9963bf5a6e1e5800b9,(0755)81476850,3bd15d9963bf5a6e1e5800b9
广东省深圳市龙华区民治街道梅龙路与民旺路交汇处七星广场106号,龙华区,深圳市,1,22.626346,114.040072,中国工商银行(深圳民治支行),广东省,d8f0781fe8287c4c601809da,(0755)23123183,d8f0781fe8287c4c601809da
深圳市福田区红荔路东海城市广场一层137-138号,福田区,深圳市,1,22.546458,114.027766,中国工商银行(深圳侨香支行),广东省,e889a744a77b76b58605bf34,"(0755)82700287,(0755)82700256,(0755)82700254",e889a744a77b76b58605bf34
深圳福田区福强路1063号京隆苑首层,福田区,深圳市,1,22.520622,114.065067,中国工商银行(深圳福强支行),广东省,28e700f1dd56d701095cb334,(0755)83864850,28e700f1dd56d701095cb334
深圳市南山区沙河西路鼎新大厦,南山区,深圳市,1,22.586913,113.959684,中国工商银行(深圳西丽支行),广东省,0d9e00a9f10463c5eb56fa03,(0755)26528593,0d9e00a9f10463c5eb56fa03
深圳市南山区南海大道信和春天百货大楼一楼101号、二楼201号商铺,南山区,深圳市,1,22.513044,113.931767,中国工商银行(深圳南油支行),广东省,7d8e6c77e42fdc1a734b8736,,7d8e6c77e42fdc1a734b8736
深圳市宝安区海秀路19号国际西岸商务大厦1层,宝安区,深圳市,1,22.55502,113.894437,中国工商银行(熙龙湾支行),广东省,1cf8e726ce72f31dcae33c64,"(0755)29073025,(0755)29073029",1cf8e726ce72f31dcae33c64
深圳市宝安区新安街道兴业路与罗田路交叉口润恒御园8栋101号,宝安区,深圳市,1,22.561318,113.88098,中国工商银行(深圳宝中支行),广东省,76a0cceec0a93de21d58009b,"(0755)23351696,(0755)23351695",76a0cceec0a93de21d58009b
深圳市罗湖区松园路68-24号,罗湖区,深圳市,1,22.560412,114.113551,中国工商银行(深圳鸿翔支行),广东省,0ed20a15ca8d0dea57bfff7f,(0755)25570772,0ed20a15ca8d0dea57bfff7f
深盐路海都花园首层,盐田区,深圳市,1,22.563098,114.245629,中国工商银行(沙头角保税区支行),广东省,49b8645ab0092ba9593ac88c,"(0755)25554193,(0755)25550343",49b8645ab0092ba9593ac88c
太安路百仕达花园8号楼首层,罗湖区,深圳市,1,22.578225,114.142047,中国工商银行(东门百仕达支行),广东省,db1f39d43608bd6ff5c59c1b,(0755)25634382,db1f39d43608bd6ff5c59c1b
"福田区益田路与福华一路交会处免税商务大厦首层101,102商铺",福田区,深圳市,1,22.543033,114.061567,中国工商银行(深圳免税大厦支行),广东省,a74481d680a4a846f503b834,"(0755)82766252,(0755)82766250,(0755)82766251",a74481d680a4a846f503b834
深圳市南山区工业三路2号,南山区,深圳市,1,22.491841,113.923477,中国工商银行(深圳工业区支行),广东省,850815e18e844d9843e192c4,(0755)26821134,850815e18e844d9843e192c4
深圳市南山区前海路泛海城市广场1栋128号,南山区,深圳市,1,22.499847,113.899049,中国工商银行(深圳月亮湾支行),广东省,9080b98b7dbc13a0a1d2308a,"(0755)26851241,(0755)26801234",9080b98b7dbc13a0a1d2308a
广东省深圳市福田区梅林路理想公馆一层,福田区,深圳市,1,22.575928,114.068106,中国工商银行(深圳湾梅林支行),广东省,81d6a5095f57db406e20b934,"(0755)83318410,(0755)83317727,(0755)83117895",81d6a5095f57db406e20b934
深圳市南山区深南大道大族科技中心大厦1层,南山区,深圳市,1,22.545774,113.942029,中国工商银行(高新园中区支行),广东省,fe55208926221d5e14b54b50,(0755)86632501,fe55208926221d5e14b54b50
广东省深圳市宝安区新安街道创业二路100号,宝安区,深圳市,1,22.575513,113.911529,中国工商银行(深圳前进路支行),广东省,9d1d925e8b6aac569cec2b79,(0755)27953049,9d1d925e8b6aac569cec2b79
深圳市南山区中心路2233号宝能allcity购物中心F2层,南山区,深圳市,1,22.505121,113.946346,中国工商银行(深圳太古城支行),广东省,3a7e642dc27aa3dda20464ae,(0755)88270630,3a7e642dc27aa3dda20464ae
广东省深圳市南山区怡海大道前海企业公馆10栋,南山区,深圳市,1,22.521919,113.908231,中国工商银行(前海分行营业部),广东省,9f563349937d6f35c8c3db79,(0755)22674593,9f563349937d6f35c8c3db79
深圳市南山区文心五路海岸大厦东座首层102-107号,南山区,深圳市,1,22.523982,113.94398,中国工商银行(深圳海岸城支行),广东省,4ea3f2f11096cbaaaecb6677,"(0755)86271355,(0755)86290421,(0755)86271353,(0755)86290740",4ea3f2f11096cbaaaecb6677
深圳市罗湖区翠竹路1054,罗湖区,深圳市,1,22.567859,114.13661,中国工商银行(深圳翠竹北支行),广东省,49ebeee85d6f21cdabf0cd00,(0755)25796053,49ebeee85d6f21cdabf0cd00
深圳市福田区笋岗西路3号一楼,福田区,深圳市,1,22.561053,114.091391,中国工商银行(深圳黄木岗支行),广东省,93df0dc3f880b52b882fb534,(0755)83245803,93df0dc3f880b52b882fb534
广东省深圳市福田区东园路35号台湾花园底商,福田区,深圳市,1,22.543496,114.108446,中国工商银行(深圳台湾花园支行),广东省,435d7aea6a1a3b355abbbc34,(0755)82241353,435d7aea6a1a3b355abbbc34
深圳市福田区深南大道2012号深圳证券交易所,福田区,深圳市,1,22.547625,114.059897,中国工商银行(24小时自助银行),广东省,13b1ad450ea41785f7b91620,,13b1ad450ea41785f7b91620
深圳市福田区梅林一村五区一层112号,福田区,深圳市,1,22.57068,114.04544,中国工商银行(深圳梅林一村支行),广东省,a5097bfa2b514063f03cba34,(0755)83534445,a5097bfa2b514063f03cba34
深圳市福田区裕亨路海悦华城首层,福田区,深圳市,1,22.522198,114.075891,中国工商银行(深圳福田口岸支行),广东省,,(0755)23602713,ad78897c395bdcd0d7851f83
光华街6之22号-2,南山区,深圳市,1,22.540297,113.995847,中国工商银行(深圳华侨城支行),广东省,606289fd1fce214da2046477,(0755)26600054,606289fd1fce214da2046477
建安一路56,宝安区,深圳市,1,22.564335,113.916207,中国工商银行(宝安财富管理中心),广东省,3859898aca02b68b1d58004f,(0755)27874112,3859898aca02b68b1d58004f
深圳市南山区白石路东8号欢乐海岸购物中心1层,南山区,深圳市,1,22.531334,113.993838,中国工商银行(深圳欢乐海岸支行),广东省,522452ea8ff90d94ad04579b,,522452ea8ff90d94ad04579b
广东省深圳市南山区高新南九道深圳湾科技生态园6栋01层36-41号,南山区,深圳市,1,22.535649,113.95924,中国工商银行(深圳生态园支行),广东省,b207f09983143aa74151c0c1,(0755)26927803,b207f09983143aa74151c0c1
深圳市南山区高新南三道中科大厦,南山区,深圳市,1,22.543753,113.958879,中国工商银行(高新园支行营业部),广东省,e6965900cea4d415d0ff234a,,e6965900cea4d415d0ff234a
深圳市宝安区新湖路壹方城L1-083A商铺,宝安区,深圳市,1,22.559444,113.894592,中国工商银行(宝安中心区支行),广东省,,(0755)27934902,d175afad0e2815a02bb97ce4
深圳市福田中心区益田路4068号卓越时代广场一期一楼商铺,福田区,深圳市,1,22.539578,114.063519,中国工商银行(深圳卓越时代广场支行),广东省,186798e492428d81adcb6676,(0755)23989147,186798e492428d81adcb6676
深圳市南山区朗山路9号东江环保大楼1楼(朗山酒店对面),南山区,深圳市,1,22.561216,113.956471,中国工商银行(深圳高新园北区支行),广东省,d0f08e51d704fe056140a9f0,"(0755)86676149,(0755)86676238,(0755)86676244",ab476e328b2b53bc1f389492
深圳市福田区深南中路2074号电子大厦底商,福田区,深圳市,1,22.546888,114.094627,中国工商银行(深圳华强支行营业部),广东省,669775d095b7fb5bfd0eb034,(0755)83781355,669775d095b7fb5bfd0eb034
光明新区泥围新村七巷19号(深宝大厦西北),光明区,深圳市,1,22.793929,113.88635,中国工商银行24小时自助银行(深宝大厦西北),广东省,a1c756508fbffa9e901fc922,,a1c756508fbffa9e901fc922
广东省深圳市宝安区沙井镇中心路时代中心一楼工商银行营业大厅,宝安区,深圳市,1,22.734934,113.836583,工商银行营业大厅,广东省,,(0755)27208918,2ee199f614fe12e32b06cee9
盐田区盐田街道办永安北一街88号深圳义乌华贸国际电子商务商贸城首层,盐田区,深圳市,1,22.605618,114.250631,工商银行24小时自助银行,广东省,99b09651566b652b88db73af,,99b09651566b652b88db73af
广东省深圳市罗湖区深南东路5005号金融中心北座1楼,罗湖区,深圳市,1,22.54637,114.112231,中国工商银行(深圳市分行营业部),广东省,b7dc822fd4c7c9c7157643da,(0755)25930190,b7dc822fd4c7c9c7157643da
深圳市龙岗区和谐路133号喜福汇,龙岗区,深圳市,1,22.73365,114.232472,中国工商银行24小时自助银行(和谐路),广东省,258e7b1a0f7cd26021022091,,258e7b1a0f7cd26021022091
深圳市龙华区大和路格澜阳光花园商业B2栋首层,龙华区,深圳市,1,22.701207,114.054505,中国工商银行(深圳观澜支行营业部),广东省,28e700f1deebd001085cb391,(0755)29506321,28e700f1deebd001085cb391
深圳市龙岗区坂田街道隆平路新天下工业城4栋宿舍4A001号,龙岗区,深圳市,1,22.651735,114.072325,中国工商银行(深圳华为支行营业室),广东省,2e00c5ddfe0a6e62d6851f99,"(0755)89466044,(0755)89466040,(0755)89603056",2e00c5ddfe0a6e62d6851f99
潭罗路35号,龙华区,深圳市,1,22.674332,114.003323,工商银行24小时自助银行服务(潭罗路),广东省,c0a55812979b9aee8b2fb526,,c0a55812979b9aee8b2fb526
广东省深圳市龙华区人民路34-2西北60米,龙华区,深圳市,1,22.709951,114.047403,中国工商银行24小时自助银行(人民路),广东省,0783e033eb2a65e3e115f907,,0783e033eb2a65e3e115f907
深圳市龙岗区横岗街道龙岗大道东城中心花园裙楼132号,龙岗区,深圳市,1,22.643569,114.19388,中国工商银行(深圳横岗支行营业部),广东省,4edf9fbf53f7f2eacd06a49a,(0755)28433022,2c2f75a2a2086030c4f50d0f
深圳市盐田区沙头角镇金融路99号,盐田区,深圳市,1,22.554433,114.237143,中国工商银行(深圳盐田支行营业部),广东省,09185c5673639f5df119372f,(0755)25558380,b719383705066963a21de9bb
深圳市罗湖区文锦中路1012号锦绣大厦一至二楼,罗湖区,深圳市,1,22.555383,114.138112,中国工商银行(深圳东门支行营业部),广东省,d27da61fc9b83fe04207c1d8,(0755)25402658,d27da61fc9b83fe04207c1d8
深圳市南山区蛇口南水村招商路173号,南山区,深圳市,1,22.495804,113.929394,中国工商银行(深圳蛇口支行营业部),广东省,2ad32cc3bdced3f19c95deb5,"(0755)26801127,(0755)26679777,(0755)26813354",2ad32cc3bdced3f19c95deb5
深圳市南山区高新南四道30高新区综合服务楼2层,南山区,深圳市,1,22.542631,113.951437,中国工商银行(深圳高新园南区支行营业部),广东省,80cf456f9e518eb3e8e58297,"(0755)26548554,(0755)26551584,(0755)26551634",80cf456f9e518eb3e8e58297
广东省深圳市福田区八卦四路6-17,福田区,深圳市,1,22.570495,114.109079,中国工商银行24小时自助银行(翠馨居花园西南),广东省,12fc633f1fd68be51e5800bd,,12fc633f1fd68be51e5800bd
广东省深圳市龙岗区教育北路畅通驾校(白石塘幼儿园西北),龙岗区,深圳市,1,22.783675,114.305642,中国工商银行24小时自助银行(盐龙大道),广东省,0ab83a53f53e6a4aa6da3992,,0ab83a53f53e6a4aa6da3992
沙河街32号深圳沙河医院内,南山区,深圳市,1,22.547528,113.975644,中国工商银行ATM,广东省,64748f67094769af306212de,,64748f67094769af306212de
横岗下大街1号附近,宝安区,深圳市,1,22.735507,113.871674,中国工商银行24小时自助银行,广东省,3181fb5b93a561ee03ff2d17,,014aa9fda874026c3517dcb3
广东省深圳市宝安区宝安机场航站四路与机场三道交汇天和酒店一楼,宝安区,深圳市,1,22.644743,113.833217,中国工商银行24小时自助银行,广东省,dbc59c85b0b9bad6db2f2818,,d0e693265a7a518ab917e71b
中英街18号附近,盐田区,深圳市,1,22.550239,114.237895,中国工商银行ATM,广东省,,,428b745b0efbf0c621f0179c
广东省深圳市福田区凯丰路4号二楼附近,福田区,深圳市,1,22.571133,114.061543,中国工商银行24小时自助银行服务,广东省,fea1bdae504d5309bb17e796,,fea1bdae504d5309bb17e796
集资路2号附近,宝安区,深圳市,1,22.701505,113.850504,中国工商银行24小时自助银行,广东省,5c2c1cd7427aea30100daa5b,,5c2c1cd7427aea30100daa5b
深圳市罗湖区翠荫路322,罗湖区,深圳市,1,22.591245,114.15136,中国工商银行ATM(翠荫路),广东省,7135f9e1bb126ab9a3acc486,,7135f9e1bb126ab9a3acc486
宝冠路与龙岗大道交叉口西北50米,龙岗区,深圳市,1,22.626553,114.152271,中国工商银行24小时自助银行(宝冠路),广东省,3541962aa6126171843304b2,,3541962aa6126171843304b2
深圳市宝安区新湖路99号壹方城F1,宝安区,深圳市,1,22.559411,113.894628,中国工商银行ATM(壹方城),广东省,,,e4f2de33866e16298936eee7
麒麟山疗养院6号楼,南山区,深圳市,1,22.616083,113.980789,icbc工商银行自助银行,广东省,,,6c25a954e640d32409b93a40
广东省深圳市龙华区观澜大道187号,龙华区,深圳市,1,22.718753,114.052918,中国工商银行ATM(观澜医院),广东省,f2aa0f0d12d75353bda240c9,,f2aa0f0d12d75353bda240c9
金泉二路与金泉四路交叉口东南150米(惠雄皮具厂后门),龙岗区,深圳市,1,22.637908,114.205838,中国工商银行24小时自助银行,广东省,850c94e19d8fb7435b1093ef,,850c94e19d8fb7435b1093ef
深南东路5002深圳地王购物中心1层,罗湖区,深圳市,1,22.548675,114.11641,中国工商银行ATM(红围支行),广东省,2afc5007d72d5db4213bf2c0,,2afc5007d72d5db4213bf2c0
工业路486号附近,龙华区,深圳市,1,22.653497,114.02553,中国工商银行24小时自动银行,广东省,,,485ef15989dd1547fe0eb0e4
沙井街道办中心路万丰医院门口,宝安区,深圳市,1,22.728206,113.835235,中国工商银行24小时自助银行,广东省,d15b436622148f23c51e51f0,,d15b436622148f23c51e51f0
桔坑路25浪漫商城首层,龙华区,深圳市,1,22.736376,114.02037,中国工商银行24小时自助银行,广东省,6cab11a60fcb2ad775e5b60a,,6cab11a60fcb2ad775e5b60a
广东省深圳市龙岗区乐康家居底商D0006,龙岗区,深圳市,1,22.677979,114.072618,中国工商银行24小时自助银行,广东省,8fe2611d42f361667bf7963c,,8fe2611d42f361667bf7963c
广东省深圳市福田区桂花路红树苑5栋C单元107,福田区,深圳市,1,22.515899,114.052324,中国工商银行24小时自助银行,广东省,1c07adeb9485842fc16c1416,,1c07adeb9485842fc16c1416
深圳市南山区侨城西街1号欢乐谷魔幻城堡内,南山区,深圳市,1,22.545075,113.988042,中国工商银行24小时自助银行,广东省,3e191d697e83aab25c17c350,,3e191d697e83aab25c17c350
广东省深圳市光明区光明新区公明办事处马田北路49号附近,光明区,深圳市,1,22.800945,113.890454,中国工商银行24小时自助银行(马田北路),广东省,,,74266b1746f4d6fee956faa4
广东省深圳市龙岗区横华路,龙岗区,深圳市,1,22.656427,114.214893,中国工商银行24小时自助银行,广东省,,,3b19a27842cc98fc0f0e6bcc
振华路飞亚达大厦1层、优力锋KTV、面点王旁,福田区,深圳市,1,22.554008,114.091151,中国工商银行24小时自助银行,广东省,9f6a5c30f9e2d6ae5fbe8603,,9f6a5c30f9e2d6ae5fbe8603
滨河大道9289号KKONE购物中心F1,福田区,深圳市,1,22.533559,114.033001,中国工商银行24小时自助银行,广东省,7c2a98df5d190d659e95de03,,7c2a98df5d190d659e95de03
广东省深圳市宝安区福永桥和路鸿德园,宝安区,深圳市,1,22.694965,113.810654,中国工商银行24小时自助银行,广东省,19974369ac8c34423a04b184,,19974369ac8c34423a04b184
广东省深圳市宝安区西乡街道黄田片区杨贝工业区二期A栋,宝安区,深圳市,1,22.638706,113.856617,中国工商银行24小时自助银行(光昌三路),广东省,0e99400ddd26c6ea72455b40,,0e99400ddd26c6ea72455b40
龙岗区龙城街道爱联嶂背路334号,龙岗区,深圳市,1,22.691448,114.248383,中国工商银行24小时自助银行,广东省,4238731a4ada3f8c08b93aab,,4238731a4ada3f8c08b93aab
广东省深圳市宝安区公园路135号,宝安区,深圳市,1,22.57957,113.913422,中国工商银行24小时自助银行,广东省,,,93dbb22f9ad5ae3e932ca391
同富路与甘李路交叉口北50米,龙岗区,深圳市,1,22.66075,114.112448,中国工商银行24小时自助银行服务,广东省,4c33f631c282c1552cb908d7,,4c33f631c282c1552cb908d7
深圳市罗湖区聚宝路48号,罗湖区,深圳市,1,22.567728,114.176175,中国工商银行24小时自助银行(深圳莲塘支行),广东省,61085211b29368a1c51b751a,,61085211b29368a1c51b751a
广东省深圳市福田区振华路165飞亚达大厦西座,福田区,深圳市,1,22.550112,114.090526,中国工商银行24小时自助银行服务(深圳振华支行),广东省,cb4fd146b8d2e43f9d9d6841,,cb4fd146b8d2e43f9d9d6841
学府路191号,南山区,深圳市,1,22.533935,113.920329,中国工商银行24小时自助银行服务,广东省,49745c3a72b95f4e63180901,,9c20d9be53db28c0b64f54bd
深圳市南山区文心五路46号,南山区,深圳市,1,22.524023,113.943964,中国工商银行24小时自助银行服务(深圳海岸城支行),广东省,e2c09e3b19553149bfa82247,,e2c09e3b19553149bfa82247
广东省深圳市光明区振明路226-12附近,光明区,深圳市,1,22.790382,113.883065,中国工商银行24小时自助银行服务,广东省,7c62c53706fa647c3686f4db,,7c62c53706fa647c3686f4db
深圳市龙华区华荣路278号华信购物广场F1,龙华区,深圳市,1,22.679578,114.004736,中国工商银行24小时自助银行(华信购物广场),广东省,3c7b1a86638cfea65d0d0251,,3c7b1a86638cfea65d0d0251
华强北路宝华大厦一、二层,福田区,深圳市,1,22.547844,114.093544,中国工商银行ATM(深圳宝华支行),广东省,60dc6511cb2336deb11e367f,,60dc6511cb2336deb11e367f
莲花支路1006号交警局B1层,福田区,深圳市,1,22.56656,114.070005,中国工商银行24小时自助银行(深圳彩田支行),广东省,a009f3231f6ba3d00c0a7007,,a009f3231f6ba3d00c0a7007
广东省深圳市宝安区料坑大道,宝安区,深圳市,1,22.674801,113.90017,中国工商银行24小时自助银行服务,广东省,,,6bf1b3e72885fc417402699e
坂田环城东路华为荔枝苑E19商铺,龙岗区,深圳市,1,22.637542,114.085741,中国工商银行24小时自助银行服务,广东省,e6250105179982c59868b4ab,,e6250105179982c59868b4ab
坂田华为街道居里夫人路华为百草园六座首层18-19号商铺,龙岗区,深圳市,1,22.652985,114.070848,中国工商银行24小时自助银行(深圳百草园支行),广东省,74090fff4ab0495688f15db0,,74090fff4ab0495688f15db0
广东省深圳市宝安区工业一路16号北70米,宝安区,深圳市,1,22.721226,113.810911,中国工商银行24小时自助银行服务,广东省,824c8937687b78bbdbd8913a,,824c8937687b78bbdbd8913a
桂新路53号附近,龙华区,深圳市,1,22.730532,114.068722,中国工商银行24小时自助银行服务,广东省,6566f6d1195a8f478c55ecdc,,6566f6d1195a8f478c55ecdc
龙华区龙华办事处龙观东路与清泉路交汇处龙华国际小商品城一层街09号商铺,龙华区,深圳市,1,22.678382,114.034469,中国工商银行24小时自助银行服务,广东省,d448179487e64b58d0ff2369,,d448179487e64b58d0ff2369
龙岗区平湖街道白泥坑社区白银路148号商铺,龙岗区,深圳市,1,22.658939,114.162562,中国工商银行24小时自助银行服务,广东省,cc706349fafde6ac6b49f3a6,,cc706349fafde6ac6b49f3a6
宝冠路与龙岗大道交叉口西北50米,龙岗区,深圳市,1,22.626545,114.152366,中国工商银行24小时自助银行服务,广东省,8fa60e86c7b7b8160aa8d458,,8fa60e86c7b7b8160aa8d458
龙岗区坂田街道长发西路20-2号商铺,龙岗区,深圳市,1,22.636387,114.064904,中国工商银行24小时自助银行服务,广东省,dbcebde7ece702192a02e1d6,,4e15fb4d2b36c234f50e776f
福田区红荔西路8099号东海城市广场1楼,福田区,深圳市,1,22.546409,114.027831,中国工商银行24小时自助银行服务,广东省,8e6bf4d11f5ec135b13c810a,,8e6bf4d11f5ec135b13c810a
宝安区西乡大道丽景城花园3号楼首层商铺,宝安区,深圳市,1,22.595947,113.894247,中国工商银行24小时自助银行服务,广东省,c7fb04bdec57ee15fa0caded,,c7fb04bdec57ee15fa0caded
盐田区大梅沙环梅路1号八十步海寓B栋2207铺,盐田区,深圳市,1,22.605492,114.315574,中国工商银行24小时自助银行(环梅路),广东省,cada294414c99f87badf8f6a,,cada294414c99f87badf8f6a
广东省深圳市宝安区汇业路,宝安区,深圳市,1,22.742812,113.947077,中国工商银行24小时自助银行(汇业路),广东省,a8505eab2d541eced7851fcf,,a8505eab2d541eced7851fcf
深圳市龙华区龙观路和华荣路交汇处运华大厦一楼,龙华区,深圳市,1,22.664166,114.014784,中国工商银行24小时自助银行(华荣路),广东省,5cd865e9da997a9754bfff65,,5cd865e9da997a9754bfff65
太子路22-2,南山区,深圳市,1,22.490572,113.921532,中国工商银行24小时自助银行(太子路),广东省,376079220e7a0eec38e4a64a,,888ae175a3015259b5147ff4
深圳市龙岗区湖东路60号,龙岗区,深圳市,1,22.609921,114.14982,中国工商银行24小时自助银行(湖东路),广东省,638d4e68efd60babae31e5fb,,8760e0a8b1131b20c42ba1d9
金湖路8号深圳武警边防医院行政大楼一楼,罗湖区,深圳市,1,22.57939,114.108931,中国工商银行24小时自助银行(金湖路),广东省,5217c2a338bf92f89f09f732,,5217c2a338bf92f89f09f732
广东省深圳市宝安区罗田路16-2,宝安区,深圳市,1,22.568529,113.88947,中国工商银行24小时自助银行(罗田路),广东省,d8184c7e7d338d6d213bf204,,b859fdce30f3ea101fe9997c
龙岗区横岗街道松柏路145号,龙岗区,深圳市,1,22.654486,114.218164,中国工商银行24小时自助银行(松柏路),广东省,f56b992b4ad1c7082bb97c52,,833e9d69a6d981285b109316
广东省深圳市龙岗区横岗街道六约金塘工业区勤富路9号伯恩光学公司第三分厂门,龙岗区,深圳市,1,22.630291,114.195266,中国工商银行24小时自助银行(勤富路),广东省,,,30137f9cd0ea7ebb81288a62
罗湖区宝岗路152号田心酒店1楼,罗湖区,深圳市,1,22.573008,114.119491,中国工商银行24小时自助银行(宝岗路),广东省,8e5230e664bbc1552cb96dbc,,8e5230e664bbc1552cb96dbc
广东省深圳市光明区光明新区松岗中国石油悦凯加油站西,光明区,深圳市,1,22.761293,113.885263,中国工商银行24小时自助银行(根玉路),广东省,69f29fbc01ef9b78f72310b1,,69f29fbc01ef9b78f72310b1
宝安区沙井街道办西环路沙井西部义乌商城一楼B1127商铺,宝安区,深圳市,1,22.731456,113.806513,中国工商银行24小时自助银行(创新路),广东省,4a97fcc1d3917f943517dc7d,,4a97fcc1d3917f943517dc7d
龙岗区龙东社区鸿基中路6号深圳市义乌小商品批发城G006号房屋,龙岗区,深圳市,1,22.734168,114.298753,中国工商银行24小时自助银行(鸿基路),广东省,d850d0773bdc0a2f5af6be2a,,d850d0773bdc0a2f5af6be2a
广东省深圳市龙华区秋水巷17号,龙华区,深圳市,1,22.747029,114.097585,中国工商银行24小时自助银行(兴业路),广东省,,,6a86ea1dacec7f120582c245
广东省深圳市龙华区观澜富士施乐高科技(深圳)公司,龙华区,深圳市,1,22.731865,114.055844,中国工商银行24小时自助银行(观澜湖),广东省,6132a9a2ff85bd7ff4e73b38,,6132a9a2ff85bd7ff4e73b38
龙华区大浪街道华荣路联建科技工业园大门,龙华区,深圳市,1,22.690183,113.996583,中国工商银行24小时自助银行(园兴路),广东省,5c76f0f72af5bc26c5effb3f,,5c76f0f72af5bc26c5effb3f
广东省深圳市龙岗区良白路191-1号(京华工业园内),龙岗区,深圳市,1,22.675294,114.154555,中国工商银行24小时自助银行(东深路),广东省,f9fd6062760b68610f0e6be4,,f9fd6062760b68610f0e6be4
前海路3101-22,南山区,深圳市,1,22.523655,113.918271,中国工商银行24小时自助银行(前海路),广东省,cd75ca7dd92e933f5d17c3df,,cd75ca7dd92e933f5d17c3df
广东省深圳市宝安区沙井新区美宜佳连锁店(安润路东),宝安区,深圳市,1,22.820847,113.851092,中国工商银行24小时自助银行(安润路),广东省,,,78a05b28c295ccb2704b87cb
宝安区福永街道新田大道70号江氏玻璃集团,宝安区,深圳市,1,22.692438,113.837823,中国工商银行24小时自助银行(凤凰路),广东省,d349bcaefc3ff986f8f0cb64,,e8832a863e522927c356ac39
广东省深圳市宝安区沙井田园旅馆(联诚购物广场北),宝安区,深圳市,1,22.748539,113.796596,中国工商银行24小时自助银行(西沙路),广东省,66c23495174cf4dfadcb661a,,5508504dee133bcbc6f025e0
广东省深圳市宝安区福新街32号,宝安区,深圳市,1,22.67305,113.820415,中国工商银行24小时自助银行(福新路),广东省,da9d54398f54e9400c3dda03,,da9d54398f54e9400c3dda03
深圳市光明区汇业路,光明区,深圳市,1,22.741011,113.948915,中国工商银行24小时自助银行(汇业路),广东省,0fa23e685db610ddc909f0af,,0fa23e685db610ddc909f0af
广东省深圳市宝安区沙井民主大道怡安花园南门,宝安区,深圳市,1,22.741391,113.805814,中国工商银行24小时自助银行(下冲路),广东省,bfbc4a89048f12050482c23c,,bfbc4a89048f12050482c23c
坪山新区锦绣中路与翠景路交汇处国人科技园保安室,坪山区,深圳市,1,22.733872,114.387822,中国工商银行离行式自助银行(深圳分行坪山支行坪山新区锦绣中路与翠景路交汇处),广东省,50722017cf7127d1b23c8180,,50722017cf7127d1b23c8180
中心城爱心路53号龙岗区人民医院住院部一楼,龙岗区,深圳市,1,22.732986,114.234421,中国工商银行离行式自助银行(深圳分行龙岗支行中心城爱心路53号),广东省,810fc71ba00bd833c6f025e6,,810fc71ba00bd833c6f025e6
龙岗区龙翔大道6045号,龙岗区,深圳市,1,22.7172,114.243973,中国工商银行24小时自助银行(深圳公园大地支行),广东省,680fb703ab54c2e18bb9885d,,680fb703ab54c2e18bb9885d
广东省深圳市光明区别墅路8-173,光明区,深圳市,1,22.784175,113.914113,中国工商银行24小时自助银行(深圳公明支行),广东省,,,080512c090bb4f4c7069d3fc
光明新区华夏路光明医院,光明区,深圳市,1,22.758033,113.951201,中国工商银行离行式自助服务区(深圳分行光明支行光明医院),广东省,f1b04feaef5bc1936c476075,,f1b04feaef5bc1936c476075
宝安区石岩镇政府,宝安区,深圳市,1,22.687541,113.945428,中国工商银行离行式自助银行(深圳分行石岩支行石岩镇政府),广东省,974eca1bce051ea61e580017,,974eca1bce051ea61e580017
罗湖区田贝四路69号一栋首层117商铺,罗湖区,深圳市,1,22.572708,114.133473,中国工商银行24小时自助银行(深圳洪湖支行),广东省,13d6c56e204ff735276e98e9,,7a153e1e3f57be09f02d8354
深圳市罗湖区怡景路1025号,罗湖区,深圳市,1,22.560239,114.147754,中国工商银行24小时自助银行(深圳黄贝支行),广东省,37331bcb2263c286b64f5426,,37331bcb2263c286b64f5426
东门南路与友谊路交叉口西50米,罗湖区,深圳市,1,22.546155,114.130094,中国工商银行24小时自助银行(文锦支行),广东省,,,17f39dc6d076935121026263
红荔路2001号四川大厦北附楼(妇儿医院对面),福田区,深圳市,1,22.554846,114.101352,中国工商银行24小时自助银行(深圳上步支行),广东省,473bf9743e8f77f4c27da21f,,b0fae69243d2f40221026221
深圳市福田区南园路232-1,福田区,深圳市,1,22.544168,114.094078,中国工商银行24小时自助银行(深圳福园支行),广东省,38ddd1d872c1239b3fe2317e,,38ddd1d872c1239b3fe2317e
罗湖区宝安北路4008号百安居罗湖店,罗湖区,深圳市,1,22.575507,114.115263,中国工商银行离行式自助银行(深圳分行喜年支行宝安北路4008号百安居),广东省,1e0c6c64d336b6287369d341,,1e0c6c64d336b6287369d341
深圳市罗湖区人民南路3005号深房广场B座1-2层,罗湖区,深圳市,1,22.547547,114.124449,中国工商银行24小时自助银行(深圳罗湖支行),广东省,4b426c4695d0792ea8f0cd95,,4b426c4695d0792ea8f0cd95
罗湖区建设路火车站大楼一楼广深线售票大厅IC卡充值中心,罗湖区,深圳市,1,22.538204,114.123829,中国工商银行离行式自助银行(深圳分行罗湖支行建设路火车站),广东省,8289c05e104f923fbda2400a,,8289c05e104f923fbda2400a
广东省深圳市龙华区龙峰一路484号,龙华区,深圳市,1,22.658184,114.030851,中国工商银行24小时自助银行(深圳龙华支行),广东省,fd13a3f23e70ce84b1077d3d,,fd13a3f23e70ce84b1077d3d
福田区下梅林工业区1栋成丰电子厂,福田区,深圳市,1,22.570442,114.046655,中国工商银行离行式自助服务区(深圳分行梅林支行下梅林工业区),广东省,2d15fd61b08429047f29bd7e,,a9bfd6f1b5b5e0ed606858f3
滨河大道5022号联合广场,福田区,深圳市,1,22.535323,114.075356,中国工商银行24小时自助银行(深圳福田支行),广东省,271768a5b73c20f370210b76,,7d5f3a0a0d13834b2cb90836
"福田区益田路与福华一路交会处免税商务大厦首层101,102商铺",福田区,深圳市,1,22.543096,114.061567,中国工商银行24小时自助银行(深圳免税大厦支行),广东省,1b6f1b9fcdb74133f503b8a1,,543710f575491c9b5cd4fe75
福田区福华三路会展中心北大门一楼大厅,福田区,深圳市,1,22.536879,114.066448,中国工商银行离行式自助服务区(深圳分行星河支行福华三路会展中心),广东省,68a8f09ab2e48f8ce115f9fc,,68a8f09ab2e48f8ce115f9fc
益田路4068号卓越时代广场1层,福田区,深圳市,1,22.539496,114.063609,中国工商银行24小时自助银行(深圳卓越时代广场支行),广东省,cff12b2f3d6dfa6f734b87c4,,cff12b2f3d6dfa6f734b87c4
福田区深圳交警局,福田区,深圳市,1,22.540756,114.016281,中国工商银行离行式自助银行(深圳分行红围支行深圳交警局),广东省,4ee159c83962c7f404026fb3,,4ee159c83962c7f404026fb3
福田区深南大道6009号NEO绿景广场B座1层B101商铺,福田区,深圳市,1,22.542224,114.0371,中国工商银行24小时自助银行(亚洲总行),广东省,6d619a785900b3332811d1f0,,6d619a785900b3332811d1f0
深南大道6021号喜年中心裙楼1层,福田区,深圳市,1,22.540893,114.030206,中国工商银行24小时自助银行(深圳喜年支行),广东省,0bc6707ddc23c1bbca2915b5,,0bc6707ddc23c1bbca2915b5
广东省深圳市南山区高新中一道2号,南山区,深圳市,1,22.554934,113.950882,中国工商银行24小时自助银行(高新中一道),广东省,b5c83a0b17e9f35016c9052a,,b5c83a0b17e9f35016c9052a
玉泉路麒麟花园B区6号楼A座一楼,南山区,深圳市,1,22.551689,113.934742,中国工商银行24小时自助银行(深圳麒麟支行),广东省,fdfae44ee42eb022e6e965f3,,fdfae44ee42eb022e6e965f3
新安街道创业二路100号(创业二路与前进路交汇处),宝安区,深圳市,1,22.575503,113.911604,中国工商银行24小时自助银行(深圳前进路支行),广东省,5b2def25a2e1526a223bf2bd,,5b2def25a2e1526a223bf2bd
深圳湾科技生态园6栋01层36-41号,南山区,深圳市,1,22.535487,113.95963,中国工商银行24小时自助银行服务(生态园支行网点),广东省,,,02c11ad299b090b02dfaa736
广东省深圳市南山区万科前海企业公馆10栋,南山区,深圳市,1,22.521924,113.908291,中国工商银行24小时自助银行(前海分行营业部),广东省,ce7885bc8c622c8217c8f640,,ce7885bc8c622c8217c8f640
深圳市宝安区宝民二路190-3号缤纷时代购物中心F1,宝安区,深圳市,1,22.598557,113.880868,中国工商银行24小时自助银行(深圳臣田支行),广东省,e116be54a6168a78c91b95e3,,e116be54a6168a78c91b95e3
罗田路68号附近,宝安区,深圳市,1,22.561317,113.88109,中国工商银行24小时自助银行(深圳宝中支行),广东省,37d138fa6bd04fff714b8706,,37d138fa6bd04fff714b8706
南山区工业三路2号,南山区,深圳市,1,22.491649,113.923518,中国工商银行24小时自助银行(深圳工业区支行),广东省,cf50d6fefeec75b23f9a5e91,,cf50d6fefeec75b23f9a5e91
坪山区坑梓沃尔玛商场,坪山区,深圳市,1,22.747502,114.407813,中国工商银行离行式自助服务区(深圳分行坪山支行坑梓沃尔玛商场),广东省,59df9b43800736e688f15de3,,59df9b43800736e688f15de3
坪山比亚迪竹园工业园内,坪山区,深圳市,1,22.684162,114.364314,中国工商银行离行式自助银行(深圳分行坪山支行比亚迪竹园工业园),广东省,,,b5b15613d3eaa1a31de99998
深圳市龙岗区龙潭路81号,龙岗区,深圳市,1,22.726865,114.246669,中国工商银行24小时自助银行(深圳碧湖支行),广东省,792a63ea4fef850dcae33c52,,792a63ea4fef850dcae33c52
龙岗区中心城体育公园公众高尔夫球场会所大堂,龙岗区,深圳市,1,22.683348,114.210311,中国工商银行离行式自助银行(深圳分行龙岗支行中心城体育公园),广东省,,,09e66c1b756a73677dc876a8
振光四路新围商业街101栋号附近,光明区,深圳市,1,22.772555,113.915146,中国工商银行24小时自助银行(金富苑大厦南),广东省,,,69fcd6df36b89352ca291566
盐田公安局,盐田区,深圳市,1,22.567854,114.251228,中国工商银行离行式自助服务区(深圳分行盐田支行盐田公安局),广东省,cff698f25206dcc9f33cba45,,cff698f25206dcc9f33cba45
深圳市罗湖区贝丽北路41号,罗湖区,深圳市,1,22.577365,114.132987,中国工商银行24小时自助银行(深圳水贝支行),广东省,f1f96311bd94ab70f42310d9,,f1f96311bd94ab70f42310d9
太安路百仕达8号楼一层102A商铺,罗湖区,深圳市,1,22.578238,114.141975,中国工商银行24小时自助银行(深圳百仕达支行),广东省,7524cb4f87cc603404026f1a,,7524cb4f87cc603404026f1a
深圳市罗湖区人民南路3004号国贸天虹B区F1,罗湖区,深圳市,1,22.546728,114.12603,中国工商银行24小时自助银行(深圳国际贸易中心大厦),广东省,ebf04d58a5044d7c8605bf80,,43b7e8897a1d9c1458f6be46
深圳市福田区爱华路45号,福田区,深圳市,1,22.544282,114.098355,中国工商银行24小时自助银行服务(深圳爱华支行),广东省,1e110d38be31f966f8f0cb68,,1e110d38be31f966f8f0cb68
宝安北路2039号,罗湖区,深圳市,1,22.567096,114.115318,中国工商银行24小时自助银行(深圳深港支行),广东省,d523aa90cb019d8fc4f50d21,,d523aa90cb019d8fc4f50d21
深圳市福田区福田南路7-51号,福田区,深圳市,1,22.531958,114.083314,中国工商银行24小时自助银行(深圳皇岗支行),广东省,92571c922c0199d3abf0cdcb,,92571c922c0199d3abf0cdcb
深圳市龙华区民治街道梅龙路与民旺路交汇处七星广场106号商铺,龙华区,深圳市,1,22.626543,114.040236,中国工商银行24小时自助银行(深圳民治支行),广东省,95c95ee14216da9902897213,,95c95ee14216da9902897213
广东省深圳市南山区宝安中心区丽康路百旺信高科技工业园,南山区,深圳市,1,22.634425,113.945732,中国工商银行24小时自助银行(沙河西路),广东省,,,42ec047cfe47da3b2b3a9f2e
宝安区石岩创维工业园,宝安区,深圳市,1,22.645888,113.926705,中国工商银行离行式自助银行(深圳分行石岩支行石岩创维工业园),广东省,,,fccf6f85a24bbf93354aae81
吉莲大厦1栋首层,福田区,深圳市,1,22.563989,114.055886,中国工商银行24小时自助银行(深圳莲花北支行),广东省,9b6a21256ced04419fec2b15,,9b6a21256ced04419fec2b15
香梅西路香蜜湖水榭花都会所首层,福田区,深圳市,1,22.553861,114.045007,中国工商银行24小时自助银行(深圳香梅支行),广东省,8fde79cc8598a6bf95ca0736,,8fde79cc8598a6bf95ca0736
福强路4001号深圳文化创意园创意中心B座1层,福田区,深圳市,1,22.524474,114.051727,中国工商银行24小时自助银行(深圳益田支行),广东省,fe33b1d4187b66c1f5c59c6a,,7d259199f6aa5ad93e9a5e31
深圳市福田区深南中路求是大厦裙楼201A,福田区,深圳市,1,22.540901,114.017166,中国工商银行附行式自助银行(深圳分行竹子林支行求是大厦),广东省,2f12d0bf128c48a23a221c4c,,2f12d0bf128c48a23a221c4c
深圳市南山区侨城东街51号,南山区,深圳市,1,22.543412,113.9896,中国工商银行24小时自助银行(华侨城支行),广东省,5ce2637d2667c651ae31e577,,5ce2637d2667c651ae31e577
深圳市南山区白石路东8号欢乐海岸购物中心F1层,南山区,深圳市,1,22.531329,113.993908,中国工商银行24小时自助银行服务(欢乐海岸购物中心),广东省,d39c9996f54c3d68b1077d98,,d39c9996f54c3d68b1077d98
深圳市光明区创维路25-2,光明区,深圳市,1,22.787274,113.895877,中国工商银行24小时自助银行(深圳合水口支行),广东省,,,3f27e2be42bca7f28bdb7342
宝安区沙井街道新沙路与永通路交汇处西荟城A区G1-01号商铺,宝安区,深圳市,1,22.737597,113.823536,中国工商银行离行式自助银行(深圳分行沙井支行沙井街道新沙路与永通路交汇处西荟城),广东省,60c5bbcc9d33b3238f1a89ba,,60c5bbcc9d33b3238f1a89ba
深圳市宝安区福永街道工业大道天福城大厦1-2层商铺,宝安区,深圳市,1,22.712505,113.807088,中国工商银行24小时自助银行(深圳塘尾支行),广东省,be5cc518638431cfea12e4c5,,bcaebff82a150f29c9e33c77
广东省深圳市宝安区海秀路19-1,宝安区,深圳市,1,22.554851,113.894426,中国工商银行24小时自助银行(深圳前海支行),广东省,cb4fd14611a87f3c9c9d68bf,,cb4fd14611a87f3c9c9d68bf
深圳市宝安区建安一路华盛盛荟名庭1-2层,宝安区,深圳市,1,22.580007,113.899894,中国工商银行24小时自助银行(深圳弘雅支行),广东省,6ed3083a5315ffb72b3a9ff6,,6ed3083a5315ffb72b3a9ff6
新湖路圣淘沙骏园1楼29-33号商铺(近西乡大道),宝安区,深圳市,1,22.58073,113.869525,中国工商银行24小时自助银行(深圳西乡支行),广东省,fa835ce2eb96eac8e812e4f0,,fa835ce2eb96eac8e812e4f0
前海路泛海城市广场1层128号,南山区,深圳市,1,22.499905,113.899093,中国工商银行24小时自助银行(深圳月亮湾支行),广东省,,,3edfe82875f6250ef50e7715
坪山新区东纵路税务局,坪山区,深圳市,1,22.692497,114.369723,中国工商银行离行式自助银行(深圳分行坪山支行东纵路税务局),广东省,8215898e7ef89acae5e9650c,,8215898e7ef89acae5e9650c
葵涌镇葵新北路13号,龙岗区,深圳市,1,22.637786,114.428186,中国工商银行24小时自助银行(深圳葵涌支行),广东省,edd64ce1902c8f913fe231da,,edd64ce1902c8f913fe231da
白灰围一路33,龙岗区,深圳市,1,22.728027,114.223229,中国工商银行24小时自助银行服务(白灰围一路),广东省,4cf8d24e58ea279a9df7799e,,4cf8d24e58ea279a9df7799e
广东省深圳市龙岗区平湖街道华南大道1号,龙岗区,深圳市,1,22.681629,114.133282,中国工商银行24小时自助银行(深圳华南城支行),广东省,c7b92518f4d98acc35b06c9f,,c7b92518f4d98acc35b06c9f
龙华区观澜医院,龙华区,深圳市,1,22.729164,114.061896,中国工商银行离行式自助银行(深圳分行新澜支行观澜医院),广东省,cdd16b0fe2ef1cc21811d523,,cdd16b0fe2ef1cc21811d523
龙华区大浪街道办华宁西路新百丽工业园三号楼一楼,龙华区,深圳市,1,22.695186,113.98994,中国工商银行离行式自助银行(深圳分行龙华支行大浪街道办华宁西路),广东省,9f9c72db7152a4bf88db73a0,,9f9c72db7152a4bf88db73a0
宝石东路413号,宝安区,深圳市,1,22.685414,113.943111,中国工商银行24小时自助银行(深圳石岩支行),广东省,ca603f71b6aa4018c17da22c,,ca603f71b6aa4018c17da22c
广东省深圳市龙岗区百鸽路367,龙岗区,深圳市,1,22.604564,114.127873,中国工商银行24小时自助银行服务(百合支行),广东省,6c1532c37f48fc13631c67fe,,6c1532c37f48fc13631c67fe
罗湖公安局,罗湖区,深圳市,1,22.564629,114.188199,中国工商银行离行式自助银行(深圳分行东门支行罗湖公安局),广东省,e24d4634094f5ad3ab175a14,,e24d4634094f5ad3ab175a14
罗湖区人才大市场,罗湖区,深圳市,1,22.567546,114.115227,中国工商银行离行式自助银行(深圳分行红围支行人才大市场),广东省,5c6f3331eff87f5aa20464bc,,5c6f3331eff87f5aa20464bc
罗湖区深圳市公安局一楼大厅,罗湖区,深圳市,1,22.5491,114.115341,中国工商银行离行式自助银行(深圳分行深港支行深圳市公安局),广东省,1608fff5e30477e9aaf0cd5d,,1608fff5e30477e9aaf0cd5d
深圳市福田区深南中路2020号茂业百货F1,福田区,深圳市,1,22.547352,114.099405,中国工商银行24小时自助银行(深圳华联支行),广东省,bcaa5893b50494027ec8761b,,bcaa5893b50494027ec8761b
罗湖区京基KKMALL负一楼,罗湖区,深圳市,1,22.550146,114.113038,中国工商银行离行式自助银行(深圳分行深东支行京基KKMALL),广东省,9f765cc6b3cb8729f4b91654,,9f765cc6b3cb8729f4b91654
龙岗坂田华为基地4H食堂,龙岗区,深圳市,1,22.649405,114.066043,中国工商银行离行式自助银行(深圳分行华为支行坂田华为基地4H),广东省,950305d365fce26aa8059df5,,950305d365fce26aa8059df5
龙岗区坂田华为基地J区培训中心大堂,龙岗区,深圳市,1,22.658471,114.069379,中国工商银行离行式自助银行(深圳分行华为支行坂田华为基地J区培训中心),广东省,,,aeb16f48e6e494e23010af3f
福中路人才大厦一楼,福田区,深圳市,1,22.550187,114.077432,中国工商银行24小时自助银行(深圳国财支行),广东省,ccf1cc2ca48795d7a21de9c4,,ccf1cc2ca48795d7a21de9c4
福田区福田商检院,福田区,深圳市,1,22.532648,114.077627,中国工商银行离行式自助银行(深圳分行皇岗支行福田商检院),广东省,d8c861be1ef9ce72902ca3d1,,d8c861be1ef9ce72902ca3d1
福强路1063号,福田区,深圳市,1,22.520636,114.065094,中国工商银行24小时自助银行(深圳福强支行),广东省,93ef73d006af37235810933f,,78bd50f7a2e84d5b31870a36
益田路皇庭世纪金海马国际家居世博中心首层商铺,福田区,深圳市,1,22.530698,114.063658,中国工商银行24小时自助银行(深圳福民支行),广东省,66cd02a49b61f342e9f853eb,,66cd02a49b61f342e9f853eb
建安一路56号,宝安区,深圳市,1,22.564247,113.916295,中国工商银行24小时自助银行(深圳宝安支行),广东省,39d43f82663cdb86a8059df6,,39d43f82663cdb86a8059df6
深圳市南山区前海路3101-21号,南山区,深圳市,1,22.542546,113.921058,中国工商银行24小时自助银行(星海名城支行),广东省,03d0fa145fe6f5c029fc4842,,03d0fa145fe6f5c029fc4842
南山区蛇口工业八路270号中农大厦一楼天虹微喔便利店内,南山区,深圳市,1,22.507252,113.9257,中国工商银行离行式自助银行(深圳分行华强支行南山区工业八路天虹便利店),广东省,99e0759d0f6127e9eddfca07,,99e0759d0f6127e9eddfca07
松岗街道罗田象山大道176号中美家具公司正门右侧保安亭,宝安区,深圳市,1,22.815114,113.887436,中国工商银行24小时自助银行服务(象山大道),广东省,,,016fe8ac9170e85116a19047
光明新区公明下村第三工业区13号永德利科技(深圳)有限公司大门,光明区,深圳市,1,22.800431,113.889607,中国工商银行离行式自助银行(深圳分行合水口支行公明下村第三工业区),广东省,,,901dbcdd1b34a72915948ec7
广东省深圳市宝安区洋涌工业区红塔商店(洋涌工业路南),宝安区,深圳市,1,22.795071,113.833355,中国工商银行24小时自助银行(洋涌工业路),广东省,,,59068a8934fc02dc15c9055b
宝安区福永宝利来国际大酒店,宝安区,深圳市,1,22.677991,113.833968,中国工商银行离行式自助银行(深圳分行福永支行宝利来国际大酒店),广东省,6e686bec18e03ea0008972a4,,6e686bec18e03ea0008972a4
宝安区前进二路美兰大厦,宝安区,深圳市,1,22.596952,113.88938,中国工商银行24小时自助银行(深圳丽景支行),广东省,be5e8cce3c4529ce54bfffaa,,2d1bf15c786fdbf61df74d64
宝安大道4004号旭生大厦首层,宝安区,深圳市,1,22.589741,113.870343,中国工商银行离行式自助银行(深圳分行丽景支行),广东省,f87ae4c01b6aca91b35c6af9,,f87ae4c01b6aca91b35c6af9
裕安一路3030号尚都花园2栋首层,宝安区,深圳市,1,22.565906,113.893252,中国工商银行24小时自助银行(深圳尚都支行),广东省,dd288db7a482ee4b71210b34,,083a55fa29e40579246e98f6
南山区蛇口孖州岛,南山区,深圳市,1,22.505986,113.852609,中国工商银行离行式自助银行(深圳分行蛇口支行蛇口孖州岛),广东省,,,740928992ad426593f9a5e9b
坪地街道办教育中路坪地工行综合楼首层,龙岗区,深圳市,1,22.775994,114.307406,中国工商银行24小时自助银行(坪地支行),广东省,222ffa628e423a68fbf0cbee,,4642844a33d512d9c9fa5fc5
坪地街道柠檬时代一楼115号商铺,龙岗区,深圳市,1,22.77918,114.320091,中国工商银行24小时自助银行服务(富民路),广东省,3da907f3aaf24b2eb320a855,,3da907f3aaf24b2eb320a855
龙岗区新生西路243号骨科医院门口,龙岗区,深圳市,1,22.747678,114.272579,中国工商银行24小时自助银行(深圳分行九州支行龙岗区新生西路骨科医院),广东省,,,3f5afe8d8405f3a6e3110359
龙岗区龙岗路聚龙苑花园S102号商铺,龙岗区,深圳市,1,22.725931,114.27776,中国工商银行24小时自助银行服务(银威路),广东省,9ee392b8044cc43fbbbd633d,,9ee392b8044cc43fbbbd633d
深圳市龙岗区龙翔大道9002,龙岗区,深圳市,1,22.72811,114.257815,中国工商银行24小时自助银行(深圳龙翔支行),广东省,05dd7d5f4cc5ab01ad080fd1,,05dd7d5f4cc5ab01ad080fd1
盐田区北山道北山工业区146号华大基因研究院办公大楼一楼,盐田区,深圳市,1,22.597035,114.270872,中国工商银行24小时自助银行(鸿安围西北),广东省,c16534056f6d9707ab175ae0,,c16534056f6d9707ab175ae0
龙华区观澜广培社区高尔夫大道8号5栋1楼5-1A、5-1B、5-1C号,龙华区,深圳市,1,22.728619,114.083332,中国工商银行24小时自助银行服务(深圳市分行观澜湖支行观澜湖新城),广东省,,,6ba1540e4702254ea6da3903
平湖大街591号,龙岗区,深圳市,1,22.7014,114.135736,中国工商银行24小时自助银行(深圳分行平湖支行平湖大街591号),广东省,,,d00e5b40f643accad72ce281
广东省深圳市龙岗区平龙西路75-15号(顺平达旁),龙岗区,深圳市,1,22.700591,114.11931,中国工商银行24小时自助银行(工业大道),广东省,3f621e3e80987a0286420eee,,3f621e3e80987a0286420eee
龙华区观澜黎光社区老围458号一号铺,龙华区,深圳市,1,22.766077,114.04558,中国工商银行24小时自助银行(深圳分行观澜支行观澜黎光社区),广东省,21ee3003bdff8b420af5ebae,,21ee3003bdff8b420af5ebae
观澜街道新澜大街69号投资公司,龙华区,深圳市,1,22.724111,114.061653,中国工商银行24小时自助银行服务(深圳分行新澜支行观澜街道新澜大街69号投资公司),广东省,ebe03ade2bfabf245f17c392,,ebe03ade2bfabf245f17c392
观澜街道大水坑富士康鸿观工业园C22栋首层商铺,龙华区,深圳市,1,22.743864,114.019789,中国工商银行24小时自助银行(深圳分行富士康支行观澜街道大水坑富士康鸿观工业园),广东省,,,3f53249fa0cc8a8840024508
广东省深圳市龙华区,龙华区,深圳市,1,22.692384,114.069644,中国工商银行24小时自助银行(好品居西北),广东省,b388f9fd1a1a253cb35c6a67,,b388f9fd1a1a253cb35c6a67
观澜街道中航格澜阳光花园B2栋首层,龙华区,深圳市,1,22.701108,114.054395,中国工商银行24小时自助银行(深圳分行观澜支行观澜街道中航格澜阳光花园),广东省,62128e8401ea937cf40e77a3,,62128e8401ea937cf40e77a3
光明街道华夏路怡景园7栋裙楼,光明区,深圳市,1,22.75992,113.9485,中国工商银行24小时自助银行服务(深圳分行光明支行光明街道华夏路),广东省,db1167d5519bc98188b988da,,db1167d5519bc98188b988da
光明新区光明大道华映显示科技园大园內,光明区,深圳市,1,22.747264,113.932751,中国工商银行24小时自助银行(深圳分行光明支行深圳华映显示科技),广东省,,,e77b3f7aaa52dff9081cc725
深圳市盐田区后方陆域和亨中心广场首层商铺,盐田区,深圳市,1,22.595169,114.257713,中国工商银行24小时自助银行(深圳盐田支行),广东省,cb4fd146b9bfe73f9c9d68a4,,cb4fd146b9bfe73f9c9d68a4
布澜路宝福李朗珠宝文化产业园宝福珠宝一号厂区厂房(一)首层南侧商铺,龙岗区,深圳市,1,22.651321,114.129936,中国工商银行24小时自助银行服务(深圳分行李朗支行布澜路宝福李朗珠宝文化产业园),广东省,,,810f315a67fe0442ab059d05
深圳市龙岗区布吉街道布沙路172号南景豪庭一楼,龙岗区,深圳市,1,22.613937,114.146475,中国工商银行24小时自助银行服务(深圳南岭支行),广东省,4d58b9c14fbddcdfadcb6666,,8eb48fa1a505c5a6f32d83de
盐田区政府办公楼,盐田区,深圳市,1,22.563426,114.243283,中国工商银行24小时自助银行(深圳分行盐田支行政府办公楼),广东省,4a0729b4eeb57f75100daa1e,,e5787c96a586d141f5c59c1d
沙盐路2081号海都花园首层,盐田区,深圳市,1,22.563107,114.245623,中国工商银行24小时自助银行(深圳分行保税区支行沙盐路2081号),广东省,0972975314c47e5e2e4733f5,,0972975314c47e5e2e4733f5
沙头角金融路99号,盐田区,深圳市,1,22.554362,114.237258,中国工商银行24小时自助银行(深圳分行盐田支行沙头角金融路),广东省,f9e91e9f880bdb2906fef5f8,,f9e91e9f880bdb2906fef5f8
翠竹北路1056号逸翠大厦一楼,罗湖区,深圳市,1,22.568161,114.136811,中国工商银行24小时自助银行(深圳分行翠竹北支行翠竹北路1056号逸翠大厦),广东省,b4883f0d28e7194904fef573,,b4883f0d28e7194904fef573
太白路中华花园裙楼一层,罗湖区,深圳市,1,22.583143,114.12985,中国工商银行24小时自助银行服务(深圳分行东门支行太白路中华花园),广东省,ad1d7b4c2bccac71f0193796,,ad1d7b4c2bccac71f0193796
罗湖区爱国路水库新村统建楼327栋一楼104号店,罗湖区,深圳市,1,22.571746,114.144211,中国工商银行24小时自助银行服务(深圳分行东门支行爱国路水库新村),广东省,b3216989983d1515902ca366,,b3216989983d1515902ca366
深南东路2017号华乐大厦1-2层,罗湖区,深圳市,1,22.550787,114.134369,中国工商银行24小时自助银行(深圳分行深东支行深南东路2017号华乐大厦),广东省,8ce1e401372d77a03ce2312d,,8ce1e401372d77a03ce2312d
文锦中路1010-1,罗湖区,深圳市,1,22.555462,114.138066,中国工商银行24小时自助银行(深圳东门支行),广东省,a5097bfad0ca8d1df13cbaa5,,a5097bfad0ca8d1df13cbaa5
百花二路百花公寓3号楼首层,福田区,深圳市,1,22.557658,114.099285,中国工商银行24小时自助银行服务(深圳分行百花支行百花二路),广东省,aae21c1831fdc1e2f603b8dc,,aae21c1831fdc1e2f603b8dc
深圳市罗湖区深南东路5055,罗湖区,深圳市,1,22.546153,114.11196,中国工商银行24小时自助银行(深圳市分行营业部),广东省,997cb43739db4f97704b873c,,faf6ca4e9eeb93d59df779c0
桂园路28号,罗湖区,深圳市,1,22.552498,114.119418,中国工商银行24小时自助银行服务(深圳分行桂园支行桂园路28号),广东省,44f4777e4fa7d668b54f541c,,44f4777e4fa7d668b54f541c
深南中路2074号电子大厦一、二楼,福田区,深圳市,1,22.546713,114.094684,中国工商银行24小时自助银行(深圳分行华强支行深南中路2074号电子大厦),广东省,,,267e93ad3f7a8465260bd0be
福田区红荔路园岭12栋,福田区,深圳市,1,22.55552,114.10929,中国工商银行24小时自助银行服务(深圳分行园岭支行红荔路园岭12栋),广东省,4790219593c6fc9749fc8d59,,4790219593c6fc9749fc8d59
深圳市罗湖区松园路68-24号,罗湖区,深圳市,1,22.560267,114.113571,中国工商银行24小时自助银行(深圳鸿翔支行),广东省,2848ffd6e7839d0f48cc4a60,,2848ffd6e7839d0f48cc4a60
罗湖区桂园路一号综合楼首层101号,罗湖区,深圳市,1,22.551153,114.119414,中国工商银行24小时自助银行(深圳分行桂园支行桂园路一号),广东省,311f6218800629c7128824a2,,311f6218800629c7128824a2
园岭园中花园B座首层,福田区,深圳市,1,22.558183,114.104985,中国工商银行24小时自助银行服务(深圳分行园岭支行园岭园中花园),广东省,269338db5c129896ddee8bd4,,269338db5c129896ddee8bd4
嘉宾路4021号,罗湖区,深圳市,1,22.545033,114.119994,中国工商银行24小时自助银行服务(深圳分行和平支行嘉宾路4021号),广东省,5e74fcfdf1f49a6579f796b4,,5e74fcfdf1f49a6579f796b4
深圳市罗湖区红桂路1038-13号,罗湖区,深圳市,1,22.557168,114.116005,中国工商银行24小时自助银行(深圳桂园支行),广东省,645d7b2b6736a898d6b74e0c,,645d7b2b6736a898d6b74e0c
广东省深圳市福田区福虹路华强花园ABC裙楼C座102B,福田区,深圳市,1,22.544721,114.090533,中国工商银行24小时自助银行服务(深圳福虹支行),广东省,25bfd02fbe23f05b73455b51,,25bfd02fbe23f05b73455b51
解放路文山楼一楼,罗湖区,深圳市,1,22.552129,114.124068,中国工商银行24小时自助银行服务(深圳分行华城支行解放路文山楼),广东省,5672e4c447bdbc45a2a93498,,b64fd61c270a1fbe9868b48e
深圳市福田区东园路台湾花园一楼,福田区,深圳市,1,22.543547,114.108416,中国工商银行24小时自助银行(深圳分行台湾花园支行东园路台湾花园),广东省,74a761073e33299e9fec2bcf,,74a761073e33299e9fec2bcf
人民南路嘉里中心大厦一楼,罗湖区,深圳市,1,22.543898,114.125693,中国工商银行24小时自助银行服务(深圳分行友谊支行人民南路嘉里中心大厦),广东省,73fa74089a03b399ca2915f7,,73fa74089a03b399ca2915f7
广东省深圳市罗湖区建设路火车站罗湖商业城,罗湖区,深圳市,1,22.536458,114.125193,中国工商银行24小时自助银行服务(深圳分行罗湖口岸支行建设路火车站),广东省,316e99b81f18420d8c55ec65,,316e99b81f18420d8c55ec65
广东省深圳市龙岗区五和大道黄君山区111号,龙岗区,深圳市,1,22.645259,114.067032,中国工商银行24小时自助银行(深圳分行坂田支行五和大道),广东省,a847f43448b7e3392bb97c78,,a847f43448b7e3392bb97c78
深圳龙岗区坂田街道隆平路新天下工业城4栋宿舍4A001,龙岗区,深圳市,1,22.651704,114.072574,中国工商银行24小时自助银行(深圳分行华为支行坂田街道隆平路),广东省,a1b756ff4ce7eea258f6bed2,,a1b756ff4ce7eea258f6bed2
广东省深圳市龙华区东环一路天汇大厦,龙华区,深圳市,1,22.649022,114.052497,中国工商银行24小时自助银行(深圳分行东环支行东环一路),广东省,212cd3093c8266b5eddfca27,,212cd3093c8266b5eddfca27
广东省深圳市龙华区民塘路莱蒙春天花园45-49号,龙华区,深圳市,1,22.633526,114.033544,中国工商银行24小时自助银行服务(深圳分行水榭春天支行民塘路),广东省,797b5da96c72ccf8f60e7720,,797b5da96c72ccf8f60e7720
广东省深圳市福田区梅林一村112号,福田区,深圳市,1,22.570706,114.045434,中国工商银行24小时自助银行服务(深圳分行梅林一村支行梅林一村),广东省,ae3dfac6f279732c246e98fd,,ae3dfac6f279732c246e98fd
莲花路万科金色家园一楼C号,福田区,深圳市,1,22.559541,114.049986,中国工商银行24小时自助银行服务(深圳分行景田支行莲花路万科金色家园),广东省,eb917b3c8275423a9868b442,,eb917b3c8275423a9868b442
福田区梅林路尚书苑裙楼1S-16号,福田区,深圳市,1,22.567925,114.044123,中国工商银行24小时自助银行服务(深圳分行梅林一村支行梅林路尚书苑),广东省,f5ff35f69e1671d49322e090,,f5ff35f69e1671d49322e090
梅林路理想公馆裙楼106、107、211,福田区,深圳市,1,22.57518,114.067786,中国工商银行24小时自助银行(深圳分行梅林支行梅林路理想公馆),广东省,,,9799c775be922487077ce82f
深圳市福田区益田村益荣居1-2栋连廊首层0101号商铺,福田区,深圳市,1,22.518507,114.056952,中国工商银行24小时自助银行服务(深圳分行益田支行福田区益田村),广东省,f51510e4d623ca6b6fa3ccad,,f51510e4d623ca6b6fa3ccad
福田区石厦北一街与滨河大道交汇处葵花酒店,福田区,深圳市,1,22.533713,114.058628,中国工商银行24小时自助银行服务(深圳分行福田支行石厦北一街与滨河大道交汇处葵花酒店),广东省,a5120da88356f35c4c6d4618,,a5120da88356f35c4c6d4618
深圳市福田区保税区一号通道以东海华阁商场101、102,福田区,深圳市,1,22.522181,114.076022,中国工商银行24小时自助银行服务(深圳市分行福田口岸支行福田口岸),广东省,6b141b1872f37130b020a893,,6b141b1872f37130b020a893
福华三路星河国际花园裙楼西北侧一层,福田区,深圳市,1,22.538005,114.059948,中国工商银行24小时自助银行服务(深圳分行星河支行福华三路),广东省,6ffd08cc0fd58e0cd813188c,,6ffd08cc0fd58e0cd813188c
天安工业区泰然五路F4-8栋,福田区,深圳市,1,22.53791,114.037415,中国工商银行24小时自助银行服务(深圳分行车公庙支行天安工业区泰然五路),广东省,065ef8998835b75285420e91,,065ef8998835b75285420e91
福田区竹子林七路18号商铺,福田区,深圳市,1,22.542847,114.019472,中国工商银行24小时自助银行服务(深圳分行竹子林支行竹子林七路),广东省,ca4b40b5be673cbd8bf15d5d,,ca4b40b5be673cbd8bf15d5d
华侨城光华街22栋首层,南山区,深圳市,1,22.540405,113.99575,中国工商银行24小时自助银行(深圳分行华侨城支行华侨城光华街),广东省,2dbab89753fbee278c772750,,2dbab89753fbee278c772750
深圳市南山区科技园北区朗山路东江环保大楼首层东侧,南山区,深圳市,1,22.561379,113.956651,中国工商银行24小时自助银行(深圳分行高新园北区支行科技园北区朗山路),广东省,087a34d752bce90328201a8a,,087a34d752bce90328201a8a
广东省深圳市南山区沙河西路鼎新大厦,南山区,深圳市,1,22.58701,113.959645,中国工商银行24小时自助银行(深圳分行西丽支行沙河西路),广东省,0f2bd27b1aabdf6f3be4a6ae,,0f2bd27b1aabdf6f3be4a6ae
深南大道9988号大族科技中心一、二楼东南角,南山区,深圳市,1,22.54577,113.942029,中国工商银行24小时自助银行(深圳分行高新园中区支行深南大道9988号大族科技中心),广东省,8db15c9df3e224cc0accddbc,,8db15c9df3e224cc0accddbc
深圳市南山区高新南四道30高新区综合服务楼2层,南山区,深圳市,1,22.542667,113.951134,中国工商银行24小时自助银行服务(深圳分行高新园南区支行高新技术园区综合服务楼),广东省,eacdcf723d1e9d9d246e98b0,,eacdcf723d1e9d9d246e98b0
高新区南区高新一道中科研发园三号楼塔楼首层,南山区,深圳市,1,22.543397,113.959093,中国工商银行24小时自助银行服务(深圳高新园支行),广东省,a98a4ebb7208a1e22ce67b64,,a98a4ebb7208a1e22ce67b64
深圳市南山区深圳市软件产业基地第4栋裙楼01层21、22、23、42、43号,南山区,深圳市,1,22.528703,113.944746,中国工商银行24小时自助银行服务(深圳市分行软件园支行软件产业基地),广东省,861af03284863e2bf603b8ff,,edd3d0c791932adb38e4a667
深圳市南山区海王大厦一楼,南山区,深圳市,1,22.521431,113.932979,中国工商银行24小时自助银行服务(深圳分行海王支行南海大道),广东省,758fc0a8756726e321f017bc,,758fc0a8756726e321f017bc
后海路南粤明珠海洋之心大厦一楼,南山区,深圳市,1,22.520203,113.939814,中国工商银行24小时自助银行服务(深圳分行西海岸支行后海路南粤明珠海洋之心大厦),广东省,32bbb840d2e5ea1576e5b640,,32bbb840d2e5ea1576e5b640
南山区桃园路60号华为综合楼一楼,南山区,深圳市,1,22.538524,113.929136,中国工商银行24小时自助银行(深圳分行南山支行桃园路60号),广东省,21e7b89cff47001e2902e135,,21e7b89cff47001e2902e135
南山大道光彩新世纪花园一楼,南山区,深圳市,1,22.529019,113.931157,中国工商银行24小时自助银行服务(深圳南新支行),广东省,2cc3c8e8305eb3d64d2fdf77,,2cc3c8e8305eb3d64d2fdf77
中心路与工业八路交汇处宝能太古城花园购物中心南区一层SL111、二层SL210,南山区,深圳市,1,22.504992,113.946456,中国工商银行24小时自助银行服务(深圳分行太古城支行中心路与工业八路交汇处),广东省,ded607abda61ff430ab93af4,,ded607abda61ff430ab93af4
南海大道2088-15,南山区,深圳市,1,22.513097,113.931764,中国工商银行24小时自助银行服务(深圳南油支行),广东省,6b5e18c10e11ecbcf7b91632,,6b5e18c10e11ecbcf7b91632
南新路32号,南山区,深圳市,1,22.536702,113.925659,中国工商银行24小时自助银行(深圳分行南山支行南新路32号),广东省,23f157b3a47f607c59bbbc9e,,23f157b3a47f607c59bbbc9e
广东省深圳市南山区南海大道荟芳园A栋一层,南山区,深圳市,1,22.532625,113.935126,中国工商银行24小时自助银行服务(学府路),广东省,82a08406925f847558bbbc92,,82a08406925f847558bbbc92
光明新区公明马山头元灯坑工业区10号铺位,光明区,深圳市,1,22.773628,113.882209,中国工商银行24小时自助银行(深圳分行公明支行公明马山头元灯坑工业区),广东省,debb1501765da58fe011035c,,debb1501765da58fe011035c
松岗街道松涛社区楼岗大道63号101,宝安区,深圳市,1,22.770806,113.858006,中国工商银行24小时自助银行(深圳分行楼岗支行松岗街道松涛社区楼岗大道),广东省,fe8c656d09b02d3d32870ac0,,fe8c656d09b02d3d32870ac0
沙井街道景鸿路8栋德升电子(深圳)有限公司,宝安区,深圳市,1,22.77078,113.813017,中国工商银行24小时自助银行服务(万众购物广场东北),广东省,,,96b672aad87bd808ce04ef77
新二村十三巷9号(富力表业厂东),宝安区,深圳市,1,22.75838,113.839561,中国工商银行24小时自助银行(潭裕楼西南),广东省,,,606ab0d094fa222a0f3dda98
深圳市宝安区中心路102时代中心,宝安区,深圳市,1,22.735195,113.83639,中国工商银行24小时自助银行服务(深圳新沙支行),广东省,088f9f95f59b1b4b990050bd,,088f9f95f59b1b4b990050bd
广东省深圳市宝安区新二庄村路附近,宝安区,深圳市,1,22.715614,113.863366,中国工商银行24小时自助银行(坑尾塘二路),广东省,,,8eb48fa15ebdbadbf32d8362
福永镇福永大道345号,宝安区,深圳市,1,22.678033,113.83267,中国工商银行24小时自助银行(深圳分行福永支行福永镇福永大道345号),广东省,00887a9a432913bd26e0a080,,00887a9a432913bd26e0a080
宝安区福永凤凰社区岑下路222号为盛商场一楼1-3号商铺,宝安区,深圳市,1,22.700337,113.845068,中国工商银行24小时自助银行服务(深圳分行福永支行福永凤凰社区岑下路),广东省,931c494fac7de7067bf796d6,,931c494fac7de7067bf796d6
沙井大街510号,宝安区,深圳市,1,22.738153,113.816026,中国工商银行24小时自助银行(深圳沙井支行),广东省,b024d90d85ad9711b15c6a05,,b024d90d85ad9711b15c6a05
宝安区福围社区东福围西街16－18号,宝安区,深圳市,1,22.658489,113.828348,中国工商银行24小时自助银行服务(广生七巷),广东省,,,de215c9b70192a4f3617dce4
南山区招商街道望海路蛇口希尔顿南海酒店二楼,南山区,深圳市,1,22.48548,113.922282,中国工商银行24小时自助银行(深圳分行工业区支行招商街道望海路),广东省,da354d1cb78d197571455bff,,da354d1cb78d197571455bff
蛇口海尚国际,南山区,深圳市,1,22.491774,113.930582,中国工商银行24小时自助银行服务(深圳分行蛇口支行蛇口海尚国际),广东省,,,022051061eea8276d92f2805
蛇口工业区招商路173号,南山区,深圳市,1,22.495769,113.929175,中国工商银行24小时自助银行服务(深圳分行蛇口支行蛇口工业区招商路),广东省,0ae21028c49f026a17948ee3,,0ae21028c49f026a17948ee3
南山区赤湾五路4号,南山区,深圳市,1,22.484961,113.897391,中国工商银行24小时自助银行(深圳赤湾支行),广东省,39d43f82668cdb86a8059d46,,39d43f82668cdb86a8059d46
广东省深圳市光明区光明新区公明十七号路,光明区,深圳市,1,22.740283,113.929292,中国工商银行24小时自助银行(十七号路),广东省,cf94b23b51cbfd2b0b69d9b3,,f8cbedac9a909b57f4e73bb8
笋岗西路3号一楼,福田区,深圳市,1,22.561027,114.091373,中国工商银行24小时自助银行(笋岗西路),广东省,6ed3083a06d7aaca2a3a9fb3,,1d24890f3c58633b33169b63
松岗镇沿河南路5号,宝安区,深圳市,1,22.771854,113.85229,中国工商银行24小时自助银行(深圳分行松岗支行松岗镇沿河南路),广东省,27315f81b5910d80deee8bf9,,27315f81b5910d80deee8bf9
深圳市市民中心地下一层,福田区,深圳市,1,22.548645,114.066122,中国银行24小时自助银行,广东省,5f1e4ce7c57848b8b64f541d,,5f1e4ce7c57848b8b64f541d
