address,area,city,detail,lat,lng,name,province,street_id,telephone,uid
广东省深圳市南山区鲤鱼门街,南山区,深圳市,1,22.523796,113.908302,中国银行,广东省,,,1c286ec14838e2f6b1077dab
深圳市龙岗区可园7号门10栋149号商铺,龙岗区,深圳市,1,22.607617,114.142433,中国银行,广东省,b95a791bda13dc7216a19016,,b95a791bda13dc7216a19016
广东省深圳市福田区福华三路261附近,福田区,深圳市,1,22.537998,114.061255,中国银行,广东省,,,723ab4091c1d2ec1b8bd63ca
深圳市宝安区西乡街道新湖路圣淘沙骏园1栋商铺08号-16号铺,宝安区,深圳市,1,22.579038,113.869241,中国银行(西乡支行),广东省,72aa2513a12ee047077ce8f9,(0755)22337040,72aa2513a12ee047077ce8f9
广东省深圳市龙岗区布吉镇坂田村坂田大厦1层,龙岗区,深圳市,1,22.641889,114.07506,中国银行(坂田支行),广东省,b388f9fd33a35a41b35c6a23,,b388f9fd33a35a41b35c6a23
深圳市龙华区民治街道人民路与布龙路交界锦绣江南会所1-2楼,龙华区,深圳市,1,22.64117,114.033234,中国银行(锦绣支行),广东省,7f4950932c8a2474a2a934fd,,7f4950932c8a2474a2a934fd
深圳市宝安区30区前进一路冠利达大厦诺铂广场一层,宝安区,深圳市,1,22.579728,113.905107,中国银行(前进支行),广东省,8fa14fc3fff4dd6ef7eafcf6,"(0755)22337001,(0755)22337004",8fa14fc3fff4dd6ef7eafcf6
深圳市南山区南山大道,南山区,深圳市,1,22.528609,113.929316,中国银行(南山支行),广东省,69fcd6df11acec2fca291577,(0755)22336713,69fcd6df11acec2fca291577
深圳市龙华区观澜街道人民路东1号金通盛国际1层101-102号2层202号,龙华区,深圳市,1,22.707815,114.056238,中国银行(观澜支行),广东省,bf94a62a962ac02c95ca0720,(0755)22337934,bf94a62a962ac02c95ca0720
广东省深圳市宝安区罗田路20-1号,宝安区,深圳市,1,22.566623,113.886881,中国银行(幸福支行),广东省,3b69a1d98094e6dd4354d730,(0755)22330060,3b69a1d98094e6dd4354d730
深圳市福田区华富路1006号航都大厦,福田区,深圳市,1,22.54845,114.088698,中国银行(上步支行),广东省,eb4dbfa38d379ec1d22dd6e3,,eb4dbfa38d379ec1d22dd6e3
深圳市福田区红荔路7028号香蜜新村一栋首层,福田区,深圳市,1,22.552496,114.048785,中国银行(福田支行),广东省,697f1d30d9a23b3c32f71d12,,697f1d30d9a23b3c32f71d12
深圳市福田区金田路1008号时代广场首层,福田区,深圳市,1,22.525279,114.073018,中国银行(福强支行),广东省,37d60a46a0a2d9601e1d1137,"(0755)22335328,(0755)22333567",37d60a46a0a2d9601e1d1137
深圳市罗湖区宝安北路2088号深业物流大厦一二层西面,罗湖区,深圳市,1,22.568315,114.115968,中国银行(彩虹支行),广东省,1cea15a9d86f1bc507fef561,,1cea15a9d86f1bc507fef561
深圳市福田区深南大道7888号,福田区,深圳市,1,22.542618,114.028258,中国银行(东海支行),广东省,fd28738cefaf9dc00bccdd94,95566,fd28738cefaf9dc00bccdd94
深圳市福田区红岭南路红岭大厦一楼,福田区,深圳市,1,22.546389,114.110945,中国银行(红岭支行),广东省,e541c069c7bd0d4b16c905ff,(0755)22338193,e541c069c7bd0d4b16c905ff
深圳市宝安区机场道1011号深圳宝安国际机场信息大楼1层,宝安区,深圳市,1,22.650184,113.833281,中国银行(机场支行),广东省,00f1c7fb1d4f271fc056acf3,(0755)22336483,00f1c7fb1d4f271fc056acf3
广东省深圳市福田区南园路76号,福田区,深圳市,1,22.545128,114.101017,中国银行(滨河支行),广东省,05dd7d5f4ca7ab01ad080f37,(0755)22338165,05dd7d5f4ca7ab01ad080f37
深圳市福田区益民路通心岭新村39栋一楼,福田区,深圳市,1,22.551408,114.103705,中国银行(荔园支行),广东省,2a7a25eceb5105636c3e1b37,(0755)22338599,2a7a25eceb5105636c3e1b37
深圳市罗湖区东门中路2020号东门金融大厦,罗湖区,深圳市,1,22.55364,114.128336,中国银行(东门支行),广东省,aa40108bfe95c615c5effb61,(0755)22337406,aa40108bfe95c615c5effb61
福园一路74号附近德金财富广场1层,宝安区,深圳市,1,22.69401,113.795251,中国银行(桥和支行),广东省,c09fde19b2a0998ed0ff23cf,(0755)22336096,c09fde19b2a0998ed0ff23cf
深圳市龙岗区百鸽路258号,龙岗区,深圳市,1,22.60429,114.12887,中国银行(罗岗支行),广东省,cb4fd146e6492a419d9d6823,,cb4fd146e6492a419d9d6823
深圳市宝安区石岩镇石岩大道28号,宝安区,深圳市,1,22.685028,113.946314,中国银行(石岩支行),广东省,34059f97f0c0825470455b9f,(0755)22337911,34059f97f0c0825470455b9f
龙岗大道6006号汇峰轩一楼,龙岗区,深圳市,1,22.7299,114.276785,中国银行(龙兴支行),广东省,603d4143d66ae1b5b11e362b,"(0755)22337751,(0755)22335687",603d4143d66ae1b5b11e362b
深圳市福田区白沙岭百花五路百花公寓首层,福田区,深圳市,1,22.556792,114.09803,中国银行(长城支行),广东省,31378cc3ed03fbe87ab55c17,(0755)22335994,31378cc3ed03fbe87ab55c17
深圳市宝安区松岗镇东方村曙光路14号,宝安区,深圳市,1,22.771755,113.851667,中国银行(东方支行),广东省,d6ee87243a9e46e0a9f0cd98,(0755)22336489,d6ee87243a9e46e0a9f0cd98
深圳市龙华区大浪街道同胜社区华旺路同富裕工业园内第一栋A101,龙华区,深圳市,1,22.681365,114.002724,中国银行(大浪支行),广东省,14e3a3c06edf24ea8e55eca0,,14e3a3c06edf24ea8e55eca0
深圳市宝安区沙井街道西环路2106号,宝安区,深圳市,1,22.735357,113.80796,中国银行(沙井支行),广东省,91c13f934ad6defa20f017e0,(0755)22336149,91c13f934ad6defa20f017e0
广东省深圳市龙岗区松柏路129号,龙岗区,深圳市,1,22.65372,114.217907,中国银行(横岗支行),广东省,c879fa0134f1b24ac909f0de,,c879fa0134f1b24ac909f0de
广东省深圳市南山区育德佳园二期109-112号,南山区,深圳市,1,22.515992,113.939469,中国银行(后海支行),广东省,cd9d05dd0a32e9b685420e77,,cd9d05dd0a32e9b685420e77
深圳市光明区光明街道光明大街88号,光明区,深圳市,1,22.768443,113.951801,中国银行(光明支行),广东省,0c3d22fe88abf71f6b49f394,(0755)22337957,0c3d22fe88abf71f6b49f394
广东省深圳市南山区东滨路3010号,南山区,深圳市,1,22.510788,113.9327,中国银行(南油支行),广东省,550fd5f93d2e2104921fc9bc,(0755)22336570,550fd5f93d2e2104921fc9bc
深圳市福田区侨香路翠海花园二期裙楼首层,福田区,深圳市,1,22.556724,114.021517,中国银行(侨香支行),广东省,c5ddcc08cc0df9c6d8131837,,c5ddcc08cc0df9c6d8131837
广东省深圳市宝安区沙井街道蚝乡路蚝二统建楼,宝安区,深圳市,1,22.745604,113.803072,中国银行(蚝乡支行),广东省,d2740e3eea0cb58ee60738a7,,279eed5771f8a8386140a913
深圳市龙岗区横岗街道红棉一路锦冠华城雅景苑二期104号,龙岗区,深圳市,1,22.652146,114.202005,中国银行(六约支行),广东省,3810c87924c73a8b9c09f7de,,3810c87924c73a8b9c09f7de
深圳市龙岗区平湖镇守珍街109号,龙岗区,深圳市,1,22.700068,114.135985,中国银行(平湖支行),广东省,a79e13efb0f4dafbbb17e721,(0755)22336854,a79e13efb0f4dafbbb17e721
罗湖区华丽路1099号,罗湖区,深圳市,1,22.558359,114.141079,中国银行(华丽支行),广东省,5011b099859365c4a80dd8ef,(0755)22336433,5011b099859365c4a80dd8ef
深圳市龙岗区坪地街道湖田路49号,龙岗区,深圳市,1,22.776453,114.316877,中国银行(坪地支行),广东省,844a750e84bee7b9626858c5,(0755)22337760,844a750e84bee7b9626858c5
深圳市龙岗区大鹏街道鹏新西路56号,龙岗区,深圳市,1,22.598954,114.482066,中国银行(大鹏支行),广东省,c21db9e54872418300ff2dda,(0755)22337776,c21db9e54872418300ff2dda
深圳市盐田区路金港盛世华庭,盐田区,深圳市,1,22.595705,114.261701,中国银行(金港支行),广东省,593850fbecc5bd20de1e52a1,(0755)22338392,593850fbecc5bd20de1e52a1
罗湖区太白路彩世界家园1层,罗湖区,深圳市,1,22.584347,114.149003,中国银行(布心支行),广东省,435d7aea6a3d3b355abbbc1b,(0755)22330116,435d7aea6a3d3b355abbbc1b
福田区福田南路皇城广场首层,福田区,深圳市,1,22.530978,114.082685,中国银行(皇岗支行),广东省,89fd4ea3f7c64139e4e965a4,,89fd4ea3f7c64139e4e965a4
广东省深圳市龙华区龙华街道清泉路与和平路交汇处幸福城商业大厦一层07号和二层06号商铺,龙华区,深圳市,1,22.668788,114.043029,中国银行(清湖支行),广东省,,,8e66d70bbaf1b14e364aaec4
民治大道横岭村皇嘉商业广场一层101-105号商铺,龙华区,深圳市,1,22.61521,114.052339,中国银行(民治支行),广东省,e4fd0d67835dc2a742d63e96,,e4fd0d67835dc2a742d63e96
深圳市福田区上梅林梅林路65号海康大厦1层,福田区,深圳市,1,22.57382,114.068246,中国银行(天虹商场),广东省,cc0849a0aed7f65094031937,,cc0849a0aed7f65094031937
深圳市福田区红荔西路8133号农科商务办公楼一楼06、07、09商铺,福田区,深圳市,1,22.546409,114.025461,中国银行(香蜜支行),广东省,72f9e309ba7fbfc0593ac85c,,72f9e309ba7fbfc0593ac85c
深圳市福田区新洲11街139号中央西谷大厦1楼,福田区,深圳市,1,22.53272,114.046897,中国银行(金地支行),广东省,3da6ac0511745e08c9e33cad,,3da6ac0511745e08c9e33cad
沙河街2-1金三角大厦1层,南山区,深圳市,1,22.546398,113.975243,中国银行(侨城支行),广东省,,,47a1f5059c10e4fa8a36eee0
龙珠七路44俊峰丽舍花园3栋商铺4号B-3,南山区,深圳市,1,22.566234,113.989597,中国银行(龙珠支行),广东省,0adce3e2b4f0d66180a00c77,,0adce3e2b4f0d66180a00c77
"深圳市南山区海德二道华彩新天地113A号,115-116号和123D号铺位",南山区,深圳市,1,22.524457,113.936527,中国银行(鹏龙支行),广东省,37d60a46a062d9601e1d1177,"(0755)22336573,(0755)22338675",37d60a46a062d9601e1d1177
广东省深圳市宝安区宝民二路137号,宝安区,深圳市,1,22.589671,113.886474,中国银行(流塘支行),广东省,42bfd1ae743b1931343a71d9,,42bfd1ae743b1931343a71d9
深圳市宝安区42区翻身路68号橙果酒店首层,宝安区,深圳市,1,22.562622,113.905395,中国银行(新城支行),广东省,a1418eb4644f9c7febe582f6,(0755)27894331,a1418eb4644f9c7febe582f6
深圳市南山区蛇口工业区太子路18号海景广场一二层H座,南山区,深圳市,1,22.489268,113.921137,中国银行(蛇口支行),广东省,15e1e85edf796da258109346,"(0755)22338703,(0755)22338720",15e1e85edf796da258109346
广东省深圳市坪山区坑梓镇新发街36号,坪山区,深圳市,1,22.750575,114.377943,中国银行(坑梓支行),广东省,8eb48fa1a515c5a6f32d83ce,,8eb48fa1a515c5a6f32d83ce
中山大道3001号,坪山区,深圳市,1,22.690896,114.344851,中国银行(坪山支行),广东省,5421f7364f392f6d5e0d021e,(0755)22334615,5421f7364f392f6d5e0d021e
深圳市龙岗区葵涌街道葵坪北路44号,龙岗区,深圳市,1,22.634977,114.426635,中国银行(葵涌支行),广东省,5c2dc21d202f03046fc02cda,(0755)22336372,5c2dc21d202f03046fc02cda
广东省深圳市龙岗区龙福西路与和福路交汇处家和盛世花园一期,龙岗区,深圳市,1,22.7281,114.239226,中国银行(龙城支行),广东省,0058610833de01a546e274d1,,0058610833de01a546e274d1
深圳市龙岗区中心城德政路龙财大楼,龙岗区,深圳市,1,22.729617,114.254015,中国银行(龙岗支行),广东省,4cf8d24e2c24d3e49cf779d1,(0755)22337819,4cf8d24e2c24d3e49cf779d1
深圳市光明区公明办事处兴发路1号,光明区,深圳市,1,22.779909,113.911885,中国银行(公明支行),广东省,,,f414eaf74a955cadfbf0cb12
广东省深圳市光明区田寮大道11号,光明区,深圳市,1,22.730427,113.908974,中国银行(田寮支行),广东省,,,fa2f839ff597e25cd418b7c5
深圳市龙岗区布吉镇布吉路108号,龙岗区,深圳市,1,22.607362,114.12415,中国银行(布吉支行),广东省,d146b388ad3cb3de74026923,(0755)22335735,d146b388ad3cb3de74026923
深圳市罗湖区罗沙路3048号,罗湖区,深圳市,1,22.566276,114.178719,中国银行(莲塘支行),广东省,ea4a3dc99077612e4e55471a,"(0755)22338335,(0755)22335598",ea4a3dc99077612e4e55471a
罗湖区太安路百仕达花园一期8号楼,罗湖区,深圳市,1,22.578238,114.142067,中国银行(东乐支行),广东省,b292b3aa68d7a956be48421a,"(0755)22337456,(0755)25001147",b292b3aa68d7a956be48421a
"深圳市罗湖区宝安南路1036-1号鼎丰大厦110-116号,二层209-211号",罗湖区,深圳市,1,22.545882,114.118499,中国银行(万象支行),广东省,948166ffec23ced9eedfcad4,,948166ffec23ced9eedfcad4
广东省深圳市罗湖区笋岗东路百汇大厦1层,罗湖区,深圳市,1,22.561581,114.11343,中国银行(笋岗支行),广东省,95f2637d39d5f4f2c71e51f0,(0755)25893486,95f2637d39d5f4f2c71e51f0
"深圳市罗湖区宝安南路2048号宝丽大厦一,二楼",罗湖区,深圳市,1,22.553536,114.116892,中国银行(罗湖支行),广东省,8eb48fa1a5bcc5a6f32d8361,,8eb48fa1a5bcc5a6f32d8361
福田区福田路24号海岸环庆大厦一层,福田区,深圳市,1,22.538152,114.084018,中国银行(福星支行),广东省,b74beda242c8c1a688fc0619,,b74beda242c8c1a688fc0619
深圳市福田区下梅林梅林路梅林一村二区综合大楼1楼,福田区,深圳市,1,22.571401,114.046075,中国银行(梅丽支行),广东省,49a02a7aa641ba402b201a37,(0755)83534459,49a02a7aa641ba402b201a37
泰然四路25号天安数码城518号天吉大厦,福田区,深圳市,1,22.538461,114.037303,中国银行(天安支行),广东省,dffd631cc8fafdbc38221c37,,dffd631cc8fafdbc38221c37
深圳市南山区沙河华侨城光华街22栋一层,南山区,深圳市,1,22.540341,113.995949,中国银行(沙河支行),广东省,91c13f9349bbd9fa21f01777,(0755)22337507,91c13f9349bbd9fa21f01777
深圳市南山区沙河西路鼎新大厦东座一楼,南山区,深圳市,1,22.586985,113.960105,中国银行(西丽支行),广东省,,(0755)22336735,698f2f0e4f502832b020a8bb
深圳市南山区高新南四道13号中兴通讯科技研发大楼一层西侧,南山区,深圳市,1,22.541724,113.955403,中国银行(中兴支行),广东省,63f75f5e19f55f18e9f853e6,"(0755)22338588,(0755)22335374",63f75f5e19f55f18e9f853e6
南海大道1071号,南山区,深圳市,1,22.502933,113.926937,中国银行(网谷支行),广东省,e85e25274740765395f08c46,,e85e25274740765395f08c46
广东省深圳市宝安区沙江路中海西岸华府1栋1楼,宝安区,深圳市,1,22.776343,113.828589,中国银行(松安支行),广东省,68f5ab8ce7c044273ee2319f,(0755)22335200,68f5ab8ce7c044273ee2319f
深圳市宝安区沙井街道中心路108号锐钧商务大厦1B,宝安区,深圳市,1,22.736023,113.836632,中国银行(新沙支行),广东省,d6df91c14193e36af6b916e0,"(0755)22336488,(0755)22335017",d6df91c14193e36af6b916e0
深圳市宝安区福永大道270号,宝安区,深圳市,1,22.677637,113.832131,中国银行(福永支行),广东省,f9456941924237e096ca07dd,,3681af0c08a792f74afc8da4
深圳市宝安区新中心区新安街道宝兴路西侧万骏经贸大厦1楼,宝安区,深圳市,1,22.555626,113.88671,中国银行(宝安支行),广东省,a10c02eebd0bd165c1364489,,a10c02eebd0bd165c1364489
深圳市罗湖区田贝四路114号,罗湖区,深圳市,1,22.572868,114.132583,中国银行(水贝支行),广东省,b533ea4a12436d414f6d461a,(0755)25534080,b533ea4a12436d414f6d461a
深圳市罗湖区人民南路3002号国贸大厦1楼,罗湖区,深圳市,1,22.547049,114.126548,中国银行(国贸支行),广东省,dace3913e979c794fb221369,,dace3913e979c794fb221369
深圳市罗湖区深南东路5016号京基100大厦B座,罗湖区,深圳市,1,22.549556,114.113824,中国银行(深南支行),广东省,89299a1faea1acbde6e96575,,89299a1faea1acbde6e96575
龙岗区龙翔大道公园大地二期101号,龙岗区,深圳市,1,22.713359,114.239737,中国银行(公园大地支行),广东省,3508b99c9b15ee3ef32d83a8,(0755)22335312,3508b99c9b15ee3ef32d83a8
广东省深圳市罗湖区东门南路1016号,罗湖区,深圳市,1,22.544683,114.134568,中国银行(沿河南支行),广东省,14076deed582fbf402294f1a,(0755)22338766,14076deed582fbf402294f1a
深圳市罗湖区爱国路3042号,罗湖区,深圳市,1,22.568163,114.146475,中国银行(水库新村支行),广东省,4eb3b533dac0ee754302451a,"(0755)22337462,(0755)22337475",4eb3b533dac0ee754302451a
罗湖区向西路36号东康花园1层,罗湖区,深圳市,1,22.547814,114.132103,中国银行(向西路支行),广东省,2848ffd6e7899d0f48cc4a1a,,2848ffd6e7899d0f48cc4a1a
广东省深圳市罗湖区文锦北路1010号文锦广场1层,罗湖区,深圳市,1,22.564274,114.131752,中国银行(文锦广场支行),广东省,86a8cf4bb886cbd096f08c67,(0755)22337453,86a8cf4bb886cbd096f08c67
深圳市罗湖区深南东路2008号,罗湖区,深圳市,1,22.551522,114.135643,中国银行(文锦渡支行),广东省,d12dfdb6e2561c87b75f1e11,"(0755)22338830,(0755)22336404",d12dfdb6e2561c87b75f1e11
景田北街香蜜湖唯珍府商业楼103-108、202-211,福田区,深圳市,1,22.561021,114.042026,中国银行(景田北支行),广东省,8c17d21885618e17c51e512e,,8c17d21885618e17c51e512e
深圳市福田区竹子林中国经贸大厦首层,福田区,深圳市,1,22.540664,114.015424,中国银行(竹子林支行),广东省,6113ef77b4a268148e772737,,6113ef77b4a268148e772737
深圳市南山区香山中街1-9号,南山区,深圳市,1,22.553712,113.983417,中国银行(波托菲诺支行),广东省,3a0a78bd249a02fa63180977,"(0755)22332102,(0755)22332163",3a0a78bd249a02fa63180977
广东省深圳市南山区深南大道大冲商务中心D座2层,南山区,深圳市,1,22.5468,113.960047,中国银行(华润城支行),广东省,07c60761a897995796031964,(0755)22334619,07c60761a897995796031964
深圳市南山区深圳湾口岸24号旅检大楼一楼北面东侧,南山区,深圳市,1,22.508856,113.956231,中国银行(西部通道支行),广东省,cb816969ed67bcaa7e29bd78,,cb816969ed67bcaa7e29bd78
深圳市南山区学府路226号,南山区,深圳市,1,22.534442,113.921216,中国银行(深圳前海支行),广东省,3ccfaa45c875d46612882446,,3ccfaa45c875d46612882446
深圳市南山区蛇口招商路132号,南山区,深圳市,1,22.496296,113.931712,中国银行(招商路支行),广东省,850815e11300f69b43e19246,(0755)22338635,850815e11300f69b43e19246
"深圳市罗湖区深南东路中建大厦一楼,十九楼",罗湖区,深圳市,1,22.549801,114.129138,中国银行(中建大厦支行),广东省,bff8fa7d6d5399a1c8213d24,(0755)22336425,bff8fa7d6d5399a1c8213d24
广东省深圳市罗湖区文锦北路英达花园1层,罗湖区,深圳市,1,22.58253,114.128162,中国银行(英达花园支行),广东省,4fc3161ae6add9a93a13fd61,,4fc3161ae6add9a93a13fd61
深圳市福田区华强路赛格广场首层,福田区,深圳市,1,22.547123,114.093494,中国银行(赛格广场支行),广东省,41572e0042701fb4b45f1e37,,41572e0042701fb4b45f1e37
广东省深圳市福田区深南中路北方大厦1层,福田区,深圳市,1,22.546074,114.091686,中国银行(北方大厦支行),广东省,7d5f3a0a0d10834b2cb90837,(0755)22338458,7d5f3a0a0d10834b2cb90837
深圳市福田区彩田路5015号中银花园首层,福田区,深圳市,1,22.553017,114.073915,中国银行(中银花园支行),广东省,ef773a0f3605a03422022037,"(0755)82468945,(0755)22337644",ef773a0f3605a03422022037
深圳市福田区车公庙泰然九路红松大厦B区一层,福田区,深圳市,1,22.537964,114.030686,中国银行(泰然金谷支行),广东省,6e030a036d74a57beedfca08,(0755)22334687,6e030a036d74a57beedfca08
深圳市南山区艺园路19,南山区,深圳市,1,22.547951,113.933687,中国银行(艺园路支行),广东省,231169135cd6c9fe734b87e9,(0755)22336996,231169135cd6c9fe734b87e9
广东省深圳市南山区东滨路与南山大道交汇城市山林花园106-108号商铺,南山区,深圳市,1,22.517495,113.920766,中国银行(东滨路支行),广东省,d5f93c0ea7e5e821ecdfcabc,,d5f93c0ea7e5e821ecdfcabc
深圳市宝安区西乡镇广深公路东侧世外桃源19栋首层,宝安区,深圳市,1,22.621593,113.866698,中国银行(桃源居支行),广东省,c7fb04bdec51ee15fa0cadf3,,c7fb04bdec51ee15fa0cadf3
广东省深圳市南山区蛇口新街54号东部渔港综合楼首层,南山区,深圳市,1,22.492153,113.938203,中国银行(东角头支行),广东省,231c95b073d86a17932ca337,(0755)22335454,231c95b073d86a17932ca337
华南大道1号华南城环球物流中心1层101-102号,龙岗区,深圳市,1,22.68219,114.130438,中国银行(华南城支行),广东省,6dda476bc646fa7a88db7304,,6dda476bc646fa7a88db7304
深圳市盐田区金融路68号,盐田区,深圳市,1,22.555396,114.237813,中国银行(深圳东部支行),广东省,7feaf7a21241a6f4373a7108,"(0755)22336032,(0755)22335588",b7021bf8f99027faf4e73b2f
福田区华富路2041号市政设计大厦1楼,福田区,深圳市,1,22.560814,114.091722,中国银行(黄木岗支行),广东省,69fcd6df116cec2fca291537,,69fcd6df116cec2fca291537
深圳市罗湖区建设路2022号国际金融大厦一楼,罗湖区,深圳市,1,22.547514,114.122944,中国银行(深圳市分行),广东省,e6c9024a1fbc849000294f5c,(0755)22331155,e6c9024a1fbc849000294f5c
深圳市龙岗区坂田街道坂雪岗大道万科城北门丁香公寓一层,龙岗区,深圳市,1,22.655432,114.074099,中国银行(万科城支行),广东省,9ffbd8906b6144946e20b994,,9ffbd8906b6144946e20b994
广东省深圳市龙华区民宝路金亨利都荟首府1期1楼,龙华区,深圳市,1,22.625616,114.032187,中国银行(龙悦居支行),广东省,,,f3e1ed57707afe36eee4a578
深圳市福田区福中路市民中心B1层,福田区,深圳市,1,22.549512,114.066677,中国银行(市民中心支行),广东省,1b31710c05796d8b82a12e06,,1b31710c05796d8b82a12e06
深圳市福田区彩田路福建大厦B座首层,福田区,深圳市,1,22.539353,114.07548,中国银行(福建大厦支行),广东省,6cd26a9486594cb53c9a5e89,(0755)22338889,6cd26a9486594cb53c9a5e89
广东省深圳市南山区高新技术园北区松坪山路1号源兴科技大厦北座101号,南山区,深圳市,1,22.559969,113.958501,中国银行(高新北支行),广东省,7cd299e4ef3ca5cba20464fe,,7cd299e4ef3ca5cba20464fe
深圳市南山区科技园科苑路11号金融科技大厦A座一楼,南山区,深圳市,1,22.552034,113.951264,中国银行(科技园支行),广东省,e3e2cd9d7db0aee3c7f50d77,,e3e2cd9d7db0aee3c7f50d77
深圳市南山区高新技术产业园区高新南一道南区联想大厦一楼,南山区,深圳市,1,22.544832,113.955024,中国银行(高新区支行),广东省,7d5f3a0a0dd0834b2cb90877,(0755)22337712,7d5f3a0a0dd0834b2cb90877
深圳市宝安区建安一路54号,宝安区,深圳市,1,22.563976,113.916654,中国银行(建安路支行),广东省,7512ec92fd65370cc9fa5fa3,,7512ec92fd65370cc9fa5fa3
深圳市南山区东填海区后海片区曦湾华府裙楼B1至B11商铺,南山区,深圳市,1,22.507225,113.947498,中国银行(深圳曦湾支行),广东省,4489fcf48dde6906c9e33c9b,(0755)22336023,4489fcf48dde6906c9e33c9b
深圳市南山区南海大道3688号深圳大学教学楼C座一楼,南山区,深圳市,1,22.538765,113.942724,中国银行(深圳深大支行),广东省,86bd3dc7cf59f123882fb5d3,"(0755)22335691,(0755)22337668",86bd3dc7cf59f123882fb5d3
深圳市南山区桃园路田厦金牛广场B座,南山区,深圳市,1,22.538595,113.933582,中国银行(桃园路支行),广东省,fe1a7fa1417058bc3913fdbd,(0755)22336750,fe1a7fa1417058bc3913fdbd
深圳市宝安区西乡街道银田路与共乐路之间三号路南侧松茂御龙湾,宝安区,深圳市,1,22.579554,113.859828,中国银行(深圳宝源支行),广东省,84d3312809853ce8eee4a558,,84d3312809853ce8eee4a558
广东省深圳市龙岗区横岗街道六约振业城4号商铺首层,龙岗区,深圳市,1,22.640761,114.187612,中国银行(振业城支行),广东省,c85c49c903d5ed12d0ff2345,(0755)22336178,c85c49c903d5ed12d0ff2345
广东省深圳市南山区粤兴三道南京大学深圳产学研基地1楼1C01,南山区,深圳市,1,22.533702,113.951943,中国银行(科苑路支行),广东省,7bb91468bc69ba155fd4fe8e,,7bb91468bc69ba155fd4fe8e
深圳市坪山区新和四路招商花园城5栋S516商铺,坪山区,深圳市,1,22.712625,114.350555,中国银行(深圳坪山新区支行),广东省,d5df6851bbb650d8dc1e5248,"(0755)22337752,(0755)22334654",d5df6851bbb650d8dc1e5248
广东省深圳市福田区裕享路福田口岸联检大楼二楼出境大厅东北侧,福田区,深圳市,1,22.521666,114.07663,中国银行(深圳福田口岸支行),广东省,86b8cbf635744e8e22f01714,,86b8cbf635744e8e22f01714
深圳市盐田区沙头角海山路28号和亨城市广场1层122号,盐田区,深圳市,1,22.564779,114.244205,中国银行(沙头角保税区支行),广东省,606289fd1f1f214da2046424,,606289fd1f1f214da2046424
广东省深圳市罗湖区东门南路3028,罗湖区,深圳市,1,22.549457,114.129146,中国银行(港澳居民服务中心),广东省,,,af02e33a4d1d6deb2ce67b01
深圳市福田区桂花路15-5号,福田区,深圳市,1,22.5151,114.057821,中国银行(福田保税区支行),广东省,852e51ca10a7ccc2ae0457da,(0755)22336365,852e51ca10a7ccc2ae0457da
深圳市福田区深南大道4001号时代金融大厦1楼,福田区,深圳市,1,22.543723,114.061663,中国银行(时代金融中心支行),广东省,50f7d14680e4ebba73210b98,(0755)22335363,50f7d14680e4ebba73210b98
深圳市龙岗区龙岗大道(布吉段)2504号星都豪庭01层37号商铺,龙岗区,深圳市,1,22.618864,114.144807,中国银行(大芬支行营业厅),广东省,4efbde701d81d62da2d23022,,4efbde701d81d62da2d23022
深圳市罗湖区北环路1022号金湖文化中心大厦一楼101(518029),罗湖区,深圳市,1,22.576559,114.091309,中国银行(产权登记中心支行),广东省,7d5f3a0aba91d6362db908b3,,7d5f3a0aba91d6362db908b3
深圳市龙华区人民路北路442号,龙华区,深圳市,1,22.666066,114.024443,中国银行(深圳市分行龙华支行),广东省,1487364a50420ef59868b437,(0755)22338036,691305234cb95d08725e80e8
深圳市福田区福民路中央花园会所首层,福田区,深圳市,1,22.529265,114.059712,中国银行(深圳市分行福民支行),广东省,0a46dc0f7171305e30621237,(0755)22338867,0a46dc0f7171305e30621237
深圳市南山区后海滨路3168号中海油大厦(深圳)A座1层104号商铺、A座2层东北角部分商铺,南山区,深圳市,1,22.518259,113.945959,中国银行(深圳中海油大厦支行),广东省,d7ab0976a78e4aa4970319eb,(0755)22336079,d7ab0976a78e4aa4970319eb
深圳市罗湖区新秀路104号,罗湖区,深圳市,1,22.553436,114.151723,中国银行(深圳市分行新秀支行),广东省,e3082848cb5c07bfb34c491a,,e3082848cb5c07bfb34c491a
广东省深圳市龙岗区爱龙路6,龙岗区,深圳市,1,22.733861,114.242012,中国银行24小时自助银行(爱龙路),广东省,f716b9a2f9d27f6016764391,,f716b9a2f9d27f6016764391
红荔西路农科商务办公楼1楼,福田区,深圳市,1,22.546479,114.025453,中银理财,广东省,,,d106c5f18087dcf5c5effbd6
广东省深圳市南山区月亮湾大道2080号兆龙大厦3楼,南山区,深圳市,1,22.514138,113.905228,中银金融,广东省,024e1ff9eab87772d518b7fe,,024e1ff9eab87772d518b7fe
广东省深圳市南山区深圳麒麟山庄(政府指定接待酒店),南山区,深圳市,1,22.6126,113.981727,中国银行24小时自助银行(麒麟山庄东),广东省,,,558d469e66edf43b715e80ca
前进二路102-6号附近,宝安区,深圳市,1,22.594834,113.891494,中国银行24小时自助银行(名典大厦北),广东省,299a766ab828b2ce49fc8de7,,fd4cc9c849b526638f1a89f1
白花园路西50米,光明区,深圳市,1,22.72938,113.987689,中国银行24小时自助银行(白花园路),广东省,,,d13774e6e3a575d7acee7a3e
广东省深圳市福田区泰然五路10,福田区,深圳市,1,22.538285,114.037448,中银理财理财中心,广东省,2ba52bd297bd02136fa3ccf0,,2ba52bd297bd02136fa3ccf0
深圳市罗湖区宝安南路2046-1号,罗湖区,深圳市,1,22.553011,114.116796,中银理财(宝安南路店),广东省,d876fc342b4746acfb221364,,d876fc342b4746acfb221364
农衣路21号附近,龙岗区,深圳市,1,22.652364,114.109663,中国银行24小时自助银行服务,广东省,e3bc1d947bcd3a185b109344,,e3bc1d947bcd3a185b109344
广东省深圳市南山区鲤鱼门街,南山区,深圳市,1,22.524073,113.908558,江苏银行,广东省,,95319,88bd891df7a166a72d4733d6
深圳市福田区彩田路5015号中银大厦A座1楼,福田区,深圳市,1,22.553423,114.073769,兴业银行(中心区支行),广东省,cb4fd146e6262a419d9d6836,,cb4fd146e6262a419d9d6836
深圳市宝安区万骏经贸大厦首层中行中行,宝安区,深圳市,1,22.555257,113.886789,中国银行国际结算,广东省,,,cd0bfc97d9603cf900ec01db
深圳市龙岗区茂盛路盛大百货4楼,龙岗区,深圳市,1,22.656722,114.209999,中银信业,广东省,,,b8f3393cacae3e4c32870af3
广东省深圳市龙岗区学园路1号,龙岗区,深圳市,1,22.752988,114.256034,中国银行24小时自助银行,广东省,2df5318090fe1d530869d9dd,,2df5318090fe1d530869d9dd
广东省深圳市龙岗区园山街道惠盐中路西坑活动中心附近,龙岗区,深圳市,1,22.625399,114.229225,中国银行24小时自助银行,广东省,,,abafb219e0c6e2bdb42655bb
侨城东地铁站内,南山区,深圳市,1,22.539324,114.002495,中国银行ATM,广东省,a66934eea12ef78504fef558,,a66934eea12ef78504fef558
广东省深圳市坪山区坑梓莹展花园(莹展路东),坪山区,深圳市,1,22.764112,114.370568,中国银行24小时自助银行服务,广东省,9396c5e9b00f911e90114c26,,9396c5e9b00f911e90114c26
明珠大道,盐田区,深圳市,1,22.584469,114.277453,中国银行24小时自助银行,广东省,788ebe3b4455874ec61e51e6,,788ebe3b4455874ec61e51e6
深圳市龙华区高尔夫大道1号观澜湖高尔夫球会行政大楼附近1层,龙华区,深圳市,1,22.742209,114.082701,中国银行ATM,广东省,,,803708f1abe51e7900897290
深圳市罗湖区和平路1085号富临大酒店1层,罗湖区,深圳市,1,22.53761,114.122155,中国银行ATM,广东省,3f9ed13be194eb63a4c7568a,,3f9ed13be194eb63a4c7568a
福田区西地铁站内,福田区,深圳市,1,22.551768,114.056247,中国银行ATM,广东省,b42930bba2c0ac140aa8d469,,b42930bba2c0ac140aa8d469
深南大道8003号福田交通枢纽负1层,福田区,深圳市,1,22.539384,114.02012,中国银行24小时自助银行,广东省,b467dc3b4fbb43368bdb7379,,b467dc3b4fbb43368bdb7379
广东省深圳市南山区东滨路深圳湾段2019深圳湾海关缉私分局附近,南山区,深圳市,1,22.509025,113.952751,中国银行ATM,广东省,ab763f915213693ce8e58253,,ab763f915213693ce8e58253
广东省深圳市龙岗区宝龙街道爱南路方兴科技园,龙岗区,深圳市,1,22.710108,114.261171,中国银行24小时自助银行(宝南路),广东省,8b7592c499d0e5062811d142,,8b7592c499d0e5062811d142
广东省深圳市盐田区沙头角梧桐路2010号,盐田区,深圳市,1,22.563684,114.240465,中国银行ATM,广东省,c92dbbd1281595c0b320a82a,,c92dbbd1281595c0b320a82a
深圳市罗湖区建设路1003号罗湖地铁站B1,罗湖区,深圳市,1,22.536556,114.124452,中国银行ATM,广东省,,,0c0df21e3eb41637b5f42fa8
鹊山路鹊山路A10栋附近,龙华区,深圳市,1,22.663068,114.006782,中国银行24小时自助银行服务,广东省,,,acedc5aa5275cbe1b817e7c6
广东省深圳市南山区西丽塘兴路同富裕工业城,南山区,深圳市,1,22.591453,113.991425,中国银行24小时自助银行服务,广东省,8da9ccaf50793a1e9222e09b,,8da9ccaf50793a1e9222e09b
广东省深圳市光明区志康路36,光明区,深圳市,1,22.808376,113.902954,中国银行24小时自助银行服务,广东省,16705687d50b6e5a6140a943,,16705687d50b6e5a6140a943
广东省深圳市宝安区新二庄村路14-4,宝安区,深圳市,1,22.728588,113.8702,中国银行24小时自助银行,广东省,,,08b981707557af479222e097
深圳市宝安区新沙路454号附近,宝安区,深圳市,1,22.738566,113.822247,中国银行24小时自助银行服务,广东省,0fb5143668b4ee6152e5c504,,0fb5143668b4ee6152e5c504
广东省深圳市罗湖区东门街道东门中路2020号东门金融大厦10楼中银消费金融,罗湖区,深圳市,1,22.553506,114.12842,中银消费金融,广东省,,,b8881b8cb117c3e7da2f2827
深圳市罗湖区莲塘路174-3,罗湖区,深圳市,1,22.567606,114.17728,中国银行单身公寓,广东省,59ed6e50bd66ac5426e0a073,,59ed6e50bd66ac5426e0a073
广东省深圳市南山区科苑西工业区24栋中国银行软件中心,南山区,深圳市,1,22.55039,113.951581,中国银行软件中心,广东省,,,170a141c87a21046ae04570a
深圳市罗湖区岭商业城新湖村2栋仓库3楼中国银行单身公寓,罗湖区,深圳市,1,22.555432,114.151101,中国银行单身公寓,广东省,20744e3b5163281c01294f55,,20744e3b5163281c01294f55
深圳市龙岗区龙翔大道9009号,龙岗区,深圳市,1,22.731535,114.2577,中银富登村镇银行,广东省,ef4a8e5e872206c2b75f1e1b,(0755)89390000,ef4a8e5e872206c2b75f1e1b
广东省深圳市坪山区238乡道附近,坪山区,深圳市,1,22.679591,114.365235,中国银行ATM(江岭路),广东省,,,4933a9ac2456a94cd92f2854
观宝路18号,龙华区,深圳市,1,22.687208,114.07715,中国银行24小时自助银行(观宝路),广东省,c3aa918f71d64e8040e1921d,,c3aa918f71d64e8040e1921d
人民路296号,龙华区,深圳市,1,22.70777,114.056047,中国银行24小时自助银行服务(大和路),广东省,233c655394c116552e4733b8,,233c655394c116552e4733b8
深圳市龙华区华荣路278号华信购物广场F1,龙华区,深圳市,1,22.679387,114.004788,中国银行24小时自助银行服务(华荣路),广东省,0050cb35921a9ef2ad080f05,,0050cb35921a9ef2ad080f05
力嘉路102号,龙岗区,深圳市,1,22.647286,114.217288,中国银行24小时自助银行(力嘉路),广东省,161a0ed29918e02e5dd4fe92,,161a0ed29918e02e5dd4fe92
广东省深圳市龙岗区环城东路高时石材集团(睿达科技园东南),龙岗区,深圳市,1,22.627498,114.086492,中国银行24小时自助银行服务(伟安路),广东省,78b075e3417dc61d00ff2dc1,,78b075e3417dc61d00ff2dc1
广东省深圳市福田区红荔路2004号,福田区,深圳市,1,22.555863,114.101098,中国银行ATM(红荔路),广东省,5510bc109be5545b21f017fb,,5510bc109be5545b21f017fb
富泉新村富泉大厦1层6号,龙华区,深圳市,1,22.671964,114.0393,中国银行24小时自助银行(三联路),广东省,d172158414bbcd91c056ac66,,d172158414bbcd91c056ac66
南山区东滨路3010-2号,南山区,深圳市,1,22.510787,113.932804,中国银行24小时自助银行服务(东滨路),广东省,40a0cf936ee2a577bbbd6377,,aacaf4fb5cc32068bca822d5
广东省深圳市南山区海德三道13,南山区,深圳市,1,22.524169,113.945931,中国银行ATM(海滨路),广东省,35e5fbab6f79b4f1b4265537,,35e5fbab6f79b4f1b4265537
田富路26号,光明区,深圳市,1,22.738177,113.905981,中国银行24小时自助银行服务(田富路),广东省,4c0e00a34784ceb62cb90828,,0db5e75e17e6f9c6dfee8b9f
宝安区中心路28-42号(中国邮政松山代办所西北),宝安区,深圳市,1,22.727631,113.810643,中国银行24小时自助银行服务(沙中路),广东省,c5e3284f66efd679102935aa,,c5e3284f66efd679102935aa
深圳市宝安区海城路亨业大厦1层,宝安区,深圳市,1,22.568796,113.871774,中国银行24小时自助银行服务(海城路),广东省,27aa6347398db3b709b93a8c,,27aa6347398db3b709b93a8c
深圳东海岸大梅沙海滨浴场京基喜来登度假酒店,盐田区,深圳市,1,22.603234,114.320988,中国银行ATM(东海岸),广东省,7cc9ad791861b5ac3fe2319c,,7cc9ad791861b5ac3fe2319c
埔厦路57-69号,龙岗区,深圳市,1,22.648469,114.191024,中国银行24小时自助银行(埔厦路),广东省,31f9101b9c2355c427e0a0a4,,31f9101b9c2355c427e0a0a4
深圳市龙岗区良白路33,龙岗区,深圳市,1,22.655688,114.155798,中国银行24小时自助银行(东深路),广东省,4ea3f2f1103ccbaaaecb66d9,,4ea3f2f1103ccbaaaecb66d9
深圳市龙岗区新厦大道25号,龙岗区,深圳市,1,22.70408,114.130894,中国银行24小时自助银行服务(益民路),广东省,35961f295b16a5fb3a04b128,,35961f295b16a5fb3a04b128
广东省深圳市龙华区华盛路138号鸿邦电子有限公司旁,龙华区,深圳市,1,22.6873,114.009194,中国银行24小时自助银行(华盛路),广东省,7388dffdd26ded96d3ff236e,,7388dffdd26ded96d3ff236e
深圳市南山区丽水路2199号北京大学深圳研究生院,南山区,深圳市,1,22.597844,113.985554,中国银行24小时自助银行(丽水路),广东省,0d8f56842bdce15b5fd4fe36,,0d8f56842bdce15b5fd4fe36
福安路10号附近,宝安区,深圳市,1,22.699432,113.831616,中国银行ATM(福安路),广东省,cde9e2c7118029c9e81e9778,,cde9e2c7118029c9e81e9778
广东省深圳市龙岗区东方半岛社区中怡路盈翠家园北50米,龙岗区,深圳市,1,22.618864,114.144807,中国银行24小时自助银行,广东省,a01a6facf3be01354e2fdf57,,857b7d1d85a4b88b601c67be
福田区华强南路2001-3号,福田区,深圳市,1,22.548476,114.088807,中国银行24小时自助银行,广东省,89713d0682a1f4fc04fef5dc,,89713d0682a1f4fc04fef5dc
深圳市福田区福田南路24,福田区,深圳市,1,22.530976,114.082632,中国银行24小时自助银行(皇岗支行),广东省,2fe64693ca074c1ab04c49e8,,7c4e3cfb00b56ebf0f3dda9d
广田路48号附近,宝安区,深圳市,1,22.823663,113.884523,中国银行24小时自助银行(西龙一街),广东省,,,b2175d5e6929cd2aad31e559
广东省深圳市宝安区福凤路福永凤凰第三工业区华旭科技园,宝安区,深圳市,1,22.684994,113.845922,中国银行24小时自助银行服务(腾丰四路),广东省,,,c335b0bfd37a6d574d2fdf89
福园一路39号,宝安区,深圳市,1,22.684002,113.790793,中国银行24小时自助银行(福园一路),广东省,b388f9fd32635d41b25c6ae3,,b388f9fd32635d41b25c6ae3
南山区招商东路米兰二期公寓裙楼04号A商铺,南山区,深圳市,1,22.496298,113.935247,中国银行ATM(招商东路),广东省,,,a78a2fcb9d1962e793114c24
坪山区坪山大道与沙坑路交叉口西北150米,坪山区,深圳市,1,22.665498,114.297988,中国银行24小时自助银行,广东省,615d1f692b7dbd4db11e360e,,615d1f692b7dbd4db11e360e
深圳市光明区振明路28号,光明区,深圳市,1,22.779998,113.911813,中国银行24小时自助银行(公明支行),广东省,,,6deee308743e531729fc4865
桔坑路13-1,龙华区,深圳市,1,22.736527,114.022484,中国银行24小时自助银行,广东省,0a9d026f825a06251b11d5ce,,0a9d026f825a06251b11d5ce
深圳市罗湖区东湖路4-1号,罗湖区,深圳市,1,22.584255,114.149052,中国银行24小时自助银行(布心支行),广东省,75036835c14ce1d15e0d02f0,,75036835c14ce1d15e0d02f0
深圳市罗湖区宝安南路1881号深圳华润万象城B1,罗湖区,深圳市,1,22.546398,114.117383,中国银行ATM(宝安南路),广东省,01ba04309709e5ad0f0e6bc0,,01ba04309709e5ad0f0e6bc0
深圳市福田区景田北四街52号,福田区,深圳市,1,22.560532,114.048208,中行地产(时尚名苑店),广东省,7b53b83b56cd62fd7369d398,(0755)83161358,7b53b83b56cd62fd7369d398
创研路中兴食堂1层,南山区,深圳市,1,22.584933,113.94168,中国银行24小时自助银行,广东省,86cb812e93b288033617dc51,,86cb812e93b288033617dc51
深圳市深南东路9009号华侨城大酒店大堂,南山区,深圳市,1,22.538676,113.991147,中国银行ATM(深南东路),广东省,,,291fa10888000082c1f1cf34
深圳大学老教学楼CD座楼下,南山区,深圳市,1,22.538752,113.942876,中国银行ATM(深圳大学),广东省,,,7f898e2d2dd527238415416f
深圳市南山区东滨路4343-26,南山区,深圳市,1,22.517484,113.920639,中国银行24小时自助银行服务(东滨路支行),广东省,28000a4227df4fd9fb2d6176,,28000a4227df4fd9fb2d6176
中心路2292,南山区,深圳市,1,22.50706,113.947652,中国银行24小时自助银行(曦湾支行),广东省,729d67ce0936747815a19001,,729d67ce0936747815a19001
福园二路与重庆路交叉口北150米,宝安区,深圳市,1,22.690648,113.78778,中国银行24小时自助银行,广东省,,,8abb755613748489c909f080
桥和路313-1号,宝安区,深圳市,1,22.694065,113.795193,中国银行24小时自助银行(桥和支行),广东省,538c7e0efcdf052426e0a02d,,538c7e0efcdf052426e0a02d
同富路5号,宝安区,深圳市,1,22.687845,113.803666,中国银行24小时自助银行,广东省,,,2c6e0c34d71709348bf15d07
康明路与康贝路交叉口东南50米,龙岗区,深圳市,1,22.778266,114.327637,中国银行24小时自助银行,广东省,047b84384088ae768936ee88,,047b84384088ae768936ee88
深圳市龙岗区清林中路77,龙岗区,深圳市,1,22.725281,114.237656,中国银行24小时自助银行(龙城支行),广东省,a3e8341c68a2a3eb4afd3f63,,a3e8341c68a2a3eb4afd3f63
广东省深圳市龙岗区深圳信息职业技术学院东门中国联通旁,龙岗区,深圳市,1,22.694621,114.226304,中国银行24小时自助银行(龙飞大道),广东省,d1ebf0a4338cd58fa11de9b4,,d1ebf0a4338cd58fa11de9b4
广东省深圳市龙岗区布吉新区维达力实业(深圳)公司平湖分公司,龙岗区,深圳市,1,22.682869,114.154975,中国银行24小时自助银行服务(富民二路),广东省,621e3490e51b8c0e95ca0705,,621e3490e51b8c0e95ca0705
广东省深圳市龙华区清丽路与清祥路交叉口东150米,龙华区,深圳市,1,22.679991,114.070176,中国银行24小时自助银行,广东省,764948abbef8938217c8f6fd,,764948abbef8938217c8f6fd
广东省深圳市龙岗区松柏路129号,龙岗区,深圳市,1,22.65389,114.217836,中国银行24小时自助银行服务(横岗支行),广东省,606289fd1f64214da20464d9,,606289fd1f64214da20464d9
广东省深圳市龙岗区上李朗商业街18-2,龙岗区,深圳市,1,22.659228,114.126142,中国银行24小时自助银行(上李朗街),广东省,0c31e547241c1a551fe999eb,,0c31e547241c1a551fe999eb
深圳市罗湖区东门南路1008号,罗湖区,深圳市,1,22.544656,114.134646,中国银行24小时自助银行(沿河南支行),广东省,94abcda51ed9eaa0aeb22a0b,,94abcda51ed9eaa0aeb22a0b
向西路8号东康花园1层,罗湖区,深圳市,1,22.547859,114.132152,中国银行24小时自助银行服务(向西路支行),广东省,979cabab8ae321f32b201a70,,979cabab8ae321f32b201a70
老街地铁站内,罗湖区,深圳市,1,22.550121,114.122267,中国银行24小时自助银行,广东省,23cdd7749b94f42e21022044,,23cdd7749b94f42e21022044
深圳市福田区深南大道6011号NEO大厦B座1层,福田区,深圳市,1,22.54192,114.036813,中国银行ATM(泰然一路),广东省,121526a7d8763d0094031943,,121526a7d8763d0094031943
深圳市南山区白石路,南山区,深圳市,1,22.535732,113.947768,中国银行24小时自助银行,广东省,9412249e4907938df72310d0,,9412249e4907938df72310d0
共乐路与十号路交叉口西北100米,宝安区,深圳市,1,22.579108,113.859931,中国银行24小时自助银行,广东省,dde1442ea66b2ec2c26c14c5,,dde1442ea66b2ec2c26c14c5
广东省深圳市龙岗区深惠路1057附近,龙岗区,深圳市,1,22.733824,114.281025,中国银行24小时自助银行,广东省,,,af9f214170debfabc2364403
广东省深圳市龙华区佳怡工业园9,龙华区,深圳市,1,22.755565,114.056487,中国银行24小时自助银行,广东省,,,0a50823028ac4fa17bb55c5d
深圳市市民中心地下一层,福田区,深圳市,1,22.548645,114.066122,中国银行24小时自助银行,广东省,5f1e4ce7c57848b8b64f541d,,5f1e4ce7c57848b8b64f541d
万安路与松福大道交叉口东100米,宝安区,深圳市,1,22.729882,113.799857,中国银行24小时自助银行,广东省,,,41edfe697c48e35e88db7333
西沙路(濠景城西北),宝安区,深圳市,1,22.744677,113.796668,中国银行24小时自助银行,广东省,0850d86c6697895728201a73,,0850d86c6697895728201a73
共和工业大道南50米,宝安区,深圳市,1,22.758258,113.803432,中国银行24小时自助银行,广东省,,,290815f60aab07ad7ec87654
广东省深圳市龙华区华荣路510号(近大浪街道行政服务中心),龙华区,深圳市,1,22.691257,113.999674,中国银行24小时自助银行,广东省,257c4536eeb318934afd3fba,,257c4536eeb318934afd3fba
广东省深圳市龙岗区深坑路37号2楼北90米,龙岗区,深圳市,1,22.640772,114.18767,中国银行24小时自助银行,广东省,bcd37f4d794f3eae41d63e4a,,bcd37f4d794f3eae41d63e4a
深圳市龙华区,龙华区,深圳市,1,22.731327,114.056261,中国银行24小时自助银行服务,广东省,,,1e588ef1fba5d2b0631c67b0
罗湖区金稻田路2051-1号,罗湖区,深圳市,1,22.589066,114.127361,中国银行24小时自助银行服务(英达花园支行),广东省,d6bef1d6fe301c48b320a837,,d6bef1d6fe301c48b320a837
深圳市福田区上步南路1093号中信地铁商场(上步南路)1层,福田区,深圳市,1,22.546037,114.102592,中国银行ATM(中信地铁商场),广东省,2bf9519575f5a3c36f47603a,,2bf9519575f5a3c36f47603a
深圳市福田区振中一街与振中路交叉口西南50米,福田区,深圳市,1,22.548443,114.088807,中国银行跨境金融服务中心,广东省,,,77f1a73b919d8a48f6c59cc4
深圳市福田区桂花路5号深圳福朋喜来登酒店1层,福田区,深圳市,1,22.5173,114.068798,中国银行ATM(福朋喜来登酒店),广东省,c710b0e50f31ad44400245de,,c710b0e50f31ad44400245de
广东省深圳市龙华区人民路31号东南90米,龙华区,深圳市,1,22.641416,114.033013,中国银行ATM(银轩酒店东南),广东省,9f97b1c517115f06b64f54eb,,9f97b1c517115f06b64f54eb
深圳市福田区民田路144号附近,福田区,深圳市,1,22.546875,114.059852,中国银行24小时自助银行服务,广东省,dd7e8b1d2d5348d5c61e51fd,,dd7e8b1d2d5348d5c61e51fd
桂花路15-1号;红树绿洲01商铺,福田区,深圳市,1,22.515038,114.057588,中国银行24小时自助银行服务(福田保税区支行),广东省,2456626a0f0cff76d618b79c,,2456626a0f0cff76d618b79c
深圳市福田区泰然体育中心附近红松大厦B座,福田区,深圳市,1,22.53779,114.030631,中国银行24小时自助银行(泰然金谷支行),广东省,15e1e85edf886da258109331,,15e1e85edf886da258109331
广东省深圳市宝安区创业一路1008号丽晶国际1层,宝安区,深圳市,1,22.561763,113.895545,中国银行理财中心(银晖路),广东省,5b0ea415050573f9f119371b,,5b0ea415050573f9f119371b
青松西路南50米,坪山区,深圳市,1,22.727415,114.389098,中国银行24小时自助银行服务,广东省,bf961d9ff549a48ef7b91686,,bf961d9ff549a48ef7b91686
广东省深圳市光明区安发路,光明区,深圳市,1,22.779927,113.911779,中国银行中小型企业信贷中心,广东省,87a378a3850f328fb75f1eaf,,87a378a3850f328fb75f1eaf
广东省深圳市罗湖区宝安南路1036-1号,罗湖区,深圳市,1,22.545717,114.118504,中国银行24小时自助银行(深圳华润万象城),广东省,b4fd2bab27f529966340a9cc,,b4fd2bab27f529966340a9cc
广东省深圳市南山区委大楼一楼,南山区,深圳市,1,22.539057,113.93695,中国银行ATM(南山区委大楼),广东省,5d402b32dfcc800b08f5eb4f,,5d402b32dfcc800b08f5eb4f
广东省深圳市宝安区机场六道1028号附近,宝安区,深圳市,1,22.653252,113.8306,中国银行24小时自助银行服务,广东省,,,f9357bf132b4a844cac3dbcc
八卦三路82号,福田区,深圳市,1,22.568434,114.107541,中国银行24小时自助银行服务,广东省,f40dc2bc6d53add0853304bd,,f40dc2bc6d53add0853304bd
广东省深圳市龙岗区龙腾路唯歌电子深圳有限公司南门,龙岗区,深圳市,1,22.789848,114.302127,中国银行24小时自助银行(龙腾路),广东省,fc563590a1227b5b52e5c5c1,,fc563590a1227b5b52e5c5c1
广东省深圳市坪山区中兴路37,坪山区,深圳市,1,22.693528,114.353078,中国银行24小时自助银行(中兴路),广东省,8689208287ba26f79222e0e7,,7d5f3a0a528a4e352db908a4
同德路148附近人人购物广场同乐店1层,龙岗区,深圳市,1,22.719657,114.321542,中国银行24小时自助银行(同德路),广东省,59f9e93ff9fcaad1f6c59c0e,,59f9e93ff9fcaad1f6c59c0e
广东省深圳市龙岗区力嘉路102号,龙岗区,深圳市,1,22.646195,114.211956,中国银行24小时自助银行(力嘉路),广东省,2bce5f2b74ca795016c90573,,2bce5f2b74ca795016c90573
聚宝路11号,罗湖区,深圳市,1,22.567721,114.17583,中国银行24小时自助银行(聚宝路),广东省,aec468c461c2f04bb320a89d,,aec468c461c2f04bb320a89d
广东省深圳市罗湖区北环大道1022,罗湖区,深圳市,1,22.576628,114.09132,中国银行24小时自助银行(产权登记中心支行),广东省,8fa14fc320378813f6eafcb3,,8fa14fc320378813f6eafcb3
广东省深圳市罗湖区新园路6,罗湖区,深圳市,1,22.55234,114.124385,中国银行24自助银行服务(新园路),广东省,e80d3cffade7a3e624e0a0e5,,e80d3cffade7a3e624e0a0e5
滨河大道5022号联合广场A座701,福田区,深圳市,1,22.535638,114.075464,深圳市中银信担保投资有限公司,广东省,,,85ba03c388ec6fe97ec876d8
登良路23号(汉京国际),南山区,深圳市,1,22.517054,113.930973,中国银行24小时自助银行(汉京点),广东省,76ecd480fe47c0c5130daa86,,76ecd480fe47c0c5130daa86
广东省深圳市宝安区中心路108,宝安区,深圳市,1,22.736174,113.83649,中国银行24自助银行服务(中心路),广东省,,,1d053095c3b2d933ca1b9579
沙盐路3068-9号,盐田区,深圳市,1,22.555968,114.235097,中国银行24小时自助银行(沙深路),广东省,,,d39a4f598f39ed8e8a36ee22
深圳市福田区梅岗南街20号附近,福田区,深圳市,1,22.565189,114.092512,中国银行24小时自助银行(静逸街),广东省,dff0ccb4dd094fdf93114c7a,,dff0ccb4dd094fdf93114c7a
福田深南大道6035号深圳深航国际酒店1楼,福田区,深圳市,1,22.54044,114.025555,中国银行ATM(深圳深航国际酒店),广东省,9d4a314a3d415d26a6c756d9,,9d4a314a3d415d26a6c756d9
深圳市光明区振兴路26号附近,光明区,深圳市,1,22.801213,113.940547,中国银行24小时自助银行(振兴路),广东省,a120e79083702b94626858f2,,a120e79083702b94626858f2
深圳市龙岗区可园北10-151号,龙岗区,深圳市,1,22.607694,114.14235,中国银行24小时自助银行(兴龙路),广东省,85eba3b039918f6217948e0e,,101bc61b8a3d5ddec52ba1a4
建设路2022号深圳国际金融大厦,罗湖区,深圳市,1,22.547261,114.123034,中国银行24小时自助银行(建设路),广东省,b19748a5e9804bc8c056ac33,,b19748a5e9804bc8c056ac33
铜鼓路3号,南山区,深圳市,1,22.546848,113.960223,中国银行24小时自助银行(铜鼓路),广东省,eca816fbc535d9aa441a326b,,eca816fbc535d9aa441a326b
深圳市南山区白石路2168号南山京基·百纳广场F1,南山区,深圳市,1,22.537049,113.975941,中国银行ATM(南山京基百纳广场),广东省,cfbd8646695a84b40d3dda65,,cfbd8646695a84b40d3dda65
广东省深圳市光明区光明新区公明下村村委会(下村公园东南),光明区,深圳市,1,22.796599,113.892684,中国银行24小时自助银行(下村路),广东省,,,573dc81e0a0310592cb96dc2
深圳市宝安区空港八道深圳宝安国际机场F4,宝安区,深圳市,1,22.630632,113.818747,中国银行ATM(深圳宝安国际机场),广东省,,,b103be805c95b3392cb17ea8
深圳市盐田区海山路28-18,盐田区,深圳市,1,22.564614,114.244099,中国银行24小时自助银行(海山路),广东省,546a506371fb0f1c2b3a9f77,,546a506371fb0f1c2b3a9f77
罗湖区怡景路峰景台大厦,罗湖区,深圳市,1,22.561322,114.146801,中国银行24小时自助银行(怡景路),广东省,,,59ed66d46c295fa671210b07
广东省深圳市宝安区塘下涌工业大道良维科技股份有限公司,宝安区,深圳市,1,22.803246,113.845106,中国银行24小时自助银行(众福路),广东省,,,4df4798bb51f9169abf729c5
坑梓镇新发街36号,坪山区,深圳市,1,22.750669,114.377765,中国银行24小时自助银行(坑梓支行),广东省,68613c83e8b41160fe0eb023,,68613c83e8b41160fe0eb023
龙岗大道6006号汇峰轩大厦一楼,龙岗区,深圳市,1,22.72983,114.276828,中国银行24小时自助银行(龙兴支行),广东省,4cf8d24e2c3cd3e49cf779c9,,4cf8d24e2c3cd3e49cf779c9
塘家大道25-1号,光明区,深圳市,1,22.738269,113.944098,中国银行24小时自助银行(塘家大道),广东省,,,a491bc49091ef5ccb23c818f
深圳市龙岗区湛宝路22,龙岗区,深圳市,1,22.65212,114.201977,中国银行24小时自助银行(六约支行),广东省,89fd4ea3a2368c47e5e965d9,,89fd4ea3a2368c47e5e965d9
华丽路1099号环岛丽园1层,罗湖区,深圳市,1,22.558407,114.140962,中国银行24小时自助银行(华丽支行),广东省,96f9648dc0170164e8e58212,,96f9648dc0170164e8e58212
广东省深圳市福田区红岭南路1045,福田区,深圳市,1,22.546453,114.110693,中国银行24小时自助银行(红岭支行),广东省,a7c56ee0c8a8aacea3acc417,,a7c56ee0c8a8aacea3acc417
宝安北路2088-2号,罗湖区,深圳市,1,22.568435,114.115937,中国银行24小时自助银行(彩虹支行),广东省,ba2f8b5869cd41adf4b9163e,,ba2f8b5869cd41adf4b9163e
深圳市福田区百花五路8号,福田区,深圳市,1,22.556725,114.097966,中国银行24小时自助银行(长城支行),广东省,6594a0c07aed47f8095cb35d,,6594a0c07aed47f8095cb35d
坂雪岗大道布吉万科城一期C区4号楼113-115,龙岗区,深圳市,1,22.655528,114.074078,中国银行24小时自助银行(万科城支行),广东省,9b3303344b90d397ee74f8cf,,9b3303344b90d397ee74f8cf
人民北路442号,龙华区,深圳市,1,22.66588,114.024081,中国银行24小时自助银行(龙华支行),广东省,56e88cba74499a65a4c756eb,,56e88cba74499a65a4c756eb
广东省深圳市龙华区民治大道横岭村皇嘉商业广场1层101-105号商铺,龙华区,深圳市,1,22.615203,114.052427,中国银行24小时自助银行(民治支行),广东省,dee64f43ea15447b43024585,,dee64f43ea15447b43024585
福田区下梅林梅林路148-3号,福田区,深圳市,1,22.571065,114.046218,中国银行24小时自助银行(梅丽支行),广东省,9f55ddac1c566057c7f025f8,,9f55ddac1c566057c7f025f8
深圳市福田区侨香路2041号,福田区,深圳市,1,22.556681,114.021615,中国银行24小时自助银行(侨香支行),广东省,419fc73e99f4b6c830621200,,419fc73e99f4b6c830621200
广东省深圳市福田区深南大道7888(东海国际中心),福田区,深圳市,1,22.542331,114.028167,中国银行24小时自助银行(东海支行),广东省,3c07c067b802ecfaeedfca17,,3c07c067b802ecfaeedfca17
深圳市南山区沙河街2金三角大厦,南山区,深圳市,1,22.546295,113.975227,中国银行24小时自助银行(侨城支行),广东省,373cf7575880fc6e4354d776,,373cf7575880fc6e4354d776
深圳市宝安区建安一路54号,宝安区,深圳市,1,22.563958,113.916548,中国银行24小时自助银行(建安路支行),广东省,754490934c7a81506268587f,,754490934c7a81506268587f
深圳市南山区粤兴三道6号,南山区,深圳市,1,22.533463,113.951743,中国银行24小时自助银行(科苑支行),广东省,aa87dcb1344c97c82dfaa77f,,aa87dcb1344c97c82dfaa77f
高新南四道13号,南山区,深圳市,1,22.541644,113.95531,中国银行24小时自助银行(中兴支行),广东省,bdf32218e989351ce5073829,,bdf32218e989351ce5073829
南山区海德二道243号,南山区,深圳市,1,22.524427,113.93674,中国银行24小时自助银行(鹏龙支行),广东省,598e6e10be0245f78a36ee23,,598e6e10be0245f78a36ee23
岑下路3号,宝安区,深圳市,1,22.704438,113.85033,中国银行24小时自助银行服务(岑下路),广东省,a03aadae806c85e33617dc46,,a03aadae806c85e33617dc46
深圳市宝安区宝民二路137号,宝安区,深圳市,1,22.589578,113.886448,中国银行24小时自助银行(流塘支行),广东省,3fa6bde03d3ec39b0bccdda2,,3fa6bde03d3ec39b0bccdda2
深圳市龙岗区鹏新西路56,龙岗区,深圳市,1,22.598948,114.482093,中国银行24小时自助银行(大鹏支行),广东省,3c0ea7c5dc2ac39cfbf0cbda,,3c0ea7c5dc2ac39cfbf0cbda
深圳市龙岗区德政路18号,龙岗区,深圳市,1,22.72962,114.253921,中国银行24小时自助银行(龙岗支行),广东省,908298236cd1296f01294f09,,908298236cd1296f01294f09
山子下路94号,龙岗区,深圳市,1,22.651896,114.246371,中国银行24小时自助银行(横岗大康),广东省,,,8f595e6b20b59eb52afc4821
广东省深圳市龙岗区金泉四路1-1号(东昇特价百货东),龙岗区,深圳市,1,22.6383,114.20549,中国银行24小时自助银行(金泉四路),广东省,2cc3c8e885cf46a84d2fdfe3,,2cc3c8e885cf46a84d2fdfe3
翠竹路1059,罗湖区,深圳市,1,22.566709,114.136096,中国银行24小时自助银行(翠华支行),广东省,61d3d3f467457eb721022090,,61d3d3f467457eb721022090
广东省深圳市罗湖区深南东路2008号京鹏大厦,罗湖区,深圳市,1,22.551622,114.135583,中国银行24小时自助银行(文锦渡支行),广东省,416de704b705fdfe49fd3f0c,,416de704b705fdfe49fd3f0c
新沙路10-17号,福田区,深圳市,1,22.536264,114.052023,中国银行24小时自助银行服务(新沙路),广东省,ec313ef65df76ecdfd0eb0b9,,4c39a91f0d80ce9ed2f49efb
金田路1008-1号,福田区,深圳市,1,22.525235,114.073269,中国银行24小时自助银行(时代广场店),广东省,2c0bd6c5da2132aa43ab9a31,,2c0bd6c5da2132aa43ab9a31
深圳市南山区松坪山路1-1号,南山区,深圳市,1,22.559977,113.958489,中国银行24小时自助银行(高新北支行),广东省,f66e03a70a06bfd93904b1d8,,f66e03a70a06bfd93904b1d8
南海大道华彩花园首层,南山区,深圳市,1,22.50318,113.926916,中国银行24小时自助银行(南海大道),广东省,aaf93ec22aa56689ce04eff0,,2223c7422ee69eb66140a967
中海西岸华府1栋商业20号;松岗街道沙江路中海西岸华府1栋商业118-129,宝安区,深圳市,1,22.776347,113.828598,中国银行24小时自助银行(松安支行),广东省,9538288664e621220e3dda2f,,9538288664e621220e3dda2f
广东省深圳市宝安区福永大道9号,宝安区,深圳市,1,22.677475,113.832062,中国银行24小时自助银行(福永支行),广东省,4dca28b4e004051edbeced0f,,4dca28b4e004051edbeced0f
深圳市宝安区凤塘大道612号,宝安区,深圳市,1,22.70768,113.794246,中国银行24小时自助银行(凤塘大道),广东省,a26b3b62f7dd86ee3a04b1d3,,a26b3b62f7dd86ee3a04b1d3
前进一路269号诺铂广场1层,宝安区,深圳市,1,22.579794,113.90505,中国银行24小时自助银行(前进支行),广东省,7388dffd551c6695d2ff239f,,7388dffd551c6695d2ff239f
广东省深圳市龙岗区七彩人生家具特卖场(七彩人生家具公司北),龙岗区,深圳市,1,22.764019,114.302515,中国银行24小时自助银行(福梓园西),广东省,0738f1fb74d5cc994f554787,,0738f1fb74d5cc994f554787
福田路49-2,龙岗区,深圳市,1,22.776212,114.316829,中国银行24小时自助银行(坪地支行),广东省,d219bb1d663f538bf50e77c5,,d219bb1d663f538bf50e77c5
深圳市龙岗区坪葵路44,龙岗区,深圳市,1,22.635015,114.426696,中国银行24小时自助银行(葵涌支行),广东省,a7c56ee0a1ead5b3a3acc4da,,a7c56ee0a1ead5b3a3acc4da
坪山区复兴街11号,坪山区,深圳市,1,22.671116,114.336606,中国银行24小时自助银行(龙岗复兴街),广东省,be2e7db40f3b90fd4c6d4653,,be2e7db40f3b90fd4c6d4653
广东省深圳市龙岗区莲塘二路25号,龙岗区,深圳市,1,22.690888,114.235607,中国银行24小时自助银行(莲塘尾二路),广东省,430360d49f7832b3eedfcab8,,430360d49f7832b3eedfcab8
广东省深圳市龙岗区隔圳东路20号,龙岗区,深圳市,1,22.690963,114.151715,中国银行24小时自助银行服务(高原路),广东省,9021b6fb3ea654fee9f8531b,,9021b6fb3ea654fee9f8531b
华南大道1号华南城环球物流中心1层101-102号附近,龙岗区,深圳市,1,22.68219,114.130484,中国银行24小时自助银行(华南城支行),广东省,80b1ca6bf2e8480588f15da9,,80b1ca6bf2e8480588f15da9
广东省深圳市龙岗区平湖大街273-1号,龙岗区,深圳市,1,22.700005,114.136176,中国银行24小时自助银行(平湖支行),广东省,f1f5cac5a5bda69836b06cd5,,f1f5cac5a5bda69836b06cd5
深圳市罗湖区东门中路2020号,罗湖区,深圳市,1,22.553521,114.128297,中国银行24小时自助银行(东门支行),广东省,a78cbe941f8a70daf8f0cb65,,a78cbe941f8a70daf8f0cb65
华强北路1002号赛格广场1层,福田区,深圳市,1,22.547169,114.093603,中国银行24小时自助银行(赛格广场),广东省,2057f5a5a271b1ee1d1d114b,,2057f5a5a271b1ee1d1d114b
深圳市福田区景田北街50-2号,福田区,深圳市,1,22.56109,114.042095,中国银行24小时自助银行(景田北支行),广东省,6393098eaef40d98f5c59cf5,,6393098eaef40d98f5c59cf5
深圳市福田区上梅林梅林路65号天虹商场F1,福田区,深圳市,1,22.573872,114.068257,中国银行24小时自助银行(天虹商场),广东省,b8ac676dfe49cfea59bbbc87,,b8ac676dfe49cfea59bbbc87
沙嘴路51金地花园201栋1层,福田区,深圳市,1,22.52779,114.042135,中国银行24小时自助银行(金地支行),广东省,4c00ce3a6905d4b82806cebf,,4c00ce3a6905d4b82806cebf
新沙路10-16号,福田区,深圳市,1,22.532474,114.046952,中国银行24小时自助银行(新洲十一街),广东省,86e13fefee52ba1c0b1cc737,,86e13fefee52ba1c0b1cc737
福田区泰然四路25号天安数码城天吉大厦1A1单元部分,福田区,深圳市,1,22.538293,114.037531,中国银行24小时自助银行(天安支行),广东省,365cc4d2bd7170af1f3894a0,,365cc4d2bd7170af1f3894a0
高新中一道9号,南山区,深圳市,1,22.552077,113.951471,中国银行24小时自助银行(科技园支行),广东省,204b6117d3a98747b020a8d7,,204b6117d3a98747b020a8d7
广东省深圳市南山区科技南十二路28号康佳研发大厦1楼,南山区,深圳市,1,22.545148,113.96328,中国银行24小时自助银行(高新南一道),广东省,4a20d94e4d001336eb1e9728,,23fca1548d02f4e8f6c59c7d
深圳市南山区高新南一道16-1号,南山区,深圳市,1,22.544687,113.955093,中国银行24小时自助银行(高新区支行),广东省,2a591cd20c92907901ff2db0,,2a591cd20c92907901ff2db0
深圳市南山区南山大道1157-4号,南山区,深圳市,1,22.528612,113.929534,中国银行24小时自助银行(南山支行),广东省,6ee01020b6618def52e5c576,,6ee01020b6618def52e5c576
深圳市宝安区象山大道398,宝安区,深圳市,1,22.821647,113.890407,中国银行24小时自助银行(惠联百货),广东省,,,befdb292e0d4ef9c8715411d
广东省深圳市宝安区翻身大道德邻雅筑首层,宝安区,深圳市,1,22.562589,113.905317,中国银行24小时自助银行(新城支行),广东省,c5ddcc08739734b8d91318a4,,c5ddcc08739734b8d91318a4
广东省深圳市宝安区西乡大道286-58号;圣淘沙骏园1栋15~16号,宝安区,深圳市,1,22.57905,113.869506,中国银行24小时自助银行(西乡支行),广东省,f329b897a82d8c974e2fdfdb,,f329b897a82d8c974e2fdfdb
广东省深圳市龙岗区中心城龙福路与和福路交汇处家和盛世花园一期文化中心,龙岗区,深圳市,1,22.72824,114.239089,中国银行24小时自助银行(龙城支行),广东省,c2bbdc7a0be1e1ed8e7727b4,,c2bbdc7a0be1e1ed8e7727b4
清林中路77号,龙岗区,深圳市,1,22.727876,114.223802,中国银行24小时自助银行(黄阁路支行),广东省,a54165e91a2d157830169b38,,a54165e91a2d157830169b38
深圳市光明区光明街道光明大道中国银行光明支行,光明区,深圳市,1,22.768407,113.951688,中国银行24小时自助银行(光明街道),广东省,f07785ab9fa0e7e2715e8079,,f07785ab9fa0e7e2715e8079
深圳市宝安区祝龙田路53号,宝安区,深圳市,1,22.704216,113.965329,中国银行24小时自助银行(祝龙田路),广东省,,,1d415408f5e5991b01294f30
石岩大道28号,宝安区,深圳市,1,22.685065,113.946425,中国银行24小时自助银行(石岩支行),广东省,6077dacfea912f67b05c6a9d,,6077dacfea912f67b05c6a9d
布吉路108号,龙岗区,深圳市,1,22.607551,114.124244,中国银行24小时自助银行(布吉支行),广东省,850815e1599638e543e192d7,,850815e1599638e543e192d7
深圳市罗湖区田贝四路114号水贝中行一楼,罗湖区,深圳市,1,22.572866,114.132622,中国银行24小时自助银行(田贝四路),广东省,bb641dfabb490a3bc17da299,,bf82ff9039e305c79e9d6817
深圳市罗湖区红桂路1027号,罗湖区,深圳市,1,22.556523,114.117767,中国银行24小时自助银行服务(红桂路),广东省,45bb620df9e09f96d22dd687,,f52c71f38a70ee4c42d63e31
罗湖区人民南路房地产大厦一楼,罗湖区,深圳市,1,22.54094,114.125031,中国银行24小时自助银行(人民南路),广东省,,,164c69cd4d50ae80a7c7560b
深圳市龙岗区吉华路坂田大厦,龙岗区,深圳市,1,22.641883,114.075119,中国银行24小时自助银行(坂田支行),广东省,3c0ea7c5dc21c39cfbf0cb23,,3c0ea7c5dc21c39cfbf0cb23
深圳市龙华区梅坂大道78,龙华区,深圳市,1,22.606803,114.058888,中国银行24小时自助银行(梅坂大道),广东省,178c6e7d95f514005cbe868c,,178c6e7d95f514005cbe868c
红荔西路7028号香蜜新村1栋1层,福田区,深圳市,1,22.551849,114.047929,中国银行24小时自助银行(福田支行),广东省,cde9e2c7ca4b56b4e81e9731,,cde9e2c7ca4b56b4e81e9731
深圳市南山区龙珠大道44号,南山区,深圳市,1,22.566118,113.989464,中国银行24小时自助银行(龙珠支行),广东省,56f2f69632ace4800aa8d476,,56f2f69632ace4800aa8d476
深圳市南山区劳动大厦一楼,南山区,深圳市,1,22.545366,113.928742,中国银行24小时自助银行(劳动大厦),广东省,,,de67725e4ffc6f403c9a5ee6
松白路5015-1号,光明区,深圳市,1,22.783147,113.897865,中国银行24小时自助银行(松白路辅路),广东省,,,f8a3694d91380d5d5fd4fe65
深圳市宝安区宝兴路21-1,宝安区,深圳市,1,22.555589,113.886792,中国银行24小时自助银行(宝安支行),广东省,f60ff77be609f047f1193796,,f60ff77be609f047f1193796
新湖路2111-2121,宝安区,深圳市,1,22.566608,113.887194,中国银行24小时自助银行(幸福支行),广东省,0ba243fa420cab27fd0eb06b,,0ba243fa420cab27fd0eb06b
深圳市南山区太子路18-3号,南山区,深圳市,1,22.489063,113.920998,中国银行24小时自助银行(蛇口支行),广东省,4a925215a67031b52b201ada,,4a925215a67031b52b201ada
高科大道6号附近,龙岗区,深圳市,1,22.697424,114.310188,中国银行24小时自助银行(高科大道),广东省,534d084bb4dffc0f970319e7,,534d084bb4dffc0f970319e7
深圳市龙华区五和大道310号旁,龙华区,深圳市,1,22.682652,114.076428,中国银行24小时自助银行(五和大道),广东省,293678e29d2ee72d7ab55c5f,,293678e29d2ee72d7ab55c5f
深圳市罗湖区宝安北路深业物流大厦1层,罗湖区,深圳市,1,22.568155,114.111464,中国银行24小时自助银行服务(梅园路),广东省,a72367e1b9582bba8e77276c,,a72367e1b9582bba8e77276c
深圳市龙岗区华南大道1号华盛奥特莱斯购物中心F1,龙岗区,深圳市,1,22.684329,114.130062,中国银行24小时自助银行(华盛奥特莱斯购物中心),广东省,,,d728e7a98794e759eedfcade
布龙路26号附近,龙岗区,深圳市,1,22.62965,114.115629,中国银行24小时自助银行(中海怡翠社区健康服务中心西北),广东省,87e5ad8eedae05e4babd638e,,d34dd2e3dee219049cec2bf3
金融路95号,盐田区,深圳市,1,22.554578,114.237438,中国银行24小时自助银行(深圳沙头角支行),广东省,e6ee2fd2021e08482b11d12f,,e6ee2fd2021e08482b11d12f
深圳市福田区南园路南园商住楼20栋一楼,福田区,深圳市,1,22.544982,114.100747,中国银行24小时自助银行服务(滨河支行),广东省,8a125b0bb85c6e7ad8d89181,,c3779429942bfda94207c122
彩田路5017,福田区,深圳市,1,22.552906,114.073948,中国银行24小时自助银行(中银花园支行),广东省,55fa2c0bd2750a2d1ce99931,,55fa2c0bd2750a2d1ce99931
深圳市南山区白石路2168号南山京基·百纳广场F1,南山区,深圳市,1,22.536614,113.976906,中国银行24小时自助银行(南山京基百纳广场),广东省,e8aee0067229a43bb54f5462,,e8aee0067229a43bb54f5462
广东省深圳市宝安区松岗中国银行(松涛社区朝阳小区),宝安区,深圳市,1,22.771607,113.851481,中国银行24小时自助银行(松岗东方支行),广东省,0ebaff8526e8f7fbbb17e7b6,,0ebaff8526e8f7fbbb17e7b6
深圳市宝安区西环路2106号,宝安区,深圳市,1,22.735192,113.80788,中国银行24小时自助银行服务(沙井支行),广东省,52b8c05fd1b4a6662b11d1cb,,52b8c05fd1b4a6662b11d1cb
机场道1011深圳机场信息大楼东区1层,宝安区,深圳市,1,22.650169,113.83337,中国银行24小时自助银行(深圳市分行机场支行),广东省,7388dffd5c2b5f95d2ff23a4,,7388dffd5c2b5f95d2ff23a4
水库新村230-3号,罗湖区,深圳市,1,22.57056,114.14576,中国银行24小时自助银行(水库新村四街),广东省,1c6a32c3c7e8b2d386420efa,,1c6a32c3c7e8b2d386420efa
深圳市罗湖区东门南路3028号,罗湖区,深圳市,1,22.549591,114.129135,中国银行24小时自助银行(中建大厦支行),广东省,d1396e226e7acab946e274ca,,d1396e226e7acab946e274ca
广东省深圳市宝安区创业二路455号,宝安区,深圳市,1,22.589032,113.926636,中国银行24小时自助银行服务(创业二路),广东省,5abb046facdeeca9f4eafc5a,,5abb046facdeeca9f4eafc5a
石厦北二街1-1号,福田区,深圳市,1,22.529227,114.059836,中国银行24小时自助银行服务(福民支行),广东省,4588876f37fec61f97031995,,4588876f37fec61f97031995
香山中街1-9,南山区,深圳市,1,22.553733,113.983171,中国银行24小时自助银行(波托菲诺支行),广东省,f696f3c2f75224eb1b11d576,,f696f3c2f75224eb1b11d576
深圳市南山区海德三道199号天利中央广场F1,南山区,深圳市,1,22.524546,113.940355,中国银行24小时自助银行(天利中央广场),广东省,433f275da40b6137c8fa5fb0,,5604fee655167c412fb908f4
广东省深圳市宝安区沙井蚝乡路蚝二·学府花园中国银行,宝安区,深圳市,1,22.745668,113.802911,中国银行24小时自助银行服务(蚝乡支行),广东省,09ff572916e8420ef4231046,,09ff572916e8420ef4231046
深圳市南山区蛇口新街56,南山区,深圳市,1,22.492276,113.938124,中国银行24小时自助银行服务(东角头支行),广东省,14a5f05a7b5c32ea2dfaa737,,14a5f05a7b5c32ea2dfaa737
深圳市坪山区中山大道3001-20,坪山区,深圳市,1,22.690859,114.344841,中国银行24小时自助银行(坪山支行)(坪山支行),广东省,e475a1af08decf516c4760b8,,e475a1af08decf516c4760b8
广东省深圳市龙岗区龙岗中心城晨光路深圳龙城医院,龙岗区,深圳市,1,22.709075,114.237215,中国银行24小时自助银行(公园大地支行),广东省,d872b1fa273771f2ab175ab2,,d872b1fa273771f2ab175ab2
下围工业区一路下围工业区1路9号附近,龙华区,深圳市,1,22.699303,114.079643,中国银行24小时自助银行(下围工业区一路),广东省,cb18f817bb174a9d16764378,,cb18f817bb174a9d16764378
深圳市龙华区华旺路69-14号大浪商业中心F1,龙华区,深圳市,1,22.681403,114.002882,中国银行24小时自助银行服务(大浪商业中心),广东省,1b49f789f35aae4858f6bee7,,6e72f2d221abf92945572659
深圳市龙岗区布吉锦龙路89号万科红生活广场F1,龙岗区,深圳市,1,22.604503,114.133833,中国银行24小时自助银行(万科红生活广场),广东省,703558374f6b0fc0b817e712,,703558374f6b0fc0b817e712
广东省深圳市盐田区公园路59,盐田区,深圳市,1,22.555336,114.238015,中国银行24小时自助银行(深圳东部支行),广东省,52b07f790d82555d6240a9a2,,52b07f790d82555d6240a9a2
广东省深圳市罗湖区罗沙路3048号,罗湖区,深圳市,1,22.566175,114.178814,中国银行24小时自助银行服务(莲塘支行),广东省,f9af43cf38ad49cab426557e,,f9af43cf38ad49cab426557e
笋岗东路1012,罗湖区,深圳市,1,22.563025,114.126932,中国银行24小时自助银行服务(笋岗东路),广东省,49a7c89adcb3d918f72310d3,,49a7c89adcb3d918f72310d3
深圳市福田区益民路10号,福田区,深圳市,1,22.551436,114.103621,中国银行24小时自助银行服务(荔园支行),广东省,ef5103e6a6703d49d23ce341,,ef5103e6a6703d49d23ce341
深圳市罗湖区深南东路5016号KKMALL京基·百纳空间F1,罗湖区,深圳市,1,22.549561,114.113899,中国银行24小时自助银行服务(KKMALL京基百纳空间),广东省,,,8375e46e0731265aa8f72937
红荔西路8133号农科商务办公楼1层,福田区,深圳市,1,22.546502,114.025516,中国银行24小时自助银行服务(香蜜支行),广东省,04866190835a6f2bf32d8372,,b4073262f9ee92951329355f
深圳市南山区龙珠八路16号岁宝百货F1,南山区,深圳市,1,22.564015,113.990816,中国银行24小时自助银行服务(岁宝百货),广东省,8048e063d70cdd121b11d5a8,,8048e063d70cdd121b11d5a8
深圳市南山区沙河西路3274号,南山区,深圳市,1,22.585241,113.961509,中国银行24小时自助银行服务(西丽支行),广东省,e6ee2fd202c508482b11d176,,e6ee2fd202c508482b11d176
深圳市南山区艺园路19号,南山区,深圳市,1,22.54802,113.933606,中国银行24小时自助银行服务(艺园路支行),广东省,cab3a119d0f046e8a104647e,,cab3a119d0f046e8a104647e
前海路3001-13号星宇·前海购物中心,南山区,深圳市,1,22.534466,113.921105,中国银行24小时自助银行服务(前海支行),广东省,42608bfe5954c6cb364aae2d,,42608bfe5954c6cb364aae2d
深圳市宝安区创业一路1006-17号,宝安区,深圳市,1,22.561867,113.895757,中国银行24小时自助银行服务(新安支行),广东省,cb0a0e28272f40ef94f08cc8,,cb0a0e28272f40ef94f08cc8
广东省深圳市罗湖区田贝一路23号文锦广场1层,罗湖区,深圳市,1,22.564124,114.131852,中国银行24小时自助银行(文锦广场支行),广东省,de8158f04e275aaf931fc971,,86684ab324c985ef82288a6d
深圳市罗湖区宝安南路2048号宝丽大厦一楼,罗湖区,深圳市,1,22.553407,114.116916,中国银行24小时自助银行服务(罗湖支行),广东省,5ffb1816574882216f476063,,5ffb1816574882216f476063
深圳市罗湖区桂园路6号电影大厦,罗湖区,深圳市,1,22.551066,114.119582,中国银行24小时自助银行服务(桂园支行),广东省,451093fcc25394c535b06c7b,,451093fcc25394c535b06c7b
福田区深圳市深南中路3003-1号北方大厦一楼,福田区,深圳市,1,22.546038,114.091626,中国银行24小时自助银行服务(深南中路),广东省,,,5fa96505011642bf6fa3ccf8
广东省深圳市龙岗区坂田雪象社区肖邦路华为小区,龙岗区,深圳市,1,22.653418,114.071184,中国银行24小时自助银行(居里夫人大道),广东省,caf88eaaf1d4159d96f08c2d,,caf88eaaf1d4159d96f08c2d
深南大道6001号,福田区,深圳市,1,22.543709,114.061437,中国银行24小时自助银行(时代金融中心支行),广东省,bd38da7141d6cb4f430245af,,bd38da7141d6cb4f430245af
紫竹七道18中国经贸大厦1层,福田区,深圳市,1,22.540884,114.015351,中国银行24小时自助银行服务(竹子林支行),广东省,ce5c1e251b95618f82a12ecc,,ce5c1e251b95618f82a12ecc
深圳市南山区科技园深南花园一楼,南山区,深圳市,1,22.547064,113.951426,中国银行24小时自助银行(科技园深南花园),广东省,,,0887a89cf65a61301e580009
深圳市南山区后海大道2228号,南山区,深圳市,1,22.515851,113.939594,中国银行24小时自助银行服务(后海支行),广东省,b89ff509afff98ad4354d7cf,,060f5e53c84affa9081cc74f
广东省深圳市宝安区沙井新区松岗洋涌工业区(洋涌工业南路北),宝安区,深圳市,1,22.79235,113.837546,中国银行24小时自助银行服务(洋涌工业路),广东省,,,7393fd1c511e7cd552e5c51a
大王山工业二路22附近,宝安区,深圳市,1,22.719359,113.807657,中国银行24小时自助银行(大王山工业一路),广东省,560cc5f246b11e6501897278,,560cc5f246b11e6501897278
深圳市罗湖区笋岗东路3019-1号,罗湖区,深圳市,1,22.561572,114.113623,中国银行24小时自助银行服务(笋岗支行),广东省,10fb94fff7535b786018094a,,10fb94fff7535b786018094a
广东省深圳市福田区ＣＢＤ金田路2028号,福田区,深圳市,1,22.539235,114.075586,中国银行24小时自助银行(福建大厦支行),广东省,b54286c195d5971cae080f9d,,b54286c195d5971cae080f9d
广东省深圳市福田区华强北路1006附近,福田区,深圳市,1,22.547121,114.093537,24小时自助银行服务,广东省,f037ad08bdef1216250bd01c,,f037ad08bdef1216250bd01c
深南东路1123,罗湖区,深圳市,1,22.551252,114.139193,国宾大酒店-自动取款机,广东省,5c6356b4d0ca76bc1d1d1190,,5c6356b4d0ca76bc1d1d1190
