address,area,city,detail,lat,lng,name,province,street_id,telephone,uid
广东省深圳市龙华区民治街道民治大道与民丰路交汇处恒勤大厦北侧1层,龙华区,深圳市,1,22.616704,114.051216,中国建设银行(民治支行),广东省,550fd5f9e7870b04931fc916,(0755)29439266,550fd5f9e7870b04931fc916
深圳市宝安区兴华二路73-2号,宝安区,深圳市,1,22.571967,113.91285,中国建设银行(新安支行),广东省,1cea15a9d8fe1bc507fef5f6,(0755)27662389,1cea15a9d8fe1bc507fef5f6
深圳市宝安区湾上六座花园7栋1层,宝安区,深圳市,1,22.57573,113.86217,中国建设银行(深圳西乡支行),广东省,2304f9aae14854c193114cea,(0755)23206032,2304f9aae14854c193114cea
布吉荣华路87号信义逸翠园2号楼首层,龙岗区,深圳市,1,22.599723,114.130936,中国建设银行(深圳罗岗支行),广东省,b1d3dff301bb0c51a8059d11,(0755)28582204,b1d3dff301bb0c51a8059d11
深圳市龙岗区平湖街道凤凰大道146号凤凰新村酒店一楼101号,龙岗区,深圳市,1,22.703028,114.148638,中国建设银行(平湖支行),广东省,f1f5cac5a5b9a69836b06cd1,"(0755)28454959,(0755)84002619",f1f5cac5a5b9a69836b06cd1
深圳市龙岗区坂田街道雪岗北路天安云谷产业园一期2栋101-103号,龙岗区,深圳市,1,22.664718,114.076218,中国建设银行(坂田支行),广东省,fe7156ba02fc232cf82213e8,,fe7156ba02fc232cf82213e8
深圳市南山区西丽街道沙河以西留仙大道以北南国丽城花园2栋1F33-39号,南山区,深圳市,1,22.587221,113.964467,中国建设银行(深圳西丽支行),广东省,5e53af1a1f7473224051c0bc,(0755)86155071,5e53af1a1f7473224051c0bc
深圳市南山区创业路西海湾花园B区商铺01号,南山区,深圳市,1,22.520284,113.935856,中国建设银行(深圳南油支行),广东省,11482ccd64719df0100daa40,,11482ccd64719df0100daa40
深圳市罗湖区金碧路星湖花园8栋105,罗湖区,深圳市,1,22.573522,114.106902,中国建设银行(深圳星湖花园支行),广东省,06980724b9e9b740c61b754e,(0755)82346723,06980724b9e9b740c61b754e
深圳市福田中心区益田路4068号卓越时代广场一楼,福田区,深圳市,1,22.539742,114.063425,中国建设银行(深圳中心区支行),广东省,f7ffd5f1990006aba6da3912,"(0755)23989396,(0755)23989381",f7ffd5f1990006aba6da3912
深圳市宝安区石岩街道浪心社区宝石南路宏发大世界一层D1-01A号,宝安区,深圳市,1,22.679918,113.936418,中国建设银行(石岩支行),广东省,1519839edb9de245932ca3f2,"(0755)27610222,(0755)29049010",1519839edb9de245932ca3f2
"深圳市龙华区观澜街道大和路观澜商务大厦一,二层",龙华区,深圳市,1,22.705996,114.055245,中国建设银行(观澜支行),广东省,5fa8c1cd5f5899356d20b9f3,"(0755)28082134,(0755)28083418",d1cabeaf2bafc6c695f08caa
深圳市龙华区大浪街道浪荣路明君商务中心1层,龙华区,深圳市,1,22.697102,113.997907,中国建设银行(深圳大浪支行),广东省,7aff08332313c23a2bd7ab2c,"(0755)27219750,(0755)23002572",7aff08332313c23a2bd7ab2c
深圳市南山区前海路与学府路交汇处新德家园一楼,南山区,深圳市,1,22.535603,113.921205,中国建设银行(深圳前海支行),广东省,61085211b27468a1c51b7577,"(0755)86672555,(0755)86672522",61085211b27468a1c51b7577
深圳市南山区蛇口太子璐18号海景广场一楼,南山区,深圳市,1,22.489012,113.921442,中国建设银行(深圳蛇口支行),广东省,9ee7cc7832c6ff0d17c90587,(0755)26826276,9ee7cc7832c6ff0d17c90587
深圳市南山区关口路1号,南山区,深圳市,1,22.543143,113.926034,中国建设银行(深圳南新支行),广东省,746016445ed24541b24c49e1,,746016445ed24541b24c49e1
深圳市罗湖区深南东路2102号振华大厦一二层,罗湖区,深圳市,1,22.550536,114.129743,中国建设银行(深圳建设路支行),广东省,6e0be41a49c9d24b5fd4fe00,(0755)22900584,6e0be41a49c9d24b5fd4fe00
深圳市龙岗区龙福西路龙城国际花园首层,龙岗区,深圳市,1,22.729174,114.23846,中国建设银行(深圳龙城支行),广东省,08f1f1f5900a2fca88db73d1,"(0755)84559159,(0755)84515170",08f1f1f5900a2fca88db73d1
深圳市龙岗区龙岗路19号东森商业大厦101A,龙岗区,深圳市,1,22.7291,114.276188,中国建设银行(深圳双龙支行),广东省,68cc077435a3f51f57bfff5e,"(0755)84805455,(0755)84800672",68cc077435a3f51f57bfff5e
深圳市福田区福华路荣超城市春天花园5栋1楼,福田区,深圳市,1,22.543038,114.088173,中国建设银行(深圳上步支行),广东省,18165334d24e4104fb2d6137,"(0755)83760245,(0755)83761318,(0755)82541606",18165334d24e4104fb2d6137
航油大厦1层,宝安区,深圳市,1,22.649318,113.831664,中国建设银行(深圳机场支行),广东省,04bdf4a32a5bd44f354aaef3,"(0755)27777881,(0755)29982360",04bdf4a32a5bd44f354aaef3
深圳市福田区振华路8号设计大厦一楼,福田区,深圳市,1,22.551075,114.100901,中国建设银行(深圳振华支行),广东省,94c7bd3a001e1ef614c8f6a5,(0755)83785634,94c7bd3a001e1ef614c8f6a5
深圳市罗湖区和平路1121号大滩大厦一层,罗湖区,深圳市,1,22.540114,114.122246,中国建设银行(和平路支行),广东省,e275f88365a5bc347c29bd2d,(0755)82476108,e275f88365a5bc347c29bd2d
广东省深圳市福田区下梅林梅林路尚书苑一楼,福田区,深圳市,1,22.569367,114.044351,中国建设银行(梅景支行),广东省,136da9c7a8051fb40c0e6b1b,(0755)82787829,136da9c7a8051fb40c0e6b1b
深圳市罗湖区嘉宾路4053号金威大厦一楼西侧,罗湖区,深圳市,1,22.544908,114.119872,中国建设银行(深圳嘉宾路支行),广东省,1504d08179689a1d94ec842f,(0755)25568160,1504d08179689a1d94ec842f
深圳市福田区红岭中路1005号银荔大厦1楼,福田区,深圳市,1,22.554174,114.110584,中国建设银行(深圳住房城建支行),广东省,8fa14fc3b7871510f7eafc02,"(0755)25950825,(0755)82095278",8fa14fc3b7871510f7eafc02
深圳市罗湖区洪湖路29号湖景花园南座首层,罗湖区,深圳市,1,22.565067,114.12663,中国建设银行(深圳田背支行),广东省,79fc7f28e8d8398af32d8323,"(0755)25622098,(0755)25604851",79fc7f28e8d8398af32d8323
广东省深圳市福田区红荔路2010号,福田区,深圳市,1,22.555698,114.09491,中国建设银行(深圳长盛支行),广东省,39acd62097be7420ca09f00b,(0755)82539301,d5a3f802ebcd8f80c7f50d8c
深圳市福田区绒花路深福保大厦一楼,福田区,深圳市,1,22.514687,114.063601,中国建设银行(深圳福田保税区支行),广东省,38e48037545c2249373a7137,"(0755)83597822,(0755)83483597",38e48037545c2249373a7137
深圳市福田区新洲三路福昌苑1层,福田区,深圳市,1,22.530876,114.049357,中国建设银行(深圳铁路支行),广东省,bff8fa7db1cd5da3c9213db9,(0755)83305703,bff8fa7db1cd5da3c9213db9
深圳市南山区华侨城兴隆街22号湖滨花园一楼,南山区,深圳市,1,22.5425,113.990991,中国建设银行(深圳华侨城支行),广东省,bb1d38e4dd5adb4d0c0a7077,(0755)26922082,bb1d38e4dd5adb4d0c0a7077
深圳市罗湖区深南东路2001号鸿昌广场一楼,罗湖区,深圳市,1,22.550738,114.13684,中国建设银行(深圳黄贝岭支行),广东省,75d0881a346dd34d3a04b11b,(0755)82303794,75d0881a346dd34d3a04b11b
深圳市盐田区大梅沙金沙街6号,盐田区,深圳市,1,22.605132,114.317578,建行深圳培训中心,广东省,7d229d3170ecf31bc16c14f7,,7d229d3170ecf31bc16c14f7
深圳市龙岗区葵涌办事处葵丰社区葵政西路12号所在楼栋101,龙岗区,深圳市,1,22.635393,114.425262,中国建设银行(葵涌支行),广东省,f1c359d5b88687f4902ca304,(0755)89771403,f1c359d5b88687f4902ca304
深圳市龙岗区坪地街道龙岗大道3018号宜城广场B区21号,龙岗区,深圳市,1,22.772864,114.313428,中国建设银行(深圳坪地支行),广东省,f92a7d637e647babc5f50d29,"(0755)89947632,(0755)89947106",f92a7d637e647babc5f50d29
深圳市龙岗区布吉南岭村开放街三号南岭建行,龙岗区,深圳市,1,22.616701,114.156297,中国建设银行(深圳南岭支行),广东省,7b5984f53b01f95f882fb5ef,(0755)85223704,7b5984f53b01f95f882fb5ef
深圳市罗湖区文锦中路海丽大厦1楼,罗湖区,深圳市,1,22.556101,114.138173,中国建设银行(深圳凤凰支行),广东省,881a28e71b7b1447f942b21b,(0755)25668485,881a28e71b7b1447f942b21b
深圳市坪山区坑梓办事处人民西路22号,坪山区,深圳市,1,22.750495,114.380098,中国建设银行(深圳坑梓支行),广东省,f4eecceec98094422bb97c38,"(0755)84531615,(0755)89372351,(0755)89372329,(0755)84533285",f4eecceec98094422bb97c38
深圳市罗湖区罗沙路3040号莲塘工业区建行大厦一楼,罗湖区,深圳市,1,22.566427,114.179526,中国建设银行(深圳莲塘支行),广东省,669775d09590fb5bfd0eb01b,(0755)25738424,669775d09590fb5bfd0eb01b
深圳市福田区益田村福强路益田大厦A栋首层,福田区,深圳市,1,22.521031,114.057167,中国建设银行(深圳益田支行),广东省,b388f9fd33cf5a41b35c6a37,"(0755)83806234,(0755)83806129",b388f9fd33cf5a41b35c6a37
深圳市罗湖区宝安南路西湖花园一楼,罗湖区,深圳市,1,22.558062,114.116011,中国建设银行(深圳宝安路支行),广东省,fa835ce2b20225b6e812e461,(0755)25575786,fa835ce2b20225b6e812e461
深圳市盐田区沙头角金融路95号,盐田区,深圳市,1,22.554551,114.237576,中国建设银行(深圳沙头角支行),广东省,f4460918c3e33e6ab11e362f,"(0755)25551541,(0755)25550215",f4460918c3e33e6ab11e362f
深圳市宝安区松兴路深圳市农村商业银行斜对面,宝安区,深圳市,1,22.778062,113.828012,中国建设银行,广东省,,(0755)29469956,5ea49a875693d4a04afd3fe2
深圳市盐田区沙头角中心深盐路与海山路交汇处壹海城1楼166-174号商铺,盐田区,深圳市,1,22.560927,114.243801,中国建设银行(盐田支行),广东省,95890ec4943c0d18eaf853d8,,95890ec4943c0d18eaf853d8
深圳市罗湖区黄贝路2103-1号,罗湖区,深圳市,1,22.565879,114.14895,中国建设银行(碧波支行),广东省,3da907f3dd3f1e53b320a81b,(0755)25540512,3da907f3dd3f1e53b320a81b
深圳市罗湖区太宁路28号百仕达花园百怡苑18栋103商铺,罗湖区,深圳市,1,22.575233,114.141521,中国建设银行(东湖支行),广东省,,"(0755)22360184,(0755)22362149",1f49e2315af96b928936eeb4
广东省深圳市罗湖区立新路7号,罗湖区,深圳市,1,22.553749,114.126997,中国建设银行(东门支行),广东省,0082ac6e6f9837e5eddfca62,,0082ac6e6f9837e5eddfca62
广东省深圳市宝安区新安街道尖岗山大道曦城VIVITOWN商业中心16-105号商铺,宝安区,深圳市,1,22.601586,113.908265,中国建设银行(曦城支行),广东省,,(0755)23205101,7cd6f365880cc42bd4851f43
深圳市福田区景田西路21-15号,福田区,深圳市,1,22.561266,114.042771,中国建设银行(景田支行),广东省,4642844a33a312d9c9fa5f37,,4642844a33a312d9c9fa5f37
南光路65-9号,南山区,深圳市,1,22.526816,113.933596,中国建设银行(鸿瑞支行),广东省,38e48037549c2249373a7177,(0755)26057342,38e48037549c2249373a7177
兴华一路与富春街交汇处壹方中心5号楼L1层,宝安区,深圳市,1,22.557038,113.894941,中国建设银行(宝城支行),广东省,c879fa0134d9b24ac909f0f6,"(0755)29997612,(0755)29665474",c879fa0134d9b24ac909f0f6
深圳市龙岗区红棉一路横岗信义锦绣花园6号楼一楼,龙岗区,深圳市,1,22.651922,114.198944,中国建设银行(横岗支行),广东省,bb97fbbe1a910b55e5e965ca,"(0755)28240489,(0755)28240755",bb97fbbe1a910b55e5e965ca
深圳市龙岗区布吉街道金鹏路第二统建楼1楼,龙岗区,深圳市,1,22.612966,114.124432,中国建设银行(布吉支行),广东省,85cf9ac7d1ef06ee9fec2b3a,(0755)84179429,85cf9ac7d1ef06ee9fec2b3a
翠竹路1048-1050号,罗湖区,深圳市,1,22.566254,114.136601,中国建设银行(翠园支行),广东省,04bdf4a32a23d44f354aae1b,"(0755)25534960,(0755)25615885",04bdf4a32a23d44f354aae1b
百花五路长安花园B座首层,福田区,深圳市,1,22.558346,114.096381,中国建设银行(长城支行),广东省,f757e6ee40129f69260bd0df,(0755)25325051,f757e6ee40129f69260bd0df
深圳市龙岗区五和大道星河WORLD一楼A座COCOPARK一楼,龙岗区,深圳市,1,22.610352,114.06605,中国建设银行(雅宝支行),广东省,,,37c995f0c3def6f45b1093e7
深圳市福田区福华一路1号大中华国际交易广场西侧1-2楼,福田区,深圳市,1,22.541873,114.068013,中国建设银行(福田支行),广东省,bb1d38e4dd9adb4d0c0a7037,"(0755)23997460,(0755)82796438",bb1d38e4dd9adb4d0c0a7037
福田区深南大道6025号英龙展业大厦1层,福田区,深圳市,1,22.541013,114.028889,中国建设银行(英龙支行),广东省,d146b388ad50b3de74026937,"(0755)83479481,(0755)83479023",d146b388ad50b3de74026937
深圳市南山区蛇口公园路四海宜家大厦一楼,南山区,深圳市,1,22.49886,113.930932,中国建设银行(招商支行),广东省,eeb22377677cef15882fb5a8,(0755)26681063,eeb22377677cef15882fb5a8
广东省深圳市龙岗区沙园路10号文龙学校对面,龙岗区,深圳市,1,22.707466,114.228557,中国建设银行(沙园路),广东省,40a50d5c481d729f29fc4862,(0755)28998464,40a50d5c481d729f29fc4862
深圳市福田区新闻路22号合正名园首层C座,福田区,深圳市,1,22.547999,114.051136,中国建设银行(景苑支行),广东省,dffd4642c3e7a6b23c9a5e37,"(0755)25312008,(0755)25312011,(0755)83732141",dffd4642c3e7a6b23c9a5e37
深圳市福田区金田路4036号荣超大厦1-2层,福田区,深圳市,1,22.553484,114.069748,中国建设银行(智慧支行),广东省,,(0755)23918361,8f9e481d74d7f35e2a02e13c
广东省深圳市光明区民生大道与兴发路交汇处,光明区,深圳市,1,22.788102,113.913864,中国建设银行(宏发上域支行),广东省,72ab83ac154adecd283a9fd8,(0755)23248616,72ab83ac154adecd283a9fd8
广东省深圳市光明新区河心路新地中央广场一楼商铺,光明区,深圳市,1,22.76683,113.949259,中国建设银行(深圳光明支行),广东省,6fc319c53f7d6d7dc7f02591,(0755)27405118,6fc319c53f7d6d7dc7f02591
广东省深圳市龙华区新澜大街91号1楼,龙华区,深圳市,1,22.723799,114.061331,中国建设银行(新澜微银行),广东省,b205f253cc0d1091fb2d61ce,,b205f253cc0d1091fb2d61ce
深圳市龙华区观澜桔塘社区桔岭新村236号锦富大厦一楼,龙华区,深圳市,1,22.734297,114.032839,中国建设银行(深圳福前支行),广东省,651fe1c01fa6302cb05c6a36,(0755)23081505,651fe1c01fa6302cb05c6a36
广东省深圳市龙华区悦兴路56号金悦大厦1层,龙华区,深圳市,1,22.717193,114.044116,中国建设银行(悦兴微银行),广东省,,(0755)21016165,d145c6ce227f0b221288249d
深圳市福田区振兴路28号国土规划综合楼一楼,福田区,深圳市,1,22.552677,114.098403,中国建设银行(深圳振兴支行),广东省,cac5fc762d8918f32cb96d37,(0755)83276679,cac5fc762d8918f32cb96d37
万众城家居广场A区1期779-25号,龙华区,深圳市,1,22.63556,114.044454,中国建设银行(万众城微银行),广东省,ab79116036d8fd8348cc4aa8,,ab79116036d8fd8348cc4aa8
广东省深圳市龙岗区吉华路698号,龙岗区,深圳市,1,22.640505,114.063739,中国建设银行(深圳五和支行),广东省,a043817dbf73982d9e9d684e,(0755)89340655,a043817dbf73982d9e9d684e
潜龙曼海宁花园南区2栋117-118号商铺,龙华区,深圳市,1,22.645577,114.015332,中国建设银行(曼海宁微银行),广东省,035437ab20f0a4c90ab93a41,,fc8f8ce8f763de8d1ef74d1c
广东省深圳市龙华区人民北路4203号,龙华区,深圳市,1,22.659147,114.029334,中国建设银行(深圳龙华支行),广东省,4045c070e49c0b545d17c34e,(0755)27743058,4045c070e49c0b545d17c34e
深圳市福田区雨田路莲花北村富莲大厦2栋首层,福田区,深圳市,1,22.565782,114.060726,中国建设银行(莲花北支行),广东省,92b806d2965095fe79b55c37,"(0755)83166775,(0755)83166472",92b806d2965095fe79b55c37
深圳市福田区新洲南路沙尾工业区先龙大厦楼,福田区,深圳市,1,22.522953,114.051916,中国建设银行(深圳金地支行),广东省,b64f5f27e200ffcf22f017fe,(0755)83446930,b64f5f27e200ffcf22f017fe
广东省深圳市福田区福华路319号兆邦基金融大厦西北角1-2层,福田区,深圳市,1,22.540174,114.074164,中国建设银行(深圳福华支行),广东省,e2d6523855ece45b13293529,,e2d6523855ece45b13293529
深圳市福田区深南大道7028号时代科技大厦1楼,福田区,深圳市,1,22.543284,114.030335,中国建设银行(深圳东海支行),广东省,bcfd04e069f2178a843304ff,(0755)83133513,bcfd04e069f2178a843304ff
深圳市南山区乌石头路8号天明科技大厦附楼一层,南山区,深圳市,1,22.560494,113.956653,中国建设银行(南山科技支行),广东省,a223709f843c94f509a8d4fe,(0755)86954310,7e22af7f84e947419d9d6898
裕安二路中洲中央花园1期商铺,宝安区,深圳市,1,22.580533,113.910491,中国建设银行(深圳前进支行),广东省,,(0755)23591140,50e52ab6dbcf9100bd48424f
深圳市南山区桃园路田厦国际中心1层,南山区,深圳市,1,22.538592,113.933712,中国建设银行(南山大道支行),广东省,c0c39ec158ea0a064c6d46c6,(0755)26568883,c0c39ec158ea0a064c6d46c6
深圳市宝安区松岗街道松明大道1号一楼(松乔酒店旁边),宝安区,深圳市,1,22.774904,113.85274,中国建设银行(深圳松岗支行),广东省,925c550f61f1e8b25b3ac898,"(0755)27718032,(0755)27147963,(0755)23215325",925c550f61f1e8b25b3ac898
航城大道领航城一期领航里程花园4栋09-14商铺,宝安区,深圳市,1,22.615244,113.862491,中国建设银行(深圳航城支行),广东省,,(0755)23574502,c19996e6191fc5fa336212f9
海城西路泰逸大厦一楼,宝安区,深圳市,1,22.571201,113.874953,中国建设银行(深圳泰逸支行),广东省,dcab1b811a6c92e7ae080f4b,,468e2ea4b5f8928f5d0d0247
深圳市宝安区46区创业一路国宾酒店一楼,宝安区,深圳市,1,22.566315,113.899322,中国建设银行(深圳新城支行),广东省,fc0badbec4fc871c25e0a0c5,"(0755)27886754,(0755)27887081",fc0badbec4fc871c25e0a0c5
蓝天路8号后海公馆1号楼101-103A,南山区,深圳市,1,22.496695,113.944855,中国建设银行(后海公馆支行),广东省,ffb2306843f31c4b4afd3f03,"(0755)26821015,(0755)26824722",ffb2306843f31c4b4afd3f03
广东省深圳市龙岗区万科千林山居I区1号楼商铺21S号,龙岗区,深圳市,1,22.755169,114.23659,龙岗建设银行清林径微银行,广东省,,,943cc81959ecd7784207c123
仁山智水花园F05栋,龙华区,深圳市,1,22.696005,114.07094,中国建设银行(深圳鹭湖支行),广东省,,,0bd1724be1f72caf00ec01a6
深圳市龙岗区可园四期11栋,龙岗区,深圳市,1,22.607479,114.140989,中国建设银行(可园社区支行),广东省,,(0755)28406110,6fa4c89d688bede3e9f85372
广东省深圳市盐田区沙头角街道园林路桐辉居a栋21号,盐田区,深圳市,1,22.561937,114.229139,中国建设银行(园林路支行),广东省,,,5da5135b942eefe93686f43d
深圳市福田区南园路94号经济计划培训中心大厦首层,福田区,深圳市,1,22.544576,114.099104,中国建设银行(深圳爱华支行),广东省,14076deed5a5fbf402294f37,(0755)83625100,14076deed5a5fbf402294f37
深圳市福田区福祥街四号一层,福田区,深圳市,1,22.538114,114.089671,中国建设银行(深圳福祥支行),广东省,faec0d99be965b33cac3dbc4,(0755)88356648,faec0d99be965b33cac3dbc4
中梅路光浩国际中心1层,龙华区,深圳市,1,22.634319,114.035673,中国建设银行(光浩微银行),广东省,,(0755)21036785,9a127c6972231edcf7eafcf9
深圳市福田区金田路4028号荣超经贸中心首层,福田区,深圳市,1,22.550027,114.070008,中国建设银行(天健世纪支行),广东省,218aec8c5d6f26a28936eea2,,218aec8c5d6f26a28936eea2
广东省深圳市福田区梅康路8号理想时代大厦,福田区,深圳市,1,22.576789,114.067922,中国建设银行(深圳梅林支行),广东省,53349ee3d915d56e22026237,,53349ee3d915d56e22026237
深圳市福田区福民路共和世家,福田区,深圳市,1,22.528574,114.064714,中国建设银行(深圳益民支行),广东省,606289fd1f0e214da2046437,"(0755)83857987,(0755)83844043",606289fd1f0e214da2046437
深圳市福田区金田路皇岗文化中心大楼二区二楼,福田区,深圳市,1,22.531184,114.070451,中国建设银行(深圳皇岗支行),广东省,844a750e84c8e7b962685837,(0755)83553190,844a750e84c8e7b962685837
福田区深南大道9001号华侨城新浩城花园1层,福田区,深圳市,1,22.537933,114.003034,中国建设银行(侨城东支行),广东省,b703e96bb0b4a5fa8f1a890c,(0755)26938044,b703e96bb0b4a5fa8f1a890c
深圳市福田区泰然四路泰然工业区304栋首层,福田区,深圳市,1,22.540541,114.03734,中国建设银行(深圳泰然支行),广东省,f2f15ffb56bb8088631c6737,"(0755)83862300,(0755)83862433",f2f15ffb56bb8088631c6737
深圳市南山区白石洲沙河街建行大厦一楼,南山区,深圳市,1,22.546811,113.974623,中国建设银行(深圳沙河支行),广东省,00586108337c01a546e27477,(0755)26765746,00586108337c01a546e27477
深圳市南山区中心路深圳湾1号T1-19楼深圳湾1号南区F2,南山区,深圳市,1,22.511378,113.949956,中国建设银行(深湾壹号支行),广东省,,,1226a7c223a2963d2cb17ef1
"深圳市光明区公明街道振明路福盈中央山花园北区A01-10,B04-08商铺",光明区,深圳市,1,22.783809,113.906126,中国建设银行(深圳公明支行),广东省,a9e81b0a9d1baa418c55ecf2,"(0755)21024903,(0755)21024948",a9e81b0a9d1baa418c55ecf2
深圳市宝安区福永镇福永大道3号汉永楼B楼一楼,宝安区,深圳市,1,22.677823,113.832761,中国建设银行(深圳福永支行),广东省,2bc899a33a060f845d17c36c,"(0755)27211195,(0755)85256441",2bc899a33a060f845d17c36c
宝安区福永街道和平社区桥和路德金花园2号楼1层120号,宝安区,深圳市,1,22.694391,113.792603,中国建设银行(深圳福海支行),广东省,45779ec9feacb24e4d2fdfc4,(0755)29707093,45779ec9feacb24e4d2fdfc4
深圳市龙岗区大鹏新区中山路71-2号,龙岗区,深圳市,1,22.6027,114.487531,中国建设银行(深圳大鹏支行),广东省,fbd9b0f0df3536fa931fc906,(0755)89557985,fbd9b0f0df3536fa931fc906
深圳市龙岗区龙翔大道9009号珠江广场D座1楼,龙岗区,深圳市,1,22.728936,114.256735,中国建设银行(深圳龙岗支行),广东省,94999217c32088015d17c3d5,"(0755)84583716,(0755)84583713",94999217c32088015d17c3d5
航天晴山月名园1栋附201号,罗湖区,深圳市,1,22.561449,114.194441,中国建设银行(仙桐微银行),广东省,,(0755)22325627,a3f3987e3ce3d138364aae1c
深圳市罗湖区东门南路3002号华都园大厦一楼,罗湖区,深圳市,1,22.547891,114.129958,中国建设银行(深圳城东支行),广东省,f6c15ed7a165283bd22dd6ab,(0755)82389603,f6c15ed7a165283bd22dd6ab
深圳市罗湖区太白路2009号,罗湖区,深圳市,1,22.583005,114.143606,中国建设银行(深圳布心支行),广东省,f4a33da911791b093010af1b,(0755)25513465,f4a33da911791b093010af1b
深圳市福田区深南中路1019号万德大厦一楼,福田区,深圳市,1,22.546485,114.109539,中国建设银行(深南中路支行),广东省,5ffb18161e994d5f6f476037,"(0755)82136281,(0755)25911155",5ffb18161e994d5f6f476037
深圳市罗湖区红岭南路金融中心建行大厦一楼,罗湖区,深圳市,1,22.545933,114.113088,中国建设银行(深圳罗湖支行),广东省,,(0755)82488262,9c1033626f5fe1d18f1a896e
广东省深圳市龙华区景龙建设路,龙华区,深圳市,1,22.663582,114.045045,中国建设银行(深圳清湖支行),广东省,,,506c1e3e23d400707ab55c40
深圳市福田区红荔西路5004号莲花大厦,福田区,深圳市,1,22.554801,114.076589,中国建设银行(莲花山支行),广东省,35bf43627e3a6c864354d7bc,"(0755)83993313,(0755)88917764",35bf43627e3a6c864354d7bc
深圳市福田区农园路,福田区,深圳市,1,22.555532,114.021776,中国建设银行(中旅公馆支行),广东省,f1f5cac5a5dba69836b06c37,"(0755)83556281,(0755)83556393",f1f5cac5a5dba69836b06c37
深圳市南山区科技园科发路8号金融基地一栋首层,南山区,深圳市,1,22.549383,113.953728,中国建设银行(深圳科苑支行),广东省,c267f0d8fc70354d72455b50,"(0755)26613838,(0755)86627155",c267f0d8fc70354d72455b50
深圳市南山区高新南一道中国科技开发院研发园3号楼裙楼,南山区,深圳市,1,22.544302,113.95901,中国建设银行(高新园支行),广东省,08f1f1f590a82fca88db7377,"(0755)26995026,(0755)26995247,(0755)26995632,(0755)86079257",08f1f1f590a82fca88db7377
科兴科学园B栋G层16B,南山区,深圳市,1,22.554308,113.950171,中国建设银行(科兴微银行),广东省,2243af8d538067885b1093ee,(0755)86533595,2243af8d538067885b1093ee
深圳市宝安区建安一路68号,宝安区,深圳市,1,22.566147,113.91475,中国建设银行(深圳宝安支行),广东省,,,e691a0a27ac01b1f744ff119
广东省深圳市南山区公园路94-2号,南山区,深圳市,1,22.504109,113.931411,中国建设银行(玫瑰园微银行),广东省,,,d0dbb111604ef7c4f503b8b1
深圳市南山区海岸城文心四路天利名城2楼,南山区,深圳市,1,22.524166,113.942328,中国建设银行(深圳南山支行),广东省,11cb8b32bfbd443216c90585,,11cb8b32bfbd443216c90585
深圳市宝安区沙井镇沙井街道北环路110号新桥综合大楼一楼,宝安区,深圳市,1,22.744674,113.842048,中国建设银行(深圳新桥支行),广东省,dece6583a85adb5dca09f00f,(0755)81775228,dece6583a85adb5dca09f00f
广东省深圳市宝安区天骄世家一栋105号,宝安区,深圳市,1,22.59327,113.898228,中国建设银行(天骄世家支行),广东省,39c0849726d30f2eeddfcae5,(0755)23075925,39c0849726d30f2eeddfcae5
桃源居3区2栋113号,宝安区,深圳市,1,22.620402,113.86912,中国建设银行(桃源居微银行),广东省,451b2a497aa3101a3b221c17,(0755)29593349,451b2a497aa3101a3b221c17
宝安区航空路泰华梧桐岛4号建筑103商铺,宝安区,深圳市,1,22.611721,113.844756,中国建设银行(梧桐岛微银行),广东省,,(0755)23202707,7e5d882e35ba2b290d3dda60
深圳市宝安区建安一路盛荟茗庭1楼,宝安区,深圳市,1,22.579917,113.90007,中国建设银行(深圳创业支行),广东省,3810c87924ef3a8b9c09f7f6,(0755)23235860,3810c87924ef3a8b9c09f7f6
深圳市盐田区东海大道东海丽景小区幸福湾一层,盐田区,深圳市,1,22.596268,114.263646,中国建设银行(梧桐山支行),广东省,bba87388544bb0a0bca8222e,(0755)25257024,bba87388544bb0a0bca8222e
深圳市罗湖区国威路聚宝华府1楼,罗湖区,深圳市,1,22.569087,114.1758,中国建设银行(深圳聚宝支行),广东省,97082bbd81f4db000e3dda30,(0755)25031883,97082bbd81f4db000e3dda30
广东省深圳市罗湖区翠竹路2028-1号翠竹大厦一楼,罗湖区,深圳市,1,22.576585,114.13633,中国建设银行(深圳翠竹支行),广东省,c7fb04bdec29ee15fa0cad1b,,c7fb04bdec29ee15fa0cad1b
广东省深圳市宝安区建安一路68号,宝安区,深圳市,1,22.566082,113.914649,建行私人银行(深圳宝安支行),广东省,,,be0e4d65f1767e6e4207c125
广东省深圳市龙岗区平湖街道平安大道茗萃园一期1号楼16号商铺,龙岗区,深圳市,1,22.674112,114.149141,中国建设银行(茗萃园社区支行),广东省,1632e8403f895f7e74026993,,1632e8403f895f7e74026993
深圳市盐田区梧桐路1055号碧桐海苑一楼,盐田区,深圳市,1,22.56588,114.24327,中国建设银行(碧桐海苑微银行),广东省,,(0755)25012981,60665832d8627342b05c6a22
春风路3007号桂都大厦1楼,罗湖区,深圳市,1,22.544078,114.131384,中国建设银行(深圳春风路支行),广东省,8907950464fac0ee4254d7bd,(0755)25192789,8907950464fac0ee4254d7bd
广东省深圳市龙岗区坂雪岗大道4002号,龙岗区,深圳市,1,22.64991,114.073326,中国建设银行(深圳万科城支行),广东省,0bf66863ce93eb129b68b40b,(0755)89396443,0bf66863ce93eb129b68b40b
深圳市福田区金桂道23号,福田区,深圳市,1,22.521757,114.0704,中国建设银行(骏皇名居微银行),广东省,417a0ce4c6cd71c2118824b5,(0755)83022297,417a0ce4c6cd71c2118824b5
深圳市福田区福华一路国际商会大厦A座首层建行,福田区,深圳市,1,22.542828,114.057808,中国建设银行(深圳国会大厦支行),广东省,f4a33da91bbc05753010af52,(0755)82931114,f4a33da91bbc05753010af52
深圳市福田区竹子林紫竹六道越海家园裙楼首层,福田区,深圳市,1,22.540967,114.013175,中国建设银行(深圳园博园支行),广东省,cb4fd146e6252a419d9d6837,(0755)82025240,cb4fd146e6252a419d9d6837
深圳市宝安区沙井街道新沙路华盛新沙荟名庭二期一楼,宝安区,深圳市,1,22.739006,113.822885,中国建设银行(深圳市沙井支行),广东省,b53c74f06d8a91702bb97ccb,"(0755)27288663,(0755)27288683",b53c74f06d8a91702bb97ccb
深圳市龙岗区中心城飞扬路中海康城花园A区1-3栋首层,龙岗区,深圳市,1,22.715171,114.214533,中国建设银行(深圳大运城支行),广东省,96a4ecbf53e0e4d98b2fb54e,,96a4ecbf53e0e4d98b2fb54e
深圳市罗湖区深南东路地王大厦中厅1楼,罗湖区,深圳市,1,22.54878,114.116597,中国建设银行(地王大厦微银行),广东省,1ca3ee29f27d187cb11e36b3,(0755)25885064,1ca3ee29f27d187cb11e36b3
深圳市福田区福庆街34-2,福田区,深圳市,1,22.541322,114.087605,中国建设银行(鸿图大厦微银行),广东省,c953834bc0a158e075e5b600,,84aca8be69fcebc12ce67bae
广东省深圳市南山区大勘商业街68-7号,南山区,深圳市,1,22.625694,113.981243,中国建设银行(西丽大磡村支行),广东省,dcf2b661c5fc4a62b05c6a08,(0755)86541087,dcf2b661c5fc4a62b05c6a08
深圳市福田区香梅路中投国际商务中心首层,福田区,深圳市,1,22.549923,114.045818,中国建设银行(深圳香蜜湖支行),广东省,d999adbd52bbcfae28d7ab64,(0755)23934801,d999adbd52bbcfae28d7ab64
深圳市福田区景田路擎天华庭首层,福田区,深圳市,1,22.556842,114.051208,中国建设银行(深圳市红荔支行),广东省,34059f97f368855471455b37,"(0755)83550072,(0755)83552001",34059f97f368855471455b37
深圳市南山区香山西街18-27号,南山区,深圳市,1,22.55606,113.980708,中国建设银行(深圳侨城西支行),广东省,948635df0451e126ca29159f,(0755)86518200,948635df0451e126ca29159f
广东省深圳市南山区白石路2222号沙河世纪楼一楼,南山区,深圳市,1,22.537407,113.972948,中国建设银行(深圳深圳湾支行),广东省,547222f3ef821e0fc17da285,(0755)26932252,547222f3ef821e0fc17da285
前海桂湾三路龙海家园B座070A,南山区,深圳市,1,22.540827,113.912208,中国建设银行(龙海家园微支行),广东省,,(0755)86672598,ee1aee4cd6fa9bcfd0ff239e
广东省深圳市宝安区宝安大道,宝安区,深圳市,1,22.585069,113.874844,中国建设银行(深圳西乡大道支行),广东省,a629ca8591c56e409122e010,,a629ca8591c56e409122e010
深圳市宝安区新安街道新安大道南侧深业新岸线一楼,宝安区,深圳市,1,22.563467,113.883342,中国建设银行(深圳新岸线支行),广东省,ff47a412dc703d2908ccddac,"(0755)29789897,(0755)29789861",ff47a412dc703d2908ccddac
深圳市龙岗区平湖街道华南大道华南城华南发展中心一层101号,龙岗区,深圳市,1,22.683131,114.130519,中国建设银行(深圳华南城支行),广东省,4517ab564c63ff44b34c4966,(0755)84557301,4517ab564c63ff44b34c4966
布沙路60号附近,龙岗区,深圳市,1,22.611381,114.162687,中国建设银行(勒杜鹃酒店西北),广东省,39ba4ec343a2dbe43586f407,,39ba4ec343a2dbe43586f407
广东省深圳市罗湖区贝丽北路44号水贝工业区2栋2层,罗湖区,深圳市,1,22.579896,114.133359,中国建设银行(深圳水贝珠宝支行),广东省,958311e85c229bdff03cba27,(0755)25533703,958311e85c229bdff03cba27
广东省深圳市福田区深南大道岗厦华嵘大厦103单元,福田区,深圳市,1,22.544764,114.072367,中国建设银行(华嵘大厦微银行),广东省,450819fde3f722cb1329352b,(0755)82795639,450819fde3f722cb1329352b
深圳市福田区益田路6003号荣超中心B座1楼(市民中心西侧),福田区,深圳市,1,22.549668,114.062198,中国建设银行(深圳市分行营业部),广东省,6113ef77c22bd2178f7727b9,"(0755)23828080,(0755)23828387",6113ef77c22bd2178f7727b9
深圳福田区新洲路和和福荣路交汇处西侧绿景蓝湾半岛一楼丰原购物广场首层E04铺,福田区,深圳市,1,22.522608,114.047144,中国建设银行(蓝湾半岛微银行),广东省,6eadc09241b599f7cac3db6a,(0755)88324230,6eadc09241b599f7cac3db6a
广东省深圳市南山区高新南七道惠恒大楼1层,南山区,深圳市,1,22.540053,113.954115,中国建设银行(深圳科苑南支行),广东省,7606b8bc7cab70942ce67ba7,"(0755)26584776,(0755)26938004",7606b8bc7cab70942ce67ba7
深圳市宝安区前进一路188,宝安区,深圳市,1,22.581995,113.904222,中国建设银行(天源支行微银行),广东省,,,3051643e577f3f248bdb7324
深圳市宝安区宝石东路385号103,宝安区,深圳市,1,22.685341,113.94441,中国建设银行(石岩上屋新村支行),广东省,,(0755)23200343,d0d2e0965d1de69a0c0e6b63
广东省深圳市南山区学苑大道南侧水木丹华园126号商铺,南山区,深圳市,1,22.598434,113.996451,中国建设银行(深圳水木丹华支行),广东省,,,e389dba3e0b9ffe8132935af
金桂道23号,福田区,深圳市,1,22.522078,114.070138,中国建设银行24小时建设银行(金桂道),广东省,82b5294973f0ca2dd518b790,,82b5294973f0ca2dd518b790
深圳市罗湖区建设路罗湖口岸火车站连廊二楼B-12号,罗湖区,深圳市,1,22.53607,114.123734,中国建设银行(深圳罗湖口岸社区支行),广东省,,(0755)22983094,1ed9ee869587ef132b3a9f00
广东省深圳市大浪街道华旺路龙华同富裕工业园B9栋1楼,龙华区,深圳市,1,22.680689,114.000926,中国建设银行(大浪商业中心微银行),广东省,14e95aa0f3b96d7e6f4760a9,(0755)21000684,14e95aa0f3b96d7e6f4760a9
广东省深圳市宝安区新瑞路5001号,宝安区,深圳市,1,22.631927,113.844166,中国建设银行(深圳西部硅谷微银行),广东省,,,21aa273da357cbdc0ab93a31
东纵路与国泰路交叉口北50米,坪山区,深圳市,1,22.695157,114.346338,建设银行ATM,广东省,e5fe0b3e12a705ac17b54b47,,e5fe0b3e12a705ac17b54b47
中心五路大中华交易广场一楼,福田区,深圳市,1,22.54152,114.068629,建行理财中心,广东省,,,5b38aa0362d1726e28b97c09
格布新区九巷与西坊路交叉口东北50米,宝安区,深圳市,1,22.768371,113.84652,中国建设银行24小时自助银行服务,广东省,04e16ec5e92b997c3617dc70,,04e16ec5e92b997c3617dc70
广东省深圳市宝安区宝安国际机场T3航站楼GTC1层,宝安区,深圳市,1,22.628989,113.82166,中国建设银行ATM,广东省,d8088fbcb5ca7eb1d6b74ed9,,d8088fbcb5ca7eb1d6b74ed9
广东省深圳市龙华区民治大道688号,龙华区,深圳市,1,22.641509,114.043752,中国建设银行ATM机,广东省,4e7caa32732a5601631c6794,,4e7caa32732a5601631c6794
广东省深圳市龙岗区深坑村深竹路70号,龙岗区,深圳市,1,22.642039,114.181749,中国建设银行24小时自助银行(深竹东路),广东省,defccb85cf6526abab0dd808,,defccb85cf6526abab0dd808
深圳市龙华区观光路1347号,龙华区,深圳市,1,22.734126,114.032517,中国建设银行24小时自助银行(深圳福前支行),广东省,298ccd1b09fb9195cc06a4e3,,298ccd1b09fb9195cc06a4e3
深圳市宝安区创业一路1087,宝安区,深圳市,1,22.566345,113.899417,中国建设银行24小时自助银行服务(深圳新城支行),广东省,8209ba4f8bfebead8b2fb52d,,8209ba4f8bfebead8b2fb52d
聚龙山四号路与规划四路交叉口北150米,坪山区,深圳市,1,22.725691,114.396836,中国建设银行ATM,广东省,01624eaaa55528ae3904b129,,01624eaaa55528ae3904b129
深圳市新丹路与观兴东路交叉口西150米,龙华区,深圳市,1,22.728156,114.037932,中国建设银行24小时自助银行,广东省,,,cf692e71f8bb80c980a00cd9
横坑路23-1号附近,龙华区,深圳市,1,22.715047,114.063524,中国建设银行ATM,广东省,e7734225df8b10ceb817e778,,e7734225df8b10ceb817e778
清华东路与清湖新村西三巷交叉口东南50米,龙华区,深圳市,1,22.676144,114.053626,中国建设银行24小时自助银行,广东省,,,8ad776b92f58c8dcf7b9160a
华昌路与华霆路交叉口西南100米,龙华区,深圳市,1,22.689556,114.002677,中国建设银行ATM,广东省,,,0cdd9efd570bafea2d47336c
广东省深圳市光明区公明松白路蒋围新村尚学文化艺术中心,光明区,深圳市,1,22.761081,113.914364,中国建设银行ATM,广东省,,,74c3e99ec3d9bac4bca82222
广东省深圳市龙岗区横岗嘉华路惠源肉菜市场(得德酒店西北),龙岗区,深圳市,1,22.66359,114.220928,中国建设银行24小时自助银行服务,广东省,d662af415af83f623c9a5e9f,,d662af415af83f623c9a5e9f
永安路70号附近,盐田区,深圳市,1,22.60018,114.257196,中国建设银行ATM,广东省,,,cc7eca794f50b6fcc4f50dec
广东省深圳市布吉新区平湖街道白银路白坭坑综合服务楼,龙岗区,深圳市,1,22.65892,114.162552,中国建设银行24小时自助银行服务,广东省,b0fe27f0b5d989d617c90599,,b0fe27f0b5d989d617c90599
富康路1号附近,龙岗区,深圳市,1,22.612437,114.119952,中国建设银行ATM,广东省,be4397fe577cbea7853304c1,,be4397fe577cbea7853304c1
广东省深圳市福田区滨河大道3002-1,福田区,深圳市,1,22.54116,114.092878,中国建设银行24小时自助银行服务,广东省,5818a848f8021e96e31103cf,,5818a848f8021e96e31103cf
广东省深圳市龙华区谭罗路42号北60米,龙华区,深圳市,1,22.67549,114.004381,中国建设银行ATM,广东省,642b3d783ff74d5c51e5c577,,642b3d783ff74d5c51e5c577
深圳市南山区大勘商业街68-7,南山区,深圳市,1,22.625765,113.981404,中国建设银行24小时自助银行服务(大磡村支行),广东省,5c2dc21d79957c796fc02c6f,,5c2dc21d79957c796fc02c6f
侨香路4060号花样年·香年广场A座1层,南山区,深圳市,1,22.552943,113.993384,中国建设银行ATM,广东省,d5c544f63bbf33ddae31e5c5,,d5c544f63bbf33ddae31e5c5
广东省深圳市宝安区福永花苑(凤凰花苑南),宝安区,深圳市,1,22.686362,113.837589,中国建设银行ATM,广东省,6dc6db06477fa819a3acc43d,,6dc6db06477fa819a3acc43d
广东省深圳市宝安区新和路人行天桥,宝安区,深圳市,1,22.762491,113.817177,中国建设银行24小时自助银行,广东省,,,b00acc227a128162091cc7d4
永福路97-4号附近,宝安区,深圳市,1,22.694344,113.807728,中国建设银行ATM,广东省,,,b31362425aa80901f4eafce5
深圳市宝安区和沙路47-3号附近,宝安区,深圳市,1,22.709607,113.810993,中国建设银行ATM,广东省,bf91704b44f65b2d4f6d46e9,,bf91704b44f65b2d4f6d46e9
广东省深圳市宝安区洲石路524,宝安区,深圳市,1,22.667823,113.873758,中国建设银行24小时自助银行,广东省,bda19bb307c0a5c196f08cfd,,bda19bb307c0a5c196f08cfd
广东省深圳市龙岗区南联新村(银株路西),龙岗区,深圳市,1,22.717103,114.26655,中国建设银行24小时自助银行,广东省,,,29300ac37a6f0c362811d12a
广东省深圳市坪山区振碧路47,坪山区,深圳市,1,22.674798,114.300714,中国建设银行24小时自助银行(宝梓北路),广东省,e7b922edf39c4816ede4a594,,e7b922edf39c4816ede4a594
下岭排路与大浪北路交叉口西南50米,龙华区,深圳市,1,22.696426,114.008391,中国建设银行ATM,广东省,,,95ce8c478b2a0ce0f82d6133
深圳市龙岗区坳背路123-2号附近,龙岗区,深圳市,1,22.674732,114.220574,中国建设银行ATM,广东省,,,9f49c315f3c8b647c7f50d3f
山子下路68号,龙岗区,深圳市,1,22.65221,114.248467,中国建设银行24小时自助银行,广东省,,,76a774fea2ea9b95b35c6a79
永福一巷与牛始埔路交叉口西南50米,龙岗区,深圳市,1,22.637215,114.190523,中国建设银行ATM,广东省,,,d99b9ab48113c2348d772758
罗沙路2010附近,罗湖区,深圳市,1,22.561421,114.194623,中国建设银行24小时自助银行,广东省,,,b3b0ef8346f57e36ddee8b1a
广东省深圳市南山区沙河西路5288东北90米,南山区,深圳市,1,22.628451,113.946573,中国建设银行ATM,广东省,,,8d967a714452339649fd3f6a
广东省深圳市福田区西横街105号附近,福田区,深圳市,1,22.57144,114.055418,中国建设银行ATM,广东省,,,c58f29e59bb8caf22cb90896
南新路228号,南山区,深圳市,1,22.531287,113.926568,中国建设银行atm,广东省,1a4267ca3ebe8e1ec16c1478,,1a4267ca3ebe8e1ec16c1478
光明区马山头路与马山头长乐街交叉口东50米,光明区,深圳市,1,22.786336,113.886135,中国建设银行24小时自助银行,广东省,,,8a45e9ce8a1c7a6bb05c6a4b
广东省深圳市光明区宝安中心区公明西环大道国纪大厦,光明区,深圳市,1,22.787787,113.879778,中国建设银行24小时自助银行,广东省,4722054e19aa38fcc61e519b,,4722054e19aa38fcc61e519b
新发一路8-2号附近,宝安区,深圳市,1,22.732267,113.862452,中国建设银行24小时自助银行服务,广东省,,,b266b831c72254c533169b54
玉园西路与环玉路交叉口南50米,光明区,深圳市,1,22.721876,113.900224,中国建设银行ATM,广东省,99223d9059c3e00f220262b9,,99223d9059c3e00f220262b9
广东省深圳市宝安区新二路,宝安区,深圳市,1,22.734094,113.847423,中国建设银行24小时自助银行,广东省,,,7d30105f68317f40c7effb54
广东省深圳市宝安区环村路,宝安区,深圳市,1,22.697409,113.844779,中国建设银行24小时自助银行,广东省,,,3e7a748221849620a8f0cd97
广东省深圳市宝安区共和大道,宝安区,深圳市,1,22.759174,113.814207,中国建设银行ATM,广东省,ad9e78f77742efea8f55ecce,,ad9e78f77742efea8f55ecce
广东省深圳市宝安区富桥工业区冠华酒店(福永机场店),宝安区,深圳市,1,22.685248,113.809816,中国建设银行ATM,广东省,8e52e455465aa5a26fc02cff,,8e52e455465aa5a26fc02cff
广东省深圳市宝安区三围综合办公大楼南(三围北路南),宝安区,深圳市,1,22.62006,113.851803,中国建设银行ATM,广东省,5401d3cb901a68ac2811d14e,,5401d3cb901a68ac2811d14e
广东省深圳市宝安区固戍一路228号,宝安区,深圳市,1,22.606817,113.8605,中国建设银行ATM,广东省,01fce28f5b9e91eb8d1a8912,,01fce28f5b9e91eb8d1a8912
葵民路19-1号附近,龙岗区,深圳市,1,22.640404,114.434128,中国建设银行24小时自助银行,广东省,bdb3f6f6794648c42a02e1b6,,bdb3f6f6794648c42a02e1b6
深圳市盐田区大梅沙东部华侨城大峡谷售票处旁东部华侨城内,盐田区,深圳市,1,22.61063,114.312743,中国建设银行ATM,广东省,6d990b75701d2650cac3dbb2,,6d990b75701d2650cac3dbb2
广东省深圳市龙岗区愉龙路65附近,龙岗区,深圳市,1,22.728236,114.229665,中国建设银行ATM,广东省,,,2ff9710d52dceac6bbbd6347
广东省深圳市光明区公明东环大道,光明区,深圳市,1,22.775833,113.913403,中国建设银行ATM,广东省,,,e8bdb01f916a0f95deee8b94
广东省深圳市宝安区宝石西路33号,宝安区,深圳市,1,22.6876,113.938298,中国建设银行atm,广东省,,,3499564aabe2f44b78b55cbe
广东省深圳市龙岗区华龙路33,龙岗区,深圳市,1,22.617394,114.108644,中国建设银行24小时自助银行服务,广东省,34f768217d337ad916c90530,,34f768217d337ad916c90530
广东省深圳市龙岗区长坑路东3巷5-4,龙岗区,深圳市,1,22.638066,114.070704,中国建设银行24小时自助银行服务,广东省,65ef739eef1cc78600ec019c,,17b79156d3cc9333fb2d61e3
广东省深圳市龙岗区五和大道,龙岗区,深圳市,1,22.61024,114.06589,中国建设银行ATM,广东省,b857548c099a9a20eb56fa79,,b857548c099a9a20eb56fa79
深圳市龙华区白松路158号附近,龙华区,深圳市,1,22.623012,114.034084,中国建设银行ATM,广东省,414c03c0cffce8a1afee7a21,,414c03c0cffce8a1afee7a21
广东省深圳市宝安区塘头大道惠乐福前10米,宝安区,深圳市,1,22.658486,113.923798,中国建设银行ATM,广东省,,,838e250399f2bb1e911fc909
留仙二路43号,宝安区,深圳市,1,22.587523,113.922356,中国建设银行24小时自助银行(暂停营业),广东省,,,6e887bc36dd48857343a7174
广田路31-3号附近,宝安区,深圳市,1,22.823402,113.886101,中国建设银行ATM,广东省,,,3c2c01c5c8d66c5c774ff1b6
广东省深圳市光明区公明新区李松蓢第三工业区美沃百货一楼,光明区,深圳市,1,22.805376,113.891233,中国建设银行24小时自助银行服务,广东省,e0e6567e8a35fece75e5b667,,e0e6567e8a35fece75e5b667
深圳市宝安区鞍山二路52号附近,宝安区,深圳市,1,22.722887,113.821473,建行马鞍山社区,广东省,,,1b9f5112506bc9a4c16c1426
广东省深圳市宝安区新沙路59号,宝安区,深圳市,1,22.732052,113.84594,中国建设银行ATM,广东省,4ef08b984d6223d752e5c5e7,,4ef08b984d6223d752e5c5e7
福二路与金菊路交叉口东50米,宝安区,深圳市,1,22.676244,113.817607,中国建设银行24小时自助银行服务,广东省,d3c62f8f05a3589a12293569,,d3c62f8f05a3589a12293569
三号路与桥兴路交叉口东150米,宝安区,深圳市,1,22.698679,113.816582,中国建设银行24小时自助银行,广东省,bad62f7a4ec0967fe81e97c5,,bad62f7a4ec0967fe81e97c5
民生一路20号附近,宝安区,深圳市,1,22.669993,113.89802,中国建设银行24小时自助银行,广东省,58066a58797cefe29968b44d,,58066a58797cefe29968b44d
广东省深圳市宝安区宝安大道4012号,宝安区,深圳市,1,22.591071,113.866314,中国建设银行ATM,广东省,,,032dd9808fb5496c88db7381
广东省深圳市宝安区西乡固戍一路万惠城百货南50米,宝安区,深圳市,1,22.598474,113.845636,中国建设银行24小时自助银行服务,广东省,,,f721015e86e5380c2db17e46
富民大道与第一工业区一号路交叉口西南50米,光明区,深圳市,1,22.743297,113.997911,中国建设银行ATM,广东省,,,d60798282ea4fab775e5b639
上屋大道170号附近,宝安区,深圳市,1,22.690757,113.943222,中国建设银行ATM,广东省,,,34c189d38701afe1744ff1e9
广东省深圳市宝安区新二庄村路54号附近,宝安区,深圳市,1,22.725654,113.864897,中国建设银行ATM,广东省,,,57647f148a0e3f7757bfffab
广东省深圳市宝安区新和大道68号,宝安区,深圳市,1,22.76126,113.823697,中国建设银行ATM,广东省,,,be66a0f5f05a2f951894c687
如意路10号附近,宝安区,深圳市,1,22.678715,113.943713,中国建设银行ATM,广东省,,,530ad94fc9de05039de3211f
广东省深圳市南山区阳光科创中心A办公楼(东滨路北),南山区,深圳市,1,22.518753,113.920467,中国建设银行24小时自助银行,广东省,59b91dd622534b8fa11de923,,59b91dd622534b8fa11de923
广东省深圳市坪山区龙窝路30号,坪山区,深圳市,1,22.761328,114.376237,中国建设银行ATM(龙湾路),广东省,,,06d2dffd0e9957f688f15dc5
深圳市盐田区大梅沙金沙街6号,盐田区,深圳市,1,22.605566,114.318125,中国建设银行ATM(金沙街),广东省,f7077ca1ffeb2fd02eb96d54,,f7077ca1ffeb2fd02eb96d54
上角环新村三巷与龙埔路交叉口南50米,龙岗区,深圳市,1,22.7373,114.240438,中国建设银行24小时自助银行(龙埔路),广东省,,,083f40cfed1f029917c8f629
广东省深圳市龙岗区平湖新木老村(东区)东,龙岗区,深圳市,1,22.676026,114.135173,中国建设银行24小时自助银行(文新路),广东省,a77842cbaeda26a90b1cc7cf,,a77842cbaeda26a90b1cc7cf
广东省深圳市龙华区桔坑路51-1,龙华区,深圳市,1,22.735236,114.013939,中国建设银行24小时自助银行服务(桔坑路),广东省,581ff4da1bc953d8bfa8225e,,8aafb14b01675af8c909f022
广东省深圳市龙华区观澜金悦大厦(悦兴路北),龙华区,深圳市,1,22.717184,114.044038,中国建设银行ATM(悦兴路),广东省,,,1cc3813b68ca62434e776e3c
广东省深圳市光明区长存路中国邮政长圳邮政代办所东,光明区,深圳市,1,22.72355,113.918442,中国建设银行ATM(长存路),广东省,,,7aff6ae698b81ee6b6f42fcf
东海道421-4号鑫群实业办公大楼1层,盐田区,深圳市,1,22.600929,114.254239,中国建设银行ATM(东海道),广东省,187afef68cab33f248cc4a61,,187afef68cab33f248cc4a61
广东省深圳市龙岗区南湾街道健民路35号,龙岗区,深圳市,1,22.616674,114.152733,中国建设银行24小时自助银行(健民路),广东省,e96b44208580a15982288ade,,e96b44208580a15982288ade
广东省深圳市龙岗区上水径综合楼(上水径地铁站东),龙岗区,深圳市,1,22.627824,114.113631,中国建设银行ATM(吉华路),广东省,c3141d52aeb1c381e956faa5,,c3141d52aeb1c381e956faa5
广东省深圳市龙华区,龙华区,深圳市,1,22.659458,114.057069,中国建设银行ATM(油松路),广东省,e2c734e478f0c65d15a190e8,,e2c734e478f0c65d15a190e8
沙河街94号,南山区,深圳市,1,22.550461,113.975855,中国建设银行24小时自助银行(沙河街),广东省,f934e197eb652e33744ff170,,f934e197eb652e33744ff170
大洋路132号,宝安区,深圳市,1,22.699582,113.827651,中国建设银行ATM(大洋路),广东省,34f68ab0df4c3a778f55ec14,,34f68ab0df4c3a778f55ec14
广东省深圳市宝安区中心路3号,宝安区,深圳市,1,22.713261,113.831591,中国建设银行ATM(中心路),广东省,1020060f88d403db1894c614,,1020060f88d403db1894c614
广东省深圳市宝安区沙井新区沙井街道万安路长兴科技,宝安区,深圳市,1,22.730664,113.794844,中国建设银行24小时自助银行(万安路),广东省,a55021847b69340b14b54b7c,,a55021847b69340b14b54b7c
广东省深圳市宝安区重庆路1,宝安区,深圳市,1,22.688821,113.812757,中国建设银行ATM(重庆路),广东省,8b58f5b001b8379916a19041,,848c29dabe23502df21937bf
广东省深圳市宝安区新安海汇路富华花园(群贤花园北),宝安区,深圳市,1,22.57341,113.891071,中国建设银行24小时自助银行服务(海汇路),广东省,0f3c615f823898cc223bf2a2,,be8e487c4ab3351a1ce999b3
新乔围住宅区一巷82号,坪山区,深圳市,1,22.753325,114.38708,中国建设银行24小时自助银行(人民路),广东省,be39db2e69e12575b020a800,,be39db2e69e12575b020a800
广东省深圳市龙岗区慈海医院(鹏达路南),龙岗区,深圳市,1,22.721176,114.272113,中国建设银行ATM(鹏达路),广东省,87a1073c024c8354e6e96534,,87a1073c024c8354e6e96534
广东省深圳市龙岗区有线电视大厦(龙城广场地铁站东南),龙岗区,深圳市,1,22.721851,114.263011,中国建设银行ATM(向银路),广东省,ded1808168808162400245d6,,ded1808168808162400245d6
广东省深圳市龙岗区平湖山厦街市(山厦公园北),龙岗区,深圳市,1,22.710025,114.121538,中国建设银行ATM(香山路),广东省,6867324e6f63c6c0ab175a15,,6867324e6f63c6c0ab175a15
布新路23号,龙华区,深圳市,1,22.724386,114.056889,中国建设银行ATM(布新路),广东省,,,e80709412cdcd194ee74f8d1
广东省深圳市龙华区桂月路468-2,龙华区,深圳市,1,22.75235,114.028792,中国建设银行24小时自助银行(桂月路),广东省,2c4cd86f6110c1729868b4cf,,2c4cd86f6110c1729868b4cf
广东省深圳市龙华区桂月路与樟阁路交叉口东南150米,龙华区,深圳市,1,22.749397,114.025514,中国建设银行24小时自助银行(樟阁路),广东省,5508504dd66843b6c7f02560,,5508504dd66843b6c7f02560
广东省深圳市龙华区一号路,龙华区,深圳市,1,22.748441,114.023148,中国建设银行24小时自助银行服务(樟亿路),广东省,9ed81143e32c4bfb57bfffac,,9ed81143e32c4bfb57bfffac
观澜大道75号旁(田背花园),龙华区,深圳市,1,22.696746,114.046936,中国建设银行24小时自助银行(田茜路),广东省,8df4bab789abfd011b94c6fc,,8df4bab789abfd011b94c6fc
广东省深圳市光明区环田路宜佳馨公寓(源兴百货西北),光明区,深圳市,1,22.737508,113.911169,中国建设银行24小时自助银行服务(环田路),广东省,4b63acd14b296f63abf0cddf,,4b63acd14b296f63abf0cddf
广东省深圳市宝安区石岩66商务宾馆(松白路),宝安区,深圳市,1,22.695481,113.92827,中国建设银行ATM(松白路),广东省,104f768ca0f69a4ccc06a471,,104f768ca0f69a4ccc06a471
广东省深圳市龙岗区瑞泽佳园商铺1层38,龙岗区,深圳市,1,22.650868,114.189408,中国建设银行ATM(埔厦路),广东省,932b3fe1e3f4fb2216a190ec,,932b3fe1e3f4fb2216a190ec
新木路79-1号,龙岗区,深圳市,1,22.670089,114.145046,中国建设银行ATM(新木路),广东省,8b13e44f88fbb46f5e0d0239,,8b13e44f88fbb46f5e0d0239
黄贝路2099-2号,罗湖区,深圳市,1,22.565728,114.148868,中国建设银行客户经理室,广东省,b0129932b0452b388e77277f,,b0129932b0452b388e77277f
广东省深圳市福田区东园路23-1附近,福田区,深圳市,1,22.543467,114.109378,中国建设银行24小时自助银行服务(东园路),广东省,b360ef7457aeccef7ab55cdd,,b360ef7457aeccef7ab55cdd
广东省深圳市龙华区安永昌快捷酒店(万隆大厦店),龙华区,深圳市,1,22.656777,114.011173,中国建设银行24小时自助银行(龙华路),广东省,2e69bcd0cba490c4d7851fda,,2e69bcd0cba490c4d7851fda
雅园路18-1,龙岗区,深圳市,1,22.622525,114.071291,中国建设银行ATM(雅园路),广东省,c598c6e3138acc78d8eced03,,883c15601073ba4ae6e965e4
高新科技园南一道创维大厦A座铺,南山区,深圳市,1,22.544783,113.957017,中国建设银行货币兑换,广东省,76ae1a331a7ccd1ef32d832c,13528800985,76ae1a331a7ccd1ef32d832c
新安街道建安一路23-3号,宝安区,深圳市,1,22.564126,113.915839,中国建设银行外币兑换点,广东省,baf6101d32575d5b2fb9080a,(0755)29991261,35c70428bdecfd03c26c14a8
大新新村147-1,南山区,深圳市,1,22.538643,113.923085,中国建设银行24小时自助银行(河清里),广东省,8542223b65bc93a5f119372a,,8542223b65bc93a5f119372a
深圳市光明区屋园路134号,光明区,深圳市,1,22.813783,113.896858,中国建设银行24小时自助银行(屋园路),广东省,2349ba054b53618f51e5c55a,,2349ba054b53618f51e5c55a
广东省深圳市光明区光明新区公明下村村委会东(下村公园东南),光明区,深圳市,1,22.796594,113.893577,中国建设银行24小时自助银行服务(下村路),广东省,,,9dd5bfcbd40f9475ce04efc3
柏溪路137号,光明区,深圳市,1,22.788514,113.889263,中国建设银行24小时自助银行服务(柏溪路),广东省,,,a40dba426ea45f13c4f50dc9
松裕路9号,宝安区,深圳市,1,22.760158,113.868539,中国建设银行24小时自助银行(松裕路),广东省,,,6fddd7fde2dbf87f3417dc98
广东省深圳市宝安区沙中路69号,宝安区,深圳市,1,22.728207,113.815032,中国建设银行24小时自助银行(沙中路),广东省,,,8bab9bc8d6fd417fe812e414
深圳市宝安区西沙路34-12,宝安区,深圳市,1,22.748368,113.797067,中国建设银行24小时自助银行服务(西沙路),广东省,db5d0c336292b5542db17e53,,db5d0c336292b5542db17e53
永和路45号附近,宝安区,深圳市,1,22.693124,113.797619,中国建设银行24小时自助银行(永和路),广东省,,,bfd2e09fa4c0c73e130daa25
龙西中路63号附近,龙岗区,深圳市,1,22.747704,114.256922,中国建设银行ATM(富民路),广东省,,,3eb808bbb078f54de81e97ed
广东省深圳市龙岗区平湖新新百货(水门路西),龙岗区,深圳市,1,22.69391,114.12912,中国建设银行24小时自助银行服务(佳业路),广东省,c323bfb7fc1eb980a2a93402,,c323bfb7fc1eb980a2a93402
广东省深圳市龙岗区布吉新区布吉联布北路西(三联村内),龙岗区,深圳市,1,22.632569,114.121759,中国建设银行24小时自助银行(联中路),广东省,9f9787d71f68ed7240ab9a51,,9f9787d71f68ed7240ab9a51
深圳市罗湖区罗芳路144号,罗湖区,深圳市,1,22.556198,114.155154,中国建设银行ATM(罗芳路),广东省,007edb2a6ba178654f6d46f2,,007edb2a6ba178654f6d46f2
三联路与清龙路交叉口南100米,龙华区,深圳市,1,22.672773,114.041537,中国建设银行ATM(清龙路),广东省,,,c4566953456973eeb35c6af1
深圳市龙华区东环一路54-15,龙华区,深圳市,1,22.648139,114.054166,中国建设银行24小时自助银行服务(民欢路),广东省,8afd39d70b435e99364aae54,,8afd39d70b435e99364aae54
大浪南路109号附近,龙华区,深圳市,1,22.673588,114.024913,中国建设银行24小时自助银行(联围街),广东省,,,b8781b429b16463760180998
深圳市南山区新高路127-2号附近,南山区,深圳市,1,22.59086,113.95708,中国建设银行ATM(新高路),广东省,,,f641ed31d684b0d0d0ff23eb
广东省深圳市南山区同沙路26-4,南山区,深圳市,1,22.589974,113.955089,中国建设银行ATM(同沙路),广东省,c76be56dcbac87e909b93a8e,,c76be56dcbac87e909b93a8e
益田路6003-4荣超商务中心A座1层,福田区,深圳市,1,22.549582,114.06218,中国建设银行理财中心,广东省,,,ee0bb1f05943c95fd72ce2e9
深圳市南山区白石洲东三坊90-2,南山区,深圳市,1,22.538674,113.974932,中国建设银行ATM(白石街),广东省,5d95144929be71976b49f3d9,,5d95144929be71976b49f3d9
沙江路346号附近,宝安区,深圳市,1,22.777867,113.822946,中国建设银行24小时自助银行(松兴路),广东省,,,be610a5cd99633ed2a02e136
广东省深圳市南山区渔村路171-1附近,南山区,深圳市,1,22.495414,113.938897,中国建设银行24小时自助银行(渔村路),广东省,,,038be4af615f82b54107c170
广东省深圳市南山区蛇口爱榕路园景园万福佳生活超市东门,南山区,深圳市,1,22.499712,113.936339,中国建设银行ATM(爱榕路),广东省,0fdfa37c0862ac66c1f1cf2b,,0fdfa37c0862ac66c1f1cf2b
广东省深圳市宝安区勋业街6附近,宝安区,深圳市,1,22.778369,113.847638,中国建设银行ATM(勋业街),广东省,,,62e49c8280f8065c02ec0143
深圳市南山区桃园路田厦金牛广场B座,南山区,深圳市,1,22.538595,113.933582,中国银行(桃园路支行),广东省,fe1a7fa1417058bc3913fdbd,(0755)22336750,fe1a7fa1417058bc3913fdbd
广东省深圳市龙岗区坪地中心社区教育中路鼎尚华庭西门,龙岗区,深圳市,1,22.778519,114.306816,中国建设银行24小时自助银行,广东省,39d3a4e3c075cf354107c1de,,39d3a4e3c075cf354107c1de
广东深圳江南百货(238乡道)附近,坪山区,深圳市,1,22.678597,114.364407,中国建设银行ATM(238乡道),广东省,,,f0bbe6d06e60653ff82213bb
广东省深圳市龙岗区新城路,龙岗区,深圳市,1,22.75321,114.285045,中国建设银行ATM(低山南路),广东省,5e3c76602f0bf63fd82f28b3,,5e3c76602f0bf63fd82f28b3
广东省深圳市龙岗区龙西中路与学园路交叉口,龙岗区,深圳市,1,22.753022,114.255234,中国建设银行ATM(龙西中路),广东省,6755bba9bd0c9cd60d0a70a4,,9a1b3734824672b38f55eca7
爱心路与爱龙东路交叉口东150米,龙岗区,深圳市,1,22.733281,114.236831,中国建设银行ATM(爱龙东路),广东省,,,6e7e73b56ef11488f1193787
深圳市龙岗区长江埔路76-14,龙岗区,深圳市,1,22.682413,114.234593,中国建设银行24小时自助银行服务(长江埔路),广东省,,,61bdbdf216c5533cc3364433
广东省深圳市龙岗区爱新东四巷7号,龙岗区,深圳市,1,22.70025,114.239652,中国建设银行24小时自助银行服务(爱新东一巷),广东省,3c0f38f4e4a43d3b2efaa748,,3c0f38f4e4a43d3b2efaa748
龙华区君新路96-2号附近,龙华区,深圳市,1,22.724014,114.103899,中国建设银行24小时自助银行,广东省,,,f1b4456b0a87edbae115f9cf
广东省深圳市龙华区华韵路31号附近,龙华区,深圳市,1,22.677711,114.034408,中国建设银行24小时自助银行,广东省,c27d78f859c906fc990050ba,,c27d78f859c906fc990050ba
华宁路50-18号附近,龙华区,深圳市,1,22.696322,113.98705,中国建设银行24小时自助银行,广东省,,,5281b40a0aad3c4d59bbbcc6
广东省深圳市宝安区石龙大道56号,宝安区,深圳市,1,22.69714,113.969682,中国建设银行ATM(石龙大道),广东省,04bf4a2053163f032ee67ba0,,04bf4a2053163f032ee67ba0
广东省深圳市龙华区华兴路,龙华区,深圳市,1,22.685386,113.988124,中国建设银行24小时自助银行,广东省,57069c25e5aecee48bdb7398,,57069c25e5aecee48bdb7398
广东省深圳市光明区星湖路36号,光明区,深圳市,1,22.713135,113.912579,中国建设银行24小时自助银行,广东省,,,e7b5f2ab86f8a0341df74d27
广东省深圳市龙岗区甘李二路,龙岗区,深圳市,1,22.64806,114.132568,中国建设银行ATM(甘李二路),广东省,b51a4d7b758a840a7bf79641,,b51a4d7b758a840a7bf79641
深圳市龙岗区布龙路34-21,龙岗区,深圳市,1,22.632131,114.112816,中国建设银行24小时自助银行服务(丽湖大道),广东省,fa77898933e8a8a00f3dda9a,,fa77898933e8a8a00f3dda9a
广东省深圳市龙华区中环二路46,龙华区,深圳市,1,22.643612,114.057245,中国建设银行ATM(东环二路),广东省,85f1b78dd42c54f8f503b86a,,85f1b78dd42c54f8f503b86a
广东省深圳市龙华区和悦路83号东北100米,龙华区,深圳市,1,22.643869,114.029295,中国建设银行24小时自助银行,广东省,bcdf4135577c332e6ca3cc45,,bcdf4135577c332e6ca3cc45
广东省深圳市福田区水围九街13,福田区,深圳市,1,22.527399,114.068568,中国建设银行24小时自助银行(水围九街),广东省,803e1b9e846b662ed12dd6c6,,803e1b9e846b662ed12dd6c6
广东省深圳市福田区水围七街21号附近,福田区,深圳市,1,22.524431,114.069241,中国建设银行24小时自助银行(水围七街),广东省,016c3be7a7acb5c716764364,,016c3be7a7acb5c716764364
广东省深圳市福田区福华一路1号大中华国际交易广场,福田区,深圳市,1,22.541495,114.068009,中国建设银行24小时自助银行(福田支行),广东省,abb5788a185174edadcb6665,,f757e6ee927c6d17260bd036
东滨路4078号附近,南山区,深圳市,1,22.515343,113.925472,中国建设银行24小时自助服务,广东省,03e6218951b08905f7e73b73,,03e6218951b08905f7e73b73
广东省深圳市光明区振明路83,光明区,深圳市,1,22.783807,113.906065,中国建设银行ATM(公明支行),广东省,,,9ee4ed59a14d49d2e5e965a4
深圳市宝安区洪桥头路34号,宝安区,深圳市,1,22.789017,113.847481,中国建设银行ATM(洪桥头路),广东省,,,287b8cc4f899b649118824fa
广东省深圳市宝安区沙井洋下大道凯悦大厦(新桥社区中区东),宝安区,深圳市,1,22.74186,113.849525,中国建设银行ATM(金元三路),广东省,c9d0351678092e7303ec0151,,c9d0351678092e7303ec0151
宝安大道6295号附近,宝安区,深圳市,1,22.694057,113.816573,中国建设银行24小时自助银行,广东省,90cb0ee01c17ad9c08f5eb36,,90cb0ee01c17ad9c08f5eb36
固戍一路194-4号附近,宝安区,深圳市,1,22.606714,113.860225,中国建设银行存取款一体机,广东省,daac576f2fc7011832870a76,,daac576f2fc7011832870a76
悦昌路与悦盛三路交叉口北200米,宝安区,深圳市,1,22.674821,113.808206,中国建设银行24小时自助银行,广东省,,,fe5839d73ec8f33fb13c8170
富光巷与富坪中路交叉口西北50米,龙岗区,深圳市,1,22.774283,114.328925,中国建设银行ATM(富坪中路),广东省,,,09698eeda922e6a34e554704
深圳市龙岗区龙湖路221附近,龙岗区,深圳市,1,22.726931,114.295262,中国建设银行24小时自助银行,广东省,5643cd4a259658b18bdb73d0,,5643cd4a259658b18bdb73d0
深圳市龙岗区布新路99-2旁,龙岗区,深圳市,1,22.579387,114.494955,中国建设银行24小时自助银行(布锦村东),广东省,5ffb1816c90518226e4760ae,,5ffb1816c90518226e4760ae
深圳市龙岗区前进南巷与新陂路交汇处东100米,龙岗区,深圳市,1,22.701652,114.233783,中国建设银行ATM(余岭西路),广东省,,,46131d91697faa7e95f08cab
广东省深圳市龙华区观澜宸宇工业园西南(环观中路西),龙华区,深圳市,1,22.712093,114.073176,中国建设银行ATM(环观中路),广东省,b64e5ea2b9d7eeb0fa0cad3f,,b64e5ea2b9d7eeb0fa0cad3f
深圳市龙华区大浪南路与联围街交叉口西南50米,龙华区,深圳市,1,22.676431,114.018067,中国建设银行24小时自助银行,广东省,da8d2802046f71ca04026f39,,0c161e57dad3ac833517dcea
广东省深圳市龙华区大浪南路城市阳光花园西南门,龙华区,深圳市,1,22.677266,114.022729,中国建设银行24小时自助银行服务(大浪南路),广东省,ccbd3ba5f527e9a58bfc06e2,,ccbd3ba5f527e9a58bfc06e2
甲子塘大道与甲子塘新区交叉口西北100米,光明区,深圳市,1,22.738132,113.925738,中国建设银行24小时自助银行,广东省,fc689b998704452372455b55,,fc689b998704452372455b55
田心大道40号附近,宝安区,深圳市,1,22.69816,113.947841,中国建设银行ATM(田心大道),广东省,,,0e0407826ab5f3c0a8f729ed
广东省深圳市宝安区吉祥路11号,宝安区,深圳市,1,22.684134,113.948131,中国建设银行24小时自助银行,广东省,0f679fa55329db414c6d46bc,,0f679fa55329db414c6d46bc
松源路10-8号附近,龙岗区,深圳市,1,22.633498,114.11764,中国建设银行24小时自助银行,广东省,6f449590c398e016f03cbabb,,6f449590c398e016f03cbabb
广东省深圳市龙岗区丹河北路,龙岗区,深圳市,1,22.629318,114.16076,中国建设银行24小时自助银行,广东省,,,b9fcf4de08ae563ed42ce244
广东省深圳市龙岗区康正路12-4南70米,龙岗区,深圳市,1,22.631224,114.153152,中国建设银行24小时自助银行,广东省,609fa4f2cc5318e56f4760ea,,834db65a52a22dfbcac3dbe9
银湖路48号附近,罗湖区,深圳市,1,22.590119,114.083339,中国建设银行ATM(银谷别墅北),广东省,e8ec9c95a84133cb0869d9f4,,e8ec9c95a84133cb0869d9f4
广东省深圳市罗湖区沿河北路2019-1附近,罗湖区,深圳市,1,22.562613,114.15136,中国建设银行24小时自助银行,广东省,,,16e4b808ed72e9b612882447
红岭南路金融中心东座建行大厦618室,罗湖区,深圳市,1,22.545929,114.112816,中国建设银行营业部个贷中心,广东省,6570bab0bd1d769c9868b4d6,,6570bab0bd1d769c9868b4d6
民福路243号附近,龙华区,深圳市,1,22.632971,114.042015,中国建设银行存取款一体机,广东省,8aeda8511ffb47d325e0a04b,,8aeda8511ffb47d325e0a04b
大发埔东四巷与长发路交叉口西50米,龙岗区,深圳市,1,22.63614,114.062145,中国建设银行24小时自助银行,广东省,8b92728330cdd6c490114c9d,,8b92728330cdd6c490114c9d
学苑大道与科研一路交叉口西南50米,南山区,深圳市,1,22.598441,113.996448,中国建设银行24小时自助银行(学苑大道),广东省,,,7da63f1ea32e1fd9240bd00c
深圳市南山区龙珠八路16号岁宝百货F1,南山区,深圳市,1,22.564239,113.990966,中国建设银行ATM(岁宝百货),广东省,40eb9992d00218425d0d02da,,40eb9992d00218425d0d02da
乌石头路11-37号,南山区,深圳市,1,22.565969,113.955132,中国建设银行24小时自助银行(乌石头路),广东省,9575de5039d44bff601c67e0,,9575de5039d44bff601c67e0
广东省深圳市光明区公明民生大道东海明珠酒店,光明区,深圳市,1,22.791216,113.899408,中国建设银行24小时自助银行服务(民生大道),广东省,4a05d7cdecc96b1049fd3f4c,,0cd659f354b7d04480288a7e
广东省深圳市宝安区淇誉路4-13,宝安区,深圳市,1,22.680865,113.840016,中国建设银行24小时自助银行,广东省,4490343fb84d59969ff77912,,4490343fb84d59969ff77912
政丰北路与龙腾街交叉口西北50米,宝安区,深圳市,1,22.67859,113.826889,中国建设银行ATM(政丰北路),广东省,,,a46a61b205e2858771455b70
深圳市宝安区怀德107国道富邦红树湾家居1层,宝安区,深圳市,1,22.67036,113.836089,中国建设银行ATM(富邦红树湾),广东省,5ffe30b5897fd03726e0a016,,5ffe30b5897fd03726e0a016
深圳市龙华区新湖北街西50米,龙华区,深圳市,1,22.709966,114.096819,中国建设银行ATM(新湖北街),广东省,,,fec5c13b50e89ecb8f55ec35
广东省深圳市光明区Y142(光侨北路),光明区,深圳市,1,22.808541,113.949807,中国建设银行24小时自助银行,广东省,,,d4b60e92c2cf12f0067ce8f2
新村九巷13-4号附近,光明区,深圳市,1,22.789024,113.934601,中国建设银行24小时自助银行,广东省,8fa66f14e56e56d4a10464ff,,8fa66f14e56e56d4a10464ff
福民路与茜坑路交叉口东北50米,龙华区,深圳市,1,22.70408,114.039624,中国建设银行24小时自助银行,广东省,59f13583adc4da1d715e80ed,,59f13583adc4da1d715e80ed
广东省深圳市宝安区石岩日新百货(罗租大道南),宝安区,深圳市,1,22.679657,113.938526,中国建设银行24小时自助银行,广东省,42093978aa79f1ef593ac872,,42093978aa79f1ef593ac872
广东省深圳市罗湖区凤凰路32附近,罗湖区,深圳市,1,22.554159,114.144498,中国建设银行24小时自助银行,广东省,,,e38af78ec922ba30d3ff2341
永新路21号,罗湖区,深圳市,1,22.550545,114.129791,中国建设银行24小时自助银行,广东省,722c42d4a752cf0fb54f5463,,585ff329dfc2eeeaf7e73b9e
布龙路扬马小区,龙岗区,深圳市,1,22.633922,114.079152,中国建设银行ATM(杨马三街),广东省,,,9f410d1a07e55c9b0b69d9dc
广东省深圳市龙华区建设路302号附近,龙华区,深圳市,1,22.652039,114.027668,中国建设银行24小时自助银行,广东省,d7665891dc43625e734b8727,,d7665891dc43625e734b8727
龙华东环一路金城大厦,龙华区,深圳市,1,22.662869,114.033195,中国建设银行24小时自助银行,广东省,,,ec89781bb7700684c61e5126
丽山路6-73号,南山区,深圳市,1,22.59297,113.972624,中国建设银行24小时自助银行服务(平山一路),广东省,4fd1c66d0f97c26da80dd80f,,4fd1c66d0f97c26da80dd80f
西丽北路79号,南山区,深圳市,1,22.584672,113.961789,中国建设银行24小时自助银行服务(西丽北路),广东省,b558a906b4c8709c4354d777,,b558a906b4c8709c4354d777
广东省深圳市宝安区松岗朗西路惠家乐百货西门,宝安区,深圳市,1,22.802801,113.866671,中国建设银行24小时自助银行,广东省,,,c26905cdc9166227c9c3db03
深圳市宝安区潭头商住二区47-2,宝安区,深圳市,1,22.753167,113.853077,中国建设银行24小时自助银行服务(喜景楼西南),广东省,f9fd6062f099e2620f0e6b7b,,f9fd6062f099e2620f0e6b7b
广东省深圳市宝安区马安山北区157-1号,宝安区,深圳市,1,22.72292,113.821165,中国建设银行24小时自助银行,广东省,6b1210aec08a9ea31fe99953,,6b1210aec08a9ea31fe99953
广东省深圳市宝安区和顺路,宝安区,深圳市,1,22.69577,113.802958,中国建设银行24小时自助银行,广东省,,,3021914e26406c98dbd8912f
深圳市宝安区福永街道十五区四巷1号附近,宝安区,深圳市,1,22.70808,113.817828,中国建设银行24小时自助银行,广东省,,,c1ad7ecb7372f8f588b98807
广东省深圳市宝安区钟屋一路11附近,宝安区,深圳市,1,22.628684,113.855247,中国建设银行24小时自助银行(钟屋一路),广东省,,,759bb394c362199bb5f42fab
广东省深圳市宝安区世纪百货(南昌店),宝安区,深圳市,1,22.604888,113.847247,中国建设银行24小时自助银行,广东省,,,1b484079e343b36c4151c06b
广东省深圳市宝安区海秀路17-42,宝安区,深圳市,1,22.554439,113.894065,中国建设银行ATM(熙龙湾西南),广东省,,,a711dc73d42409d4c929159b
银田支一路共乐华庭商务楼往北,宝安区,深圳市,1,22.586929,113.865444,中国建设银行24小时自助银行(银田支一路),广东省,b93cf3140e46b899c5effba5,,b93cf3140e46b899c5effba5
锦龙二路5-2号附近,龙岗区,深圳市,1,22.703113,114.325064,中国建设银行ATM(宝梓北路),广东省,,,0c3a8d7fd2be7afa0c0a7005
广东省深圳市龙岗区乐园路60-、62号,龙岗区,深圳市,1,22.718326,114.311954,中国建设银行24小时自助银行,广东省,64389de4d2d943039b68b415,,64389de4d2d943039b68b415
深圳市龙岗区南岭西路61-34,龙岗区,深圳市,1,22.619443,114.152316,中国建设银行24小时自助银行,广东省,31c933aba1004a514c2fdfe1,,26b72f66bcf548380f0a70e5
坑尾东一巷3号附近,龙岗区,深圳市,1,22.6208,114.114638,中国建设银行24小时自助银行,广东省,2165a2637fb40fee9703195f,,b1d08c6f1c432d0cf723105b
广东省深圳市龙岗区雪岗路2113,龙岗区,深圳市,1,22.664079,114.07386,中国建设银行24小时自助银行,广东省,99c39f7b59d1029186420e73,,99c39f7b59d1029186420e73
广东省深圳市宝安区天宝路98号,宝安区,深圳市,1,22.652811,113.929643,中国建设银行24小时自助银行,广东省,,,5cd7cd598d77ccd3b5147fd8
六号路与桂湾三路交叉口东150米,南山区,深圳市,1,22.541016,113.912385,中国建设银行24小时自助银行,广东省,,,b0a6e598d1fc105a88f15df4
友谊路与帝堂路交叉口东北50米,宝安区,深圳市,1,22.750474,113.811458,中国建设银行24小时自助银行,广东省,a45a8a4889fbc651f1193762,,a45a8a4889fbc651f1193762
西环路2009-16号附近,宝安区,深圳市,1,22.732178,113.806583,中国建设银行24小时自助银行,广东省,150c3c23a1a04bf7b34c4986,,150c3c23a1a04bf7b34c4986
广东省深圳市宝安区沙井尚水精品酒店(沙井店),宝安区,深圳市,1,22.73986,113.813161,中国建设银行24小时自助银行,广东省,6c60b178065eda7f6c3e1bac,,6c60b178065eda7f6c3e1bac
广东省深圳市宝安区翠竹街56号东南70米,宝安区,深圳市,1,22.671668,113.820102,中国建设银行24小时自助银行,广东省,5ae4c956442b8d4ed813180a,,5ae4c956442b8d4ed813180a
福永大道67附近,宝安区,深圳市,1,22.669208,113.816101,中国建设银行24小时自助银行,广东省,,,25e5482c7b04cbfa5d0d02d1
益民南街与龙岗大道交叉口东100米,龙岗区,深圳市,1,22.774759,114.313855,中国建设银行24小时自助银行,广东省,,,07ed9312e2c6f695cac3db98
盛龙路,龙岗区,深圳市,1,22.732883,114.262682,中国建设银行24小时自助银行,广东省,,,e7b84304e8d34dfca1a93486
广东省深圳市光明区凤新路永安大厦1层13-15号正西方向159米,光明区,深圳市,1,22.795933,113.953773,中国建设银行24小时自助银行,广东省,,,d9d506016738d002cd04ef58
广东省深圳市南山区南山大道1104,南山区,深圳市,1,22.524576,113.929185,中国建设银行ATM(南山大道),广东省,3793135a01caef89ad045784,,f0101a41049d19666f3e1b6e
沙井新区和秀西路和平中英文实验学校东南,宝安区,深圳市,1,22.698747,113.799159,中国建设银行24小时自助银行,广东省,9c2b612ab97a6fe5a2a93441,,9c2b612ab97a6fe5a2a93441
广东省深圳市龙华区观平路与观澜大道交叉口,龙华区,深圳市,1,22.725611,114.07259,中国建设银行24小时自助银行服务,广东省,338b920d4db7ad3c5e0d025c,,338b920d4db7ad3c5e0d025c
福前路西200米,龙华区,深圳市,1,22.725056,114.032285,中国建设银行24小时自助银行(山顶小区东南),广东省,18b6ccb8996d9c990482c200,,18b6ccb8996d9c990482c200
布澜路21号联创科技园,龙岗区,深圳市,1,22.638678,114.134962,中国建设银行24小时自助银行服务,广东省,7a1da53a05f1329eb11e3633,,7a1da53a05f1329eb11e3633
广东省深圳市龙岗区南岭南路31-6北90米,龙岗区,深圳市,1,22.616723,114.156281,中国建设银行24小时自助银行服务,广东省,8b3fc573e0e48f76c356acd8,,8b3fc573e0e48f76c356acd8
深南东路1001号丹枫白露酒店附近,罗湖区,深圳市,1,22.547673,114.15975,中国建设银行ATM(沿河南路辅路),广东省,9c1703ce2848c4490482c21f,,9c1703ce2848c4490482c21f
深圳市罗湖区太宁路8号喜荟城购物中心1层,罗湖区,深圳市,1,22.575196,114.145562,中国建设银行ATM(喜荟城购物中心),广东省,91c13f931c212c8421f017e4,,91c13f931c212c8421f017e4
深圳市福田区深南中路1009号万德大厦一楼,福田区,深圳市,1,22.546475,114.109752,中国建设银行24小时自助银行服务(深南中路支行),广东省,42f1332a4a7e0646a8175a6c,,302179533c1765210a5cb3ac
广东省深圳市龙岗区雪岗北路18号附近,龙岗区,深圳市,1,22.664642,114.076116,中国建设银行24小时自助银行服务,广东省,f07bf57f39df61565fd4fec9,,f07bf57f39df61565fd4fec9
深圳市福田区石厦北路二街89号马成时代广场F1,福田区,深圳市,1,22.525635,114.059864,中国建设银行24小时自助银行(马成时代广场),广东省,e9e9a1b2a1641b00b54f5460,,e9e9a1b2a1641b00b54f5460
广东省深圳市福田区新洲九街,福田区,深圳市,1,22.523059,114.045183,中国建设银行24小时自助银行服务,广东省,b21e4bd524095e1703294feb,,617e6883ccaeeec779b55cac
深圳市福田区深南大道7028号时代科技大厦1楼,福田区,深圳市,1,22.543519,114.030528,中国建设银行24小时自助银行服务(深圳东海支行),广东省,550fd5f988a07479931fc936,,550fd5f988a07479931fc936
南山大道1175-7号,南山区,深圳市,1,22.529388,113.929546,中国建设银行货币兑换(桂庙路),广东省,,(0755)26741858,a49d3c9b377bd4fa4151c027
广东省深圳市龙岗区甘坑新村一路,龙岗区,深圳市,1,22.661476,114.11408,中国建设银行24小时自助银行服务,广东省,c97e6a9ce0729b034e5547f7,,c97e6a9ce0729b034e5547f7
福田南路7-40号,福田区,深圳市,1,22.531388,114.083066,中国建设银行24小时自助银行服务(皇御苑内部路),广东省,d25f0e69572a46255d17c3f2,,d25f0e69572a46255d17c3f2
香梅路1063-1号水榭花都1期会所103,福田区,深圳市,1,22.553266,114.045179,中国建设银行24小时自助银行服务(水榭花都微银行),广东省,,,394a6d3493fdbc74a1a934b6
龙珠五路75-3号,南山区,深圳市,1,22.568065,113.982991,中国建设银行24小时自助银行服务,广东省,952959a6cce55a5025d2bba6,,952959a6cce55a5025d2bba6
深圳市南山区沙河以西、留仙大道以北南国丽城花园2栋1F33-39,南山区,深圳市,1,22.587109,113.964556,中国建设银行24小时自助银行服务(深圳西丽支行),广东省,f60a15ed48ee3b91ba17e7bc,,f60a15ed48ee3b91ba17e7bc
