address,area,city,detail,lat,lng,name,province,street_id,telephone,uid,机构名称
深圳市南山区科苑路12号,南山区,深圳市,1,22.549096,113.94987,中国邮政储蓄银行,广东省,87075a60de3bdd333913fd12,(0755)26637160,87075a60de3bdd333913fd12,邮政储蓄银行
广东省深圳市福田区益田路48号深圳信息枢纽大厦2楼,福田区,深圳市,1,22.540946,114.061408,中国邮政储蓄银行(深圳分行),广东省,bdd59a6a7ba8ae20eee4a501,(0755)22228315,8cba4bb02c5cf5f9ad04571a,邮政储蓄银行
观澜金湖湾富士康鸿观科技园c22栋,龙华区,深圳市,1,22.743722,114.018666,中国邮政储蓄银行,广东省,,,415e499995722ec16b49f382,邮政储蓄银行
广东省深圳市龙岗区横岗街道力嘉路新马商贸城4号商业楼4137、4138、4141、4142、4143及本栋二楼,龙岗区,深圳市,1,22.648955,114.210328,中国邮政储蓄银行(翠湖支行),广东省,981d28e2942a9939afee7a5c,(0755)28603757,981d28e2942a9939afee7a5c,邮政储蓄银行
春风路2050号,罗湖区,深圳市,1,22.546478,114.132123,中国邮政储蓄银行(春风路),广东省,61d95cab5fdff8704054d7eb,,61d95cab5fdff8704054d7eb,邮政储蓄银行
广东省深圳市龙华区民治街道民康路蓝坤大厦1层,龙华区,深圳市,1,22.619412,114.047233,中国邮政储蓄银行(民康支行),广东省,1a5f29da49b8e6837adbd2e5,(0755)23063089,1a5f29da49b8e6837adbd2e5,邮政储蓄银行
深圳市宝安区石岩街道塘头大道48号,宝安区,深圳市,1,22.658522,113.925163,中国邮政储蓄银行(塘头支行),广东省,e93761f6367f2671223bf217,(0755)81790993,e93761f6367f2671223bf217,邮政储蓄银行
广东省深圳市龙华区横坑路39号宝荣大厦,龙华区,深圳市,1,22.720292,114.061564,中国邮政储蓄银行(观城支行),广东省,519fd2c54c545b5ef4e73b38,(0755)29808633,519fd2c54c545b5ef4e73b38,邮政储蓄银行
龙华区龙华街道公园路10号,龙华区,深圳市,1,22.661509,114.021974,中国邮政储蓄银行(龙华支行),广东省,7a5e21a47d0cfcc84054d70e,,7a5e21a47d0cfcc84054d70e,邮政储蓄银行
白银路75-1-3,龙岗区,深圳市,1,22.658525,114.161618,中国邮政储蓄银行24小时自助银行(白泥坑支行),广东省,44207646ed105915deee8bea,,44207646ed105915deee8bea,邮政储蓄银行
广东省深圳市南山区珠光路1号,南山区,深圳市,1,22.577524,113.965704,中国邮政储蓄银行(深圳珠光支行),广东省,7aea43b77b7ccffb7c29bde9,(0755)86276603,7aea43b77b7ccffb7c29bde9,邮政储蓄银行
别墅路世峰大厦1楼,光明区,深圳市,1,22.783309,113.916574,中国邮政储蓄银行(深圳宏发支行),广东省,,(0755)23428480,9ac5c905fbcbbb0c2fb90840,邮政储蓄银行
广东省深圳市龙岗区荣华路53-A,龙岗区,深圳市,1,22.600377,114.130873,中国邮政储蓄银行(深圳信义支行),广东省,8cba4bb0c2eddff9ac0457ab,(0755)28886380,8cba4bb0c2eddff9ac0457ab,邮政储蓄银行
龙岗区布吉街道西环路49-1号1楼,龙岗区,深圳市,1,22.612731,114.11607,中国邮政储蓄银行(大靓营业所),广东省,1fe6b1aa2989fef507026fa8,(0755)28250022,1fe6b1aa2989fef507026fa8,邮政储蓄银行
福田区滨河大道9023号国通大厦一层,福田区,深圳市,1,22.532883,114.049393,中国邮政储蓄银行(新洲南支行),广东省,bf29b70216de329a08b93ab8,(0755)83589768,bf29b70216de329a08b93ab8,邮政储蓄银行
深圳市福田区金地工业区129栋一楼,福田区,深圳市,1,22.527296,114.046989,中国邮政储蓄银行(深圳沙嘴支行),广东省,73e1b1ac7fc60284d8d891f6,(0755)83308772,73e1b1ac7fc60284d8d891f6,邮政储蓄银行
深圳市龙岗区布吉街道中兴路百盛大厦首层,龙岗区,深圳市,1,22.614379,114.13135,中国邮政储蓄银行(深圳百盛支行),广东省,850035ff90589b172906cef7,(0755)28535238,850035ff90589b172906cef7,邮政储蓄银行
广东省深圳市福田区红荔路3013-5号上航大厦4层,福田区,深圳市,1,22.554502,114.089932,中国邮政储蓄银行(华新村支行),广东省,edd64ce10ac035923ee231b8,(0755)83201797,edd64ce10ac035923ee231b8,邮政储蓄银行
深圳市福田区华强南路赛格苑c栋1层,福田区,深圳市,1,22.544518,114.093592,中国邮政储蓄银行(深圳爱华支行),广东省,14c27fec163fa0a08415410f,95580,14c27fec163fa0a08415410f,邮政储蓄银行
南海大道2622号,南山区,深圳市,1,22.519028,113.93385,中国邮政储蓄银行(深圳南山区支行),广东省,35debf29136fc844a6da3977,(0755)26073313,35debf29136fc844a6da3977,邮政储蓄银行
深圳市龙岗区布吉街道信和爱琴居信和购物广场一层,龙岗区,深圳市,1,22.618196,114.142218,中国邮政储蓄银行(信和购物广场店),广东省,4bb049d9d30cd63a980050ab,(0755)28268830,4bb049d9d30cd63a980050ab,邮政储蓄银行
广东省深圳市罗湖区深南东路3040号邮政大厦二楼,罗湖区,深圳市,1,22.549685,114.123265,中国邮政储蓄银行(裕安邮局营业部),广东省,909f2e4951c73302b23c8181,,383322132bea6b0026e0a094,邮政储蓄银行
广东省深圳市宝安区新湖路西城雅筑1层,宝安区,深圳市,1,22.568777,113.884509,中国邮政储蓄银行24小时自助银行服务(深圳宝城支行),广东省,69006dc5f5cc832db6147f57,,69006dc5f5cc832db6147f57,邮政储蓄银行
广东省深圳市龙华区观澜大道464号附近,龙华区,深圳市,1,22.720281,114.061648,中国邮政储蓄银行24小时自助银行(观澜营业所),广东省,7ef7354d8f08d320430245b2,,7ef7354d8f08d320430245b2,邮政储蓄银行
深圳市宝安区宝安大道4016-9,宝安区,深圳市,1,22.591698,113.865413,中国邮政储蓄银行(深圳宝安区银田营业所),广东省,cde9e2c75d1bedb7e81e97e3,(0755)23497199,cde9e2c75d1bedb7e81e97e3,邮政储蓄银行
广东省深圳市龙岗区龙岗街道九州家园3栋商铺111号,龙岗区,深圳市,1,22.733569,114.270632,中国邮政储蓄银行(九州支行),广东省,14cc6523b2ca04b0601c672a,(0755)89611368,14cc6523b2ca04b0601c672a,邮政储蓄银行
广东省深圳市龙华区大浪办事处大浪社区浪琴路1号,龙华区,深圳市,1,22.701691,113.998077,中国邮政储蓄银行(浪荣支行),广东省,9f16be3a21e0e3b751e5c5b8,(0755)28110155,9f16be3a21e0e3b751e5c5b8,邮政储蓄银行
深圳市龙岗区南湾街道沙湾河滨路9号,龙岗区,深圳市,1,22.612888,114.171374,中国邮政储蓄银行(沙湾支行),广东省,bff8fa7d56dfb2ddc9213da4,(0755)28747000,bff8fa7d56dfb2ddc9213da4,邮政储蓄银行
和平东路177号源发大厦1栋1层A区,龙华区,深圳市,1,22.661623,114.034937,中国邮政储蓄银行(东环一路),广东省,6c1017f6d425f61051e5c569,,6c1017f6d425f61051e5c569,邮政储蓄银行
深圳市福田区下沙福荣路金域蓝湾2期裙楼31号,福田区,深圳市,1,22.531013,114.030391,中国邮政储蓄银行(下沙支行),广东省,1bf85b25ff6060a7a0a934b8,(0755)83477267,1bf85b25ff6060a7a0a934b8,邮政储蓄银行
广东省深圳市南山区南头红花路108-3,南山区,深圳市,1,22.544224,113.927501,中国邮政储蓄银行(南头支行),广东省,b703e96bb04ea5fa8f1a8976,"(0755)95580,(0755)26666983",b703e96bb04ea5fa8f1a8976,邮政储蓄银行
广东省深圳市宝安区新湖路西城雅筑1楼麦当劳旁边,宝安区,深圳市,1,22.568774,113.884508,中国邮政储蓄银行(宝城支行),广东省,ccb872c475042f2eeaf8536e,(0755)81777168,ccb872c475042f2eeaf8536e,邮政储蓄银行
深圳市盐田区深盐路1117-7,盐田区,深圳市,1,22.592632,114.278663,中国邮政储蓄银行(盐田支行),广东省,ef773a0f361ea0342202202e,(0755)25203371,ef773a0f361ea0342202202e,邮政储蓄银行
广东省深圳市南山区向南西海花园E栋7-8号商铺,南山区,深圳市,1,22.527657,113.925483,中国邮政储蓄银行(南新支行),广东省,64c708fc68d04ee2c5effbd9,(0755)95580,bf29b702b895889909b93a77,邮政储蓄银行
广东省深圳市坪山区人民西路158号,坪山区,深圳市,1,22.753323,114.389844,中国邮政储蓄银行(坑梓支行),广东省,011876b9cf4bc580d72ce2f0,(0755)84133359,04bf9014b1e1049d2b11d191,邮政储蓄银行
深圳市龙岗区军田路69号,龙岗区,深圳市,1,22.699756,114.24185,中国邮政储蓄银行(爱联支行),广东省,5bed040d374a199ec26c14b5,(0755)28998901,5bed040d374a199ec26c14b5,邮政储蓄银行
广东省深圳市龙岗区兴旺路7号,龙岗区,深圳市,1,22.659512,114.205402,中国邮政储蓄银行(横岗支行),广东省,a3e8341cc6e939e84bfd3fa4,(0755)28690030,a3e8341cc6e939e84bfd3fa4,邮政储蓄银行
龙岗区布吉街道水径社区吉华路252号下水径商业广场一楼109-112号,龙岗区,深圳市,1,22.621681,114.117973,中国邮政储蓄银行(吉华支行),广东省,4b36352e2002ce559f95de7e,(0755)84669765,4b36352e2002ce559f95de7e,邮政储蓄银行
广东省深圳市罗湖区莲塘路134号,罗湖区,深圳市,1,22.567148,114.178782,中国邮政储蓄银行(莲塘支行),广东省,c51be5272ca25fe34302458d,(0755)25737931,c51be5272ca25fe34302458d,邮政储蓄银行
深圳市罗湖区太白路2008号布心工业区一楼,罗湖区,深圳市,1,22.583426,114.143777,中国邮政储蓄银行(太白支行),广东省,dffd46423bd72eb33c9a5e06,(0755)25813115,dffd46423bd72eb33c9a5e06,邮政储蓄银行
福田区梅华路154号梅林邮电综合大楼一楼,福田区,深圳市,1,22.570693,114.054612,中国邮政储蓄银行(梅林支行),广东省,3f826ed30f948646d1f49e37,(0755)83312092,3f826ed30f948646d1f49e37,邮政储蓄银行
广东省深圳市南山区南海大道2622,南山区,深圳市,1,22.519408,113.93388,中国邮政储蓄银行贷款中心,广东省,b07786e0e51e2dccede4a518,,fe1fdccfe1d8f554d418b7bc,邮政储蓄银行
广东省深圳市南山区工业九路29-2,南山区,深圳市,1,22.507327,113.9334,中国邮政储蓄银行(四海支行),广东省,5d94d0c549a1aa68bb17e733,(0755)26678021,5d94d0c549a1aa68bb17e733,邮政储蓄银行
广东省深圳市南山区前海深港合作区万科前海企业公馆前海企业公馆-7栋b邮储银行,南山区,深圳市,1,22.52344,113.908268,中国邮政储蓄银行(前海分行),广东省,,,0938fbbc1d434ecdeb1e97e4,邮政储蓄银行
广东省深圳市宝安区新和大道48号安达通大厦1层,宝安区,深圳市,1,22.758457,113.828875,中国邮政储蓄银行(新和支行),广东省,,(0755)27222299,0c542d01bc7a07ed71210b43,邮政储蓄银行
广东省深圳市宝安区沙井街道新沙路571号,宝安区,深圳市,1,22.738109,113.818874,中国邮政储蓄银行(沙井支行),广东省,9ee392b8778f733cbbbd6342,(0755)27202888,9ee392b8778f733cbbbd6342,邮政储蓄银行
深圳市宝安区西乡街道龙吟二路21-23号,宝安区,深圳市,1,22.582928,113.886336,中国邮政储蓄银行(西乡支行),广东省,7b0f4f9e5927daa8e6e96507,(0755)29635800,7b0f4f9e5927daa8e6e96507,邮政储蓄银行
深圳市罗湖区宝岗路150号田泰楼首层,罗湖区,深圳市,1,22.572666,114.119471,中国邮政储蓄银行(田心支行),广东省,286b5ec131e667efc4f02520,(0755)82430651,286b5ec131e667efc4f02520,邮政储蓄银行
龙华区民治街道民旺路88号,龙华区,深圳市,1,22.627268,114.041856,中国邮政储蓄银行(民治支行),广东省,44207646801dac6bdeee8be8,(0755)28199830,44207646801dac6bdeee8be8,邮政储蓄银行
广东省深圳市南山区工业七路121-125号,南山区,深圳市,1,22.500654,113.928898,中国邮政储蓄银行(蛇口支行),广东省,db1f39d44b58066cf5c59cc4,(0755)26693330,db1f39d44b58066cf5c59cc4,邮政储蓄银行
广东省深圳市宝安区沙井街道中心路又一城时尚广场一层(万佳百货旁),宝安区,深圳市,1,22.734614,113.833232,中国邮政储蓄银行(新沙支行),广东省,74c5dfd64b33afa429fc48aa,(0755)29863557,74c5dfd64b33afa429fc48aa,邮政储蓄银行
鹏达路164号,龙岗区,深圳市,1,22.719802,114.264394,中国邮政储蓄银行(建新营业所),广东省,5615542a40ed252f40afe637,(0755)84819339,5615542a40ed252f40afe637,邮政储蓄银行
宝龙二路5-7,龙岗区,深圳市,1,22.694446,114.296687,中国邮政储蓄银行(深圳宝龙支行),广东省,c2b97c226c17d2c3bda2401d,(0755)84402333,c2b97c226c17d2c3bda2401d,邮政储蓄银行
龙岗区大鹏新区大鹏街道迎宾北路76号,龙岗区,深圳市,1,22.601717,114.480654,中国邮政储蓄银行(大鹏营业所),广东省,1e990b10e74ad5df42024538,(0755)84305023,e07c667a300d1f8a02294f85,邮政储蓄银行
深圳市龙岗区龙城街道爱华路92号,龙岗区,深圳市,1,22.704411,114.235886,中国邮政储蓄银行(龙岗区支行),广东省,e96b4420e947552783288a9e,(0755)89557722,e96b4420e947552783288a9e,邮政储蓄银行
平龙路75号顺平大厦1层,龙岗区,深圳市,1,22.701071,114.120278,中国邮政储蓄银行(辅城坳支行),广东省,c1653405f5101d04ab175a14,(0755)84671204,c1653405f5101d04ab175a14,邮政储蓄银行
田湾路82号,光明区,深圳市,1,22.732725,113.911063,中国邮政储蓄银行(深圳田寮支行),广东省,93defe73b2e29207eb56fa22,(0755)27199890,93defe73b2e29207eb56fa22,邮政储蓄银行
罗湖区金稻田路1068-5号,罗湖区,深圳市,1,22.590278,114.139656,中国邮政储蓄银行(深圳布心支行),广东省,b703e96bb0aca5fa8f1a8914,(0755)25486846,b703e96bb0aca5fa8f1a8914,邮政储蓄银行
罗湖区草埔金稻田路2030号,罗湖区,深圳市,1,22.590726,114.125711,中国邮政储蓄银行(深圳草埔支行),广东省,64ff3be1a4d592c691114cab,(0755)25677582,64ff3be1a4d592c691114cab,邮政储蓄银行
深圳市罗湖区爱国路3033号,罗湖区,深圳市,1,22.57117,114.14756,中国邮政储蓄银行(深圳东湖支行),广东省,98823bf9c276a41b8c55ec40,(0755)25419163,98823bf9c276a41b8c55ec40,邮政储蓄银行
广东省深圳市罗湖区深南东路3002号电信大厦一楼,罗湖区,深圳市,1,22.550238,114.127907,中国邮政储蓄银行(深圳电信支行),广东省,d305db1f3354ec3e932ca361,(0755)82251706,d305db1f3354ec3e932ca361,邮政储蓄银行
罗湖区布吉农批市场F座247-248号,罗湖区,深圳市,1,22.586813,114.123916,中国邮政储蓄银行(布吉农批支行),广东省,f09119b88a9b78bf1ce999f6,(0755)25770369,f09119b88a9b78bf1ce999f6,邮政储蓄银行
广东省深圳市福田区红荔路1096号,福田区,深圳市,1,22.555496,114.104691,中国邮政储蓄银行(深圳红荔支行),广东省,6ed3083a5354ffb72b3a9f37,(0755)22207942,6ed3083a5354ffb72b3a9f37,邮政储蓄银行
福田区福华路196号,福田区,深圳市,1,22.542862,114.085628,中国邮政储蓄银行(深圳福华支行),广东省,2c0bd6c5da3f32aa43ab9a37,(0755)83980971,2c0bd6c5da3f32aa43ab9a37,邮政储蓄银行
深圳市南山区同沙路25-4,南山区,深圳市,1,22.589682,113.956608,中国邮政储蓄银行(留仙居支行),广东省,fd007c5eb6094d6fa9f7299f,(0755)26587802,fd007c5eb6094d6fa9f7299f,邮政储蓄银行
福田区皇岗福民路与益田路交汇路高发城驰苑1楼,福田区,深圳市,1,22.528447,114.064229,中国邮政储蓄银行(深圳福民支行),广东省,351b698ac67bfb601ee9994c,(0755)95580,351b698ac67bfb601ee9994c,邮政储蓄银行
广东省深圳市福田区车公庙泰然六路206栋一楼,福田区,深圳市,1,22.53879,114.034544,中国邮政储蓄银行(福田区支行),广东省,923ffd00837b21b4d82f28b8,(0755)83402656,923ffd00837b21b4d82f28b8,邮政储蓄银行
广东省深圳市宝安区新安二路88号,宝安区,深圳市,1,22.566879,113.918177,中国邮政储蓄银行(深圳新安支行),广东省,6c9845503fcd0f199d82ea1b,(0755)27783162,6c9845503fcd0f199d82ea1b,邮政储蓄银行
广东省深圳市宝安区燕罗公路168号,宝安区,深圳市,1,22.801625,113.874959,中国邮政储蓄银行(燕川营业所),广东省,,(0755)27146655,43b7e889e91a2d1758f6be42,邮政储蓄银行
深圳市宝安区松岗街道胜利路1号,宝安区,深圳市,1,22.768271,113.855792,中国邮政储蓄银行(深圳松岗支行),广东省,c7cf358b0a52dceaf70e775d,(0755)27553183,c7cf358b0a52dceaf70e775d,邮政储蓄银行
广东省深圳市宝安区福永街道桥头社区永福路77号,宝安区,深圳市,1,22.683251,113.808085,中国邮政储蓄银行(永福路支行),广东省,748ed802ce1540c2fbdc854b,(0755)27328713,748ed802ce1540c2fbdc854b,邮政储蓄银行
广东省深圳市宝安区西乡街道前进二路旁凤凰岗第二工业区,宝安区,深圳市,1,22.599209,113.886257,中国邮政储蓄银行(前进营业所),广东省,49a02a7a8f96c53d2b201a61,(0755)29901119,49a02a7a8f96c53d2b201a61,邮政储蓄银行
宝民一路215号宝通大厦1层,宝安区,深圳市,1,22.573102,113.90255,中国邮政储蓄银行(裕安营业所),广东省,850815e113b0f69b43e192f6,(0755)27802203,850815e113b0f69b43e192f6,邮政储蓄银行
富民工业区芳坑路100号,龙岗区,深圳市,1,22.688996,114.148487,中国邮政储蓄银行(富民营业所),广东省,764672e541e8a5d094ec845d,(0755)28457003,764672e541e8a5d094ec845d,邮政储蓄银行
广东省深圳市龙华区观澜街道新田社区观平路77号宝地利商场斜对面,龙华区,深圳市,1,22.706864,114.095269,中国邮政储蓄银行(深圳新田支行),广东省,f46f26a5d0c65f9779f796a1,(0755)29195351,f46f26a5d0c65f9779f796a1,邮政储蓄银行
广东省深圳市龙华区华旺路172号,龙华区,深圳市,1,22.683425,114.007696,中国邮政储蓄银行(大浪营业所),广东省,0dc3d82d7887a16c74e5b691,(0755)81706283,0dc3d82d7887a16c74e5b691,邮政储蓄银行
广东省深圳市宝安区石岩街道水田社区宝石东路85号1楼东面,宝安区,深圳市,1,22.689221,113.969129,中国邮政储蓄银行(水田营业所),广东省,8cba4bb02ca5f5f9ad045763,(0755)95580,8cba4bb02ca5f5f9ad045763,邮政储蓄银行
深圳市龙岗区横岗街道大康山子吓路313号,龙岗区,深圳市,1,22.650278,114.23834,中国邮政储蓄银行(深圳大康支行),广东省,,"(0755)28691112,(0755)84263680",0ed20a15212a729757bfffde,邮政储蓄银行
广东省深圳市福田区华富路市话大厦附楼,福田区,深圳市,1,22.556949,114.08836,中国邮政储蓄银行(深圳华富支行),广东省,0ce65c2dc63bd05a2c4733b8,(0755)83252162,0ce65c2dc63bd05a2c4733b8,邮政储蓄银行
广东省深圳市龙岗区坂田街道新安路4号,龙岗区,深圳市,1,22.627222,114.070304,中国邮政储蓄银行(深圳五和支行),广东省,89b3bfd15640cd9a95ca07c6,(0755)28706666,89b3bfd15640cd9a95ca07c6,邮政储蓄银行
福田区笋岗西路莲花一村美莲大厦二楼,福田区,深圳市,1,22.560329,114.07654,中国邮政储蓄银行(深圳彩田支行),广东省,d6c5d991e3b86de830169b37,(0755)83257697,d6c5d991e3b86de830169b37,邮政储蓄银行
广东省深圳市福田区红荔路7034号,福田区,深圳市,1,22.552187,114.047785,中国邮政储蓄银行(深圳香蜜支行),广东省,ca374faac2ff2d0095ec84a7,(0755)83916113,ca374faac2ff2d0095ec84a7,邮政储蓄银行
广东省福田区深南大道1014号岗厦邮政大厦1栋,福田区,深圳市,1,22.547213,114.076315,中国邮政储蓄银行(深圳岗厦支行),广东省,083a55fa29a50579246e9837,(0755)83236546,083a55fa29a50579246e9837,邮政储蓄银行
深圳市南山区登良路龙佳园一栋一层103号,南山区,深圳市,1,22.518663,113.929331,中国邮政储蓄银行(深圳登良支行),广东省,5b25f446a9758fea10293577,(0755)86320091,5b25f446a9758fea10293577,邮政储蓄银行
广东省深圳市宝安区沙井街道107国道82号,宝安区,深圳市,1,22.72067,113.844582,中国邮政储蓄银行(深圳新桥支行),广东省,dffd631cc957fabc39221ce0,(0755)27298321,dffd631cc957fabc39221ce0,邮政储蓄银行
深圳市宝安区福永凤塘大道华丰科技园2号1楼,宝安区,深圳市,1,22.706666,113.799095,中国邮政储蓄银行(深圳凤塘支行),广东省,3d1401e1fdb695b3c9e33ca7,(0755)81451764,3d1401e1fdb695b3c9e33ca7,邮政储蓄银行
深圳市宝安区西乡街道洲石公路九围段乌石脚综合楼1楼,宝安区,深圳市,1,22.659152,113.870185,中国邮政储蓄银行(九围营业所),广东省,34e48508721e80e1d8d891e3,(0755)29914618,34e48508721e80e1d8d891e3,邮政储蓄银行
深圳市宝安区村内工业区30号,宝安区,深圳市,1,22.634259,113.853305,中国邮政储蓄银行(深圳黄田支行),广东省,0ccf6538bacd76d6c91b9521,(0755)29982010,0ccf6538bacd76d6c91b9521,邮政储蓄银行
广东省深圳市龙岗区龙岗街道龙平东路116号,龙岗区,深圳市,1,22.736388,114.283454,中国邮政储蓄银行(深圳龙岗支行),广东省,f4b3da1626d39923b020a86e,(0755)28832229,f4b3da1626d39923b020a86e,邮政储蓄银行
深圳市龙岗区双拥街91号,龙岗区,深圳市,1,22.705584,114.139716,中国邮政储蓄银行(平湖营业所),广东省,,(0755)28450574,c258fddaac78450f26e0a08c,邮政储蓄银行
观澜镇新澜大街104号观澜街道,龙华区,深圳市,1,22.723704,114.061644,中国邮政储蓄银行(观澜营业所),广东省,79ea275d9c9e84aa00ec01a9,(0755)29931618,79ea275d9c9e84aa00ec01a9,邮政储蓄银行
深圳市光明区公明街道长圳社区兴业兴发工业区2栋一楼,光明区,深圳市,1,22.723274,113.91705,中国邮政储蓄银行(长圳营业所),广东省,,(0755)27180833,750ec16577004b2b4d3a599f,邮政储蓄银行
深圳市福田区深南中路统建楼三栋二楼,福田区,深圳市,1,22.546552,114.098915,中国邮政储蓄银行(深南中支行),广东省,70326e57ba624ce5b11e3671,(0755)83639326,70326e57ba624ce5b11e3671,邮政储蓄银行
广东省深圳市龙华区龙环三路274,龙华区,深圳市,1,22.673842,114.037311,中国邮政储蓄银行(清湖营业所),广东省,08fc93df2dd30c919a68b491,(0755)29525138,08fc93df2dd30c919a68b491,邮政储蓄银行
广东省深圳市福田区上沙村仁和楼一楼,福田区,深圳市,1,22.528839,114.037711,中国邮政储蓄银行(深圳上沙支行),广东省,f446091855708469b01e36b8,(0755)82551313,f446091855708469b01e36b8,邮政储蓄银行
福田区竹子林益华街5号邮电综合大楼一楼,福田区,深圳市,1,22.542214,114.019138,中国邮政储蓄银行(竹子林支行),广东省,341c35deb00fdebde70738b8,(0755)83700537,341c35deb00fdebde70738b8,邮政储蓄银行
广东省深圳市南山区西丽南路59号,南山区,深圳市,1,22.580976,113.959517,中国邮政储蓄银行(深圳西丽支行),广东省,aa0f4ded4dce8828d2f49ecf,(0755)86113873,aa0f4ded4dce8828d2f49ecf,邮政储蓄银行
广东省深圳市南山区学府路201阳光棕榈园2期26栋裙楼1层,南山区,深圳市,1,22.533839,113.920055,中国邮政储蓄银行(阳光棕榈支行),广东省,bff8fa7d0b85e7a0c8213d77,(0755)26446053,bff8fa7d0b85e7a0c8213d77,邮政储蓄银行
广东省深圳市宝安区松岗街道红星社区松明大道105号一层,宝安区,深圳市,1,22.77201,113.84816,中国邮政储蓄银行(深圳红星支行),广东省,bfc4fba529bf4587be4842e8,(0755)27092668,bfc4fba529bf4587be4842e8,邮政储蓄银行
广东省深圳市宝安区松岗街道塘下涌二村广田路143号,宝安区,深圳市,1,22.806947,113.849223,中国邮政储蓄银行(塘下涌营业所),广东省,,(0755)29901088,d24e48eb8ad1cdc9afee7a16,邮政储蓄银行
深圳市宝安区沙井街道金荣诚大厦一楼,宝安区,深圳市,1,22.724,113.791362,中国邮政储蓄银行(锦绣营业所),广东省,c5ddcc08cda0fec6d91318e0,(0755)27561239,c5ddcc08cda0fec6d91318e0,邮政储蓄银行
宝安区福永街道福永大道120号,宝安区,深圳市,1,22.675537,113.827859,中国邮政储蓄银行(深圳福永支行),广东省,631c4157a900116130f71de0,(0755)27394488,631c4157a900116130f71de0,邮政储蓄银行
广东省深圳市宝安区西乡街道固戍一路固戍华庭1层B1-3号,宝安区,深圳市,1,22.607907,113.869193,中国邮政储蓄银行(深圳固戍支行),广东省,7a132755e4b3623401294f5a,(0755)27495003,8d4a821919db10fa3be4a6b1,邮政储蓄银行
宝安区深圳名优工业产品展示采购中心B座一楼,宝安区,深圳市,1,22.57389,113.872436,中国邮政储蓄银行(深圳宝源支行),广东省,868cb62364684e09b54f5468,(0755)23008332,868cb62364684e09b54f5468,邮政储蓄银行
广东省深圳市宝安区新安街道新安四路旭仕达名苑1栋101A号101B号114号115号,宝安区,深圳市,1,22.584941,113.898691,中国邮政储蓄银行(深圳新城支行),广东省,4399e56710818b99fd0eb082,(0755)29611500,4399e56710818b99fd0eb082,邮政储蓄银行
广东省深圳市宝安区西乡大道323号银星商务酒店一楼,宝安区,深圳市,1,22.5851,113.87669,中国邮政储蓄银行(宝安区支行),广东省,69fcd6dfbdcd1851cb291593,"(0755)29761198,(0755)29761138",69fcd6dfbdcd1851cb291593,邮政储蓄银行
广东省深圳市南山区蛇口石云路11号,南山区,深圳市,1,22.493623,113.933123,中国邮政储蓄银行(深圳海滨支行),广东省,8ef55e569685a85025d2bbfa,(0755)26685296,8ef55e569685a85025d2bbfa,邮政储蓄银行
广东省深圳市罗湖区田贝四路37号,罗湖区,深圳市,1,22.572888,114.134611,中国邮政储蓄银行(深圳田贝支行),广东省,c21db9e5d280fb8001ff2daa,(0755)25600647,c21db9e5d280fb8001ff2daa,邮政储蓄银行
深圳市龙岗区龙岗大道3018号,龙岗区,深圳市,1,22.771983,114.312718,中国邮政储蓄银行(深圳坪地营业所),广东省,07f3c8b5aca8c81e6240a955,(0755)84090998,07f3c8b5aca8c81e6240a955,邮政储蓄银行
深圳市坪山区坪山办事处和平社区深汕路262号,坪山区,深圳市,1,22.705146,114.354834,中国邮政储蓄银行(深圳坪山新区支行),广东省,1522c081575e77a6c51e51ee,(0755)28335933,1522c081575e77a6c51e51ee,邮政储蓄银行
龙岗区塘边路1号,龙岗区,深圳市,1,22.655021,114.15842,中国邮政储蓄银行(深圳白泥坑支行),广东省,3117512bb93f0e5317b54b85,(0755)84661044,3117512bb93f0e5317b54b85,邮政储蓄银行
广东省深圳市宝安区塘头大道宏发商业大厦1层2层39-12,宝安区,深圳市,1,22.669537,113.922606,中国邮政储蓄银行(深圳龙马营业所),广东省,67e7c5f3947b04a96168582b,"(0755)27628520,95580",4a2f0652bcaefe01c7f02527,邮政储蓄银行
深圳市坪山新区建设路12号一层,坪山区,深圳市,1,22.695906,114.354719,中国邮政储蓄银行(深圳建设营业所),广东省,23116913ebf572fd734b87ce,(0755)84282311,23116913ebf572fd734b87ce,邮政储蓄银行
吉华路上雪科技城一巷四号,龙岗区,深圳市,1,22.643635,114.097181,中国邮政储蓄银行(深圳雪象营业所),广东省,34640eeeebf6f2edfa0cadd1,(0755)89601198,34640eeeebf6f2edfa0cadd1,邮政储蓄银行
广东省深圳市福田区华强北路1058号广博现代之窗大厦2层,福田区,深圳市,1,22.550192,114.094019,中国邮政储蓄银行(华强北邮局营业部),广东省,b55fddc5f313f38b3913fd80,(0755)83280081,b55fddc5f313f38b3913fd80,邮政储蓄银行
深圳市龙岗区龙城大道110号,龙岗区,深圳市,1,22.729409,114.259575,中国邮政储蓄银行(万象天成营业所),广东省,b49d8a284add3db72bd7ab4f,(0755)84852236,b49d8a284add3db72bd7ab4f,邮政储蓄银行
深圳市福田区八卦一路口邮电综合大楼一楼,福田区,深圳市,1,22.562767,114.105975,中国邮政储蓄银行(八卦岭邮政储蓄所),广东省,d991e116bffa1e551f389437,(0755)82131525,d991e116bffa1e551f389437,邮政储蓄银行
广东省深圳市龙岗区金业大道葵涌乐兴百货公交站,龙岗区,深圳市,1,22.64085,114.434567,中国邮政储蓄银行24小时自助银行(中新小区西北),广东省,3c9f630f5f511daaeb56fa43,,3c9f630f5f511daaeb56fa43,邮政储蓄银行
深圳市龙岗区葵涌街道葵坪北路51号,龙岗区,深圳市,1,22.636276,114.425337,中国邮政储蓄银行(深圳龙岗区葵冲营业所),广东省,4ce10ce6c7e711a1441a32da,(0755)84207209,4ce10ce6c7e711a1441a32da,邮政储蓄银行
深圳市龙岗区平湖街道华南国际纺织服装原辅料物流区二期01层A区,龙岗区,深圳市,1,22.686538,114.136871,中国邮政储蓄银行(深圳龙岗区华南城支行),广东省,21eb5bc8f6984d83715e80a9,(0755)28431395,21eb5bc8f6984d83715e80a9,邮政储蓄银行
深圳市宝安区松瑞路1号,宝安区,深圳市,1,22.761571,113.84481,中国邮政储蓄银行(深圳宝安区松裕营业所),广东省,0bceb1f7a43d2781fa0cad1b,(0755)81734266,0bceb1f7a43d2781fa0cad1b,邮政储蓄银行
广东省深圳市宝安区沙井街道西环路田园之家商住楼1楼16-17号,宝安区,深圳市,1,22.744659,113.80855,中国邮政储蓄银行(深圳宝安区田园营业所),广东省,dc0f0adc9ae31921f92213e3,(0755)27532211,dc0f0adc9ae31921f92213e3,邮政储蓄银行
广东省深圳市宝安区勋业街2-4号102A,宝安区,深圳市,1,22.778233,113.84764,中国邮政储蓄银行(深圳分行溪头营业所),广东省,d4034eb3853a3ef6c136449b,(0755)27718211,d4034eb3853a3ef6c136449b,邮政储蓄银行
广东省深圳市罗湖区田贝四路37号中国邮政储蓄银行,罗湖区,深圳市,1,22.572926,114.134805,中国邮政储蓄银行信贷中心,广东省,27811ec3e7954be45cd4fe68,,27811ec3e7954be45cd4fe68,邮政储蓄银行
中翠路123号附近,龙岗区,深圳市,1,22.619215,114.146705,中国邮政储蓄银行24小时自助银行,广东省,e865bf26450797728c55ecec,,e865bf26450797728c55ecec,邮政储蓄银行
深圳市龙岗区教育中路24,龙岗区,深圳市,1,22.77475,114.308574,中国邮政储蓄银行24小时自助银行(融富花园南),广东省,43b7e889d303071758f6be55,,43b7e889d303071758f6be55,邮政储蓄银行
深圳市龙岗区深惠路316号信和购物广场1F层,龙岗区,深圳市,1,22.618048,114.142194,中国邮政储蓄银行信贷部(信和购物广场),广东省,429f414d7e08484f970319c7,,429f414d7e08484f970319c7,邮政储蓄银行
广东省深圳市宝安区沙井新和大道嘉华百货(新桥社区西区东),宝安区,深圳市,1,22.746449,113.846407,中国邮政储蓄银行24小时自助银行(龙熙大厦北),广东省,5f7fcc1c660d74ecae31e55a,,5f7fcc1c660d74ecae31e55a,邮政储蓄银行
田心村166-5号,罗湖区,深圳市,1,22.575903,114.120736,中国邮政储蓄银行24小时自助银行服务(西货场路),广东省,9a9b77941edc4eab43afe646,,9a9b77941edc4eab43afe646,邮政储蓄银行
广东省深圳市南山区龙井路32,南山区,深圳市,1,22.566242,113.981123,中国邮政储蓄银行24小时自助银行服务(龙井大厦北),广东省,00f1c7fb1dd3271fc056ac77,,00f1c7fb1dd3271fc056ac77,邮政储蓄银行
大和路104号,龙华区,深圳市,1,22.697193,114.056738,中国邮政储蓄银行24小时自助银行服务,广东省,6b794a5a0eee3d11cc04efc8,,6b794a5a0eee3d11cc04efc8,邮政储蓄银行
简竹路6号,龙岗区,深圳市,1,22.632979,114.174156,中国邮政储蓄银行24小时自助银行,广东省,,,cf75d18eefdc2a9245e27453,邮政储蓄银行
长发西路18-1号,龙岗区,深圳市,1,22.636467,114.064937,中国邮政储蓄银行24小时自助银行,广东省,78bd50f7f81c832531870a41,,78bd50f7f81c832531870a41,邮政储蓄银行
广东省深圳市龙岗区横岗龙兴路西(近顺安利百货),龙岗区,深圳市,1,22.64211,114.236185,中国邮政储蓄银行24小时自助银行服务(暂停营业),广东省,4e45b59eb4ada1d24f6d4682,,4e45b59eb4ada1d24f6d4682,邮政储蓄银行
福龙路与S31龙大高速出口交叉口东北150米,龙华区,深圳市,1,22.686348,113.984622,中国邮政储蓄银行24小时自助银行(罗泰路),广东省,,,d6b0bd76f408926b7c29bd91,邮政储蓄银行
深圳市福田区农轩路95号,福田区,深圳市,1,22.549166,114.025205,中国邮政储蓄银行24小时自助银行(农轩路),广东省,e3a7fd13bca8032c28b97c41,,e3a7fd13bca8032c28b97c41,邮政储蓄银行
广东省深圳市龙岗区横岗怡和苑(坳二路西),龙岗区,深圳市,1,22.674997,114.221685,中国邮政储蓄银行24小时自助银行(坳背路),广东省,34059f97f302855471455bd9,,34059f97f302855471455bd9,邮政储蓄银行
深圳市宝安区朗西路与长堤路交叉口西侧,宝安区,深圳市,1,22.799104,113.864093,中国邮政储蓄银行24小时自助银行(长堤路),广东省,,,cc788fdeef4a47f788fc0615,邮政储蓄银行
广东省深圳市南山区鲤鱼门街,南山区,深圳市,1,22.523796,113.908302,中国银行,广东省,,,1c286ec14838e2f6b1077dab,邮政储蓄银行
鹤鸣东路87附近,龙岗区,深圳市,1,22.790192,114.342181,中国邮政储蓄银行24小时自助银行(鹤鸣东路),广东省,,,b198da76d356aeded618b7bc,邮政储蓄银行
湖田路与燕宝街交叉口西100米,龙岗区,深圳市,1,22.771958,114.312669,中国邮政储蓄银行24小时自助银行,广东省,,,b939f81b9442536f5a3ac8cb,邮政储蓄银行
广东省深圳市龙岗区鹏达路164-2附近,龙岗区,深圳市,1,22.719834,114.264502,中国邮政储蓄银行24小时自助i银行,广东省,,,abdd93808f291c6317b54b27,邮政储蓄银行
深圳市龙岗区坪葵路53,龙岗区,深圳市,1,22.636205,114.425437,中国邮政储蓄银行24小时自助银行服务(葵冲营业所),广东省,54e7927711b28e5eda2f28cf,,54e7927711b28e5eda2f28cf,邮政储蓄银行
广东省深圳市龙岗区土洋中路33,龙岗区,深圳市,1,22.619637,114.412567,中国邮政储蓄银行24小时自助银行(土洋中路),广东省,bd5046e818dff03fd62ce299,,bd5046e818dff03fd62ce299,邮政储蓄银行
深圳市宝安区石岩街道水田社区宝石东路85号1楼东面,宝安区,深圳市,1,22.68925,113.969214,中国邮政储蓄银行24小时自助银行(水田营业所),广东省,d82d669730ba24dbd518b776,,d82d669730ba24dbd518b776,邮政储蓄银行
广东省深圳市罗湖区新平村办公楼(大望槟榔公园东),罗湖区,深圳市,1,22.602758,114.180809,中国邮政储蓄银行24小时自助银行,广东省,0045250ab8c8b48facb22ae0,,0045250ab8c8b48facb22ae0,邮政储蓄银行
广东省深圳市龙岗区河滨路9-2,龙岗区,深圳市,1,22.612888,114.171374,中国邮政储蓄银行24小时自助银行服务(沙湾支行),广东省,d6c5d991ae2e389531169ba4,,d6c5d991ae2e389531169ba4,邮政储蓄银行
广东省深圳市龙岗区金洲路231,龙岗区,深圳市,1,22.594955,114.140517,中国邮政储蓄银行24小时自助银行,广东省,f5e026efac5797eda4c75626,,f5e026efac5797eda4c75626,邮政储蓄银行
深圳市罗湖区莲塘路116号,罗湖区,深圳市,1,22.56714,114.178846,中国邮政储蓄银行24小时自助银行(莲塘支行),广东省,060f5e53ca17f9a9091cc792,,060f5e53ca17f9a9091cc792,邮政储蓄银行
广东省深圳市福田区红荔路1096号,福田区,深圳市,1,22.555326,114.104446,中国邮政储蓄银行24小时自助银行服务(红荔支行),广东省,9f97b1c5a0c39278b74f54b3,,9f97b1c5a0c39278b74f54b3,邮政储蓄银行
深圳市福田区竹子林益华街5号邮电综合大楼一楼,福田区,深圳市,1,22.542209,114.019201,中国邮政储蓄银行24小时自助银行服务(建业三街),广东省,3c0ea7c591cd96e1faf0cbb2,,3c0ea7c591cd96e1faf0cbb2,邮政储蓄银行
科园路3号附近,南山区,深圳市,1,22.528683,113.945286,中国邮政储蓄银行24小时自助银行,广东省,94835fa25afb7ea2882fb595,,94835fa25afb7ea2882fb595,邮政储蓄银行
南海大道2612-2614、2622粤海大厦主楼第1层S8-S9,南山区,深圳市,1,22.51937,113.933777,中国邮政储蓄银行24小时自助银行(南山区支行),广东省,669775d0e23aae26fc0eb0bc,,669775d0e23aae26fc0eb0bc,邮政储蓄银行
松瑞路1号好润发商场,宝安区,深圳市,1,22.761251,113.845023,中国邮政储蓄银行24小时自助银行,广东省,530bc5381b1e4cf7d7851f03,,530bc5381b1e4cf7d7851f03,邮政储蓄银行
深圳市宝安区海秀路18-25,宝安区,深圳市,1,22.556273,113.89517,中国邮政储蓄银行24小时自助银行服务(兴华一路),广东省,0fdf9f17d8e001b9c2364414,,0fdf9f17d8e001b9c2364414,邮政储蓄银行
人民路与宝梓北路交叉口东100米,坪山区,深圳市,1,22.753431,114.390689,中国邮政储蓄银行24小时自助银行,广东省,,,49079c4571aaf7796f3e1b7e,邮政储蓄银行
源盛路141号,龙岗区,深圳市,1,22.728486,114.297513,中国邮政储蓄银行24小时自助银行(源盛支行),广东省,710d66303e6b4bf3deee8b08,,710d66303e6b4bf3deee8b08,邮政储蓄银行
广东省深圳市龙岗区平龙东路188附近,龙岗区,深圳市,1,22.71311,114.142714,中国邮政储蓄银行24小时自助银行,广东省,feee7d21f83d6c2dc8213d24,,feee7d21f83d6c2dc8213d24,邮政储蓄银行
坂雪岗大道2038-2号,龙岗区,深圳市,1,22.638608,114.076156,中国邮政储蓄银行24小时自助银行服务(坂雪岗大道),广东省,9a974478429d618d882fb590,,9a974478429d618d882fb590,邮政储蓄银行
广东省深圳市龙华区龙环三路274,龙华区,深圳市,1,22.673762,114.037361,中国邮政储蓄银行24小时自助银行(清湖营业所),广东省,6fe61bd91db16d18f9dc85e1,,9de99883ce56879bd8ecedef,邮政储蓄银行
王京坑路附近,南山区,深圳市,1,22.637082,113.977166,中国邮政储蓄银行24小时自助银行,广东省,,,cbfe5284e21720a593114c5d,邮政储蓄银行
深圳市福田区福田村福新坊5-5号,福田区,深圳市,1,22.540508,114.081207,中国邮政储蓄银行24小时自助银行,广东省,666e19979f8259bf9e82ea2c,,666e19979f8259bf9e82ea2c,邮政储蓄银行
广东省深圳市龙岗区五和大道南51-20附近,龙岗区,深圳市,1,22.624721,114.066838,中国邮政储蓄银行24小时自助银行,广东省,6a1ef60719b47c003586f4ed,,6a1ef60719b47c003586f4ed,邮政储蓄银行
广东省深圳市宝安区福永大道龙洲百货南,宝安区,深圳市,1,22.679149,113.83283,中国邮政储蓄银行24小时自助银行,广东省,7da7838067683c6bc356ac32,,7da7838067683c6bc356ac32,邮政储蓄银行
建安二路23号,宝安区,深圳市,1,22.585144,113.894549,中国邮政储蓄银行24小时自助银行,广东省,f2ef45e36cd468f56fa3cc20,,f2ef45e36cd468f56fa3cc20,邮政储蓄银行
深圳市坪山区坪山街道建设路12号,坪山区,深圳市,1,22.695929,114.35482,街电(中国邮政储蓄银行深圳建设营业所),广东省,,,135a1e0d122950e06140a93a,邮政储蓄银行
广东省深圳市龙岗区平南路116号附近,龙岗区,深圳市,1,22.734689,114.277258,中国邮政储蓄银行24小时自助银行服务,广东省,1f5ac5de8c2562e99ee321d3,,1f5ac5de8c2562e99ee321d3,邮政储蓄银行
广东省深圳市盐田区小梅沙假日酒店(海琴路),盐田区,深圳市,1,22.607746,114.331731,中国邮政储蓄银行24小时自助银行(小梅沙新居南),广东省,147c89aa82690a1021022056,,147c89aa82690a1021022056,邮政储蓄银行
广东省深圳市龙华区田背西村一巷1,龙华区,深圳市,1,22.699055,114.045467,中国邮政储蓄银行24小时自助银行(田背西村一巷),广东省,,,c286ff1815e8edd5d13ce30d,邮政储蓄银行
春风路2052号附近,罗湖区,深圳市,1,22.546653,114.132182,中国邮政储蓄银行24小时自助银行(深南东路),广东省,e28e45ad272a4933b42655f9,,e28e45ad272a4933b42655f9,邮政储蓄银行
西丽路47号邮电大楼一楼,南山区,深圳市,1,22.581056,113.959597,中国邮政储蓄银行24小时自助银行服务(深圳西丽支行),广东省,40dbe3e38203628149cc4aa6,,40dbe3e38203628149cc4aa6,邮政储蓄银行
广东省深圳市宝安区沙井新区中国邮政储蓄银行(广深公路东),宝安区,深圳市,1,22.720807,113.844651,中国邮政储蓄银行24小时自助银行(深圳新桥支行),广东省,894756c2f61392bfeb1e973f,,894756c2f61392bfeb1e973f,邮政储蓄银行
广东省深圳市宝安区深圳名优工业产品展示采购中心B座一二区,宝安区,深圳市,1,22.573827,113.872458,中国邮政储蓄银行24小时自助银行服务(深圳宝源支行),广东省,89f9ba7a5a20c52f07fef530,,f4e6ce646627c89c15a19012,邮政储蓄银行
深圳市罗湖区鹏兴路1-7号,罗湖区,深圳市,1,22.565626,114.168656,中国邮政储蓄银行24小时自助银行(罗沙仙湖立交),广东省,1a9c2a97697556200c0e6b3e,,1a9c2a97697556200c0e6b3e,邮政储蓄银行
广东省深圳市南山区同沙路25-1,南山区,深圳市,1,22.589597,113.956585,中国邮政储蓄银行24小时自助银行(深圳留仙居支行),广东省,3cd05acb5f380abff7b91672,,3cd05acb5f380abff7b91672,邮政储蓄银行
深圳市福田区滨河大道9023,福田区,深圳市,1,22.532754,114.049539,中国邮政储蓄银行ATM(深圳新洲南支行),广东省,7bfa08fc4942160125d2bb02,,7bfa08fc4942160125d2bb02,邮政储蓄银行
广东省深圳市福田区福荣路68-31附近,福田区,深圳市,1,22.530901,114.030455,中国邮政储蓄银行24小时自助银行(深圳下沙支行),广东省,,,5137ac842f48056c6140a90d,邮政储蓄银行
西乡街道办固戍一路固戍华庭一楼(固戍村牌坊左侧),宝安区,深圳市,1,22.607838,113.869262,中国邮政储蓄银行24小时自助银行服务(深圳固戍支行),广东省,49a02a7af5ceef3d2a201ab9,,49a02a7af5ceef3d2a201ab9,邮政储蓄银行
瑞华北一巷14,龙岗区,深圳市,1,22.733584,114.270544,中国邮政储蓄银行24小时自助银行(深圳九州支行),广东省,f81f8893d84da719744ff130,,f81f8893d84da719744ff130,邮政储蓄银行
广东省深圳市光明区田湾路102,光明区,深圳市,1,22.737739,113.911161,中国邮政储蓄银行24小时自助银行服务,广东省,,,1e954511d413ae87a21de916,邮政储蓄银行
广东省深圳市龙华区民田路51,龙华区,深圳市,1,22.627308,114.041779,中国邮政储蓄银行24小时自助银行服务(深圳民治支行),广东省,723327f48c053b91b64f54ad,,723327f48c053b91b64f54ad,邮政储蓄银行
深圳市南山区工业九路27号,南山区,深圳市,1,22.507363,113.933505,中国邮政储蓄银行24小时自助银行服务(深圳四海支行),广东省,69fcd6df5cd9b952cb291587,,69fcd6df5cd9b952cb291587,邮政储蓄银行
松明大道105红星社区,宝安区,深圳市,1,22.77193,113.848171,中国邮政储蓄银行24小时自助银行(深圳红星支行),广东省,0395c603693602846268589f,,0395c603693602846268589f,邮政储蓄银行
福永街道和平社区福园一路鹏洲工业园B栋宿舍首层10号,宝安区,深圳市,1,22.706676,113.799173,中国邮政储蓄银行24小时自助银行(深圳凤塘支行),广东省,c7eca12b37ff0a49e115f9dc,,c7eca12b37ff0a49e115f9dc,邮政储蓄银行
广东省深圳市龙岗区布李路315-2,龙岗区,深圳市,1,22.636459,114.13872,中国邮政储蓄银行24小时自助银行服务,广东省,c879fa01c30fe737c809f0a4,,c879fa01c30fe737c809f0a4,邮政储蓄银行
年丰村横岭北路35号,龙岗区,深圳市,1,22.781925,114.35771,中国邮政储蓄银行ATM,广东省,,,38163076308d91bff822130b,邮政储蓄银行
龙平东路116,龙岗区,深圳市,1,22.736371,114.283181,中国邮政储蓄银行24小时自助银行(龙平东路),广东省,3f826ed30fed8646d1f49ece,,3f826ed30fed8646d1f49ece,邮政储蓄银行
广东省深圳市盐田区深盐路1117-7,盐田区,深圳市,1,22.592555,114.278869,中国邮政储蓄银行24小时自助银行服务(北山道),广东省,d3e3641caebd8aae8bfc0635,,d3e3641caebd8aae8bfc0635,邮政储蓄银行
深圳市龙华区观平路69,龙华区,深圳市,1,22.706883,114.09521,中国邮政储蓄银行24小时自助银行(新田社区西北),广东省,babcdc969bb14c910bf5ebc1,,babcdc969bb14c910bf5ebc1,邮政储蓄银行
广东省深圳市龙华区华旺路172,龙华区,深圳市,1,22.683377,114.007653,中国邮政储蓄银行24小时自助银行(华旺路),广东省,31de29bd566d11d0cb213d64,,31de29bd566d11d0cb213d64,邮政储蓄银行
广东省深圳市宝安区石龙大道史丹利百得精密制造深圳公司,宝安区,深圳市,1,22.693514,113.974299,中国邮政储蓄银行24小时自助银行(捷家宝路),广东省,6f5e3b563fa5ab0fd2f49eab,,6f5e3b563fa5ab0fd2f49eab,邮政储蓄银行
深南中路2033号统建楼3栋2楼,福田区,深圳市,1,22.546462,114.09895,中国邮政储蓄银行24小时自助银行(深南中支行),广东省,a2ae6fab22934d855abbbc38,,a2ae6fab22934d855abbbc38,邮政储蓄银行
广东省深圳市福田区华发北路27号,福田区,深圳市,1,22.548705,114.096978,中国邮政储蓄银行24小时自助银行服务(振中路),广东省,9ca07ea66bcc8b40f603b888,,9ca07ea66bcc8b40f603b888,邮政储蓄银行
泰然科技园206栋西座1层,福田区,深圳市,1,22.538799,114.034594,中国邮政储蓄银行24小时自助银行(深圳车公庙支行),广东省,3e67285c19a09b6572210b4d,,3e67285c19a09b6572210b4d,邮政储蓄银行
深圳市宝安区宝城71区统建房1号裙楼103号(创业二路),宝安区,深圳市,1,22.585357,113.922467,中国邮政储蓄银行24小时自助银行(创业营业所),广东省,61b2f1be76aac68c7702692c,,61b2f1be76aac68c7702692c,邮政储蓄银行
广东省深圳市宝安区永丰二路6-5,宝安区,深圳市,1,22.681689,113.838053,中国邮政储蓄银行24小时自助银行服务(华南路),广东省,50afa5d0e3739ce6583ac81b,,56f7f75f385c218fbe48429f,邮政储蓄银行
铁岗南四巷7-1,宝安区,深圳市,1,22.606305,113.893532,中国邮政储蓄银行24小时自助银行(铁岗西一巷),广东省,b3aa435d501e900b157643ec,,fa3467c61fc35dbffa0cad9c,邮政储蓄银行
广东省深圳市宝安区航城大道西乡新安第二工业区,宝安区,深圳市,1,22.612513,113.865387,中国邮政储蓄银行24小时自助银行(固戍二路),广东省,,,3f66e64a836634559d9d6890,邮政储蓄银行
新安四路263-3号,宝安区,深圳市,1,22.58482,113.898479,中国邮政储蓄银行24小时自助银行(深新城支行),广东省,a2ff2597119c93dc29d7abf7,,a2ff2597119c93dc29d7abf7,邮政储蓄银行
广东省深圳市坪山区中国邮政储蓄银行(六联酒店东北),坪山区,深圳市,1,22.705182,114.354571,中国邮政储蓄银行24小时自助银行(深圳坪山新区支行),广东省,0aa936bc7ab64b69ca1b95eb,,0aa936bc7ab64b69ca1b95eb,邮政储蓄银行
坪山新区国泰路52号,坪山区,深圳市,1,22.695962,114.347965,中国邮政储蓄银行24小时自助银行(坪山营业所),广东省,a481e747132235c628b97c2e,,a481e747132235c628b97c2e,邮政储蓄银行
深圳市龙岗区迎宾路62-2,龙岗区,深圳市,1,22.601887,114.480422,中国邮政储蓄银行24小时自助银行(大鹏营业所),广东省,5b25f446a9d28fea102935da,,5b25f446a9d28fea102935da,邮政储蓄银行
双拥街91号,龙岗区,深圳市,1,22.705506,114.139743,中国邮政储蓄银行24小时自助银行(平湖营业所),广东省,2bab8903c9a20b31eddfcac4,,2bab8903c9a20b31eddfcac4,邮政储蓄银行
山子下路333号,龙岗区,深圳市,1,22.650376,114.238402,中国邮政储蓄银行24小时自助银行(大康支行),广东省,,,8103d003915eb4d99cec2b95,邮政储蓄银行
深圳市龙岗区横岗街道力嘉路新马商贸城4号商业楼,龙岗区,深圳市,1,22.649036,114.210198,中国邮政储蓄银行24小时自助银行(翠湖支行),广东省,e37ca3c49a97fa51eee4a53c,,66eaeded1dac1b9be5073814,邮政储蓄银行
深圳市龙岗区布吉路71号,龙岗区,深圳市,1,22.60566,114.123041,中国邮政储蓄银行24小时自助银行(深圳布吉支行),广东省,3920a5cb3cb6316078f796d1,,78bd50f7a2874d5b31870a23,邮政储蓄银行
广东省深圳市龙岗区布吉街道西环路49-1号,龙岗区,深圳市,1,22.613489,114.116305,中国邮政储蓄银行24小时自助服务(大靓营业所),广东省,bf61143491b9fad4deee8b49,,bf61143491b9fad4deee8b49,邮政储蓄银行
水库新村44-1号,罗湖区,深圳市,1,22.571027,114.145363,中国邮政储蓄银行24小时自助银行(水库新村四街),广东省,e0c09ecd116086d8e81e97da,,e0c09ecd116086d8e81e97da,邮政储蓄银行
广东省深圳市福田区华强南路3008-1号,福田区,深圳市,1,22.544385,114.093591,中国邮政储蓄银行24小时自助银行服务(深圳爱华支行),广东省,b00d798fcd0e9fd00d0a708b,,b00d798fcd0e9fd00d0a708b,邮政储蓄银行
八卦路1号,福田区,深圳市,1,22.562408,114.106089,中国邮政储蓄银行24小时自助银行(八卦路),广东省,88cc72690c7d1b0f1ce999ad,,88cc72690c7d1b0f1ce999ad,邮政储蓄银行
广东省深圳市龙华区和平路177,龙华区,深圳市,1,22.661623,114.034937,中国邮政储蓄银行24小时自助银行服务(深圳和平营业所),广东省,060453bfca1a9f9ca8f72919,,060453bfca1a9f9ca8f72919,邮政储蓄银行
深圳市福田区梅华路154号,福田区,深圳市,1,22.570638,114.054586,中国邮政储蓄银行24小时自助银行(深圳梅林支行),广东省,3e466c70e4b5e8a04307c181,,3e466c70e4b5e8a04307c181,邮政储蓄银行
深圳市福田区益田路5055,福田区,深圳市,1,22.540927,114.061336,中国邮政储蓄银行24小时自助银行(深圳分行营业部),广东省,0e4248100b9e8fb84207c135,,0e4248100b9e8fb84207c135,邮政储蓄银行
广东省深圳市南山区登良路27-3号,南山区,深圳市,1,22.518629,113.929324,中国邮政储蓄银行24小时自助银行(南光路),广东省,0adce3e2fdec191f80a00c6e,,0adce3e2fdec191f80a00c6e,邮政储蓄银行
深圳市南山区学府西路阳光棕榈园2期26栋裙楼一楼,南山区,深圳市,1,22.53383,113.92003,中国邮政储蓄银行24小时自助银行服务(深圳阳光棕榈支行),广东省,7927f2c89216ae6343afe698,,7927f2c89216ae6343afe698,邮政储蓄银行
广东省深圳市光明区文阁路12-9,光明区,深圳市,1,22.793866,113.883428,中国邮政储蓄银行24小时自助银行(合水口营业所),广东省,3ee81600dc9f213cc16c1463,,3ee81600dc9f213cc16c1463,邮政储蓄银行
深圳市宝安区洋涌工业路10-17,宝安区,深圳市,1,22.798586,113.837811,中国邮政储蓄银行24小时自助银行(洋涌工业路),广东省,,,53d5344e39cc6fb9ab175a89,邮政储蓄银行
宝民二路128号泰华豪园,宝安区,深圳市,1,22.588885,113.888086,中国邮政储蓄银行24小时自助银行(深圳分行宝民营业所),广东省,804388c73d87f9709b68b425,,804388c73d87f9709b68b425,邮政储蓄银行
深圳市宝安区宝民一路215,宝安区,深圳市,1,22.573057,113.902532,中国邮政储蓄银行24小时自助银行(裕安营业所),广东省,3293dee616727add5abbbca9,,3293dee616727add5abbbca9,邮政储蓄银行
坪山区人民路8号,坪山区,深圳市,1,22.750285,114.377976,中国邮政储蓄银行24小时自助银行(深圳坑梓支行),广东省,aa6e7e4b793ff6882cb96d96,,aa6e7e4b793ff6882cb96d96,邮政储蓄银行
建设路12号,坪山区,深圳市,1,22.695891,114.354713,中国邮政储蓄银行24小时自助银行(建设营业所),广东省,837c4300dea96349a0acc434,,837c4300dea96349a0acc434,邮政储蓄银行
深圳市龙岗区平龙西路75-54、57,龙岗区,深圳市,1,22.701124,114.120303,中国邮政储蓄银行24小时自助银行(深圳辅城坳支行),广东省,b654bba0b4b339773fe23129,,b654bba0b4b339773fe23129,邮政储蓄银行
深圳市龙华区广场沿河路22(观澜中心花园),龙华区,深圳市,1,22.706083,114.054159,中国邮政储蓄银行24小时自助银行(深圳中心园营业所),广东省,d8e8429238a78c0d43ab9ad0,,d8e8429238a78c0d43ab9ad0,邮政储蓄银行
浪荣路23号栋附近,龙华区,深圳市,1,22.701733,113.998014,中国邮政储蓄银行24小时自助银行(浪荣支行),广东省,,,d320d32ab18fd28aadb22adf,邮政储蓄银行
深圳市龙岗区兴旺路7号,龙岗区,深圳市,1,22.659647,114.205338,中国邮政储蓄银行24小时自助银行(横岗营业所),广东省,d411818f60d0cb4488db73fe,,d411818f60d0cb4488db73fe,邮政储蓄银行
深圳市龙岗区六和路76号,龙岗区,深圳市,1,22.642302,114.198855,中国邮政储蓄银行24小时自助银行(深圳六约支行),广东省,8f42b131749bea27b9df8f8d,,8f42b131749bea27b9df8f8d,邮政储蓄银行
广东省深圳市龙华区富士康科技集团龙华科技园,龙华区,深圳市,1,22.658863,114.057374,中国邮政储蓄银行24小时自助银行(龙华富士康邮政储蓄),广东省,,,f241c7dc4962a4bb4f6d46a7,邮政储蓄银行
广东省深圳市龙华区民治蓝坤大厦(民治地铁站南),龙华区,深圳市,1,22.619358,114.047031,中国邮政储蓄银行24小时自助银行(深圳民康支行),广东省,ae580a7a26e20a4c17948e45,,ae580a7a26e20a4c17948e45,邮政储蓄银行
留仙洞村10-1号,南山区,深圳市,1,22.591223,113.937119,中国邮政储蓄银行24小时自助银行(同乐路),广东省,7707d13690ab54e416a19066,,c0c9061846b39ed98733043c,邮政储蓄银行
重庆路26号,宝安区,深圳市,1,22.689425,113.80135,中国邮政储蓄银行24小时自助银行(福兴营业所),广东省,e73bfe1fc5e72d5d38221c8a,,e3961452af3c38ce077ce8f5,邮政储蓄银行
广东省深圳市宝安区前进二路103-1,宝安区,深圳市,1,22.599194,113.886056,中国邮政储蓄银行24小时自助银行(前进营业所),广东省,003cd695af564663d42ce249,,e3e2cd9d2a3d619dc7f50dff,邮政储蓄银行
深圳市宝安区龙吟二路17号,宝安区,深圳市,1,22.583,113.886354,中国邮政储蓄银行24小时自助银行服务(深圳西乡支行),广东省,4528541ca2cf17ee03ff2d25,,4528541ca2cf17ee03ff2d25,邮政储蓄银行
新生路239,龙岗区,深圳市,1,22.747378,114.277329,中国邮政储蓄银行24小时自助银行(深圳梅岗支行),广东省,2c0bd6c5da4632aa43ab9ace,,2c0bd6c5da4632aa43ab9ace,邮政储蓄银行
广东省深圳市龙岗区乐园路2-11号,龙岗区,深圳市,1,22.714967,114.315322,中国邮政储蓄银行24小时自助银行(乐园路),广东省,d1469ee7ea4f911c853304a4,,f175d30bb17926837bf79675,邮政储蓄银行
深圳市龙岗区宝龙二路5-7,龙岗区,深圳市,1,22.694422,114.296699,中国邮政储蓄银行24小时自助银行(深圳宝龙支行),广东省,90207775c86a40bf1fe9996b,,90207775c86a40bf1fe9996b,邮政储蓄银行
深圳市龙岗区军田路69号,龙岗区,深圳市,1,22.699862,114.241846,中国邮政储蓄银行24小时自助银行(爱新支行),广东省,1f4f7b72576e245746e27402,,9972ec5a7d74eba93786f41c,邮政储蓄银行
广东省深圳市龙岗区余岭西路27附近,龙岗区,深圳市,1,22.704322,114.235794,中国邮政储蓄银行24小时自助银行服务(深圳龙岗区支行),广东省,,,ebf2eb7debb17db1ab0dd8f8,邮政储蓄银行
深圳市龙华区观澜镇新澜大街104号观澜街道,龙华区,深圳市,1,22.723533,114.062023,中国邮政储蓄银行24小时自助银行(观澜营业所),广东省,2c1fdb66102062f9a1d23087,,2c1fdb66102062f9a1d23087,邮政储蓄银行
深南东路3002-1号,罗湖区,深圳市,1,22.550241,114.12789,中国邮政储蓄银行24小时自助银行(深圳电信支行),广东省,f860c94cbe1f1cb84e2fdf1b,,3da7f7f8d07b59ec14c8f6bb,邮政储蓄银行
大同街4号,龙岗区,深圳市,1,22.64077,114.070559,中国邮政储蓄银行24小时自助银行(深圳坂田营业所),广东省,0342b1f70f2bd54fca09f055,,0342b1f70f2bd54fca09f055,邮政储蓄银行
深圳市龙华区大浪南路40,龙华区,深圳市,1,22.670913,114.027313,中国邮政储蓄银行24小时自助银行(龙观支行),广东省,bbe04938545536240d3dda90,,bbe04938545536240d3dda90,邮政储蓄银行
塘头大道48号,宝安区,深圳市,1,22.658674,113.924946,中国邮政储蓄银行24小时自助银行(塘头支行),广东省,aece17fa8b3e7d02c51b75a4,,aece17fa8b3e7d02c51b75a4,邮政储蓄银行
广东省深圳市福田区福民路119-5,福田区,深圳市,1,22.528406,114.064189,中国邮政储蓄银行24小时自助银行服务(福民路),广东省,606289fd1eb3264da3046490,,606289fd1eb3264da3046490,邮政储蓄银行
东方大道21号(金帝都大酒店东南),宝安区,深圳市,1,22.764566,113.869411,中国邮政储蓄银行24小时自助银行(金帝都酒店东),广东省,f2bb70eadc15b171d42ce21f,,f2bb70eadc15b171d42ce21f,邮政储蓄银行
深圳市光明区长春路1号,光明区,深圳市,1,22.78381,113.89959,中国邮政储蓄银行24小时自助银行(公明营业所),广东省,,,073270b31c81b971b1077d57,邮政储蓄银行
广东省深圳市宝安区广田路143号,宝安区,深圳市,1,22.806856,113.849166,中国邮政储蓄银行24小时自助银行(塘下涌营业所),广东省,,,2ad32cc3b5b2ebf19d95de41,邮政储蓄银行
胜利路1号,宝安区,深圳市,1,22.761392,113.858207,中国邮政储蓄银行24小时自助银行(深圳松岗支行),广东省,5a30de62aecba58f4e776e86,,5a30de62aecba58f4e776e86,邮政储蓄银行
广东省深圳市宝安区沙井新沙路文华阁西北100米,宝安区,深圳市,1,22.738069,113.818776,中国邮政储蓄银行24小时自助银行(深圳沙井营业所),广东省,3c0a3e60d5bbd23802897247,,ea6389357113ccdcb44f541b,邮政储蓄银行
深圳市宝安区新和大道48,宝安区,深圳市,1,22.758341,113.828828,中国邮政储蓄银行24小时自助银行(深圳新和支行),广东省,,,9460f0a891bc2eb028d7ab11,邮政储蓄银行
锦程路1036金荣诚大厦,宝安区,深圳市,1,22.72405,113.791418,中国邮政储蓄银行24小时自助银行(锦绣营业所),广东省,764672e5d73c3fd394ec84f0,,764672e5d73c3fd394ec84f0,邮政储蓄银行
西乡街道洲石公路九围段乌石脚综合楼1层A号,宝安区,深圳市,1,22.659316,113.870347,中国邮政储蓄银行24小时自助银行(九围营业所),广东省,80ee310b626f8651b020a885,,80ee310b626f8651b020a885,邮政储蓄银行
广东省深圳市宝安区中心区广深公路新亿佳购物广场,宝安区,深圳市,1,22.633849,113.854936,中国邮政储蓄银行24小时自助银行服务(黄田路),广东省,b583bebd015840920aa8d4bb,,3f826ed3b6374938d0f49e92,邮政储蓄银行
宝安区福永大道120号,宝安区,深圳市,1,22.675508,113.828008,中国邮政储蓄银行24小时自助银行(深圳福永支行),广东省,89fd4ea38574f33ae5e9651a,,89fd4ea38574f33ae5e9651a,邮政储蓄银行
广东省深圳市龙岗区大园街排榜村金恒华塑胶制品有限公司,龙岗区,深圳市,1,22.658222,114.201359,中国邮政储蓄银行ATM(华乐路),广东省,a2dc298c5bd1e1a10f0e6b62,,a2dc298c5bd1e1a10f0e6b62,邮政储蓄银行
深圳市南山区西丽湖路4038号野生动物园正门对面,南山区,深圳市,1,22.601654,113.97039,中国邮政储蓄银行ATM(西丽路),广东省,96694f93e920b19958f6bef1,,96694f93e920b19958f6bef1,邮政储蓄银行
南山区珠光路288号,南山区,深圳市,1,22.577536,113.965598,中国邮政储蓄银行ATM(珠光路),广东省,fb5a84438a3caf38b2077d16,,fb5a84438a3caf38b2077d16,邮政储蓄银行
广东省深圳市龙岗区延安路惠家福百货,龙岗区,深圳市,1,22.638295,114.442334,中国邮政储蓄银行ATM(葵政东路),广东省,5e53af1a48a1265f4151c0da,,5e53af1a48a1265f4151c0da,邮政储蓄银行
广东省深圳市罗湖区蔡屋围新七坊49号,罗湖区,深圳市,1,22.544784,114.114934,中国邮政储蓄银行ATM(蔡屋围五街),广东省,a092de77d4b1eab1471a3213,,a092de77d4b1eab1471a3213,邮政储蓄银行
广东省深圳市福田区红荔西路7034,福田区,深圳市,1,22.552146,114.047884,中国邮政储蓄银行24小时自助银行(香蜜支行),广东省,e2c7de86fdca71cb35b06c7d,,e2c7de86fdca71cb35b06c7d,邮政储蓄银行
油甘园路80,龙岗区,深圳市,1,22.636875,114.236331,中国邮政储蓄银行ATM(油甘园路),广东省,,,97b1a3918e6a5885df1e52b2,邮政储蓄银行
坳背路109号,龙岗区,深圳市,1,22.673832,114.219914,中国邮政储蓄银行ATM(宝华营业所),广东省,554e67174e9ad0f13f9a5e84,,554e67174e9ad0f13f9a5e84,邮政储蓄银行
广东省深圳市福田区岗厦邮电大楼一楼,福田区,深圳市,1,22.547269,114.076319,中国邮政储蓄银行ATM(岗厦支行),广东省,b66b12a96910fa427c29bd62,,b66b12a96910fa427c29bd62,邮政储蓄银行
广东省深圳市南山区南海大道3688号深圳大学,南山区,深圳市,1,22.53798,113.940675,中国邮政储蓄银行24小时自助银行(深大西路),广东省,f7396757aa4f614ef02d8338,,f7396757aa4f614ef02d8338,邮政储蓄银行
石龙大道73号,宝安区,深圳市,1,22.698133,113.969795,中国邮政储蓄银行ATM(石龙大道),广东省,03364cf9a39c6af5a8f729c6,,03364cf9a39c6af5a8f729c6,邮政储蓄银行
罗湖商业城B1层,罗湖区,深圳市,1,22.53732,114.125434,中国邮政储蓄银行ATM(沿河南路),广东省,4505efa0fc7523245b109332,,4505efa0fc7523245b109332,邮政储蓄银行
广东省深圳市福田区益华街3号附近,福田区,深圳市,1,22.54215,114.019419,中国邮政储蓄银行小额贷款中心,广东省,ee28bff0e16ac271283a9f8c,,ee28bff0e16ac271283a9f8c,邮政储蓄银行
广东省深圳市光明区光明新区美多百货(玉昌东路北),光明区,深圳市,1,22.724084,113.904604,中国邮政储蓄银行ATM(玉泉西路),广东省,9fc9252cc64527f121022015,,9fc9252cc64527f121022015,邮政储蓄银行
深圳市福田区红荔路3013-3号,福田区,深圳市,1,22.554538,114.089983,中国邮政储蓄银行ATM(深圳华新村支行),广东省,d312989512872f13471a327d,,d312989512872f13471a327d,邮政储蓄银行
广东省深圳市光明区光明新区公明冠城工业大厦西南,光明区,深圳市,1,22.793875,113.913464,中国邮政储蓄银行ATM(公明环卫站西南),广东省,,,e6ff9966acfea6430e0e6bb6,邮政储蓄银行
广东省深圳市福田区华富路2001附近,福田区,深圳市,1,22.556897,114.088368,中国邮政储蓄银行24小时自助银行服务(深圳华富支行),广东省,9c5f4587e8b28246c17da25b,,9c5f4587e8b28246c17da25b,邮政储蓄银行
深圳市罗湖区布吉农批市场F座247-248档,罗湖区,深圳市,1,22.587106,114.123939,中国邮政储蓄银行24小时自助银行(布吉农批支行),广东省,66c6a08e4179c9bcf72310fd,,66c6a08e4179c9bcf72310fd,邮政储蓄银行
深南东路3040号邮政大厦,罗湖区,深圳市,1,22.549545,114.123408,中国邮政储蓄银行ATM(建设路邮政储蓄),广东省,e87b298eab1f3fbe71455b94,,e87b298eab1f3fbe71455b94,邮政储蓄银行
石岩塘头大道41-16号东海百货F1,宝安区,深圳市,1,22.669561,113.922432,中国邮政储蓄银行ATM(东海商业步行街),广东省,,,e3ba88c0bc9150ae07026f71,邮政储蓄银行
海滨路1号(风球山小区西北),龙岗区,深圳市,1,22.543778,114.494283,中国邮政储蓄银行ATM(风球山小区西北),广东省,c04a57ccdf1bbf6cae31e5b1,,c04a57ccdf1bbf6cae31e5b1,邮政储蓄银行
石龙大道1号,龙华区,深圳市,1,22.702433,114.003469,中国邮政储蓄银行ATM(凯滨大厦东北),广东省,,,2d94a86567da4afce9f8533e,邮政储蓄银行
深圳市罗湖区金稻田路1068-5号,罗湖区,深圳市,1,22.590392,114.139835,中国邮政储蓄银行ATM(深圳布心支行),广东省,fc625eee20e4c4dc00ff2d96,,fc625eee20e4c4dc00ff2d96,邮政储蓄银行
田贝四路37号,罗湖区,深圳市,1,22.572895,114.134707,中国邮政储蓄银行ATM(深圳田贝支行),广东省,575d98b4b5052c472cb17e50,,575d98b4b5052c472cb17e50,邮政储蓄银行
广东省深圳市福田区莲心路莲花一村,福田区,深圳市,1,22.560186,114.076338,中国邮政储蓄银行ATM(深圳彩田支行),广东省,341c35dee32babc0e7073899,,341c35dee32babc0e7073899,邮政储蓄银行
深圳市南山区工业七路121-125号,南山区,深圳市,1,22.500599,113.92896,中国邮政储蓄银行ATM(深圳蛇口支行),广东省,ea0dd8a3c28c04a300ec01c7,,ea0dd8a3c28c04a300ec01c7,邮政储蓄银行
南山区蛇口石云路11号,南山区,深圳市,1,22.493603,113.933066,中国邮政储蓄银行ATM(深圳海滨支行),广东省,dc0f0adc24fa4b5cf9221387,,dc0f0adc24fa4b5cf9221387,邮政储蓄银行
福田区八卦九街(兴华公寓东南),福田区,深圳市,1,22.566746,114.108283,中国邮政储蓄银行ATM(兴华公寓东南),广东省,d07861a0e370332e2bb97c88,,d07861a0e370332e2bb97c88,邮政储蓄银行
深圳市南山区高新中四道12-2号,南山区,深圳市,1,22.548985,113.94982,中国邮政储蓄银行ATM(深圳科技园支行),广东省,eef2d5280783bcda3be4a666,,eef2d5280783bcda3be4a666,邮政储蓄银行
广东省深圳市宝安区福永永和路福华楼附近,宝安区,深圳市,1,22.697013,113.802201,中国邮政储蓄银行24小时自助银行(玻璃围新区北五巷),广东省,,,b4e73c751e3d068717948e17,邮政储蓄银行
广东省深圳市罗湖区草埔金稻田路2030-2032号,罗湖区,深圳市,1,22.590714,114.125714,中国邮政储蓄银行24小时自助银行服务(深圳仁康医院东南),广东省,3098a995aa3b3d472cb17e7e,,3a0fbba858d9eb3f9ee3214e,邮政储蓄银行
布吉路与莲花路交叉口北50米,龙岗区,深圳市,1,22.605542,114.123344,集邮门市部,广东省,c0d0f7fa9a389e4afd0eb01c,,c0d0f7fa9a389e4afd0eb01c,邮政储蓄银行
深圳市宝安区固戍鹤洲恒丰工业城E6栋102铺,宝安区,深圳市,1,22.635939,113.872083,邮政储蓄(恒丰代办所),广东省,5211d21971e2505b7dc876e2,(0755)29976015,5211d21971e2505b7dc876e2,邮政储蓄银行
新安二路76号附近,宝安区,深圳市,1,22.566566,113.917753,24小时自助服务,广东省,0cdc12f869278a8029fc48b4,,0cdc12f869278a8029fc48b4,邮政储蓄银行
广东省深圳市宝安区大朗山西路7号,宝安区,深圳市,1,22.714944,113.824768,24小时自助银行,广东省,e7e5745ef5069a2b2d47333d,,e7e5745ef5069a2b2d47333d,邮政储蓄银行
广东省深圳市龙岗区安康路111号,龙岗区,深圳市,1,22.646367,114.231243,24小时自助银行服务,广东省,1d6e57e37f2aad3fc9c3dbd4,,1d6e57e37f2aad3fc9c3dbd4,邮政储蓄银行
鹏达路164-4号,龙岗区,深圳市,1,22.719821,114.264459,24小时自助银行服务,广东省,2be4c2b110098e815810939c,,2be4c2b110098e815810939c,邮政储蓄银行
红荔路与航天路交叉口西南50米,福田区,深圳市,1,22.554535,114.089895,ATM自动柜员机,广东省,e797184f2331013917b54b46,,e797184f2331013917b54b46,邮政储蓄银行
中心路缤纷时代购物城,宝安区,深圳市,1,22.734521,113.833453,小额贷款中心,广东省,a46c5e00dc13f08a09b93abe,,a46c5e00dc13f08a09b93abe,邮政储蓄银行
勤富路与牛始埔路交叉口南50米,龙岗区,深圳市,1,22.630758,114.19089,中国邮政24小时自助银行服务(勤富路),广东省,,,fdfe34e8e8d97b4eb1077d15,邮政储蓄银行
深圳市罗湖区清水河村34-1号,罗湖区,深圳市,1,22.588212,114.121672,中国邮政24小时自助银行服务(清水河一路),广东省,2d0f9fbd5c597ad05fbe869f,,dc09850c546d3221d82f28fd,邮政储蓄银行
广东省深圳市宝安区燕罗公路168号,宝安区,深圳市,1,22.801734,113.875036,中国邮政银行24小时自助银行(燕罗公路),广东省,,,a206ca5a39fecd78dbeced32,邮政储蓄银行
广东省深圳市龙岗区布吉新区信和·爱琴居(龙岗大道西),龙岗区,深圳市,1,22.617704,114.141869,宁波银行24小时自助银行(芬龙街),广东省,f66a4ba227b8cba42efaa7a2,,f66a4ba227b8cba42efaa7a2,邮政储蓄银行
