address,area,city,detail,lat,lng,name,province,street_id,telephone,uid
深圳市宝安区西乡河东路与宝安大道交汇处百佳华大厦1层,宝安区,深圳市,1,22.576998,113.884917,中国农业银行(深圳西乡支行),广东省,a12baa40f365cf56e856faf6,,a12baa40f365cf56e856faf6
广东省深圳市龙岗区布吉路106号,龙岗区,深圳市,1,22.606771,114.124089,中国农业银行(振兴支行),广东省,f9fd6062db3c9d1f0f0e6b23,(0755)28284197,f9fd6062db3c9d1f0f0e6b23
深圳市宝安区福永街道桥和路315号德金财富广场1楼,宝安区,深圳市,1,22.694275,113.792407,中国农业银行(深圳福海支行),广东省,e3e2cd9d72dda9e3c6f50de0,(0755)27347769,e3e2cd9d72dda9e3c6f50de0
深圳市宝安区中心路金达城大厦,宝安区,深圳市,1,22.738575,113.836767,中国农业银行(深圳沙井支行),广东省,b555891c23b1866d07026fff,(0755)29876199,b555891c23b1866d07026fff
深圳市福田区深南大道2008号,福田区,深圳市,1,22.547036,114.071689,中国农业银行(凤凰支行),广东省,1ae684ca3831c1bba2a93474,,6fddd7fd19f6457c3417dcb9
深圳市罗湖区凤凰路中山花园首层,罗湖区,深圳市,1,22.554879,114.142048,中国农业银行(深圳中山花园支行),广东省,a74481d68083a846f503b81b,,a74481d68083a846f503b81b
前进二路182,宝安区,深圳市,1,22.621239,113.867707,中国农业银行(前进二路),广东省,,,e62df1fc20b76752ede4a5b6
深圳市罗湖区深南东路2087号,罗湖区,深圳市,1,22.550206,114.130865,中国农业银行(罗湖支行),广东省,3810c879247e3a8b9c09f761,(0755)82299935,3810c879247e3a8b9c09f761
深圳市宝安区翻身路理想居首层,宝安区,深圳市,1,22.573728,113.893545,中国农业银行(新宝支行),广东省,6b11bfb60f7b66fd6ca3cc54,,6b11bfb60f7b66fd6ca3cc54
广东省深圳市南山区南海大道山东大厦一楼(东华假日酒店),南山区,深圳市,1,22.52745,113.935242,中国农业银行(南山支行),广东省,0cc168b847211dca4f3a5972,,0cc168b847211dca4f3a5972
宝安区3区建安一路50号,宝安区,深圳市,1,22.563499,113.917256,中国农业银行(宝安支行),广东省,f5cbd5601d89ce66f6c59c14,(0755)27874263,f5cbd5601d89ce66f6c59c14
深圳市罗湖区翠竹路1010号金福大厦首层,罗湖区,深圳市,1,22.564175,114.136884,中国农业银行(金福支行),广东省,50f7d146371f50b972210be7,"(0755)25601374,(0755)25601376",50f7d146371f50b972210be7
广东省深圳市南山区蛇口新街203号,南山区,深圳市,1,22.493425,113.935248,中国农业银行,广东省,afd852be18018e1d81288acc,,afd852be18018e1d81288acc
深圳市罗湖区聚宝路178,罗湖区,深圳市,1,22.569427,114.177157,中国农业银行,广东省,235c8b4a7dc31333b8bd63cf,,235c8b4a7dc31333b8bd63cf
松园路68-16号,罗湖区,深圳市,1,22.55979,114.1138,中国农业银行,广东省,f5eddfa6bcfd74a2babd63e1,,f5eddfa6bcfd74a2babd63e1
金融街3,龙岗区,深圳市,1,22.540475,114.498746,中国农业银行(南澳支行),广东省,978b140247b87e13eee4a5c2,,978b140247b87e13eee4a5c2
广东省深圳市福田区福民路18号皇安大厦附楼一楼,福田区,深圳市,1,22.529532,114.070601,中国农业银行(皇岗支行),广东省,18165334cc685f78fb2d6111,"(0755)83980556,(0755)83980720",18165334cc685f78fb2d6111
深圳市坪山区坪山建设路21号,坪山区,深圳市,1,22.695756,114.354328,中国农业银行(坪山支行),广东省,4fc3161ae604d9a93a13fdce,(0755)28827023,4fc3161ae604d9a93a13fdce
福田区深南中路1001号红岭大厦1层,福田区,深圳市,1,22.546671,114.110827,中国农业银行(深南支行),广东省,15a93810d7d169bc14c8f638,"(0755)25866933,(0755)25866724",15a93810d7d169bc14c8f638
广东省深圳市南山区万科前海企业公馆22栋,南山区,深圳市,1,22.521063,113.907519,中国农业银行(前海分行),广东省,2e7a886a02730e258a36eef7,(0755)86228672,2e7a886a02730e258a36eef7
深圳市南山区学府路308号西绿海名都1栋商场一楼,南山区,深圳市,1,22.534441,113.919816,中国农业银行(前海支行),广东省,cc788fde16a1388a88fc0677,,cc788fde16a1388a88fc0677
深圳市龙岗区爱联如意路龙岗供销合作联社大楼一楼,龙岗区,深圳市,1,22.705255,114.235699,中国农业银行(深圳爱联支行),广东省,5d295476e767831743afe668,(0755)28998555,5d295476e767831743afe668
广东省深圳市光明区别墅路8-119号,光明区,深圳市,1,22.785163,113.911223,中国农业银行(深圳明城支行),广东省,86dcd37add3701085bf6beed,(0755)81733062,86dcd37add3701085bf6beed
广东省深圳市龙华区新澜大街60号,龙华区,深圳市,1,22.7233,114.061349,中国农业银行(深圳观澜支行),广东省,669775d0940afc5bfc0eb091,(0755)28081153,669775d0940afc5bfc0eb091
文锦北路1068号,罗湖区,深圳市,1,22.56942,114.13026,中国农业银行(深圳田贝支行),广东省,a7c56ee0fed790cea3acc4e4,(0755)25508200,a7c56ee0fed790cea3acc4e4
深圳市罗湖区布吉路1021号天乐大厦首层,罗湖区,深圳市,1,22.587832,114.124126,中国农业银行(深圳天乐支行),广东省,61f634f650cf0c786b49f361,"(0755)25850865,(0755)25850243",61f634f650cf0c786b49f361
广东省深圳市福田区百花二路百花公寓1楼,福田区,深圳市,1,22.557225,114.098761,中国农业银行(深圳长城支行),广东省,2cc3c8e8c61609d54c2fdfb9,(0755)83670249,2cc3c8e8c61609d54c2fdfb9
广东省深圳市龙华区梅龙南路东侧阳光新境园二栋一、二楼,龙华区,深圳市,1,22.634171,114.037475,中国农业银行(深圳梅龙支行),广东省,8ab0dfc469c9de6bd8eced1c,(0755)29088161,8ab0dfc469c9de6bd8eced1c
广东省深圳市福田区中康路卓越城1期3栋1层,福田区,深圳市,1,22.577221,114.067043,中国农业银行(深圳彩田支行),广东省,,(0755)83730660,7ecd88aad7e7da7af03cba8b
深圳市福田区福华一路3号深圳中心城F1,福田区,深圳市,1,22.540765,114.066727,中国农业银行(怡景中心城),广东省,6d61ec0e543d554f9de32121,,6d61ec0e543d554f9de32121
深圳福田区彩田南路中深花园A座1-2层,福田区,深圳市,1,22.537328,114.075071,中国农业银行(深圳福田支行),广东省,6f78c01f67c95caa9f09f769,,6f78c01f67c95caa9f09f769
深圳市南山区白石洲农业银行大厦1-2楼,南山区,深圳市,1,22.546725,113.974839,中国农业银行(白石洲支行),广东省,060f5e53540563aa091cc7bc,(0755)26765595,060f5e53540563aa091cc7bc
广东省深圳市南山区中心路宝能太古城北区一层,南山区,深圳市,1,22.507234,113.946581,中国农业银行(深圳湾支行),广东省,1e8346d660e80dc5c61e51cb,(0755)88273301,1e8346d660e80dc5c61e51cb
广东省深圳市南山区南油大道海晖大厦一楼,南山区,深圳市,1,22.513862,113.932041,中国农业银行(深圳海晖支行),广东省,ab2958b0747c536359bbbcd9,(0755)26400337,801bd49386ed750febe582c4
深圳市光明区振明路118号,光明区,深圳市,1,22.786798,113.9013,中国农业银行(深圳公明支行),广东省,,(0755)27731862,bff8fa7d04e4e0a0c9213d94
深圳市宝安区西乡街道海城路湾美花园9栋,宝安区,深圳市,1,22.569363,113.873191,中国农业银行(深圳坪洲支行),广东省,73e3e92d6c31ee0eee74f87d,(0755)27288215,73e3e92d6c31ee0eee74f87d
深圳市坪山区新区坑梓街道吉祥路71号,坪山区,深圳市,1,22.750899,114.377247,中国农业银行(深圳坑梓支行),广东省,0a15c7ec44fd79fced74f8ce,(0755)84131793,0a15c7ec44fd79fced74f8ce
深圳市龙岗区新城路水岸新都花园一期商铺14栋109-111号1-2楼,龙岗区,深圳市,1,22.754144,114.28384,中国农业银行(深圳新生支行),广东省,442076464da1f916deee8b58,,442076464da1f916deee8b58
深圳市龙岗区景芬路龙园意境华府36栋1楼,龙岗区,深圳市,1,22.626037,114.132195,中国农业银行(深圳龙园支行),广东省,53934b8bce40deb7badf8f7d,,53934b8bce40deb7badf8f7d
深圳市罗湖区田贝四路阳光天地花园一楼(阳光天地、化工大厦、邮局),罗湖区,深圳市,1,22.573479,114.134409,中国农业银行(珠宝中心支行),广东省,e889a744a75c76b58605bf1b,(0755)25613112,e889a744a75c76b58605bf1b
广东省深圳市罗湖区太白路4012号松泉山庄商业裙楼一楼,罗湖区,深圳市,1,22.583172,114.13269,中国农业银行(深圳东盛支行),广东省,93df0dc3f8a7b52b882fb51b,(0755)25176959,93df0dc3f8a7b52b882fb51b
广东省深圳市罗湖区人民北路二横街耀华楼首层,罗湖区,深圳市,1,22.553108,114.125643,中国农业银行(深圳东门支行),广东省,6628ec85b30f15c9d8ecedab,"(0755)82174622,(0755)82178545",fa01e937bd89e74a774ff161
深圳市龙华区民治大道汇宝江大厦一楼,龙华区,深圳市,1,22.631322,114.045321,中国农业银行(深圳民治支行),广东省,8eb48fa1a53bc5a6f32d83e8,(0755)28198217,8eb48fa1a53bc5a6f32d83e8
深圳市福田区天安数码城天安科技创业园大厦A座一楼,福田区,深圳市,1,22.539572,114.036579,中国农业银行(深圳天安支行),广东省,2f3d00749ee5e8a19d82ea70,(0755)82043798,2f3d00749ee5e8a19d82ea70
深圳市宝安区23区创业二路268号东联工业区一栋一楼101B商铺,宝安区,深圳市,1,22.581381,113.918561,中国农业银行(深圳新安支行),广东省,bb007bdfd4f6a8679ee321fd,(0755)27590691,bb007bdfd4f6a8679ee321fd
深圳市南山区高新南十道3-5号海怡东方1层,南山区,深圳市,1,22.531435,113.956915,中国农业银行(深圳滨海支行),广东省,cb5494ed0ef1aa3621022043,,cb5494ed0ef1aa3621022043
深圳市南山区海德三道26-3号滨海之窗花园1层,南山区,深圳市,1,22.525364,113.943124,中国农业银行(深圳后海支行),广东省,1da60cd1a752738b02294fa3,(0755)86222631,1da60cd1a752738b02294fa3
广东省深圳市龙岗区葵涌葵新北路38号,龙岗区,深圳市,1,22.638301,114.428256,中国农业银行(深圳葵涌支行),广东省,d24e48eb1a897dcaafee7ace,(0755)84206062,d24e48eb1a897dcaafee7ace
广东省深圳市盐田区东港道金港盛世华庭裙楼一、二楼,盐田区,深圳市,1,22.594618,114.261123,中国农业银行(深圳盐田支行),广东省,3a0fbba8ff3e0c419ee3212e,(0755)82631084,3a0fbba8ff3e0c419ee3212e
深圳市龙岗区龙城街道中心城吉祥路217号新亚洲花园门口1-2楼,龙岗区,深圳市,1,22.721368,114.244291,中国农业银行(深圳龙翔支行),广东省,086009441857833d4f6d469c,"(0755)28950002,(0755)28950004,(0755)28951553",086009441857833d4f6d469c
深圳市龙岗区平湖街道新南村裕和北街115号首层商铺,龙岗区,深圳市,1,22.704775,114.135909,中国农业银行(深圳平湖支行),广东省,0f37e9d44f686504100daa6d,,0f37e9d44f686504100daa6d
宝石南路186号,宝安区,深圳市,1,22.684331,113.940447,中国农业银行(深圳石岩支行),广东省,9f97b1c516ed5806b74f549f,(0755)27604027,9f97b1c516ed5806b74f549f
深圳市罗湖区莲塘路168-11号,罗湖区,深圳市,1,22.56754,114.177634,中国农业银行(深圳莲塘支行),广东省,7bfa08fcb155de7f25d2bb1b,,7bfa08fcb155de7f25d2bb1b
深圳市罗湖区春风路3006号五矿大厦一楼,罗湖区,深圳市,1,22.544387,114.130259,中国农业银行(深圳南湖支行),广东省,,(0755)82293034,8354bcbd890a1fa902294fd6
深圳市罗湖区宝岗路165号笋岗幼儿园商住楼首层,罗湖区,深圳市,1,22.573758,114.119033,中国农业银行(深圳笋田支行),广东省,8ab0dfc44ec9a116d8eced61,(0755)82415283,8ab0dfc44ec9a116d8eced61
广东省深圳市福田区梅华路华茂苑商住大厦一楼,福田区,深圳市,1,22.56989,114.064541,中国农业银行(深圳梅林支行),广东省,d5464cf8b7e39b57fda77837,(0755)83167657,d5464cf8b7e39b57fda77837
广东省深圳市福田区沙嘴绿景蓝湾半岛瑞丰园购物广场,福田区,深圳市,1,22.52251,114.047491,中国农业银行(深圳新沙支行),广东省,96479896569745dba8059d90,,96479896569745dba8059d90
深圳市福田区新沙二路星河雅居商住大厦一楼,福田区,深圳市,1,22.5301,114.051322,中国农业银行(深圳新沙支行),广东省,75036835880a2eaf5e0d0237,"(0755)83845890,(0755)83845880",75036835880a2eaf5e0d0237
深南大道7008号银座国际阳光高尔夫大厦1层,福田区,深圳市,1,22.543523,114.031595,中国农业银行(深圳东海支行),广东省,287e4349fdf38408260bd0cb,(0755)83703040,287e4349fdf38408260bd0cb
深圳市宝安区福永福兴大道298号,宝安区,深圳市,1,22.67592,113.828256,中国农业银行(深圳福永支行),广东省,0a15c7ec3dc0b682ed74f8f0,,0a15c7ec3dc0b682ed74f8f0
招商路119,南山区,深圳市,1,22.49578,113.93212,中国农业银行(深圳蛇口支行),广东省,e711f4de53bcd72e6ca3cc3b,(0755)26861834,e711f4de53bcd72e6ca3cc3b
广东省深圳市坪山区招商花园城行政二路与新和四路交叉口,坪山区,深圳市,1,22.711772,114.350712,中国农业银行(深圳坪山新区支行),广东省,16c4c8fa4a3ddc441e1d11c7,(0755)28447055,16c4c8fa4a3ddc441e1d11c7
深圳市龙岗区横岗红棉一路城市中心花园10栋1-2层,龙岗区,深圳市,1,22.652687,114.201635,中国农业银行(深圳横岗新区支行),广东省,e93761f6ef30590c223bf2de,,e93761f6ef30590c223bf2de
广东省深圳市龙华区民塘路,龙华区,深圳市,1,22.634263,114.032695,中国农业银行(深圳水榭春天支行),广东省,d741407a95458b4502294f6b,(0755)23285922,d741407a95458b4502294f6b
深圳市龙华区龙峰二路113-115号,龙华区,深圳市,1,22.644179,114.034083,中国农业银行(深圳锦绣江南支行),广东省,9bc75509006e34a2e011032d,,9bc75509006e34a2e011032d
广东省深圳市福田区香梅路华泰香逸名园首层(福田国土局),福田区,深圳市,1,22.548253,114.047234,中国农业银行(深圳香蜜湖支行),广东省,6835e3a797be704ee3110337,"(0755)25313101,(0755)83730197,(0755)82946799,(0755)83731589",6835e3a797be704ee3110337
深圳市福田区梅丽路12-14号,福田区,深圳市,1,22.569837,114.048011,中国农业银行(深圳梅丽路支行),广东省,4cf8d24e2c46d3e49cf77937,(0755)83318504,4cf8d24e2c46d3e49cf77937
广东省深圳市南山区蛇口望海路1168-2号招商局广场3号楼,南山区,深圳市,1,22.487651,113.921966,中国农业银行(深圳招商广场支行),广东省,6b5de1f09a3cc0b81b11d5b0,(0755)26684335,6b5de1f09a3cc0b81b11d5b0
地新南街8号,龙岗区,深圳市,1,22.775218,114.312501,中国农业银行(深圳裕华社区支行),广东省,4c48b8828314fa40a8059d82,,4c48b8828314fa40a8059d82
深圳市龙岗区平湖富安大道华南国际工业原料城管理服务中心大楼1-2层,龙岗区,深圳市,1,22.683733,114.133235,中国农业银行(深圳华南城支行),广东省,38e48037543e2249373a71d1,(0755)89631455,38e48037543e2249373a71d1
深圳市福田区福华一路6号免税商务大厦裙楼首层107商铺,福田区,深圳市,1,22.542689,114.06207,中国农业银行(深圳免税大厦支行),广东省,0dc3d82dad9d521274e5b691,(0755)82763204,0dc3d82dad9d521274e5b691
"深圳市福田区车公庙泰然九路与六路交汇处深业泰然红松大厦B座A,C单元商铺",福田区,深圳市,1,22.53778,114.029661,中国农业银行(深圳车公庙支行),广东省,,(0755)83401786,b6838496d87c9e2ef62310f0
留仙大道与石鼓路交叉口西150米,南山区,深圳市,1,22.586719,113.953094,中国农业银行(深圳天悦湾支行),广东省,b5ed2d881278609f07fef52a,,b5ed2d881278609f07fef52a
广东省深圳市南山区深圳市软件产业基地4栋B座一楼,南山区,深圳市,1,22.529302,113.944934,中国农业银行(深圳软件园支行),广东省,65687105b030a49bdeee8bf0,(0755)26409766,65687105b030a49bdeee8bf0
广东省深圳市福田区八卦二路12号,福田区,深圳市,1,22.565205,114.109422,中国农业银行(深圳八卦岭支行),广东省,e308284875dca9c2b24c4991,"(0755)82406997,(0755)82421881",e308284875dca9c2b24c4991
金地一路瑞丰园购物广场旁,福田区,深圳市,1,22.522391,114.047484,中国农业银行(深圳金地社区支行),广东省,,(0755)23975030,05b124f6a407f44343e192d3
深圳市南山区白石路世纪村五栋日月府一楼商铺,南山区,深圳市,1,22.537746,113.972212,中国农业银行(深圳红树湾支行),广东省,2c889b183ec7c5a64c3a59aa,,2c889b183ec7c5a64c3a59aa
深圳市宝安区兴业路3003之45-46,宝安区,深圳市,1,22.574286,113.862011,中国农业银行(深圳富通城支行),广东省,7aa68979a5d36dfb79b55cef,(0755)29162013,7aa68979a5d36dfb79b55cef
广东省深圳市南山区松坪山路源兴科技大厦南座,南山区,深圳市,1,22.559524,113.958402,中国农业银行(深圳源兴科技支行),广东省,194fb506b70e90637369d3a3,(0755)86958091,194fb506b70e90637369d3a3
广东省深圳市盐田区金融路101号,盐田区,深圳市,1,22.554309,114.237197,中国农业银行(深圳金融路支行),广东省,365e0dc12bc1d8a6b11e36a4,,365e0dc12bc1d8a6b11e36a4
"深圳市龙岗区平湖街道白泥坑社区丹农路1号深圳海吉星农产品物流园六号楼F1001-1007、F1009、F2001,F2003,F2005,F2007,F2009号铺位",龙岗区,深圳市,1,22.65154,114.169176,中国农业银行(深圳平湖海吉星支行),广东省,,(0755)28326149,8078f098dc8b8d5581288a17
南山区兴隆街1号汉唐大厦2楼,南山区,深圳市,1,22.540832,113.991124,中国农业银行(深圳华侨城支行营业室),广东省,7d5f3a0add93f3362db908ad,,7d5f3a0add93f3362db908ad
广东省深圳市宝安区海秀路23号龙光世纪大厦1层,宝安区,深圳市,1,22.55545,113.892986,中国农业银行(深圳宝安中心区支行),广东省,5c7cc4b5e31b4478f90cad44,(0755)23121593,5c7cc4b5e31b4478f90cad44
广东省深圳市龙华区龙峰二路113-115号,龙华区,深圳市,1,22.633836,114.027368,中国农业银行(深圳中航九方社区支行),广东省,0193bd656a70b023dbeced48,,0193bd656a70b023dbeced48
广东省深圳市龙岗区清林东路66号碧湖农行,龙岗区,深圳市,1,22.726311,114.247573,中国农业银行(深圳龙岗中心城支行),广东省,,,e1662236c8e0ed46213bf243
深圳市龙华区华园道318,龙华区,深圳市,1,22.663859,114.026247,中国农业银行(小企业金融服务中心),广东省,60c9485010bf7d33e215f904,,60c9485010bf7d33e215f904
深圳市罗湖区深南东路5008号农行大厦,罗湖区,深圳市,1,22.54824,114.113105,中国农业银行(深圳市分行营业部营业室),广东省,f194652d47983f8df4231039,(0755)25466052,f194652d47983f8df4231039
沙头角保税区17栋1层,盐田区,深圳市,1,22.565412,114.250139,中国农业银行24小时自助银行(保发大厦东),广东省,b388f9fd33de5a41b35c6a24,,b388f9fd33de5a41b35c6a24
深圳市宝安区南昌路138号附近,宝安区,深圳市,1,22.600214,113.846255,中国农业银行24小时自助银行,广东省,,,1f89f59c882fb6f442d63e9a
深圳市光明区光明街道光明大街295号,光明区,深圳市,1,22.767624,113.952045,中国农业银行(深圳光明支行营业室),广东省,f5e3bcae16f42ec15f17c394,,f5e3bcae16f42ec15f17c394
深圳市盐田区沙深路112号建工大厦一楼,盐田区,深圳市,1,22.557076,114.234064,中国农业银行(深圳东部支行营业室),广东省,3f6e6e4ae4d266d5a11de9dd,(0755)25559209,3f6e6e4ae4d266d5a11de9dd
广东省深圳市龙岗区平湖富安大道华南国际工业原料城皮革商务中心1楼,龙岗区,深圳市,1,22.683655,114.13319,中国农业银行(深圳华南城支行理财中心),广东省,5a7f4303b645499fcf06a496,(0755)95599,5a7f4303b645499fcf06a496
广东省深圳市光明区光明新区公明魅力纯K派对KTV(公明店),光明区,深圳市,1,22.793915,113.886045,中国农业银行24小时自助银行(深宝大厦西北),广东省,94487b3d955ff4ec3f9a5e71,,94487b3d955ff4ec3f9a5e71
华夏路南200米,光明区,深圳市,1,22.754336,113.954116,中国农业银行ATM,广东省,,,94e3a6d974a891b14d2fdf94
允固街与梧岗路交叉口北50米,龙岗区,深圳市,1,22.619398,114.229873,中国农业银行24小时自助银行,广东省,,,db9419dfdbd16a3c38221cb2
广东省深圳市盐田区金融路99号附近,盐田区,深圳市,1,22.554403,114.23714,中国农业银行ATM,广东省,,,eb17ff12e0ed2addd5b74ebb
洲石公路恒丰工业城,宝安区,深圳市,1,22.636106,113.871274,中国农业银行ATM,广东省,,,34ebffc3ef7810b45fbe864c
深圳市宝安区西乡街道新湖路圣陶沙骏园4栋首层,宝安区,深圳市,1,22.58164,113.868569,中信银行(西乡支行),广东省,96b672aaf3f4a775ce04eff9,(0755)27901763,96b672aaf3f4a775ce04eff9
广东省深圳市龙岗区坪地街道办年丰村吉之堡购物中心首层,龙岗区,深圳市,1,22.771269,114.337246,中国农业银行ATM(新丰路),广东省,04bdf4a359ee8132354aae55,,04bdf4a359ee8132354aae55
广东省深圳市光明区七号路31号附近,光明区,深圳市,1,22.732836,113.920042,中国农业银行24小时自助银行(七号路),广东省,0259d694bb4269e72ce67b9d,,0259d694bb4269e72ce67b9d
广东省深圳市龙岗区新河路63号,龙岗区,深圳市,1,22.672702,114.121712,中国农业银行ATM(新河路),广东省,dd85d97d7cf65b38631c67ba,,dd85d97d7cf65b38631c67ba
广东省深圳市龙岗区松源路1三联大酒店首层,龙岗区,深圳市,1,22.634389,114.121158,中国农业银行24小时自助银行(松源路),广东省,a24b134e8856828cafee7a63,,a24b134e8856828cafee7a63
松新工业区天天乐超市,宝安区,深圳市,1,22.759735,113.87095,中国农业银行24小时自助银行(区间路),广东省,,,32bef76207cff8c94c3a59bd
广东省深圳市宝安区沙井同心百货(新沙店),宝安区,深圳市,1,22.73693,113.794371,中国农业银行24小时自助银行(新沙路),广东省,e70e9157e6b76357ab175a2c,,e70e9157e6b76357ab175a2c
广东省深圳市龙华区观澜人民路34-6,龙华区,深圳市,1,22.710109,114.047978,中国农业银行24小时自助银行服务(武馆路),广东省,2580ab16378fd359f82d615a,,2580ab16378fd359f82d615a
广东省深圳市宝安区田寮社区第八工业区3栋炜东城百货1楼,宝安区,深圳市,1,22.731971,113.911687,中国农业银行ATM(田寮路),广东省,77f71c54912d4808901fc9ca,,77f71c54912d4808901fc9ca
广东省深圳市龙岗区康桥路128号,龙岗区,深圳市,1,22.63345,114.150806,中国农业银行ATM(宝冠路),广东省,2527be1e15c173cd4bfc8dad,,2527be1e15c173cd4bfc8dad
深圳市盐田区深圳市盐田区沙头角中心深盐路与海山路交汇处西南角(区政府对面)壹海城F1,盐田区,深圳市,1,22.561953,114.245296,中国农业银行24小时自助银行(壹海城),广东省,13c22d786844445908ccdd7e,,13c22d786844445908ccdd7e
同德路人人购物广场同乐店1层,龙岗区,深圳市,1,22.719897,114.321624,中国农业银行ATM(阳新路),广东省,c61bd305d0c8ea68c27da2ce,,c61bd305d0c8ea68c27da2ce
广东省深圳市龙岗区华南城世纪商会中心,龙岗区,深圳市,1,22.683731,114.133172,中国农业银行24小时自助银行(佳业路),广东省,631c4157a6cf166131f71dd1,,631c4157a6cf166131f71dd1
广东省深圳市龙华区布新路226-7,龙华区,深圳市,1,22.729496,114.046717,中国农业银行24小时自助银行服务(布新路),广东省,71f41ff547f33896b320a87e,,71f41ff547f33896b320a87e
广东省深圳市龙华区清湖社区清宁路彩煌工业园,龙华区,深圳市,1,22.67606,114.062535,中国农业银行24小时自助银行(清宁路),广东省,87628586646c3fd0220262ce,,87628586646c3fd0220262ce
广东省深圳市宝安区沙井苇度精品酒店(沙井店)西北,宝安区,深圳市,1,22.729948,113.805576,中国农业银行24小时自助银行(万安路),广东省,4cf8d24ec369ac999cf77919,,4cf8d24ec369ac999cf77919
深圳市宝安区海城路201号时代城F1,宝安区,深圳市,1,22.572848,113.874222,中国农业银行24小时自助银行服务(时代城),广东省,aa40108bfe0dc615c5effbf9,,aa40108bfe0dc615c5effbf9
广东省深圳市福田区中心区卓越大厦(兴融二路),福田区,深圳市,1,22.543309,114.057477,农行中心区支行办公区,广东省,e6bd8d8ea547382c8605bfe9,,e6bd8d8ea547382c8605bfe9
老围路21-2附近,龙岗区,深圳市,1,22.789002,114.3254,中国农业银行24小时自助银行,广东省,7eff21cedfc7378451e5c5f0,,7eff21cedfc7378451e5c5f0
广东省深圳市龙岗区岭南路7-65,龙岗区,深圳市,1,22.600049,114.481542,中国农业银行24小时自助银行,广东省,,,365a670447e91b49774ff130
坪山区振碧路22-1号,坪山区,深圳市,1,22.675218,114.300478,中国农业银行24小时自助银行,广东省,ab65d8a33670051984330465,,ab65d8a33670051984330465
平湖大街536号9号,龙岗区,深圳市,1,22.698432,114.138759,中国农业银行24小时自助银行服务(平湖大街),广东省,e71efb2ea2bdf21f35b06c80,,e71efb2ea2bdf21f35b06c80
广东省深圳市龙华区观平路197,龙华区,深圳市,1,22.716756,114.082935,中国农业银行24小时自助银行,广东省,8d0eabc8485830f08bdb733c,,8d0eabc8485830f08bdb733c
大三村257,龙华区,深圳市,1,22.737191,114.019503,中国农业银行24小时自助银行,广东省,1098e60c1ec52a04077ce800,,1098e60c1ec52a04077ce800
砖厂村石头山工业区光星厂,宝安区,深圳市,1,22.678984,113.920265,中国农业银行24小时自助银行(洲石公路),广东省,bba39238049e439bede4a5a2,,bba39238049e439bede4a5a2
广东省深圳市盐田区东海道425号(鑫群实业办公大楼南),盐田区,深圳市,1,22.601083,114.254251,中国农业银行24小时自助银行(永安北三街),广东省,,,bc5b6cd129b53d2609b93acb
广东省深圳市龙华区家和乐购物广场(翠园分店),龙华区,深圳市,1,22.604989,114.062574,中国农业银行24小时自助银行服务(民乐商场),广东省,15a93810ce1e56c014c8f675,,15a93810ce1e56c014c8f675
南坑北路39号,龙岗区,深圳市,1,22.619995,114.070051,中国农业银行24小时自助银行服务(南坑北路),广东省,69130523046f9576735e80ad,,69130523046f9576735e80ad
海德三道滨海之窗花园1层,南山区,深圳市,1,22.525437,113.943039,中国农业银行24小时自助银行(后海支行),广东省,03dd9d1002249503715e8043,,03dd9d1002249503715e8043
广东省深圳市宝安区沙井新区名购百货(芙蓉店)东60米,宝安区,深圳市,1,22.742309,113.86149,中国农业银行24小时自助银行(芙蓉六路),广东省,05c123cea15b5cf1b25c6a99,,05c123cea15b5cf1b25c6a99
深圳市宝安区广深路沙井段122号,宝安区,深圳市,1,22.72823,113.847622,中国农业银行ATM(上南支行),广东省,a7c56ee0a020d2b3a2acc4e0,,a7c56ee0a020d2b3a2acc4e0
钟屋一路16号之1附近,宝安区,深圳市,1,22.628975,113.855714,中国农业银行24小时自助银行,广东省,9ceb4d4ad0439d8d901fc973,,9ceb4d4ad0439d8d901fc973
招商澜园1楼大和路1号附近,龙华区,深圳市,1,22.691305,114.055505,中国农业银行24小时自助银行,广东省,a1ca560ca87881cfb9df8f1a,,a1ca560ca87881cfb9df8f1a
深圳市福田区福华一路3号深圳中心城F1,福田区,深圳市,1,22.540731,114.066663,中国农业银行24小时自助银行服务(怡景中心城),广东省,7f2a311a4e406f1dab059d0d,,7f2a311a4e406f1dab059d0d
广东省深圳市坪山区龙兴南路71-1附近,坪山区,深圳市,1,22.755511,114.373452,中国农业银行24小时自助银行服务(龙兴南路),广东省,c8d017416331271c6849f365,,c8d017416331271c6849f365
金田路249号附近,坪山区,深圳市,1,22.698726,114.408366,中国农业银行24小时自助银行,广东省,,,faee4531dfbd4401ab0dd8ef
广东省深圳市龙华区观澜商业广场(环观南路北),龙华区,深圳市,1,22.696446,114.058468,中国农业银行24小时自助银行(环观南路),广东省,93c64b8122a2aac2d618b716,,6f5afc0f4f25fbadaccb66cc
深圳市罗湖区信教地路与新平大道交叉口南200米,罗湖区,深圳市,1,22.606973,114.181858,中国农业银行24小时自助银行,广东省,3464d06a64b0fac9118824b3,,3464d06a64b0fac9118824b3
深圳市罗湖区布吉路1021号天乐大厦首层,罗湖区,深圳市,1,22.587874,114.124245,中国农业银行24小时自助银行(天乐支行),广东省,df8d773c67b5a98bb23c8105,,33fbfa83d7b279bf0bf5eb4f
广东省深圳市宝安区塘头大道4,宝安区,深圳市,1,22.657711,113.925717,中国农业银行24小时自助银行,广东省,b7b02fea1c88243cb31e36ec,,b7b02fea1c88243cb31e36ec
广东省深圳市宝安区环镇路潮集第商业广场3楼正北方向73米,宝安区,深圳市,1,22.760142,113.823483,中国农业银行ATM(步涌工业路),广东省,6deee308c380e21429fc48d6,,6deee308c380e21429fc48d6
广东省深圳市龙岗区如意路龙岗供销合作联社大楼1层,龙岗区,深圳市,1,22.704845,114.235648,中国农业银行24小时自助银行(深圳爱联支行),广东省,f78f2ca13c6b442872455b6d,,f78f2ca13c6b442872455b6d
深圳市龙岗区平吉大道9号附近,龙岗区,深圳市,1,22.656489,114.132454,中国农业银行24小时自助银行服务,广东省,d8c7bf1820833314abf72907,,d8c7bf1820833314abf72907
广东省深圳市龙岗区布吉镇布吉路106号,龙岗区,深圳市,1,22.606908,114.123992,中国农业银行24小时自助银行(深圳振兴支行),广东省,beb3f5eabf491fa985420e7d,,a214ecd89565c4966fc02cf0
广东省深圳市罗湖区深南东路5002号信兴广场地王商业大厦G层地王大厦,罗湖区,深圳市,1,22.548984,114.117059,中国农业银行自助银行(深南东路),广东省,f008ba648b749537bfa8221f,,f008ba648b749537bfa8221f
同沙路27-13号,南山区,深圳市,1,22.589563,113.955515,中国农业银行24小时自助银行服务(西丽人民医院西),广东省,39c2d2f5194a76de2d4733cd,,39c2d2f5194a76de2d4733cd
深圳市宝安区建安一路424附近,宝安区,深圳市,1,22.580195,113.900628,中国农业银行24小时自助银行服务,广东省,,,d6acd71170a5be2ec42ba1ce
福田区华强北路1082号,福田区,深圳市,1,22.550263,114.093865,中国农业银行24小时自助银行服务(深圳华强支行),广东省,c613515f4be6f9208f1a892c,,dffd4642787c6bcc3d9a5ea4
深圳市龙华区深圳市龙华区深圳市龙华区人民路2020号九方购物中心F1,龙华区,深圳市,1,22.633878,114.027361,中国农业银行24小时自助银行服务(九方购物中心),广东省,f7e82b598e71c29dcf06a40b,,f7e82b598e71c29dcf06a40b
塘头大道161-191号,宝安区,深圳市,1,22.67141,113.919983,中国农业银行ATM(金三角大厦西),广东省,e5e6e3ce13d03c412fb908ff,,e5e6e3ce13d03c412fb908ff
广东省深圳市宝安区西乡广深公路西成工业区北门,宝安区,深圳市,1,22.602364,113.87542,中国农业银行ATM(广深公路辅路),广东省,60782265544635e4e856fa09,,60782265544635e4e856fa09
深圳市宝安区区政府二楼24号,宝安区,深圳市,1,22.561634,113.890339,中国农业银行自助银行(区政府),广东省,,,3746ea1c4af3c00928201a3f
广东省深圳市福田区华发南路飞扬时代大厦裙楼1001号1002号,福田区,深圳市,1,22.545519,114.096004,中国农业银行自助银行(新沙支行),广东省,a5097bfa78d1151ef13cbab3,,a5097bfa78d1151ef13cbab3
深圳市南山区南新路1003-3号,南山区,深圳市,1,22.518435,113.919655,中国农业银行24小时自助银行(深圳环新支行),广东省,850815e158683be542e192a5,,850815e158683be542e192a5
广东省深圳市宝安区新瑞路13附近,宝安区,深圳市,1,22.635522,113.84251,中国农业银行24小时自助银行服务,广东省,8e39974dfd880ae13f9a5edb,,8e39974dfd880ae13f9a5edb
深圳市坪山区深汕路坪山段43,坪山区,深圳市,1,22.705778,114.334077,中国农业银行24小时自助银行(宝山路),广东省,dffd631c745909c239221c8d,,dffd631c745909c239221c8d
广东省深圳市龙华区观平路33,龙华区,深圳市,1,22.706133,114.097484,中国农业银行24小时自助银行(新丰路),广东省,f8193b0642c40a3c601c679d,,f9727add42214b22f60e775a
华旺路299-1,龙华区,深圳市,1,22.68593,114.011714,中国农业银行24小时自助银行(华旺路),广东省,f11c217dd21a15121df74de9,,f11c217dd21a15121df74de9
深圳市龙华区大浪街道办办公楼大厅内,龙华区,深圳市,1,22.68666,114.013584,中国农业银行ATM(龙华区大浪街道办),广东省,bb823309c12dc95abda240ad,,bb823309c12dc95abda240ad
松柏路146号附近,龙岗区,深圳市,1,22.650086,114.216653,中国农业银行24小时自助银行(松柏路),广东省,,,499dd7da9a9c80f4b74f54b0
深圳市龙岗区京南路91-B7,龙岗区,深圳市,1,22.606862,114.131718,中国农业银行24小时自助银行(京南路),广东省,796ca414265f25c2c9291516,,796ca414265f25c2c9291516
松坪山路1-2号,南山区,深圳市,1,22.559711,113.958407,中国农业银行24小时自助银行(深圳源兴科技支行),广东省,4f8d77a76cb3bf9c30169bb1,,4f8d77a76cb3bf9c30169bb1
广东省深圳市南山区南新路2032-4,南山区,深圳市,1,22.534461,113.925191,中国农业银行24小时自助银行(南新路),广东省,b87ff79ac71eb5a6c056acc5,,b87ff79ac71eb5a6c056acc5
广东省深圳市宝安区兴业一路123,宝安区,深圳市,1,22.706898,113.850152,中国农业银行24小时自助银行(宝文路),广东省,22e114078026fecad5b74ed6,,22e114078026fecad5b74ed6
广东省深圳市龙华区安宏基科技大厦1楼,龙华区,深圳市,1,22.671793,114.003226,中国农业银行24小时自助银行(潭罗路),广东省,b5fd2e4facf43c01b4265582,,b5fd2e4facf43c01b4265582
广东省深圳市福田区益田路48号信息枢纽大厦裙楼三楼,福田区,深圳市,1,22.542554,114.062207,中国农业银行24小时自助银行服务(深圳免税大厦支行),广东省,f9c3216145f1142e9e82eabe,,631c41576fbfdf1f31f71ddc
深圳市福田区福华三路卓越INTOWN购物中心B1层,福田区,深圳市,1,22.53737,114.071004,中国农业银行24小时自助银行(in town),广东省,bdda37d9d36cdd853517dc6e,,bdda37d9d36cdd853517dc6e
广东省深圳市龙岗区龙河路84-2,龙岗区,深圳市,1,22.729093,114.263876,中国农业银行24小时自助银行(龙河路),广东省,65c8ef7cb847568a593ac816,,64f69318e78aacbb3517dcbf
深圳市光明区公常路220号附近,光明区,深圳市,1,22.795631,113.951797,中国农业银行24小时自助银行(美明路),广东省,02c5c3f0025b7c3c4d776e45,,02c5c3f0025b7c3c4d776e45
广东省深圳市龙岗区横岗街道228工业区商业楼1层,龙岗区,深圳市,1,22.671856,114.208503,中国农业银行24小时自助银行(信义路),广东省,c0e81abc8a403f494d2fdf4a,,c0e81abc8a403f494d2fdf4a
深圳市龙岗区横岗街道六约路天天乐百货1楼,龙岗区,深圳市,1,22.641782,114.195709,中国农业银行24小时自助银行(六约路),广东省,04bdf4a3edf91d31354aae4f,,04bdf4a3edf91d31354aae4f
广东省深圳市福田区金田路1003号(近御庭园),福田区,深圳市,1,22.525024,114.07177,中国农业银行24小时自助银行服务(深圳福田口岸支行),广东省,d019972641d737f0d92f288c,,d5d3e3eadcae7f5ef5c59c99
广东省深圳市宝安区沙井新区松岗蚌岗路南(蚌岗百货商场附近),宝安区,深圳市,1,22.758725,113.857322,中国农业银行24h自助银行服务(蚌岗路),广东省,,,24ab8c8f970115722fe67bd8
深圳市坪山区人民西路141,坪山区,深圳市,1,22.753748,114.389683,中国农业银行24小时自助银行(明冠路),广东省,12a8cee7a69140a30e3ddace,,12a8cee7a69140a30e3ddace
广东省深圳市龙华区观澜首信广场北(桂花路南),龙华区,深圳市,1,22.730538,114.066404,中国农业银行24小时自助银行(桂花路),广东省,ac7ab3a5cf1646b600ff2d82,,ac7ab3a5cf1646b600ff2d82
广东省深圳市龙华区华昌路128附近,龙华区,深圳市,1,22.682273,114.007341,中国农业银行24小时自助银行(华昌路),广东省,3bc98f933177cb540ab93a2f,,3bc98f933177cb540ab93a2f
广东省深圳市罗湖区太白路4012号松泉山庄商业裙楼一楼,罗湖区,深圳市,1,22.583187,114.132598,中国农业银行24小时自助银行(太白路),广东省,c22fa34056bdd566873304d3,,c22fa34056bdd566873304d3
广东省深圳市福田区红岭南路1001号,福田区,深圳市,1,22.546548,114.11082,中国农业银行深圳市分行信用卡中心,广东省,7669df4eb1e230498bf15d4e,,7669df4eb1e230498bf15d4e
布龙路坂田医院,龙岗区,深圳市,1,22.633285,114.074215,中国农业银行24小时自助银行(东坡街),广东省,605716183d4f200c9122e0c9,,605716183d4f200c9122e0c9
广东省深圳市龙岗区龙岗中心城新亚洲花园一楼,龙岗区,深圳市,1,22.721347,114.24436,中国农业银行24小时自助银行(深圳龙翔支行),广东省,34e48508a1cff39cd9d891ad,,34e48508a1cff39cd9d891ad
龙城街道五联村岭背坑连心路21号,龙岗区,深圳市,1,22.752967,114.240831,中国农业银行24小时自助银行服务(龙城街道五联村岭背坑连心路),广东省,eb3675034902fd6501ec01a4,,eb3675034902fd6501ec01a4
深圳市龙岗区龙翔大道6099号国安居装饰建材F1,龙岗区,深圳市,1,22.714751,114.241164,中国农业银行24小时自助银行(国安居装饰建材),广东省,5c2dc21dfce1f77a6ec02c9b,,5c2dc21dfce1f77a6ec02c9b
深圳市宝安区宝石南路186号,宝安区,深圳市,1,22.684344,113.940383,中国农业银行24小时自助银行(深圳石岩支行),广东省,,,3a313c8f9d597fd035b06c6e
广东省深圳市龙岗区横岗街道油园路30号,龙岗区,深圳市,1,22.637301,114.236321,中国农业银行24小时自助银行(横岗街道中裕电器公司),广东省,,,b388f9fdf3ca1a40b35c6a3b
彩姿南路与新河四巷交叉口北50米,龙岗区,深圳市,1,22.67517,114.12564,中国农业银行24小时自助银行(上木古社区健康服务中心东北),广东省,636ba1c3e4bd952ae81e975f,,636ba1c3e4bd952ae81e975f
广东省深圳市盐田区沙深路114号,盐田区,深圳市,1,22.557092,114.233901,中国农业银行24小时自助银行(深圳东部支行),广东省,d5f93c0e1470bd5ceddfca2f,,d5f93c0e1470bd5ceddfca2f
广东省深圳市罗湖区人民北路3146号永通大厦1楼,罗湖区,深圳市,1,22.561115,114.127524,中国农业银行24小时自助银行(人民北路支行),广东省,15e216487e000d17ab0dd8e5,,15e216487e000d17ab0dd8e5
广东省深圳市罗湖区翠竹路1010号金福大厦1层,罗湖区,深圳市,1,22.564169,114.136822,中国农业银行24小时自助银行(深圳金福支行),广东省,3cb12920e9d1816dc17da205,,3cb12920e9d1816dc17da205
广东省深圳市福田区百花二路百花公寓1楼,福田区,深圳市,1,22.557288,114.098866,中国农业银行24小时自助银行(深圳长城支行),广东省,435d7aea6a183b355abbbc36,,435d7aea6a183b355abbbc36
深圳市福田区八卦二路12号,福田区,深圳市,1,22.565307,114.1092,中国农业银行24小时自助银行(八卦岭支行),广东省,6913052304dc9576725e8002,,6913052304dc9576725e8002
广东省深圳市龙岗区坂田华府公寓东门(雪岗北路西),龙岗区,深圳市,1,22.668369,114.067585,中国农业银行24小时自助银行(雪岗北路),广东省,c25c85b15bc1f0ac843304c1,,74d82409f61405ccc9fa5fff
深圳市绒花路帝港海湾豪园城市3米6公寓1层,福田区,深圳市,1,22.514301,114.062699,中国农业银行24小时自助银行(福田保税区支行),广东省,07d165a104efebaa0782c2cc,,93df0dc3f882b52b882fb536
深圳市福田区福民路18-3号,福田区,深圳市,1,22.529442,114.070617,中国农业银行24小时自助银行(深圳皇岗支行),广东省,f37172355e46c22b9ff7797b,,beb0792513d5113814c8f668
深圳市福田区彩田南路中深花园大厦首层,福田区,深圳市,1,22.537441,114.075294,中国农业银行自助银行(彩田南路中深花园首层),广东省,78bd50f7a2eb4d5b31870a37,,78bd50f7a2eb4d5b31870a37
福田区泰然六路红松大厦A座,福田区,深圳市,1,22.537646,114.029639,中国农业银行24小时自助银行(深圳车公庙支行),广东省,dd5cba5ff8338b1f8605bfb6,,dd5cba5ff8338b1f8605bfb6
深圳市南山区白石路世纪村五栋日月府一楼商铺,南山区,深圳市,1,22.546709,113.97488,中国农业银行24小时自助银行(深圳白石洲支行),广东省,b533ea4ad577a43f4f6d46dc,,b533ea4ad577a43f4f6d46dc
深圳市南山区科苑路7号,南山区,深圳市,1,22.550437,113.95166,中国农业银行24小时自助银行(深圳科技园支行),广东省,5c2dc21de8cbcb7a6ec02cad,,5c2dc21de8cbcb7a6ec02cad
广东省深圳市南山区桃源村97栋首层,南山区,深圳市,1,22.565167,113.986848,中国农业银行24小时自助银行(桃源支行),广东省,f4e7296f3344d87721f017bb,,f4e7296f3344d87721f017bb
建安一路50号宝安区三区,宝安区,深圳市,1,22.563439,113.91709,中国农业银行24小时自助银行(深圳宝安支行),广东省,98d0d5a4fe099ae15cd4fe36,,98d0d5a4fe099ae15cd4fe36
创业二路268号东联大厦1层,宝安区,深圳市,1,22.581337,113.918521,中国农业银行24小时自助银行(深圳新安支行),广东省,22e114079dbef9cad5b74e4e,,22e114079dbef9cad5b74e4e
桂湾三路与月亮湾大道交汇处龙海商业广场北区1层,南山区,深圳市,1,22.542316,113.912399,中国农业银行24小时自助银行(龙海商业广场店),广东省,65056c39de246ba476e5b65f,,65056c39de246ba476e5b65f
常兴路100号,南山区,深圳市,1,22.537483,113.927662,中国农业银行24小时自助银行服务(深圳大新支行),广东省,37ea94c4d50ce7995cd4fec8,,37ea94c4d50ce7995cd4fec8
深圳市南山区创业路3014号,南山区,深圳市,1,22.521477,113.932707,中国农业银行24小时自助银行(深圳海王支行),广东省,68f8b2cd84fdf20dcd06a490,,68f8b2cd84fdf20dcd06a490
中心路2237号(深圳湾段),南山区,深圳市,1,22.507501,113.946533,中国农业银行24小时自助银行(深圳深圳湾支行),广东省,f6c56e542934b0c958f6be82,,f6c56e542934b0c958f6be82
深圳市宝安区吉祥大道46号,宝安区,深圳市,1,22.774067,113.851573,中国农业银行24小时自助银行(深圳松岗支行),广东省,f4ca00e8ebf452292dfaa748,,f4ca00e8ebf452292dfaa748
深圳市宝安区中心路金达城大厦1层,宝安区,深圳市,1,22.738596,113.836786,中国农业银行24小时自助银行(深圳沙井支行),广东省,758afc86612b84be8505bf27,,758afc86612b84be8505bf27
西乡街道107国道旁西成工业区大门口,宝安区,深圳市,1,22.613326,113.870239,中国农业银行24小时自助银行(广深公路),广东省,9be739ae3fc24f688936ee42,,9be739ae3fc24f688936ee42
前进二路102-6号红树湾家具附近,宝安区,深圳市,1,22.595763,113.891453,中国农业银行24小时自助银行(深圳前进路支行),广东省,a74481d680e6a846f503b8f6,,a74481d680e6a846f503b8f6
广东省深圳市宝安区宝安大道4315号文浩商务大厦1楼,宝安区,深圳市,1,22.603951,113.854277,中国农业银行24小时自助银行(宝安大道),广东省,0eb5f13df375cf76acee7a22,,0eb5f13df375cf76acee7a22
翻身路163号理想居1层,宝安区,深圳市,1,22.573267,113.893794,中国农业银行24小时自助银行(上川一路),广东省,c9138d25b5ad9311c2f1cfd4,,5c26bed50b9df43ef5c59c1a
深圳市坪山建设路21号,坪山区,深圳市,1,22.695701,114.354294,中国农业银行24小时自助银行(深圳坪山支行),广东省,101bc61bdfd208a3c42ba1ce,,101bc61bdfd208a3c42ba1ce
深圳市龙岗区丰田路100,龙岗区,深圳市,1,22.754012,114.283722,中国农业银行24小时自助银行(深圳新生支行),广东省,96be507add44ac10336212a4,,96be507add44ac10336212a4
罗瑞合街与龙平东路交叉口西北50米,龙岗区,深圳市,1,22.736072,114.276698,中国农业银行24小时自助银行(深圳龙岗支行营业室),广东省,30d932d350e694d0223bf2d9,,30d932d350e694d0223bf2d9
深圳市龙岗区深惠公路864号农行大厦,龙岗区,深圳市,1,22.73041,114.277035,中国农业银行24小时自助银行(深圳龙岗支行营业室),广东省,ece9358271f8dc91f4231076,,ece9358271f8dc91f4231076
深圳市龙岗区葵新北路38,龙岗区,深圳市,1,22.638123,114.428266,中国农业银行24小时自助银行(深圳葵涌支行),广东省,b1c556e874275072b426553d,,b1c556e874275072b426553d
广东省深圳市龙岗区龙岗街道龙西中路24小时经济酒店,龙岗区,深圳市,1,22.751033,114.255558,中国农业银行24小时自助银行(龙西中路),广东省,62905068d75bd6bea2d230c5,,62905068d75bd6bea2d230c5
广东省深圳市龙岗区中心城龙翔大道新德广场10号,龙岗区,深圳市,1,22.715988,114.242789,中国农业银行自助银行(中心城龙翔大道新德广场),广东省,d97920525a27c48c6140a9d3,,d97920525a27c48c6140a9d3
广东省深圳市龙岗区平安大道8-5附近,龙岗区,深圳市,1,22.685107,114.14356,中国农业银行24小时自助银行服务(平安大道),广东省,,,6acf121378247eee077ce83a
深圳市龙华区新澜大街60,龙华区,深圳市,1,22.723398,114.061218,中国农业银行ATM(龙华观澜街道办办公楼大厅),广东省,5e53af1a875ceb214051c0a4,,5e53af1a875ceb214051c0a4
广东省深圳市光明区塘前路113,光明区,深圳市,1,22.761001,113.911412,中国农业银行24小时自助银行服务(024乡道),广东省,,,c5daf3895c6f681bf8dc8579
"深圳市龙岗区平湖街道白泥坑社区丹农路1号深圳海吉星农产品物流园六号楼F1,F3",龙岗区,深圳市,1,22.651683,114.169167,中国农业银行自助银行(平湖街道白泥坑社区丹农路),广东省,,,74818c8af82ede204d5547c8
广东省深圳市龙岗区布吉街道金鹏路18号农行大厦,龙岗区,深圳市,1,22.611592,114.12439,中国农业银行24小时自助银行(深圳布吉支行),广东省,c1ae2e3aadd36deec056ac80,,c1ae2e3aadd36deec056ac80
广东省深圳市罗湖区田贝四路阳光天地花园一楼,罗湖区,深圳市,1,22.57349,114.134639,中国农业银行24小时自助银行(深圳珠宝中心支行),广东省,ade88102154d8730f7e73b9e,,ade88102154d8730f7e73b9e
深圳市罗湖区向西路105号,罗湖区,深圳市,1,22.550153,114.131158,中国农业银行24小时自助银行服务(罗湖支行),广东省,eeb74e8ec97e5795ddee8b60,,b06a56e0ccbca86ccac3dbf9
广东省深圳市罗湖区松园路68号鸿翔花园裙楼,罗湖区,深圳市,1,22.559967,114.113558,中国农业银行24小时自助银行(社区支行),广东省,ef3d36df1108b9e21029352a,,b35f6cb79f1c774cd23ce3ff
广东省深圳市罗湖区宝安南路3011号,罗湖区,深圳市,1,22.557374,114.115432,中国农业银行24小时自助银行(宝安南路),广东省,,,029785bcc8c402e8f03cba08
广东省深圳市罗湖区人民北路2061,罗湖区,深圳市,1,22.553628,114.125951,中国农业银行24小时自助银行服务(人民北路二横街耀华楼首层),广东省,,,b0965023f54fc2c814b54b04
广东省深圳市龙华区陶吓锦华大厦103,龙华区,深圳市,1,22.65408,114.01201,中国农业银行24小时自助银行(锦华支行),广东省,,,30c163ce150abf15ad080f0b
广东省深圳市龙华区民治街道梅龙大道阳光新境园一、二层商铺,龙华区,深圳市,1,22.63435,114.037362,中国农业银行24小时自助银行(深圳梅龙支行),广东省,b483147ab51c0acbc51b758e,,b483147ab51c0acbc51b758e
广东省深圳市龙华区人民路3128,龙华区,深圳市,1,22.644122,114.034007,中国农业银行24小时自助银行服务(锦绣江南支行),广东省,69abe18390948029213bf250,,69abe18390948029213bf250
深圳市福田区香梅路华泰香逸名园一楼,福田区,深圳市,1,22.548109,114.047286,中国农业银行24小时自助银行服务(深圳香蜜湖支行),广东省,6d6a7228ea612307374aae42,,6d6a7228ea612307374aae42
深圳市福田区梅丽路10号富盛花园一楼,福田区,深圳市,1,22.569778,114.048097,中国农业银行24小时自助银行(深圳梅丽路支行),广东省,75d0881a3448d34d3a04b136,,75d0881a3448d34d3a04b136
福田区中康路1号华茂苑商住大厦1楼,福田区,深圳市,1,22.569916,114.064534,中国农业银行24小时自助银行(深圳梅林支行),广东省,a1418eb42e695201ebe582d7,,a1418eb42e695201ebe582d7
广东省深圳市福田区彩田南路中深花园首层,福田区,深圳市,1,22.537316,114.075126,中国农业银行24小时自助银行(深圳福田支行营业室),广东省,a74481d680a6a846f503b836,,a74481d680a6a846f503b836
广东省深圳市福田区益田路48号信息枢纽大厦裙楼3层,福田区,深圳市,1,22.541574,114.06244,中国农业银行ATM(深圳信息枢纽中心支行),广东省,79ceb98bf52a9e59f6c59c39,,79ceb98bf52a9e59f6c59c39
广东省深圳市福田区福华三路118号皇庭广场B1层,福田区,深圳市,1,22.539127,114.066802,中国农业银行24小时自助银行(皇庭广场),广东省,8fadf1ecd323574a63180987,,8fadf1ecd323574a63180987
香林路31号,福田区,深圳市,1,22.543482,114.031526,中国农业银行24小时自助银行(深圳东海支行),广东省,c7dd70511d1a12840d3dda69,,c7dd70511d1a12840d3dda69
向南路56-2号,南山区,深圳市,1,22.517308,113.930841,中国农业银行24小时自助银行服务(南海支行),广东省,ab2e1ab587ecbe64ed74f8dd,,ab2e1ab587ecbe64ed74f8dd
南山区学府路308号,南山区,深圳市,1,22.534418,113.91953,中国农业银行24小时自助银行服务(深圳前海支行),广东省,677db8f0cd1fca43ec74f8e1,,750ec165cfef83554c3a59f0
广东省深圳市南山区南新路3050号,南山区,深圳市,1,22.54368,113.926702,中国农业银行24小时自助银行(南新路支行),广东省,7af8e48c652f7eb3fd0eb008,,7af8e48c652f7eb3fd0eb008
广东省深圳市南山区深圳市软件产业基地中国农业银行,南山区,深圳市,1,22.529426,113.944839,中国农业银行24小时自助银行(深圳软件园支行),广东省,372a3d8fa97e16ffca213d63,,372a3d8fa97e16ffca213d63
福永大道118号,宝安区,深圳市,1,22.675885,113.828477,中国农业银行24小时自助银行(深圳福永支行),广东省,7bd642cfcf72fd6d1ef74d02,,7bd642cfcf72fd6d1ef74d02
广东省深圳市宝安区西乡簕竹角同富路1栋-1号,宝安区,深圳市,1,22.661484,113.869126,中国农业银行24小时自助银行(天富安社区健康服务中心东南),广东省,,,f640650305ff0a90eaf8531a
深圳市宝安区西乡固戍村固戍一路置富广场1楼,宝安区,深圳市,1,22.607337,113.867724,中国农业银行24小时自助银行(东华商业B街),广东省,114832ee0dd0b91a0b1cc71d,,114832ee0dd0b91a0b1cc71d
广东省深圳市宝安区西乡宝田工业区天勤安盛大厦,宝安区,深圳市,1,22.608951,113.877242,中国农业银行24小时自助银行(宝田三路),广东省,b012ac3c6832a02fa7c756a7,,b012ac3c6832a02fa7c756a7
深圳市宝安区西乡街道银田工业区A7首层,宝安区,深圳市,1,22.591698,113.86565,中国农业银行自助银行(西乡街道银田工业区A),广东省,37ea424def25101040ab9a79,,37ea424def25101040ab9a79
固戍一路883-1号,宝安区,深圳市,1,22.598114,113.852155,中国农业银行24小时自助银行(固戍一路),广东省,,,edd9b9ee3d0b427552e5c56f
深圳市宝安区兴业路3003-49号,宝安区,深圳市,1,22.57443,113.86195,中国农业银行24小时自助银行服务(富通城支行),广东省,,,cdd574ee73cfd69288db7372
南山区招商路39号,南山区,深圳市,1,22.49585,113.932232,中国农业银行24小时自助银行服务(深圳蛇口支行),广东省,b8b7f551c624a6b32fb9087e,,b8b7f551c624a6b32fb9087e
广东省深圳市南山区蛇口望海路1168-2号招商局广场3号楼101~103房,南山区,深圳市,1,22.487792,113.921667,中国农业银行24小时自助银行(深圳招商广场支行),广东省,135f2e5a62b2ec5cc0364483,,135f2e5a62b2ec5cc0364483
湖田路70-5,龙岗区,深圳市,1,22.777141,114.315281,中国农业银行24小时自助银行(深圳坪地支行),广东省,9a3046658a4a09c03b221c79,,9a3046658a4a09c03b221c79
广东省深圳市龙岗区龙翔大道9009号珠江国际中心首层,龙岗区,深圳市,1,22.728883,114.256501,中国农业银行24小时自助银行(深圳龙岗支行),广东省,4615ab7665c2eb2c1894c62b,,4615ab7665c2eb2c1894c62b
平湖街辅城坳维峰大厦1层,龙岗区,深圳市,1,22.701074,114.118899,中国农业银行24小时自助银行(工业大道),广东省,945ba05e7f88b6dd9cf779c0,,945ba05e7f88b6dd9cf779c0
广东省深圳市龙岗区平湖街道辅城坳富裕路6-1号,龙岗区,深圳市,1,22.695694,114.114319,中国农业银行自助银行(平湖街道辅城坳富裕路),广东省,79e21d236722db720a5cb3dd,,c60d4da2710b94d6b5f42fba
广东省深圳市光明区西田路39,光明区,深圳市,1,22.808311,113.906556,中国农业银行24小时自助银行服务(西田路),广东省,2d44b1d58fc7ce87afee7a24,,2d44b1d58fc7ce87afee7a24
深圳市光明区光侨大道3638号,光明区,深圳市,1,22.786009,113.958798,中国农业银行24小时自助银行(果园中心路),广东省,d52831f925696ada2efaa76e,,d52831f925696ada2efaa76e
广东省深圳市光明区别墅路8-119号,光明区,深圳市,1,22.784979,113.911137,中国农业银行24小时自助银行(红花北路),广东省,a524e42c0d073da2ae31e528,,a524e42c0d073da2ae31e528
深圳市龙华区大浪街道同富裕工业园22栋,龙华区,深圳市,1,22.684533,114.000242,中国农业银行自助银行(大浪街道同富裕工业园),广东省,b5793baa1e1043642806ce0c,,b5793baa1e1043642806ce0c
广东省深圳市沙平北路530532号东兴源酒店附近,龙岗区,深圳市,1,22.637336,114.163411,中国农业银行24小时自助银行(丹平快速路辅路),广东省,40c9b8b2b455dd2a6fa3cc9a,,e420a20e34ab207dbca8229a
广东省深圳市龙岗区润昌工业园1号,龙岗区,深圳市,1,22.660007,114.084838,中国农业银行24小时自助银行(中浩二路),广东省,,,c18a13de5c67d23eddee8bf3
广东省深圳市龙岗区布吉街道信义假日名城沁芳园202号,龙岗区,深圳市,1,22.602093,114.130604,中国农业银行24小时自助银行(深圳罗岗支行),广东省,3a0a78bd7aadcc8463180941,,3a0a78bd7aadcc8463180941
深圳市罗湖区人民南路3004号国贸天虹B区F1,罗湖区,深圳市,1,22.546594,114.126349,中国农业银行24小时自助银行(国贸天虹B区),广东省,ef467eb08216efdc5fbe8665,,72aa2513a1b6e047077ce861
福田区福虹路9-10号,福田区,深圳市,1,22.544981,114.09015,中国农业银行24小时自助银行(深圳上步支行),广东省,be3eaea1c1a84a9d86420ef2,,be3eaea1c1a84a9d86420ef2
深南中路2013号统建楼1楼,福田区,深圳市,1,22.546472,114.099707,中国农业银行24小时自助银行(深圳兴华支行),广东省,4ca3b97f527fc3bebadf8f52,,4ca3b97f527fc3bebadf8f52
深圳市龙华区梅龙路2号星河COCOCityF1,龙华区,深圳市,1,22.607779,114.053202,中国农业银行24小时自助银行(COCO City),广东省,7ef0c9c6c9f6a5e3fda778eb,,7ef0c9c6c9f6a5e3fda778eb
广东省深圳市福田区金地一路89号,福田区,深圳市,1,22.522512,114.047439,中国农业银行24小时自助银行(深圳金地社区支行),广东省,,,6d09de8d3dec94373a13fd9f
深圳市福田区福民路125号天虹商场F1,福田区,深圳市,1,22.528308,114.05979,中国农业银行24小时自助银行(天虹商场),广东省,8897a432a78659ea2ce67b2c,,8897a432a78659ea2ce67b2c
广东省深圳市福田区深南大道6011,福田区,深圳市,1,22.542162,114.036201,中国农业银行24小时自助银行服务(深圳新纪元支行),广东省,9e041192bbb4c422ddee8b1d,,9e041192bbb4c422ddee8b1d
文光村43-3号,南山区,深圳市,1,22.576273,113.957427,中国农业银行24小时自助银行(文康苑南),广东省,11dcfaae5b80df83d0ff2345,,9f85dd5a270de6969ff7791a
广东省深圳市南山区留仙大道与同悦路东北角,南山区,深圳市,1,22.586709,113.952897,中国农业银行24小时自助银行(深圳天悦湾支行),广东省,16d930af5440a87b1288247b,,16d930af5440a87b1288247b
广东省深圳市宝安区大宝路71附近,宝安区,深圳市,1,22.586642,113.91718,中国农业银行24小时自助银行(裕安二路),广东省,08cf79010c0e5a7d276e98f0,,08cf79010c0e5a7d276e98f0
广东省深圳市南山区高新南十道3-南门,南山区,深圳市,1,22.531329,113.956892,中国农业银行24小时自助银行服务(科技南路海怡东方商铺),广东省,7d35d55c2af11b79c7f50db6,,7d35d55c2af11b79c7f50db6
深圳市南山区沙河东路118-28号,南山区,深圳市,1,22.537611,113.972064,中国农业银行24小时自助银行服务(深圳红树湾支行),广东省,383c49fbd48f29eced74f8cc,,383c49fbd48f29eced74f8cc
兴隆街1号汉唐大厦2-3层,南山区,深圳市,1,22.541015,113.991152,中国农业银行24小时自助银行(深圳华侨城支行),广东省,cc788fded664788b88fc063b,,cc788fded664788b88fc063b
广东省深圳市宝安区沙井新区福永凤凰山大道南(凤凰社区古建筑群南),宝安区,深圳市,1,22.693683,113.846291,中国农业银行24小时自助银行服务(凤凰山大道),广东省,,,510649ebeb911d42b54f546e
广东省深圳市宝安区海秀路23,宝安区,深圳市,1,22.555482,113.893017,中国农业银行24小时自助银行(宝安区中心支行),广东省,d2f0d01aab6b754341d63ec9,,d2f0d01aab6b754341d63ec9
深圳市宝安区深圳市宝安区西乡大道1019号天虹商场F1,宝安区,深圳市,1,22.582137,113.869167,中国农业银行24小时自助银行(天虹商场),广东省,86d699d38b3fb9a0940319b9,,86d699d38b3fb9a0940319b9
广东省深圳市坪山区坑梓吉祥路新发街71号,坪山区,深圳市,1,22.750859,114.377372,中国农业银行24小时自助银行服务(坑梓吉祥路新发街),广东省,7aea43b7802134f97c29bd38,,7aea43b7802134f97c29bd38
广东省深圳市龙岗区龙岗兴隆街43号,龙岗区,深圳市,1,22.735652,114.283564,中国农业银行24小时自助银行(龙岗兴隆街),广东省,3f070ec09d19ac22eaf853a5,,3f070ec09d19ac22eaf853a5
广东省深圳市龙岗区圩肚街26,龙岗区,深圳市,1,22.737299,114.285429,中国农业银行24小时自助银行(龙东支行),广东省,e92a0e75dd84c281cd04ef01,,e92a0e75dd84c281cd04ef01
广东省深圳市龙岗区大鹏街道鹏新东路46号,龙岗区,深圳市,1,22.599795,114.484785,中国农业银行24小时自助银行(大鹏街道鹏新东路),广东省,7815b5de79e9af03734b8783,,7815b5de79e9af03734b8783
深圳市龙岗区南澳街3,龙岗区,深圳市,1,22.540474,114.498729,中国农业银行24小时自助银行(南澳支行),广东省,23455e9078300c8eb020a86b,,23455e9078300c8eb020a86b
广东省深圳市盐田区东港道金港盛世华庭商业裙楼东南侧一、二楼,盐田区,深圳市,1,22.594591,114.260985,中国农业银行24小时自助银行(深圳盐田支行),广东省,923ffd00e9e89bb7d92f282e,,ca010aad1c76d44ff7231023
广东省深圳市龙岗区清林东路66,龙岗区,深圳市,1,22.726238,114.247568,中国农业银行24小时自助银行(龙城街道清林东路),广东省,d3aef73e9c7da562028972c4,,61085211b2d668a1c51b75d1
平湖街道裕和北街115号,龙岗区,深圳市,1,22.704971,114.135766,中国农业银行24小时自助银行(深圳平湖支行),广东省,6fddd7fd51a60d013517dc6a,,6fddd7fd51a60d013517dc6a
广东省深圳市光明区光明大街295,光明区,深圳市,1,22.767609,113.952151,中国农业银行24小时自助银行(深圳光明支行),广东省,bd5046e8ee87ca3fd72ce241,,bd5046e8ee87ca3fd72ce241
252县道民生工业城112栋1号,光明区,深圳市,1,22.785158,113.921703,中国农业银行24小时自助银行服务(楼村工业区社区健康服务中心西),广东省,,,bedf561e6b278bff95f08c59
广东省深圳市宝安区石岩街道水田村同富裕工业区爱群路创富工业园全茂厂内,宝安区,深圳市,1,22.704456,113.936407,中国农业银行24小时自助银行(石岩街道水田村同富裕工业区爱群路创富工业园全茂厂内),广东省,91eba09644c52e8c6340a9e4,,91eba09644c52e8c6340a9e4
广东省深圳市龙岗区横岗街道松柏路146号,龙岗区,深圳市,1,22.65255,114.2147,中国农业银行24小时自助银行(深圳横岗支行),广东省,2c0bd6c5da5632aa43ab9ade,,2c0bd6c5da5632aa43ab9ade
龙岗区红棉一路27号,龙岗区,深圳市,1,22.652633,114.201693,中国农业银行24小时自助银行(深圳横岗新区支行),广东省,593850fb97622023df1e523d,,593850fb97622023df1e523d
广东省深圳市龙岗区景芬路龙园意境华府36栋118-130商铺中国农业银行(龙园支行),龙岗区,深圳市,1,22.626078,114.132276,中国农业银行24小时自助银行(深圳龙园支行),广东省,f701b44f83fd72c6d618b752,,f701b44f83fd72c6d618b752
广东省深圳市龙岗区布吉新区布吉莲花路127号(近何屋村办公楼),龙岗区,深圳市,1,22.60464,114.117723,中国农业银行24小时自助银行服务(莲花路),广东省,bf8465013ebc1ee9b23c8164,,bf8465013ebc1ee9b23c8164
莲塘路168-11号金色年华家园商业裙楼1层西侧,罗湖区,深圳市,1,22.567465,114.177576,中国农业银行24小时自助银行(深圳莲塘支行),广东省,e3a7fd138319022c28b97cf0,,e3a7fd138319022c28b97cf0
广东省深圳市罗湖区文锦北路1070号,罗湖区,深圳市,1,22.56947,114.13031,中国农业银行24小时自助银行服务(深圳田贝支行),广东省,3a0a78bd247702fa63180960,,3a0a78bd247702fa63180960
深圳市罗湖区翠竹路2089号1楼,罗湖区,深圳市,1,22.576078,114.135702,中国农业银行24小时自助银行服务(翠竹路),广东省,b54d7efabc3c72d6902ca337,"(0755)25531677,(0755)25627354,(0755)25600452",0dc3d82d791da66c75e5b61b
广东省深圳市罗湖区凤凰路中山花园首层,罗湖区,深圳市,1,22.554846,114.142086,中国农业银行24小时自助银行(深圳中山花园支行),广东省,c241103f785f8918f219371b,,c241103f785f8918f219371b
深圳市罗湖区春风路3006号五矿大厦1楼,罗湖区,深圳市,1,22.544264,114.130309,中国农业银行24小时自助银行服务(春风路),广东省,d4db79dc8005a55d3517dcc0,,1ec54fac60be0e24fb22130c
深圳市罗湖区宝岗路165号,罗湖区,深圳市,1,22.574,114.119044,中国农业银行24小时自助银行服务(深圳笋田支行),广东省,803708f1e31ed607018972f0,,803708f1e31ed607018972f0
广东省深圳市罗湖区华润中心万象城-1楼,罗湖区,深圳市,1,22.545935,114.117461,中国农业银行24小时自助银行服务(华润中心万象城-),广东省,f439fd1e809f6002a11de9b5,,f439fd1e809f6002a11de9b5
广东省深圳市福田区深南中路1001号红岭大厦1楼(邓小平画象对面),福田区,深圳市,1,22.546751,114.110685,中国农业银行24小时自助银行服务(深圳深南支行营业室),广东省,1ca550269dd25734373a7165,,1ca550269dd25734373a7165
广东省深圳市罗湖区深南中路5008号农行大厦二楼,罗湖区,深圳市,1,22.548258,114.113183,中国农业银行24小时自助银行(深南中路),广东省,c3533be01fea73b825d2bb2b,,c3533be01fea73b825d2bb2b
广东省深圳市福田区福虹路9号世贸广场大厦一楼,福田区,深圳市,1,22.546971,114.083013,中国农业银行24小时自助银行服务(深南中路田面城市大厦),广东省,78f6ea311fbb3893d13ce3cc,,78f6ea311fbb3893d13ce3cc
广东省深圳市福田区八卦四路先科机电大厦一楼,福田区,深圳市,1,22.570223,114.109929,中国农业银行24小时自助银行服务(深圳红岭北路支行),广东省,d7e16aad179c1f388b2fb550,,d7e16aad179c1f388b2fb550
深圳市龙岗区吉华路999号坂田商业广场F1,龙岗区,深圳市,1,22.63928,114.068804,中国农业银行24小时自助银行(深圳坂田支行),广东省,19f2fa8a55a266f4a5c756d7,,19f2fa8a55a266f4a5c756d7
"深圳市龙华区民治街道人民南路水榭春天花园三期10栋一层75-76号,78-83号,85-86号,88号商铺",龙华区,深圳市,1,22.634271,114.032727,中国农业银行24小时自助银行(深圳水榭春天支行),广东省,56f35cdf49eb1db1b7f42f5a,,56f35cdf49eb1db1b7f42f5a
深圳市龙华区龙华大浪街道华胜街39号,龙华区,深圳市,1,22.664253,114.018967,中国农业银行24小时自助银行服务(深圳龙城支行),广东省,69c7033fa1f0a559f50e77d9,,69c7033fa1f0a559f50e77d9
深圳市龙华区人民北路398号,龙华区,深圳市,1,22.664143,114.02636,中国农业银行24小时自助银行服务(龙华人民北路),广东省,6ed54e7cd85ca7caf6c59c36,(0755)28134094,6ed54e7cd85ca7caf6c59c36
广东省深圳市龙华区民治大道388号,龙华区,深圳市,1,22.63121,114.045552,中国农业银行24小时自助银行(深圳民治支行),广东省,7e14bb9f0f4a1279c9c3db96,,7e14bb9f0f4a1279c9c3db96
广东省深圳市南山区西丽街道大勘村居委会一楼,南山区,深圳市,1,22.62712,113.982149,中国农业银行24小时自助银行(西丽街道大坑村居委会),广东省,,,ddf1ebb331f2f09f40afe6eb
深圳市南山区平山一路桑泰丹华园二期裙楼一层,南山区,深圳市,1,22.593135,113.971261,中国农业银行24小时自助银行(深圳大学城支行),广东省,545c45528190cbe20c0a70ee,(0755)86325030,545c45528190cbe20c0a70ee
广东省深圳市福田区深南大道2008号中国凤凰大厦2号楼一层,福田区,深圳市,1,22.546946,114.071858,中国农业银行24小时自助银行(凤凰支行营业室),广东省,cd9d05dd532326c885420e63,,cd9d05dd532326c885420e63
深圳市福田区香梅路宏浩花园首层,福田区,深圳市,1,22.558454,114.043474,中国农业银行24小时自助银行服务(深圳香梅支行),广东省,28e700f1dd54d701095cb336,,28e700f1dd54d701095cb336
广东省深圳市福田区绒花路帝港海湾豪园城市3米6公寓首层,福田区,深圳市,1,22.514343,114.06277,中国农业银行24小时自助银行(绒花路帝港海湾豪园城市),广东省,50f7d146ec4a1fc472210b37,(0755)83473916,50f7d146ec4a1fc472210b37
深圳市福田区新沙二路星河雅居商住大厦首层,福田区,深圳市,1,22.530084,114.051291,中国农业银行24小时自助银行(新沙二路星河雅居商住大厦首层),广东省,,,0426bae22ab61ef971210b14
广东省深圳市福田区福华一路98号卓越大厦一楼,福田区,深圳市,1,22.543402,114.057956,中国农业银行24小时自助银行(深圳中心区支行营业部),广东省,5e0b203023fe0c4da0acc4e2,,d0133fbbd80a2703250bd046
广东省深圳市福田区侨城东路碧海云天商业街,福田区,深圳市,1,22.535791,114.002605,中国农业银行24小时自助银行服务(侨城东路碧海云天商业街),广东省,751e99b2fcc69e33fbdc8504,,751e99b2fcc69e33fbdc8504
深圳市福田区天安数码城科技创业园大厦A座一楼,福田区,深圳市,1,22.539435,114.036486,中国农业银行24小时自助银行(天安数码城科技创业园大厦A座),广东省,3951efb508077256b5f42fd9,,3951efb508077256b5f42fd9
深圳市南山区西丽镇西丽路63号,南山区,深圳市,1,22.581502,113.959921,中国农业银行24小时自助银行服务(深圳西丽支行),广东省,c61bd3059a5ea415c27da25f,,c61bd3059a5ea415c27da25f
广东省深圳市南山区华侨城洲际酒店内,南山区,深圳市,1,22.538937,113.990806,中国农业银行24小时自助银行(华侨城洲际酒店内),广东省,9bd46f674efc4b896b49f313,,9bd46f674efc4b896b49f313
广东省深圳市南山区南油大道山东大厦首层,南山区,深圳市,1,22.526719,113.934784,中国农业银行24小时自助银行(南油大道山东大厦首层),广东省,f35b700f128b12d287420e18,,f35b700f128b12d287420e18
深圳市光明区康德街66号,光明区,深圳市,1,22.790185,113.896839,中国农业银行24小时自助银行(深圳明城支行),广东省,cfda191193e818361b94c65c,,c060a03f9e51d1be4302452e
广东省深圳市光明区公明建设东路86号一、二楼,光明区,深圳市,1,22.786779,113.901086,中国农业银行24小时自助银行(深圳公明支行),广东省,,,b292b3aaa1506628bf48428d
深圳市宝安区沙井新沙路579号,宝安区,深圳市,1,22.738193,113.818582,中国农业银行24小时自助银行(深圳东塘支行),广东省,cdef4edf56b2f23029d7ab92,,cdef4edf56b2f23029d7ab92
广东省深圳市宝安区沙井街道办大楼,宝安区,深圳市,1,22.738539,113.818276,中国农业银行24小时自助银行(沙井街道办大楼),广东省,8b46f85a7466263a6949f36e,,8b46f85a7466263a6949f36e
永和路55-2号,宝安区,深圳市,1,22.69532,113.799158,中国农业银行24小时自助银行(永和路店),广东省,4e566cf5ac601d3ef4b916c7,,161a0ed294fedb2e5cd4fef0
广东省深圳市宝安区K自由量贩式KTV(昌宏百货西南),宝安区,深圳市,1,22.633145,113.853513,中国农业银行24小时自助银行(黄田社区健康服务中心东北),广东省,6280bbcdea1245349e9d68e2,,6280bbcdea1245349e9d68e2
广东省深圳市宝安区西乡河东路口百佳华大厦1楼,宝安区,深圳市,1,22.577027,113.884907,中国农业银行24小时自助银行(西乡河东路口百佳华大厦),广东省,0457a933aee91c4af90cad35,,0457a933aee91c4af90cad35
广东省深圳市宝安区45区文乐花园大门口,宝安区,深圳市,1,22.569423,113.90006,中国农业银行24小时自助银行(文乐花园),广东省,00e9e2d36255af7079b55c72,,00e9e2d36255af7079b55c72
蛇口新街193-195,南山区,深圳市,1,22.49331,113.935447,中国农业银行24小时自助银行服务(蛇口新街),广东省,7c6bf02e78aaa514a0acc47e,,1f66c30a966ab7a0d22dd63a
广东省深圳市宝安区沙井万丰村万安路275号新丰宾馆一楼,宝安区,深圳市,1,22.73276,113.83119,中国农业银行24小时自助银行(沙井万丰村万安路),广东省,2b7bde357c5cc363bd484249,,2b7bde357c5cc363bd484249
广东省深圳市南山区万兴街2-9南50米,南山区,深圳市,1,22.562638,113.957231,24小时自助银行服务,广东省,d00e5b71aac61da0fadc8541,,d00e5b71aac61da0fadc8541
广东省深圳市宝安区创业二路268号东联大厦首层,宝安区,深圳市,1,22.581665,113.918866,平安银行24小时自助银行服务(新安三路),广东省,75a576fc20ca82fd51e5c5c8,,75a576fc20ca82fd51e5c5c8
沙井万丰村万安路275号新丰宾馆1层,宝安区,深圳市,1,22.732636,113.831167,24小时自助银行(万安路),广东省,3c06285f4cf0b7f310293596,,3c06285f4cf0b7f310293596
广东省深圳市罗湖区翠竹路2089,罗湖区,深圳市,1,22.576086,114.135759,24H自助银行服务,广东省,e999b1b661775c0e1df74d7c,,e999b1b661775c0e1df74d7c
南园路70号上田大厦12楼,福田区,深圳市,1,22.545124,114.101607,ABC(上田大厦店),广东省,,,8a70a88599c4895176e5b66c
彩田南路彩虹大厦,福田区,深圳市,1,22.541027,114.075089,ABC,广东省,,,37e519382bf4557b59bbbc9d
"深圳市龙岗区横岗沙荷路以北,六和路以东,新横坪公路以南茂盛路2号二楼创富服装广场109",龙岗区,深圳市,1,22.654054,114.212719,ABC,广东省,,,210ce92e289e92889d9d6865
广东省深圳市盐田区沙头角中心深盐路与海山路交汇处西南角(区政府对面)壹海城B1,盐田区,深圳市,1,22.562297,114.245263,ABC(壹海城店),广东省,94a32ee4db05d8c1abf0cd63,,94a32ee4db05d8c1abf0cd63
富安大道华南城2号交易广场1层,龙岗区,深圳市,1,22.685261,114.136902,ABC(交易广场店),广东省,23920da97357fb3db64f54e4,,23920da97357fb3db64f54e4
深南中路4026号田面城市大厦26楼,福田区,深圳市,1,22.547143,114.082669,ABC(田面城市大厦店),广东省,5cf3a432ebfd134b97ec844c,,5cf3a432ebfd134b97ec844c
