address,area,city,detail,lat,lng,name,province,street_id,telephone,uid,机构名称
广东省广州市增城区朱村大道中262,增城区,广州市,1,23.278539,113.708622,中国农业银行,广东省,,,6f0ac59912a33cfd4354d7dc,农业银行
广州市新塘镇解放北路155号1层,增城区,广州市,1,23.124773,113.620915,中国农业银行(广州增城卫山支行),广东省,3dc9befd82bf6316bfa240b7,(020)82706141,3dc9befd82bf6316bfa240b7,农业银行
"增城区石滩镇立新东路57号汇商新城2栋首层105-111,125,126,128-130号",增城区,广州市,1,23.178406,113.799235,中国农业银行(广州增城石滩支行),广东省,,(020)82921963,04e4124846808868eee4a50d,农业银行
广东省广州市增城区新塘镇汇美新村A2区荔新路4号,增城区,广州市,1,23.134051,113.61919,中国农业银行(广州增城新塘支行),广东省,ea4a3dc98fd0622e4f5547b7,"(020)82608319,(020)82603893",ea4a3dc98fd0622e4f5547b7,农业银行
广东省广州市增城区荔新大道辅路,增城区,广州市,1,23.16021,113.640481,中国农业银行(广州增城新塘奥园康威支行),广东省,,,9a9a7f4c7cedcd2db5f42faa,农业银行
广州市增城区碧桂园凤凰城凤晴苑六街4-6号,增城区,广州市,1,23.163698,113.589598,中国农业银行(广州增城新塘碧桂园凤晴支行),广东省,1f0c912fb8d032daab0dd89b,(020)82915534,1f0c912fb8d032daab0dd89b,农业银行
广州市增城区新塘镇建设路150号,增城区,广州市,1,23.116357,113.624536,中国农业银行(广州增城新塘建设路支行),广东省,bbbd10ddbbbee82bc6effb77,(020)82776826,bbbd10ddbbbee82bc6effb77,农业银行
广东省广州市增城区派潭广场(群津街东),增城区,广州市,1,23.495689,113.790497,中国农业银行ATM,广东省,,,531a08c4a50cf431b6147fb6,农业银行
立新中路与立新路交叉口南100米,增城区,广州市,1,23.178353,113.799098,中国农业银行24小时自助银行,广东省,,,744a520d655cd67a7bf79660,农业银行
广东省广州市增城区富安路55,增城区,广州市,1,23.30608,113.829892,中国农业银行24小时自助银行,广东省,d14845310ac3da228bf15d0c,,d14845310ac3da228bf15d0c,农业银行
广州市增城区解放北路122号新塘广场F1,增城区,广州市,1,23.123204,113.620526,中国农业银行ATM(新塘广场),广东省,04d22e7d2bdb769a0e0e6bf2,,04d22e7d2bdb769a0e0e6bf2,农业银行
广东省广州市增城区学园街6号A2幢之6商铺,增城区,广州市,1,23.29408,113.625028,中国农业银行24小时自助银行,广东省,,,06a349d07f937a701576438a,农业银行
朱村大道中262号,增城区,广州市,1,23.278596,113.708841,中国农业银行24小时自助银行,广东省,72ca51a7ee18aadaad080fd7,,72ca51a7ee18aadaad080fd7,农业银行
广州市增城区中山西路1号,增城区,广州市,1,23.192326,113.859977,中国农业银行ATM(三江支行),广东省,,,5ffb1816573882216e476093,农业银行
广园东路新塘路段凤凰城酒店1层,增城区,广州市,1,23.140244,113.583345,中国农业银行ATM(凤凰城酒店),广东省,841dd2cece1a3d25f822138b,,841dd2cece1a3d25f822138b,农业银行
广东省广州市增城区新塘镇仙村沿江北路10号,增城区,广州市,1,23.174891,113.727352,中国农业银行24小时自助银行(增城仙村支行),广东省,,,31f9101b0261cfc726e0a061,农业银行
增江大道南3号,增城区,广州市,1,23.284629,113.851087,中国农业银行24小时自助银行(增城增江支行),广东省,a54534259040622a5e0d0225,,a54534259040622a5e0d0225,农业银行
广东省广州市增城区光明西路20,增城区,广州市,1,23.2932,113.837583,中国农业银行24小时自助银行(西城路),广东省,3a154b2daa3edfd816764329,,3a154b2daa3edfd816764329,农业银行
荔城街府佑路252号,增城区,广州市,1,23.292399,113.814313,中国农业银行24小时自助银行(增城金竹支行),广东省,9e764d9c9e8f20e63b221c97,,9e764d9c9e8f20e63b221c97,农业银行
广东省广州市增城区中新镇福和侨港路8号,增城区,广州市,1,23.366801,113.63907,中国农业银行24小时自助银行(银河东路),广东省,,,7c5e480b689f4fcaadb22a4c,农业银行
广东省广州市增城区汇太东路233号8/9号铺,增城区,广州市,1,23.137852,113.629995,中国农业银行24小时自助银行(广州增城新塘汇太东路支行),广东省,5c0267c6dd71c6cc14948ec9,,5c0267c6dd71c6cc14948ec9,农业银行
广东省广州市增城区荔城街挂绿路9号,增城区,广州市,1,23.294655,113.839483,中国农业银行24小时自助银行(荔城街挂绿路),广东省,f6291e071b9db79d3de2314c,,f6291e071b9db79d3de2314c,农业银行
广东省广州市增城区岗前西路17,增城区,广州市,1,23.28995,113.83325,中国农业银行24小时自助银行(增城中区支行),广东省,628b0845acb8a94ac8213d0e,,628b0845acb8a94ac8213d0e,农业银行
沙埔大道23,增城区,广州市,1,23.169261,113.665021,中国农业银行24小时自助银行(增城沙埔支行),广东省,b4cd07a8394a21f70c0a70fd,,b4cd07a8394a21f70c0a70fd,农业银行
新塘镇久裕村久裕商贸城B11栋106号,增城区,广州市,1,23.130371,113.660994,中国农业银行24小时自助银行(广州增城大敦支行),广东省,76145cb91894c76b5a109358,,76145cb91894c76b5a109358,农业银行
广东省广州市增城区荔城街城丰路12号,增城区,广州市,1,23.299449,113.837367,中国农业银行24小时自助银行(富鹏支行),广东省,cb02f8ed1ae1f50b41d63e0a,,cb02f8ed1ae1f50b41d63e0a,农业银行
建设路150号,增城区,广州市,1,23.116355,113.624541,中国农业银行24小时自助银行(增城新塘建设路支行),广东省,4a451cfbbeb49b02a2a934f5,,4a451cfbbeb49b02a2a934f5,农业银行
广东省广州市增城区新塘镇汇美新村A2区荔新大道4号,增城区,广州市,1,23.133862,113.619463,中国农业银行24小时自助银行(增城新塘支行),广东省,1683345001e6f81b85420e2a,,1683345001e6f81b85420e2a,农业银行
广东省广州市增城区新塘镇卫山北一路96号首层,增城区,广州市,1,23.125973,113.615013,中国农业银行24小时自助银行(增城港口支行),广东省,544a86242c55b4b1077ce8a3,,544a86242c55b4b1077ce8a3,农业银行
广州市增城区新塘镇大墩开发区西区1-1号,增城区,广州市,1,23.130728,113.662644,中国农业银行24小时自助银行(广州增城大敦支行),广东省,f92b4a8498f7d3a58bdb730f,,f92b4a8498f7d3a58bdb730f,农业银行
广东省广州市增城区新塘镇永和永联路53号,增城区,广州市,1,23.182766,113.598123,中国农业银行24小时自助银行(增城永和支行),广东省,,,08afaf3362b69c3c58109333,农业银行
广州市增城区新塘镇汽车城东路68号,增城区,广州市,1,23.143519,113.605465,中国农业银行24小时自助银行(新塘镇汽车城东路),广东省,466fafdaf1eefb7f2b11d107,,466fafdaf1eefb7f2b11d107,农业银行
新塘镇解放北路155号1层,增城区,广州市,1,23.124721,113.62085,中国农业银行24小时自助银行(增城卫山支行),广东省,b2dee7050231a17c26d2bb91,,b2dee7050231a17c26d2bb91,农业银行
广东省广州市增城区新塘镇广园东路碧桂园凤凰城商业中心,增城区,广州市,1,23.132462,113.58296,中国农业银行24小时自助银行(新塘镇广园东路碧桂园凤凰城商业中心),广东省,67266adfe28ffc2789fc06e8,,67266adfe28ffc2789fc06e8,农业银行
府佑路98号东汇城步行街B-104,增城区,广州市,1,23.291037,113.825858,ABC(观翠路店),广东省,3c40696ebea8fc25c17da22d,13823482120,3c40696ebea8fc25c17da22d,农业银行
