address,area,city,detail,lat,lng,name,province,street_id,telephone,uid
深圳市宝安区裕安一路3030号,宝安区,深圳市,1,22.565932,113.893321,中国工商银行(尚都支行),广东省,61f634f6505e0c786b49f3f6,(0755)29639055,61f634f6505e0c786b49f3f6
新湖路圣淘沙骏园1楼29-33号商铺,宝安区,深圳市,1,22.58078,113.869659,中国工商银行(西乡支行),广东省,cbb10880058b9d8251e5c51a,(0755)29653106,ffd6d403d36edd8c17b54bc0
广东省深圳市宝安区沙井街道新沙路510号,宝安区,深圳市,1,22.738105,113.816011,中国工商银行(沙井支行),广东省,78bd50f7a3464a5b30870ae0,(0755)27202391,78bd50f7a3464a5b30870ae0
深圳市宝安区建安一路56号,宝安区,深圳市,1,22.564288,113.916338,中国工商银行(深圳宝安支行营业部),广东省,ba78021a959410c3a2a93430,,ba78021a959410c3a2a93430
深圳市宝安区沙井街道中心路沙井时代中心一楼,宝安区,深圳市,1,22.735138,113.836472,中国工商银行(深圳新沙支行营业部),广东省,6fd22cd125a04af1e8f853f4,(0755)23015002,6fd22cd125a04af1e8f853f4
广东省深圳市宝安区新安街道创业二路100号,宝安区,深圳市,1,22.575513,113.911529,中国工商银行(深圳前进路支行),广东省,9d1d925e8b6aac569cec2b79,(0755)27953049,9d1d925e8b6aac569cec2b79
深圳市宝安区西乡街道前进路与西乡大道交汇处美兰商务中心首层101-104室,宝安区,深圳市,1,22.597417,113.889651,中国工商银行(深圳丽景支行),广东省,c8b5cdef5d2b4c03130daaed,"(0755)29956551,(0755)29956553,(0755)29956567",c8b5cdef5d2b4c03130daaed
深圳市宝安区建安一路华盛盛荟二楼,宝安区,深圳市,1,22.580065,113.900044,中国工商银行(深圳弘雅支行),广东省,cd8da7410f833a1dd42ce29b,"(0755)27806066,(0755)27803967",cd8da7410f833a1dd42ce29b
宝安区松岗街道沿河南路5号工行大楼,宝安区,深圳市,1,22.771883,113.852148,中国工商银行(松岗支行),广东省,d5f93c0e15cdba5cecdfca98,(0755)27098284,d5f93c0e15cdba5cecdfca98
深圳市宝安区福永镇福永大道349号,宝安区,深圳市,1,22.677725,113.832977,中国工商银行(福永支行),广东省,50f7d146efe718c473210be0,"(0755)27391417,(0755)27333688,(0755)27389350",50f7d146efe718c473210be0
深圳市宝安区石岩镇宝石东路413号,宝安区,深圳市,1,22.685463,113.943111,中国工商银行(石岩支行),广东省,b1c556e8b3bf9f0cb526559f,"(0755)27763424,(0755)27350749",b1c556e8b3bf9f0cb526559f
深圳市宝安区楼岗大道63号,宝安区,深圳市,1,22.770703,113.85812,中国工商银行(深圳楼岗支行),广东省,7aca37908e8c245aa1a934a9,(0755)29628922,7aca37908e8c245aa1a934a9
深圳市宝安区新湖路壹方城L1-083A商铺,宝安区,深圳市,1,22.559444,113.894592,中国工商银行(宝安中心区支行),广东省,,(0755)27934902,d175afad0e2815a02bb97ce4
深圳市宝安区鸿德园商铺1-66号,宝安区,深圳市,1,22.695052,113.81062,中国工商银行(深圳桥头支行),广东省,a60693dd1c3266dcc51b7594,,a60693dd1c3266dcc51b7594
深圳市宝安区新安街道兴业路与罗田路交叉口润恒御园8栋101号,宝安区,深圳市,1,22.561318,113.88098,中国工商银行(深圳宝中支行),广东省,76a0cceec0a93de21d58009b,"(0755)23351696,(0755)23351695",76a0cceec0a93de21d58009b
深圳市宝安区海秀路19号国际西岸商务大厦1层,宝安区,深圳市,1,22.55502,113.894437,中国工商银行(熙龙湾支行),广东省,1cf8e726ce72f31dcae33c64,"(0755)29073025,(0755)29073029",1cf8e726ce72f31dcae33c64
深圳市宝安区福永街道工业大道天福城大厦1-2层商铺,宝安区,深圳市,1,22.712408,113.806975,中国工商银行(深圳塘尾支行),广东省,f5e3bcae6e9056bc5e17c377,"(0755)23495626,(0755)23495620",f5e3bcae6e9056bc5e17c377
建安一路56,宝安区,深圳市,1,22.564335,113.916207,中国工商银行(宝安财富管理中心),广东省,3859898aca02b68b1d58004f,(0755)27874112,3859898aca02b68b1d58004f
宝安区宝城龙井二路118号人民医院新门诊大楼1楼大厅,宝安区,深圳市,1,22.568099,113.920302,中国工商银行(自动柜员机店),广东省,e8092f2d84c40ae5d22dd626,,e8092f2d84c40ae5d22dd626
光明新区泥围新村七巷19号(深宝大厦西北),光明区,深圳市,1,22.793929,113.88635,中国工商银行24小时自助银行(深宝大厦西北),广东省,a1c756508fbffa9e901fc922,,a1c756508fbffa9e901fc922
广东省深圳市宝安区沙井镇中心路时代中心一楼工商银行营业大厅,宝安区,深圳市,1,22.734934,113.836583,工商银行营业大厅,广东省,,(0755)27208918,2ee199f614fe12e32b06cee9
广东省深圳市宝安区西乡街道黄田片区杨贝工业区二期A栋,宝安区,深圳市,1,22.638706,113.856617,中国工商银行24小时自助银行(光昌三路),广东省,0e99400ddd26c6ea72455b40,,0e99400ddd26c6ea72455b40
深圳市宝安区新湖路99号壹方城F1,宝安区,深圳市,1,22.559411,113.894628,中国工商银行ATM(壹方城),广东省,,,e4f2de33866e16298936eee7
广东省深圳市宝安区福永桥和路鸿德园,宝安区,深圳市,1,22.694965,113.810654,中国工商银行24小时自助银行,广东省,19974369ac8c34423a04b184,,19974369ac8c34423a04b184
横岗下大街1号附近,宝安区,深圳市,1,22.735507,113.871674,中国工商银行24小时自助银行,广东省,3181fb5b93a561ee03ff2d17,,014aa9fda874026c3517dcb3
广东省深圳市宝安区宝安机场航站四路与机场三道交汇天和酒店一楼,宝安区,深圳市,1,22.644743,113.833217,中国工商银行24小时自助银行,广东省,dbc59c85b0b9bad6db2f2818,,d0e693265a7a518ab917e71b
集资路2号附近,宝安区,深圳市,1,22.701505,113.850504,中国工商银行24小时自助银行,广东省,5c2c1cd7427aea30100daa5b,,5c2c1cd7427aea30100daa5b
广东省深圳市宝安区罗田路16-2,宝安区,深圳市,1,22.568529,113.88947,中国工商银行24小时自助银行(罗田路),广东省,d8184c7e7d338d6d213bf204,,b859fdce30f3ea101fe9997c
广东省深圳市宝安区福新街32号,宝安区,深圳市,1,22.67305,113.820415,中国工商银行24小时自助银行(福新路),广东省,da9d54398f54e9400c3dda03,,da9d54398f54e9400c3dda03
沙井街道办中心路万丰医院门口,宝安区,深圳市,1,22.728206,113.835235,中国工商银行24小时自助银行,广东省,d15b436622148f23c51e51f0,,d15b436622148f23c51e51f0
广东省深圳市宝安区公园路135号,宝安区,深圳市,1,22.57957,113.913422,中国工商银行24小时自助银行,广东省,,,93dbb22f9ad5ae3e932ca391
广东省深圳市宝安区料坑大道,宝安区,深圳市,1,22.674801,113.90017,中国工商银行24小时自助银行服务,广东省,,,6bf1b3e72885fc417402699e
广东省深圳市宝安区工业一路16号北70米,宝安区,深圳市,1,22.721226,113.810911,中国工商银行24小时自助银行服务,广东省,824c8937687b78bbdbd8913a,,824c8937687b78bbdbd8913a
宝安区西乡大道丽景城花园3号楼首层商铺,宝安区,深圳市,1,22.595947,113.894247,中国工商银行24小时自助银行服务,广东省,c7fb04bdec57ee15fa0caded,,c7fb04bdec57ee15fa0caded
宝安区沙井街道办西环路沙井西部义乌商城一楼B1127商铺,宝安区,深圳市,1,22.731456,113.806513,中国工商银行24小时自助银行(创新路),广东省,4a97fcc1d3917f943517dc7d,,4a97fcc1d3917f943517dc7d
广东省深圳市宝安区沙井新区美宜佳连锁店(安润路东),宝安区,深圳市,1,22.820847,113.851092,中国工商银行24小时自助银行(安润路),广东省,,,78a05b28c295ccb2704b87cb
宝安区福永街道新田大道70号江氏玻璃集团,宝安区,深圳市,1,22.692438,113.837823,中国工商银行24小时自助银行(凤凰路),广东省,d349bcaefc3ff986f8f0cb64,,e8832a863e522927c356ac39
广东省深圳市宝安区沙井田园旅馆(联诚购物广场北),宝安区,深圳市,1,22.748539,113.796596,中国工商银行24小时自助银行(西沙路),广东省,66c23495174cf4dfadcb661a,,5508504dee133bcbc6f025e0
广东省深圳市宝安区沙井民主大道怡安花园南门,宝安区,深圳市,1,22.741391,113.805814,中国工商银行24小时自助银行(下冲路),广东省,bfbc4a89048f12050482c23c,,bfbc4a89048f12050482c23c
宝安区石岩镇政府,宝安区,深圳市,1,22.687541,113.945428,中国工商银行离行式自助银行(深圳分行石岩支行石岩镇政府),广东省,974eca1bce051ea61e580017,,974eca1bce051ea61e580017
新安街道创业二路100号(创业二路与前进路交汇处),宝安区,深圳市,1,22.575503,113.911604,中国工商银行24小时自助银行(深圳前进路支行),广东省,5b2def25a2e1526a223bf2bd,,5b2def25a2e1526a223bf2bd
深圳市宝安区宝民二路190-3号缤纷时代购物中心F1,宝安区,深圳市,1,22.598557,113.880868,中国工商银行24小时自助银行(深圳臣田支行),广东省,e116be54a6168a78c91b95e3,,e116be54a6168a78c91b95e3
罗田路68号附近,宝安区,深圳市,1,22.561317,113.88109,中国工商银行24小时自助银行(深圳宝中支行),广东省,37d138fa6bd04fff714b8706,,37d138fa6bd04fff714b8706
宝安区石岩创维工业园,宝安区,深圳市,1,22.645888,113.926705,中国工商银行离行式自助银行(深圳分行石岩支行石岩创维工业园),广东省,,,fccf6f85a24bbf93354aae81
宝安区沙井街道新沙路与永通路交汇处西荟城A区G1-01号商铺,宝安区,深圳市,1,22.737597,113.823536,中国工商银行离行式自助银行(深圳分行沙井支行沙井街道新沙路与永通路交汇处西荟城),广东省,60c5bbcc9d33b3238f1a89ba,,60c5bbcc9d33b3238f1a89ba
深圳市宝安区福永街道工业大道天福城大厦1-2层商铺,宝安区,深圳市,1,22.712505,113.807088,中国工商银行24小时自助银行(深圳塘尾支行),广东省,be5cc518638431cfea12e4c5,,bcaebff82a150f29c9e33c77
广东省深圳市宝安区海秀路19-1,宝安区,深圳市,1,22.554851,113.894426,中国工商银行24小时自助银行(深圳前海支行),广东省,cb4fd14611a87f3c9c9d68bf,,cb4fd14611a87f3c9c9d68bf
深圳市宝安区建安一路华盛盛荟名庭1-2层,宝安区,深圳市,1,22.580007,113.899894,中国工商银行24小时自助银行(深圳弘雅支行),广东省,6ed3083a5315ffb72b3a9ff6,,6ed3083a5315ffb72b3a9ff6
新湖路圣淘沙骏园1楼29-33号商铺(近西乡大道),宝安区,深圳市,1,22.58073,113.869525,中国工商银行24小时自助银行(深圳西乡支行),广东省,fa835ce2eb96eac8e812e4f0,,fa835ce2eb96eac8e812e4f0
宝石东路413号,宝安区,深圳市,1,22.685414,113.943111,中国工商银行24小时自助银行(深圳石岩支行),广东省,ca603f71b6aa4018c17da22c,,ca603f71b6aa4018c17da22c
建安一路56号,宝安区,深圳市,1,22.564247,113.916295,中国工商银行24小时自助银行(深圳宝安支行),广东省,39d43f82663cdb86a8059df6,,39d43f82663cdb86a8059df6
松岗街道罗田象山大道176号中美家具公司正门右侧保安亭,宝安区,深圳市,1,22.815114,113.887436,中国工商银行24小时自助银行服务(象山大道),广东省,,,016fe8ac9170e85116a19047
光明新区公明下村第三工业区13号永德利科技(深圳)有限公司大门,光明区,深圳市,1,22.800431,113.889607,中国工商银行离行式自助银行(深圳分行合水口支行公明下村第三工业区),广东省,,,901dbcdd1b34a72915948ec7
广东省深圳市宝安区洋涌工业区红塔商店(洋涌工业路南),宝安区,深圳市,1,22.795071,113.833355,中国工商银行24小时自助银行(洋涌工业路),广东省,,,59068a8934fc02dc15c9055b
宝安区福永宝利来国际大酒店,宝安区,深圳市,1,22.677991,113.833968,中国工商银行离行式自助银行(深圳分行福永支行宝利来国际大酒店),广东省,6e686bec18e03ea0008972a4,,6e686bec18e03ea0008972a4
宝安区前进二路美兰大厦,宝安区,深圳市,1,22.596952,113.88938,中国工商银行24小时自助银行(深圳丽景支行),广东省,be5e8cce3c4529ce54bfffaa,,2d1bf15c786fdbf61df74d64
宝安大道4004号旭生大厦首层,宝安区,深圳市,1,22.589741,113.870343,中国工商银行离行式自助银行(深圳分行丽景支行),广东省,f87ae4c01b6aca91b35c6af9,,f87ae4c01b6aca91b35c6af9
裕安一路3030号尚都花园2栋首层,宝安区,深圳市,1,22.565906,113.893252,中国工商银行24小时自助银行(深圳尚都支行),广东省,dd288db7a482ee4b71210b34,,083a55fa29e40579246e98f6
广东省深圳市龙华区民塘路莱蒙春天花园45-49号,龙华区,深圳市,1,22.633526,114.033544,中国工商银行24小时自助银行服务(深圳分行水榭春天支行民塘路),广东省,797b5da96c72ccf8f60e7720,,797b5da96c72ccf8f60e7720
松岗街道松涛社区楼岗大道63号101,宝安区,深圳市,1,22.770806,113.858006,中国工商银行24小时自助银行(深圳分行楼岗支行松岗街道松涛社区楼岗大道),广东省,fe8c656d09b02d3d32870ac0,,fe8c656d09b02d3d32870ac0
沙井街道景鸿路8栋德升电子(深圳)有限公司,宝安区,深圳市,1,22.77078,113.813017,中国工商银行24小时自助银行服务(万众购物广场东北),广东省,,,96b672aad87bd808ce04ef77
新二村十三巷9号(富力表业厂东),宝安区,深圳市,1,22.75838,113.839561,中国工商银行24小时自助银行(潭裕楼西南),广东省,,,606ab0d094fa222a0f3dda98
深圳市宝安区中心路102时代中心,宝安区,深圳市,1,22.735195,113.83639,中国工商银行24小时自助银行服务(深圳新沙支行),广东省,088f9f95f59b1b4b990050bd,,088f9f95f59b1b4b990050bd
广东省深圳市宝安区新二庄村路附近,宝安区,深圳市,1,22.715614,113.863366,中国工商银行24小时自助银行(坑尾塘二路),广东省,,,8eb48fa15ebdbadbf32d8362
福永镇福永大道345号,宝安区,深圳市,1,22.678033,113.83267,中国工商银行24小时自助银行(深圳分行福永支行福永镇福永大道345号),广东省,00887a9a432913bd26e0a080,,00887a9a432913bd26e0a080
宝安区福永凤凰社区岑下路222号为盛商场一楼1-3号商铺,宝安区,深圳市,1,22.700337,113.845068,中国工商银行24小时自助银行服务(深圳分行福永支行福永凤凰社区岑下路),广东省,931c494fac7de7067bf796d6,,931c494fac7de7067bf796d6
沙井大街510号,宝安区,深圳市,1,22.738153,113.816026,中国工商银行24小时自助银行(深圳沙井支行),广东省,b024d90d85ad9711b15c6a05,,b024d90d85ad9711b15c6a05
宝安区福围社区东福围西街16－18号,宝安区,深圳市,1,22.658489,113.828348,中国工商银行24小时自助银行服务(广生七巷),广东省,,,de215c9b70192a4f3617dce4
松岗镇沿河南路5号,宝安区,深圳市,1,22.771854,113.85229,中国工商银行24小时自助银行(深圳分行松岗支行松岗镇沿河南路),广东省,27315f81b5910d80deee8bf9,,27315f81b5910d80deee8bf9
