address,area,city,detail,lat,lng,name,province,street_id,telephone,uid,机构名称
上海徐汇区虹桥路355号城开国际大厦1层,徐汇区,上海市,1,31.199551,121.437524,中国银行(徐汇支行),上海市,8895d97997a093bb7069d3e5,"(021)34601188,(021)34601263",fd007c5e2ed5256da8f729c6,中国银行
上海市徐汇区淮海中路1164号,徐汇区,上海市,1,31.221142,121.46029,中国银行(淮海支行),上海市,7388dffd3fc240ead3ff23c6,,7388dffd3fc240ead3ff23c6,中国银行
上海市徐汇区柳州路430号,徐汇区,上海市,1,31.177521,121.430182,中国银行(柳州路支行),上海市,2b395cdfe8eee06040afe691,(021)54561593,2b395cdfe8eee06040afe691,中国银行
上海市徐汇区桂平路391号新漕河泾国际商务中心A座1层,徐汇区,上海市,1,31.170199,121.410889,中国银行(漕河泾支行),上海市,f60a15ed45003691bb17e7d2,,f60a15ed45003691bb17e7d2,中国银行
上海市徐汇区宜山路900号科技产业化大楼,徐汇区,上海市,1,31.177984,121.408399,中国银行(漕河泾开发区支行),上海市,dc35d498572e6ff897ec848e,"(021)54234104,(021)54234108",dc35d498572e6ff897ec848e,中国银行
上海市徐汇区凌云路402号,徐汇区,上海市,1,31.143643,121.425858,中国银行(梅陇支行),上海市,7aea43b71247a6f97c29bdd6,(021)64249231,7aea43b71247a6f97c29bdd6,中国银行
上海市徐汇区中山西路1800号,徐汇区,上海市,1,31.189535,121.431037,中国银行(宜山路支行),上海市,ec7875b4e5afc3b92202205e,"(021)64400283,(021)64400273",ec7875b4e5afc3b92202205e,中国银行
上海市徐汇区大木桥路123号,徐汇区,上海市,1,31.206414,121.468159,中国银行(大木桥路支行),上海市,1eeed54642d7f98cb4147fac,(021)64177669,1eeed54642d7f98cb4147fac,中国银行
上海市徐汇区钦州北路226号田尚坊时尚生活中心F1,徐汇区,上海市,1,31.186972,121.426871,中国银行(上海市钦州北路支行),上海市,,(021)64175262,2702a1ecd3f81fa963180904,中国银行
上海市徐汇区宛平南路1123-1129号保利西岸C座一楼,徐汇区,上海市,1,31.186649,121.461276,中国银行(徐汇滨江支行),上海市,6566c64cf7155d0da2d230f7,"(021)64176105,(021)64176119",6566c64cf7155d0da2d230f7,中国银行
上海市徐汇区罗秀路961号,徐汇区,上海市,1,31.137113,121.437047,中国银行(罗秀路支行),上海市,4b7012ef35393d548c55ec9b,(021)54307978,4b7012ef35393d548c55ec9b,中国银行
上海市徐汇区建国西路596号,徐汇区,上海市,1,31.20856,121.45583,中国银行(建国西路支行),上海市,bba87388822362a1bca822c6,"(021)64453482,(021)64454616,(021)54652434",bba87388822362a1bca822c6,中国银行
上海市徐汇区龙华西路105号,徐汇区,上海市,1,31.178889,121.45696,中国银行(龙华西路支行),上海市,ef773a0fe4767235220220c6,(021)64568825,ef773a0fe4767235220220c6,中国银行
上海市徐汇区零陵路621号,徐汇区,上海市,1,31.194319,121.45329,中国银行(上海市零陵路支行),上海市,3a0fbba82d56de409ee321c6,(021)54894709,3a0fbba82d56de409ee321c6,中国银行
徐汇区天钥桥路1006号,徐汇区,上海市,1,31.183955,121.451576,中国银行(徐汇苑支行),上海市,7c5e480b410e54b5adb22ac6,(021)64562471,7c5e480b410e54b5adb22ac6,中国银行
上海市徐汇区广元西路45号,徐汇区,上海市,1,31.204283,121.44227,中国银行(上海交通大学徐汇校区支行),上海市,ea01f6f0eac79f7614b54bd9,(021)64484460,ea01f6f0eac79f7614b54bd9,中国银行
上海市徐汇区安福路186号,徐汇区,上海市,1,31.220589,121.45055,中国银行(安福路支行),上海市,2e00c5dd94d6481dd7851fc6,(021)54036080,2e00c5dd94d6481dd7851fc6,中国银行
上海市徐汇区衡山路516号,徐汇区,上海市,1,31.208406,121.450577,中国银行(衡山路支行),上海市,631c415774dec46031f71dc6,(021)64450992,631c415774dec46031f71dc6,中国银行
"上海市徐汇区龙吟路1-4,1-5、1-6号",徐汇区,上海市,1,31.125034,121.460012,中国银行(上海市华泾支行),上海市,e9fa3f2756749b38f32d83f3,(021)64300689,e9fa3f2756749b38f32d83f3,中国银行
上海市徐汇区宛平南路233号,徐汇区,上海市,1,31.199672,121.452984,中国银行(上海市宛平南路支行),上海市,b6c12a27b6e14ea71e1d11bf,(021)34771068,b6c12a27b6e14ea71e1d11bf,中国银行
上海市徐汇区桂平路481号-17号楼,徐汇区,上海市,1,31.17585,121.40774,中行(信科大楼园区),上海市,07da7e47f613620183a00c4b,,07da7e47f613620183a00c4b,中国银行
宜山路900科技产业化大楼A楼1层,徐汇区,上海市,1,31.17802,121.408121,中国银行ATM,上海市,ccf5c78e6de29b2c7c29bd71,,ccf5c78e6de29b2c7c29bd71,中国银行
上海市徐汇区柳州路430号,徐汇区,上海市,1,31.177398,121.430198,中国银行24小时自助银行(田林路支行),上海市,25ec69fc8500907cc26c14c1,,25ec69fc8500907cc26c14c1,中国银行
上海市徐汇区沪闵路9001号上海南站地下一层,徐汇区,上海市,1,31.159856,121.434994,中国银行ATM(上海南站),上海市,e88d2cbf957c1b569f9d6801,,f6d3e28755902429d3ff23bd,中国银行
虹梅路1535号星联科研大厦3号楼1层,徐汇区,上海市,1,31.169644,121.407176,中国银行ATM(星联科研大厦),上海市,5b2080f88368b0a78bb988e8,,5b2080f88368b0a78bb988e8,中国银行
龙华西路105,徐汇区,上海市,1,31.178832,121.457013,中国银行24小时自助银行(龙华支行),上海市,ca3b0b9fc8577fa9ddee8b78,,ca3b0b9fc8577fa9ddee8b78,中国银行
上海市徐汇区华山路1954号上海交通大学徐汇校区教师活动中心宾馆1层,徐汇区,上海市,1,31.205888,121.442194,中国银行ATM(华山路),上海市,3dfbf519eaee52d7d618b72c,,3dfbf519eaee52d7d618b72c,中国银行
上海市徐汇区凌云路402号,徐汇区,上海市,1,31.14355,121.425767,中国银行24小时自助银行(梅陇支行),上海市,0ed20a155b99bce957bfff6a,,0ed20a155b99bce957bfff6a,中国银行
田林路397号上海漕河泾万丽酒店1层,徐汇区,上海市,1,31.170956,121.40361,中国银行ATM(上海漕河泾万丽酒店),上海市,60846a3e895ab233c42ba10d,,60846a3e895ab233c42ba10d,中国银行
上海市徐汇区淮海中路1164号,徐汇区,上海市,1,31.221186,121.460474,中国银行24小时自助银行(淮海中路店),上海市,a3e8341c6ab2a5eb4afd3f73,,a3e8341c6ab2a5eb4afd3f73,中国银行
上海市徐汇区中山南二路1089号徐汇苑大厦1层,徐汇区,上海市,1,31.183954,121.451601,中国银行24小时自助银行(徐汇苑支行),上海市,a0fd6a33ed669e65c42ba1b1,,a0fd6a33ed669e65c42ba1b1,中国银行
上海市徐汇区宛平南路1175号附近,徐汇区,上海市,1,31.186652,121.461277,中国银行24小时自助银行,上海市,,,591ff9d065eb383471455b30,中国银行
中山西路1800兆丰环球大厦,徐汇区,上海市,1,31.189773,121.430918,中国银行24小时自助银行(宜山路支行),上海市,69fcd6dfc31e3e2eca2915c1,,69fcd6dfc31e3e2eca2915c1,中国银行
宛平南路233号,徐汇区,上海市,1,31.199755,121.453014,中国银行24小时自助银行服务(宛平南路支行),上海市,b71be88269287bc82811d15b,,b71be88269287bc82811d15b,中国银行
东安路255号上海利园国际大酒店1层,徐汇区,上海市,1,31.198893,121.460363,中国银行ATM(上海利园国际大酒店),上海市,b31b6e4dccbe0dab3617dc10,,b31b6e4dccbe0dab3617dc10,中国银行
零陵路627-1号,徐汇区,上海市,1,31.194282,121.45318,中国银行24小时自助银行(零陵路支行),上海市,75212c9b05681973ab059d4f,,75212c9b05681973ab059d4f,中国银行
上海市徐汇区虹桥路355号城开国际大厦1层,徐汇区,上海市,1,31.199606,121.437698,中国银行24小时自助银行(徐汇支行),上海市,2a7a25ec3d23d7626c3e1bc1,,2a7a25ec3d23d7626c3e1bc1,中国银行
桂平路391号新漕河泾国际商务中心a楼1层,徐汇区,上海市,1,31.170171,121.410859,中国银行24小时自助银行(漕河泾支行),上海市,c7fb04bd1f033d14fa0cad00,,c7fb04bd1f033d14fa0cad00,中国银行
龙吟路1号,徐汇区,上海市,1,31.124905,121.459881,中国银行24小时自助银行(华泾支行),上海市,83489cf8ee084276aeee7ab4,,83489cf8ee084276aeee7ab4,中国银行
上海市徐汇区安福路186,徐汇区,上海市,1,31.220563,121.450496,中国银行24小时自助银行(安福路支行),上海市,e85e25270fa7be2d95f08c26,,e85e25270fa7be2d95f08c26,中国银行
上海市徐汇区天钥桥路40-90号汇联商厦F1,徐汇区,上海市,1,31.199218,121.447771,中国银行24小时自助银行(汇联商厦),上海市,5903ab8c43a2e9bbb21e3666,,2851bd0128af7d8535b06cb9,中国银行
罗秀路961号,徐汇区,上海市,1,31.137135,121.437107,中国银行24小时自助银行(罗秀路支行),上海市,6835e3a7c1dca24fe31103d1,,6835e3a7c1dca24fe31103d1,中国银行
东安路8号青松城大酒店1层,徐汇区,上海市,1,31.204616,121.454813,中国银行24小时自助银行服务(肇嘉浜路支行),上海市,43c6eefbfa40e4a1a8175a83,,43c6eefbfa40e4a1a8175a83,中国银行
上海市徐汇区吴兴路108号附近,徐汇区,上海市,1,31.208337,121.450543,中国银行24小时自助银行(上海衡山路支行),上海市,,,f27c4861378d7aa5f7b91688,中国银行
上海市徐汇区广元西路45,徐汇区,上海市,1,31.204139,121.442136,中国银行24小时自助银行服务(广元西路),上海市,76065febea594816c4f50d74,,76065febea594816c4f50d74,中国银行
上海市徐汇区百色路100号园林格兰云天大酒店1层,徐汇区,上海市,1,31.150401,121.453958,中国银行外币兑换机(园林格兰云天大酒店),上海市,a4106e4cef25df0377026908,,a4106e4cef25df0377026908,中国银行
大木桥路461-1,徐汇区,上海市,1,31.206106,121.468192,中国银行24小时自助银行服务(大木桥路店),上海市,3f64b679652e08b50e3ddaea,,3f64b679652e08b50e3ddaea,中国银行
上海市徐汇区建国西路596号,徐汇区,上海市,1,31.208506,121.455725,中国银行24小时自助银行服务(建国西路支行),上海市,6f41fdb09ac3ea52dbeced8e,,6f41fdb09ac3ea52dbeced8e,中国银行
