address,area,city,detail,lat,lng,name,province,street_id,telephone,uid
北京市昌平区市场中路附近,昌平区,北京市,1,40.115658,116.285862,北京市农村商业银行,北京市,787fe12eddb0979d82288acf,"4006696198,96198",787fe12eddb0979d82288acf
北京市昌平区百善顺沙路北京农商银行,昌平区,北京市,1,40.172239,116.327005,北京农村商业银行(百善支行),北京市,06d2dffd10cb41f688f15d1b,"4006696198,96198",06d2dffd10cb41f688f15d1b
北京市昌平区北七家镇八仙别墅仙对面,昌平区,北京市,1,40.124952,116.455816,北京农村商业银行(北七家支行),北京市,b7021bf8eba831faf4e73b17,"(010)69751147,(010)69751141",b7021bf8eba831faf4e73b17
北京市昌平区北七家镇望都家园小区正门东侧,昌平区,北京市,1,40.122697,116.424014,北京市农村商业银行(望都分理处),北京市,89b9572fb826913a744ff133,(010)89753338,341c35de0ca472bee6073817
崔村镇西崔村11号,昌平区,北京市,1,40.225812,116.35992,北京市农村商业银行(崔村支行),北京市,befdb292893d86e187154109,"4006696198,96198",befdb292893d86e187154109
北京市昌平区南环路南邵回迁小区11号、12号,昌平区,北京市,1,40.21726,116.294611,北京市农村商业银行(南邵支行),北京市,b533ea4a005e7b414f6d4609,(010)60732142,b533ea4a005e7b414f6d4609
北京市昌平区西关路12号华尔森小区1号楼,昌平区,北京市,1,40.229439,116.228638,北京市农村商业银行(西关分理处),北京市,d24e48eb71cba4b4afee7a0d,(010)69708934,d24e48eb71cba4b4afee7a0d
北京市昌平区马池口村新街347号,昌平区,北京市,1,40.188398,116.226698,北京市农村商业银行(马池口支行),北京市,bb1d38e4eba4cd4d0c0a700d,(010)60772425,bb1d38e4eba4cd4d0c0a700d
北京市昌平区沙河镇豆各庄村10号,昌平区,北京市,1,40.117522,116.300357,北京农村商业银行(七里渠分理处),北京市,18165334c46a5704fb2d611b,(010)69737524,18165334c46a5704fb2d611b
北京市昌平区南口镇东大街保温瓶厂南侧,昌平区,北京市,1,40.245045,116.14371,北京市农村商业银行(南口支行),北京市,61085211bc8a7ea1c51b750d,(010)69771185,61085211bc8a7ea1c51b750d
北京昌平区阳阳坊大都饭店东北侧60米,昌平区,北京市,1,40.144209,116.14626,北京市农村商业银行(阳坊支行),北京市,dc0f0adc6b670821f822131f,(010)69760458,dc0f0adc6b670821f822131f
北京市昌平区小汤山镇地税所西院,昌平区,北京市,1,40.182682,116.3956,北京市农村商业银行(小汤山支行),北京市,669775d0a383ed5bfd0eb008,(010)61781226,669775d0a383ed5bfd0eb008
北京市昌平区镇东环路91号中医院对面,昌平区,北京市,1,40.222225,116.246374,北京市农村商业银行(兴昌支行),北京市,d5464cf8a1dd8d57fda7780d,(010)69744889,d5464cf8a1dd8d57fda7780d
昌平路410号,昌平区,北京市,1,40.070796,116.329915,北京农村商业银行(回龙观支行),北京市,,(010)62713086,ef9bc6aac1ecdfd77ec8763e
北京市昌平区南环东路22号,昌平区,北京市,1,40.219066,116.260285,北京市农村商业银行(东关分理处),北京市,3dc9befd89057616bea24009,(010)60741104,3dc9befd89057616bea24009
昌平区北环路2号金兰大厦3单元B1层C1及C2号房,昌平区,北京市,1,40.2353,116.233187,北京市农村商业银行(北环支行),北京市,cac5fc7613b70ef32cb96d0d,"(010)69709342,(010)69709340",cac5fc7613b70ef32cb96d0d
北京市昌平区沙河镇巩华城北区F4地块兆丰家园12-1号回迁商业楼1层,昌平区,北京市,1,40.15655,116.285357,北京市农村商业银行(沙河支行),北京市,fd7af4d2d27af18e88b9885b,"4006696198,(010)96198,(010)80700639",fd7af4d2d27af18e88b9885b
S219与北葛路交叉口东南侧60米,昌平区,北京市,1,40.175509,116.071642,北京市农村商业银行(流村支行),北京市,8eb48fa1b74dd3a6f32d8316,(010)89771169,8eb48fa1b74dd3a6f32d8316
中滩村东小口镇政府后面,昌平区,北京市,1,40.065776,116.415146,北京市农村商业银行(天通苑支行),北京市,02249e7921ee312a09a8d455,"4006696198,96198",02249e7921ee312a09a8d455
北京市昌平区鼓楼北街北城根3号楼,昌平区,北京市,1,40.234566,116.240158,北京市农村商业银行(鼓楼北街分理处),北京市,08f1f1f5a25639ca88db730d,"4006696198,96198",08f1f1f5a25639ca88db730d
北京市昌平区马池口镇北小营村东628号,昌平区,北京市,1,40.187906,116.17222,北京市农村商业银行(亭自庄分理处),北京市,48eb0058119b97ad2fe67b0d,(010)60756436,48eb0058119b97ad2fe67b0d
北京市昌平区天通苑南街道立汤路186号甲龙德紫金5栋1层,昌平区,北京市,1,40.068637,116.421107,北京市农村商业银行(立汤路分理处),北京市,8e8078d3af638937cd04ef43,"4006696198,(010)84675196",8e8078d3af638937cd04ef43
昌平区昌平路74号,昌平区,北京市,1,40.174012,116.25196,北京市农村商业银行(西沙屯分理处),北京市,4cf8d24e3a78c5e49cf7790d,(010)80762266,4cf8d24e3a78c5e49cf7790d
北京市昌平区北清路1号院珠江摩尔国际大厦5号楼,昌平区,北京市,1,40.10499,116.297598,北京市农村商业银行(北清路分理处),北京市,26185430761c243f46572649,(010)69731627,26185430761c243f46572649
北京市昌平区北七家镇平西府村王府街5号,昌平区,北京市,1,40.110864,116.411961,北京农村商业银行(天通苑支行平西府分理处),北京市,b388f9fd9f55ae3fb25c6aa7,(010)81785329,b388f9fd9f55ae3fb25c6aa7
黑山寨村255号,昌平区,北京市,1,40.363686,116.314314,北京市农村商业银行(昌平支行黑山寨分理处),北京市,4cf8d24e3a70c5e49cf77905,"4006696198,96198",4cf8d24e3a70c5e49cf77905
北京市昌平区北京农商银行(213省道东),昌平区,北京市,1,40.290438,116.366715,北京市农村商业银行(昌平支行下庄分理处),北京市,cde9e2c7387f40b4e81e970a,(010)89726124,cde9e2c7387f40b4e81e970a
北京市昌平区建材城西路北京农商银行(育新花园附近),昌平区,北京市,1,40.066138,116.351173,北京农村商业银行(天通苑支行龙华分理处),北京市,91c13f93bb57cffa21f01763,"4006696198,96198",91c13f93bb57cffa21f01763
北七家镇温都水城文化商业街c座,昌平区,北京市,1,40.108556,116.379796,北京市农村商业银行(天通苑支行宏福分理处),北京市,cce236d2b74a1289fa42b206,(010)81777909,cce236d2b74a1289fa42b206
北京市昌平区黄平路201,昌平区,北京市,1,40.086652,116.373535,北京农村商业银行(天通苑支行霍家营分理处),北京市,3f9337d681c719b3f7231063,(010)69791040,3f9337d681c719b3f7231063
长陵镇十三陵旅游车保养中心西北方向80米,昌平区,北京市,1,40.300238,116.256406,北京市农村商业银行(十三陵支行长陵分理处),北京市,e2c734e48e93d05d15a1900a,(010)60761042,e2c734e48e93d05d15a1900a
府学路建安里7号,昌平区,北京市,1,40.228275,116.265423,北京市农村商业银行(昌平支行东海分理处),北京市,ea4a3dc9826a772e4e554709,"4006696198,96198",ea4a3dc9826a772e4e554709
上品折扣(回龙观店)北京市昌平区回龙观西大街16号F1,昌平区,北京市,1,40.084873,116.342762,北京市农村商业银行(回龙观西大街分理处),北京市,a8a0b82017c3e6baae31e59f,"4006696198,96198",a8a0b82017c3e6baae31e59f
北京市昌平区商业街22号,昌平区,北京市,1,40.087854,116.339975,北京农村商业银行(天通苑支行龙禧分理处),北京市,c89f7ea531df16daae080f24,"4006696198,96198",d6df91c1b212f26af7b91663
昌平区回龙观镇北京人家小区1号楼5单元102号,昌平区,北京市,1,40.08173,116.312053,北京市农村商业银行(天通苑支行龙兴分理处),北京市,69fcd6df1f40fa2fca291563,(010)80794096,69fcd6df1f40fa2fca291563
大东流村114号,昌平区,北京市,1,40.181627,116.472684,北京农商银行(大东流分理处),北京市,28e700f1ef62c101095cb308,(010)61711450,28e700f1ef62c101095cb308
白浮泉路10号兴业大厦1层A区,昌平区,北京市,1,40.205701,116.242302,北京农商银行(科技园分理处),北京市,bba5f4366a23f2632dfaa750,"4006696198,96198",bba5f4366a23f2632dfaa750
中石路58号,昌平区,北京市,1,40.222186,116.246421,北京市农村商业银行24小时自助银行服务(兴昌支行),北京市,7388dffdfb8f84ebd3ff230d,,7388dffdfb8f84ebd3ff230d
北京市昌平区七小路北50米,昌平区,北京市,1,40.129501,116.333337,北京市农村商业银行24小时自助银行服务(七小路),北京市,62ac984f03a02818f6c59c61,,cd86c6d9750c21580bf5ebb6
北京市昌平区小汤山镇北京市九华旅游职业学校,昌平区,北京市,1,40.182108,116.422439,北京市农村商业银行24小时自助银行(文明路),北京市,a74481d69690be46f503b808,,a74481d69690be46f503b808
大东流村114号,昌平区,北京市,1,40.181833,116.472997,北京市农村商业银行24小时自助银行服务(大东流分理处),北京市,c08a038223267bf52b11d11e,,c08a038223267bf52b11d11e
北七家镇政府街八仙别墅北侧,昌平区,北京市,1,40.12498,116.455654,北京市农村商业银行24小时自助银行(北七家支行),北京市,e56bf5e305237a440782c217,,e56bf5e305237a440782c217
北京市昌平区土沟新村南区(赴沟路南260米),昌平区,北京市,1,40.159749,116.46461,北京市农村商业银行24小时自助银行,北京市,1c7618b8ec2a7e37b5f42fb4,,1c7618b8ec2a7e37b5f42fb4
温南路1层,昌平区,北京市,1,40.240713,116.139285,农村商业银行24小时自助银行服务(新世纪商城星城商场),北京市,f8eca5fedbd27bd3f03cba78,,f8eca5fedbd27bd3f03cba78
安四路299号附近,昌平区,北京市,1,40.289822,116.369075,北京市农村商业银行24小时自助银行(下庄分理处),北京市,b4ab70e82fedcc9fb220a8bb,,b4ab70e82fedcc9fb220a8bb
北京市昌平区十三陵镇石牌坊村北京涉外经济学院,昌平区,北京市,1,40.242889,116.225548,北京市农村商业银行24小时自助银行(石牌坊),北京市,,,12b9dbe6f86b58656f3e1b7d
北京市昌平区延寿镇政府南侧,昌平区,北京市,1,40.300396,116.256531,北京市农村商业银行24小时自助银行(长陵分理处),北京市,e116be54c372277bc91b950a,,e116be54c372277bc91b950a
马池口楼自庄供销店昌平区马池口镇楼自庄村民委员会附近,昌平区,北京市,1,40.170692,116.224615,北京市农村商业银行24小时自助银行(娄土路),北京市,1f2efed3bfe29557734b878a,,1f2efed3bfe29557734b878a
回龙观镇北店嘉园小区21号,昌平区,北京市,1,40.087896,116.340119,北京市农村商业银行24小时自助银行(龙禧分理处),北京市,bd5046e8eb72cd3fd72ce22c,,bd5046e8eb72cd3fd72ce22c
北京市昌平区百善镇派出所前院,昌平区,北京市,1,40.172389,116.327144,北京市农村商业银行24小时自助银行(昌平支行百善分理处),北京市,438aacaf6ab9610dac0457bb,,438aacaf6ab9610dac0457bb
北京市昌平区沙河镇巩华城北区F4地块兆丰家园12-1号回迁商业楼1层,昌平区,北京市,1,40.156683,116.285202,北京市农村商业银行24小时自助银行(沙河支行),北京市,7f5cd643cd348a8d23f01740,,7f5cd643cd348a8d23f01740
立水桥西路68号,昌平区,北京市,1,40.066047,116.415251,北京农村商业银行24小时自助银行(天通苑支行),北京市,b2f5d2e2b161e3cc1676437b,,b2f5d2e2b161e3cc1676437b
北京市昌平区回龙观西大街16号上品折扣F1,昌平区,北京市,1,40.085008,116.342595,北京市农村商业银行24小时自助银行服务(上品折扣),北京市,603da5b52145de6611882474,,603da5b52145de6611882474
北京市昌平区南口南大街21北京工商管理专修学院,昌平区,北京市,1,40.238404,116.132097,北京市农村商业银行ATM,北京市,,,2e558de44384a957e315f977
后洼村马兴路中段华联生活超市桃洼西北40米,昌平区,北京市,1,40.240667,116.095449,北京市农村商业银行ATM(桃洼路),北京市,,,34ce920e71f19aa9f6c59cc7
北京市昌平区南环路南邵回迁小区11号、12号,昌平区,北京市,1,40.217339,116.294932,北京市农村商业银行24小时自助银行(南邵支行),北京市,e3082848bd4111bfb34c4909,,e3082848bd4111bfb34c4909
政府街11号,昌平区,北京市,1,40.226906,116.24041,北京市农村商业银行ATM(政府街),北京市,909c8275f4d231ffc27da2b2,,909c8275f4d231ffc27da2b2
北京市昌平区南口镇昌流路8号,昌平区,北京市,1,40.185314,116.110612,北京市农村商业银行ATM(昌流路),北京市,7ea0b4ae944d2d681329355c,,7ea0b4ae944d2d681329355c
南阳路大都饭店北侧,昌平区,北京市,1,40.144195,116.145808,北京市农村商业银行ATM(阳坊支行),北京市,91c13f93bb53cffa21f0171f,,91c13f93bb53cffa21f0171f
北京市昌平区以外流村镇北流村,昌平区,北京市,1,40.175509,116.071642,北京市农村商业银行ATM(流村分理处),北京市,4582856ec0698c40901fc94c,,1cfe4cd9e089c541da2f28e0
北京市昌平区二拨子商业街临1号-45正东方向108米,昌平区,北京市,1,40.086555,116.308013,北京农商银行24小时自助银行,北京市,535ff7cf2bf1ea8bf119372e,,535ff7cf2bf1ea8bf119372e
城角西路12号附近,昌平区,北京市,1,40.221713,116.229685,北京农商银行24小时自助银行(槐树巷),北京市,1a18693d4ad32c981cf74d7d,,1a18693d4ad32c981cf74d7d
北京市昌平区城关镇东关府学路建安里7号,昌平区,北京市,1,40.228256,116.265543,北京农商银行24小时自助银行(东海分理处),北京市,e116be547564f905c91b9512,,e116be547564f905c91b9512
西关路12号华尔森小区1号楼,昌平区,北京市,1,40.229397,116.228788,北京农商银行24小时自助银行(西关分理处),北京市,46b39eeef996ef2611882406,,46b39eeef996ef2611882406
北京市昌平区回龙观镇北京人家小区1号楼5单元102号,昌平区,北京市,1,40.081906,116.312047,北京农商银行24小时自助银行(龙兴分理处),北京市,504d611372f6ffb346572663,,504d611372f6ffb346572663
北京市昌平区王府街5号,昌平区,北京市,1,40.11079,116.41194,北京农商银行24小时自助银行服务(平西府分理处),北京市,c7eca12b3a573749e015f984,,c7eca12b3a573749e015f984
北京市昌平区北七家镇郑各庄村北京邮电大学宏福校区,昌平区,北京市,1,40.116585,116.380952,北京农商银行24小时自助银行服务(邮电大学宏福校区),北京市,,,d5464cf8a1c78d57fda7781b
泰胡路20号,昌平区,北京市,1,40.277383,116.235447,北京农商银行24小时自助银行(十三陵支行),北京市,fd93cb2947e338970f0a70ca,,fd93cb2947e338970f0a70ca
北京市昌平区沙河北京昆钰酒店(沙阳路北),昌平区,北京市,1,40.127745,116.266111,北京农商银行24小时自助银行服务(昌平支行),北京市,f8b88c078e64a41d3be4a640,,f8b88c078e64a41d3be4a640
北京市昌平区兴寿镇兴寿村709号(兴寿电信局旁),昌平区,北京市,1,40.224782,116.42159,北京农商银行24小时自助银行服务(兴寿支行),北京市,,,81d6a5094963cd406e20b908
鼓楼南街19附近,昌平区,北京市,1,40.225343,116.240556,北京农商银行24小时自助银行(鼓楼南街),北京市,41572e00504e09b4b45f1e0d,,41572e00504e09b4b45f1e0d
北七家镇燕丹村7号派出所西,昌平区,北京市,1,40.092479,116.446296,北京农商银行24小时自助银行服务(燕丹分理处),北京市,f5e3bcae07753fc15e17c317,,f5e3bcae07753fc15e17c317
北京市昌平区香堂环路西50米,昌平区,北京市,1,40.250266,116.372201,北京农商银行24小时自助银行(香堂环路),北京市,34e485085eaa6c9fd8d89151,,34e485085eaa6c9fd8d89151
北京市昌平区天通东苑三区2号国泰百货F1,昌平区,北京市,1,40.079916,116.442661,北京农商银行24小时自助银行(国泰百货),北京市,7aea43b7de0d62f87c29bd1d,,7aea43b7de0d62f87c29bd1d
回龙观镇东半壁店村268号,昌平区,北京市,1,40.105417,116.294785,北京农商银行24小时自助银行服务(昌艺园小区西南),北京市,1bb1f9bd2e2134001d1d1133,,1bb1f9bd2e2134001d1d1133
北京市昌平区建材城西路金燕龙办公楼东,昌平区,北京市,1,40.06598,116.350898,北京农商银行24小时自助银行(龙华分理处),北京市,fd007c5eea8ae16ca8f72963,,fd007c5eea8ae16ca8f72963
中关村南大街27号中国民族大学附近,昌平区,北京市,1,40.221069,116.239074,中国农业银行24小时自助银行(商业街),北京市,87a4fe06e02cf62532870a65,,87a4fe06e02cf62532870a65
北七家南区三街鲁疃嘉园,昌平区,北京市,1,40.115937,116.480765,农商银行24小时自助银行,北京市,,,c6fee1b78ffcf73de4e965b1
北京市昌平区X029(南涧路),昌平区,北京市,1,40.249618,116.216434,农商银行24小时自助银行服务,北京市,,,e0c219f47b420e30f62310e5
北京市昌平区立水桥东三路,昌平区,北京市,1,40.083056,116.435252,北京农商银行,北京市,0db61276094a3055dc1e52d8,"4006696198,96198",0db61276094a3055dc1e52d8
沙阳路11号昆钰酒店底商,昌平区,北京市,1,40.127745,116.266179,北京农商银行,北京市,2c4466f567659e34e6e96529,"4006696198,96198",2c4466f567659e34e6e96529
回南路281号附近,昌平区,北京市,1,40.09537,116.421483,北京农商银行,北京市,,,3693c07f2f72cad03010afb0
北京市昌平区兴香路,昌平区,北京市,1,40.201669,116.417262,北京农商银行自助服务台,北京市,,,93837865dcf65751d618b74f
北京市昌平区黄平路50号院号附近,昌平区,北京市,1,40.098466,116.382191,北京农商银行24小时自助银行,北京市,4557c4ae6c1b35693617dc12,,4557c4ae6c1b35693617dc12
泰胡路20号,昌平区,北京市,1,40.277422,116.235438,北京农商银行(十三陵支行),北京市,0fbf812b1dd1e6478bfc0616,"4006696198,96198",0fbf812b1dd1e6478bfc0616
北京市昌平区,昌平区,北京市,1,40.190816,116.256281,北京农商银行24小时自助银行,北京市,,,c2cf7ea7528537976b49f349
昌平路410号,昌平区,北京市,1,40.070789,116.330083,北京农商银行24小时自助银行(回龙观支行),北京市,,,14e26726e4c9f1e0b23c81ba
北京市昌平区太海路,昌平区,北京市,1,40.086209,116.447948,北京农商银行24小时自助银行,北京市,43ba5c380226ca85c61e51e6,,43ba5c380226ca85c61e51e6
北京市昌平区北环路昌平北路25号院三街裕祥小区附近,昌平区,北京市,1,40.238877,116.242705,北京农商银行24小时自助银行,北京市,,,a3a73973cb8dd83a6f3e1b8e
北京市昌平区,昌平区,北京市,1,40.193296,116.256061,北京农商银行24小时自助银行,北京市,55ef604ce81af6ee5c0d0242,,55ef604ce81af6ee5c0d0242
昌盛路11号,昌平区,北京市,1,40.205941,116.257438,北京农商银行24小时自助银行,北京市,,,84ea6ef9d079ac5649fd3f53
北京市昌平区北七家回南路东三旗宾馆附近,昌平区,北京市,1,40.095433,116.421193,北京农商银行24小时自助银行,北京市,7bc96819bbbf88add1f49eaf,,7bc96819bbbf88add1f49eaf
秦上路东100米,昌平区,北京市,1,40.155555,116.394401,北京农商银行24小时自助银行服务,北京市,ad65644b9b09ec6ec92915a9,,ad65644b9b09ec6ec92915a9
北京市昌平区X034(水南路),昌平区,北京市,1,40.204619,116.234857,北京农商银行24小时自助银行服务,北京市,a10cd179fe0238ec4d554728,,a10cd179fe0238ec4d554728
龙水路38号院10号楼1层,昌平区,北京市,1,40.214605,116.265321,北京农商银行24小时自助银行服务,北京市,,,3cf6ec768562fe2095ca0706
满白路南50米,昌平区,北京市,1,40.18964,116.238745,北京农商银行24小时自助银行服务,北京市,631c4157b893006131f71d0d,,8265d20ab48e6b02acb22afb
北京市昌平区回龙观西大街6号,昌平区,北京市,1,40.085672,116.341369,北京农商银行24小时自助银行(北店时代广场),北京市,ffc3e16caa1a3bc4fb221392,,ffc3e16caa1a3bc4fb221392
东北路与顺于路交叉口西150米,昌平区,北京市,1,40.139395,116.435098,北京农商银行24小时自助银行服务,北京市,10357f26c9dcc51a15c90557,,10357f26c9dcc51a15c90557
立汤路28号,昌平区,北京市,1,40.159214,116.416322,北京农商银行24小时自助银行(马讲路),北京市,d089719f8b8b3ca0095cb337,,d089719f8b8b3ca0095cb337
北京市昌平区小汤山镇地税所西院,昌平区,北京市,1,40.182432,116.395656,北京农商银行24小时自助银行服务(小汤山支行),北京市,7bfa08fca346c87f25d2bb08,,4648a75158b894a5abf0cd1e
北京市昌平区S213(立汤路),昌平区,北京市,1,40.127258,116.418468,北京农商银行24小时自助银行(北七家家具建材批发市场),北京市,,,ec945eb803c8a1c89fec2b13
朝凤南路与朝凤路交叉口西100米,昌平区,北京市,1,40.242849,116.266967,北京农商银行24小时自助银行服务(朝凤路),北京市,73e92342b005bee4b917e74f,,73e92342b005bee4b917e74f
北京市昌平区北环路2号,昌平区,北京市,1,40.235312,116.233079,北京农商银行24小时自助银行服务(北环支行),北京市,9e36fae4a4f95d7fe5e965c2,,6de2f007f41e99684afd3f75
北京市昌平区百善镇市场中路西400米(近昌平区回龙观镇定福皇庄村村委会),昌平区,北京市,1,40.1166,116.282092,北京农商银行24小时自助银行服务(定北路),北京市,cfbe5e9500fdeb32c9c3db6c,,cfbe5e9500fdeb32c9c3db6c
北京市昌平区市场中路中共西半壁店村支部委员会,昌平区,北京市,1,40.104585,116.290233,北京农商银行24小时自助银行服务(生命科学园东路),北京市,36c8aec1300a705e96f08c1e,,36c8aec1300a705e96f08c1e
北京市昌平区南口镇东大街保温瓶厂南侧,昌平区,北京市,1,40.245058,116.143672,北京农商银行24小时自助银行服务(南口支行),北京市,c629ccf1dbe37c9d50e5c50b,,c629ccf1dbe37c9d50e5c50b
北七家镇望都家园小区正门东侧,昌平区,北京市,1,40.122839,116.424137,北京农商银行24小时自助银行服务(望都分理处),北京市,f64ef32da3bdbc9f095cb3b2,,f64ef32da3bdbc9f095cb3b2
北京市昌平区马池口村路347号附近,昌平区,北京市,1,40.188362,116.226734,北京农商银行24小时自助银行服务(马池口支行),北京市,36aee29772750a08fbf0cbf2,,d925ea24de78efb7fbdc859f
良庄西街4号楼附近,昌平区,北京市,1,40.090999,116.364695,北京农商银行(天通苑支行科星西路分理处),北京市,9e1faaafcaf7c959400245ca,(010)69798689,9e1faaafcaf7c959400245ca
天通苑北苑三区1号,昌平区,北京市,1,40.085112,116.435434,北京农商银行24小时自助银行(立水桥东三路),北京市,,,2fb558ac7905bf9713293507
北京市昌平区七北路(温都水城东),昌平区,北京市,1,40.106935,116.379929,北京农商银行24小时自助银行服务(温都水城国际大酒店东),北京市,a74481d605882345f503b81d,,a74481d605882345f503b81d
北京市昌平区南大街8号南80米,昌平区,北京市,1,40.240084,116.135501,北京农商银行24小时自助银行服务(南大街分理处),北京市,,,0514ccaada7b2fbcda131850
北京市昌平区天通苑太平家园北(太平庄中一街),昌平区,北京市,1,40.077311,116.415874,北京农商银行24小时自助银行(太平庄中一街),北京市,404d4b0109119b42276e984e,,404d4b0109119b42276e984e
展思门路29号,昌平区,北京市,1,40.139985,116.27878,北京农商银行24小时自助银行服务(沙河支行),北京市,8ab0dfc4b1f0f66bd8eced5a,,8ab0dfc4b1f0f66bd8eced5a
北京市昌平区北七家名佳花园三区(北清路北),昌平区,北京市,1,40.110593,116.42423,北京农商银行ATM(北京中医药大学附属中西结合医院东),北京市,6bcbbdf76299701c213bf247,,6bcbbdf76299701c213bf247
北京市昌平区南七家庄村主街,昌平区,北京市,1,40.092998,116.461859,北京农商银行24小时人工服务,北京市,edbdcf253104e56531f71d8d,,edbdcf253104e56531f71d8d
