address,area,city,detail,lat,lng,name,province,street_id,telephone,uid,机构名称
北京市朝阳区安翔北路11,朝阳区,北京市,1,40.000714,116.387176,中国工商银行,北京市,,,38cd517efe5be6ae2b201a21,工商银行
北京市朝阳区安贞路辅路,朝阳区,北京市,1,39.976444,116.407764,中国工商银行ATM(安贞路),北京市,ebd774a0bdda6490df1e52bf,,ebd774a0bdda6490df1e52bf,工商银行
北京市朝阳区建国门外大街1号北京国贸商城1期3层,朝阳区,北京市,1,39.915022,116.463955,中国工商银行(国贸支行),北京市,53142b3d3275378c7e29bd10,"(010)65051651,(010)65358023",53142b3d3275378c7e29bd10,工商银行
北京市朝阳区广顺北大街33号院1号楼1层101室(福码大厦1楼),朝阳区,北京市,1,40.000276,116.474259,中国工商银行(广顺支行),北京市,5d7863170b9b7208581093e8,,beabdbf4bdc9a5e67169d3b4,工商银行
北京市朝阳区安慧北里秀园15号,朝阳区,北京市,1,40.004959,116.420147,中国工商银行(北京安慧支行),北京市,c61bd305c34bff68c27da24d,(010)64899897,c61bd305c34bff68c27da24d,工商银行
北京市朝阳区东三环北路丙2号天元港中心1层,朝阳区,北京市,1,39.96138,116.46607,中国工商银行(北京燕莎支行),北京市,50fb64ff7cb5e45de9f8534c,"(010)65932271,(010)84417537",50fb64ff7cb5e45de9f8534c,工商银行
北京市朝阳区建国门外大街1号国贸写字楼1座1层,朝阳区,北京市,1,39.915184,116.46514,中国工商银行(建外大街储蓄所),北京市,79196a39a52dad38b7265593,(010)65055297,79196a39a52dad38b7265593,工商银行
北京市朝阳区东大桥路8号2楼1105室,朝阳区,北京市,1,39.924672,116.457894,中国工商银行(北京尚都支行),北京市,435d7aea75e32e355abbbc4d,"(010)58692879,(010)58692080",435d7aea75e32e355abbbc4d,工商银行
北京市朝阳区朝阳北路常营丽景园甲4号楼1层101号,朝阳区,北京市,1,39.930699,116.61698,中国工商银行(北京常营支行),北京市,2073cdeb2e94400602294f38,(010)57845274,2073cdeb2e94400602294f38,工商银行
北京市朝阳区朝阳门外大街17号祥业大厦底商,朝阳区,北京市,1,39.930561,116.4466,中国工商银行(北京祥普支行),北京市,22e1140729ba25b4d5b74e4c,"(010)65803199,(010)65803179,(010)65803189",22e1140729ba25b4d5b74e4c,工商银行
北京市朝阳区麦子店街41号,朝阳区,北京市,1,39.952754,116.47522,中国工商银行(麦子店支行),北京市,4ce10ce6b8af48a0441a321d,"95588,(010)65920120",4ce10ce6b8af48a0441a321d,工商银行
北京市朝阳区建国路88号SOHO现代城D座1层,朝阳区,北京市,1,39.913239,116.481431,中国工商银行(北京现代城支行),北京市,f5e3bcae08d33cc15f17c3b5,(010)85893750,f5e3bcae08d33cc15f17c3b5,工商银行
北京市朝阳区慧忠北里407号楼,朝阳区,北京市,1,40.009824,116.410692,中国工商银行(亚运村支行营业部),北京市,b1c556e837cb130fb426556c,(010)64863524,b1c556e837cb130fb426556c,工商银行
北京市朝阳区北土城西路11号城建开发大厦1-2层,朝阳区,北京市,1,39.983409,116.391131,中国工商银行(北京马甸支行),北京市,75036835fe6ddcd15e0d02d1,(010)62054154,75036835fe6ddcd15e0d02d1,工商银行
北京市朝阳区南湖东园101号一层,朝阳区,北京市,1,40.010296,116.473476,中国工商银行(北京南湖东园支行),北京市,55fa2c0bc7ae1f2d1ce9997a,(010)64751706,55fa2c0bc7ae1f2d1ce9997a,工商银行
亮马桥路52号燕莎友谊商城1层,朝阳区,北京市,1,39.954493,116.469631,中国工商银行(自动柜员机店),北京市,28e7381f2d9909ae59bbbc58,,28e7381f2d9909ae59bbbc58,工商银行
北京市朝阳区建国门外大街8号北京国际财源中心,朝阳区,北京市,1,39.91352,116.459191,中国工商银行(北京永安里支行),北京市,0219efdbb26ab1c08a36ee82,,0219efdbb26ab1c08a36ee82,工商银行
北京市朝阳区樱花东街5号新化信,朝阳区,北京市,1,39.978856,116.430847,中国工商银行(北京香河园支行),北京市,14076deea05ceef402294f4c,(010)64418775,14076deea05ceef402294f4c,工商银行
北京市朝阳区双桥路1036号康惠园3号院2号楼1楼至2楼101号102号,朝阳区,北京市,1,39.912084,116.584472,中国工商银行(北京双桥路支行),北京市,351fc125bec36eaa34b06c53,(010)65478676,6cf8b77a08811ddf130daafc,工商银行
北京市朝阳区安苑路20号世纪兴源大厦一层,朝阳区,北京市,1,39.989157,116.418502,中国工商银行(北京惠新支行),北京市,881a28e728a50147f942b24d,"(010)64928272,(010)84896312",881a28e728a50147f942b24d,工商银行
北京市朝阳区安定路中段33号化信大厦首层,朝阳区,北京市,1,39.981651,116.413001,中国工商银行(北京化信支行),北京市,00f1c7fb22e9321fc056ac4d,(010)64442449,00f1c7fb22e9321fc056ac4d,工商银行
北京市朝阳区育慧北路8号院三区3号,朝阳区,北京市,1,40.000515,116.43683,中国工商银行(世纪村支行),北京市,b292b3aa7b09bc56be48424c,(010)84629239,b292b3aa7b09bc56be48424c,工商银行
北京市朝阳区惠新西街安外小关东里14号,朝阳区,北京市,1,39.984106,116.423453,中国工商银行(北京安华支行),北京市,5cdd65c1ac58fcb430169bca,(010)64433166,5cdd65c1ac58fcb430169bca,工商银行
北京市朝阳区左家庄中街6号院9号楼1层115号房间,朝阳区,北京市,1,39.961165,116.448193,中国工商银行(北京柳芳支行),北京市,61085211de0d9cdfc41b758b,(010)64611816,61085211de0d9cdfc41b758b,工商银行
北京市朝阳区南湖西园甲205号楼1层09、10、11、15,朝阳区,北京市,1,40.002091,116.463636,中国工商银行(北京京城支行),北京市,46e86fdd243d8012d13ce3df,(010)52039080,46e86fdd243d8012d13ce3df,工商银行
北京市朝阳区大屯路甲38号风林绿洲小区F14号,朝阳区,北京市,1,40.006131,116.388458,中国工商银行(北京大屯路支行),北京市,,"(010)64837083,(010)64836990,(010)64871128",d991e116b03f0b551f38947a,工商银行
北京市朝阳区酒仙桥南十里居15号院13号,朝阳区,北京市,1,39.964077,116.49811,中国工商银行(北京南十里居支行),北京市,81d6a5094aaece406e20b94d,(010)84509208,81d6a5094aaece406e20b94d,工商银行
北京市朝阳区西坝河中里34号楼1幢等3幢,朝阳区,北京市,1,39.968024,116.44687,中国工商银行(北京西坝河支行),北京市,8a039e58ff69b273c51e5106,(010)64610169,8a039e58ff69b273c51e5106,工商银行
北京市朝阳区广渠门外大街22号楼西侧,朝阳区,北京市,1,39.898818,116.463176,中国工商银行(北京广渠路支行),北京市,4ce10ce6f40604a1451a32b5,"(010)67783934,(010)67730892",4ce10ce6f40604a1451a32b5,工商银行
北京市朝阳区潘家园南里27号人卫酒店东侧,朝阳区,北京市,1,39.881582,116.454256,中国工商银行(左安门支行),北京市,af1ae56b4cc87a124307c1b5,(010)67776881,af1ae56b4cc87a124307c1b5,工商银行
北京市朝阳区红松园北里2号内14号楼,朝阳区,北京市,1,39.972326,116.56049,中国工商银行(北京东坝支行),北京市,060f5e53147b23d7081cc743,(010)65493553,060f5e53147b23d7081cc743,工商银行
高碑店乡康家沟118号,朝阳区,北京市,1,39.936556,116.507953,中国工商银行(石佛营支行),北京市,1fe496faa842b995f7e73b79,95588,1fe496faa842b995f7e73b79,工商银行
东坝南二街京奥家园186幢商铺1-2号,朝阳区,北京市,1,39.966883,116.552024,中国工商银行(北京京奥嘉园支行),北京市,04bdf4a37d78ad32354aaecf,(010)52085957,04bdf4a37d78ad32354aaecf,工商银行
朝阳区和平街11区38号一层,朝阳区,北京市,1,39.973484,116.425133,中国工商银行(北京北三环支行),北京市,eef2d5282dadd6a73be4a64d,(010)64280539,eef2d5282dadd6a73be4a64d,工商银行
北京市朝阳区北苑东路广华居17号楼一层,朝阳区,北京市,1,40.039057,116.447729,中国工商银行(北京青年城支行),北京市,ba4346aeaaedac07095cb389,(010)84952070,ba4346aeaaedac07095cb389,工商银行
北京市朝阳区红军营南路天乐园1号A1一层,朝阳区,北京市,1,40.03947,116.41924,中国工商银行(亚运村媒体村支行),北京市,2c0bd6c5c9fa27aa43ab9a7a,(010)84929831,2c0bd6c5c9fa27aa43ab9a7a,工商银行
北京市朝阳区北沙滩甲1号中科电大厦一、二层,朝阳区,北京市,1,40.007921,116.377383,中国工商银行(北京北沙滩支行),北京市,cac5fc76710bec8d2db96dac,,cac5fc76710bec8d2db96dac,工商银行
北京市朝阳区宵云路36号国航大厦一层,朝阳区,北京市,1,39.962225,116.469986,中国工商银行(北京国航大厦支行),北京市,07f3c8b5ecbb88636240a94d,(010)84475236,07f3c8b5ecbb88636240a94d,工商银行
北京市朝阳区新源里16号院2号楼首层,朝阳区,北京市,1,39.954138,116.456472,中国工商银行(北京新源里支行),北京市,3be122e15153ab521ef74d4c,(010)64641749,3be122e15153ab521ef74d4c,工商银行
北京市朝阳区将台西路芳园里37号楼1层,朝阳区,北京市,1,39.977048,116.4907,中国工商银行(北京将台路支行),北京市,fbc25962c9a96ade6cc02c7f,(010)64372586,fbc25962c9a96ade6cc02c7f,工商银行
北京市朝阳区朝阳路八里庄西里100号,朝阳区,北京市,1,39.921204,116.50011,中国工商银行(北京八里庄支行),北京市,b9e5d0b836143bbc80a12eb5,(010)85860649,b9e5d0b836143bbc80a12eb5,工商银行
北京市朝阳区朝阳北路199号摩码大厦0104、0105、0106室,朝阳区,北京市,1,39.92959,116.479491,中国工商银行(北京金台北里支行),北京市,2d34b8687c07d2328e1a898b,(010)85992297,2d34b8687c07d2328e1a898b,工商银行
北京市朝阳区西大望路甲2号航空大厦1层,朝阳区,北京市,1,39.920715,116.484823,中国工商银行(北京大望路支行),北京市,cdef4edf5962f13028d7abc2,(010)65079878,cdef4edf5962f13028d7abc2,工商银行
姚家园路六里屯北里18号楼A座1层,朝阳区,北京市,1,39.937034,116.481654,中国工商银行(北京甜水园支行),北京市,b533ea4a019d78414f6d464c,(010)65046332,b533ea4a019d78414f6d464c,工商银行
"北京市朝阳区东三环北路甲26号楼1层101,102,103",朝阳区,北京市,1,39.933461,116.469126,中国工商银行(北京团结湖支行),北京市,,"(010)65901332,(010)65901328",77356814ca8f2682abf0cd59,工商银行
北京市朝阳区和平街10区5号楼和平街商场,朝阳区,北京市,1,39.970443,116.430594,中国工商银行(北京和平街支行),北京市,d6df91c1b176f36af7b916ff,(010)64212777,d6df91c1b176f36af7b916ff,工商银行
朝阳门外市场街20号中保大厦首层,朝阳区,北京市,1,39.926531,116.44699,中国工商银行(北京日坛路支行),北京市,e889a744b28263b58605bf4d,(010)85636026,e889a744b28263b58605bf4d,工商银行
北京市朝阳区朝外头条35号,朝阳区,北京市,1,39.92629,116.442879,中国工商银行(北京朝阳门支行),北京市,7590cefcd009a0c7c4f50d1c,(010)85615373,7590cefcd009a0c7c4f50d1c,工商银行
北京市朝阳区双桥温泉北里2号楼,朝阳区,北京市,1,39.897642,116.613765,中国工商银行(北京双桥新村支行),北京市,43b7e889937c476a59f6bea9,(010)85391303,43b7e889937c476a59f6bea9,工商银行
北京市朝阳区东三环南路辅路农光南里1号龙辉大厦2楼(近劲松洋华堂),朝阳区,北京市,1,39.886114,116.468349,中国工商银行(北京潘家园支行),北京市,bf29b702abd39d9908b93ab5,"(010)67328199,(010)67303509",bf29b702abd39d9908b93ab5,工商银行
北京市朝阳区武圣东里52号楼,朝阳区,北京市,1,39.883236,116.474587,中国工商银行(北京武圣里支行),北京市,bcaebff84c566554c8e33cb5,"(010)67323011,(010)67305625",bcaebff84c566554c8e33cb5,工商银行
朝阳区西大望路59号A-109号楼,朝阳区,北京市,1,39.895535,116.483567,中国工商银行(北京西大望路支行),北京市,4fc3161a6a6e5daa3a13fd26,(010)58620294,4fc3161a6a6e5daa3a13fd26,工商银行
北京市朝阳区管庄路54号,朝阳区,北京市,1,39.921625,116.598218,中国工商银行(北京东苇路支行),北京市,,"(010)65761679,(010)65754128",24c672c97f4de4145e17c3f1,工商银行
北京市朝阳区望京西园3区315号楼1层,朝阳区,北京市,1,40.003985,116.482144,中国工商银行(北京望京新城支行),北京市,a5b3dacfe514ec8515764380,(010)84713054,a5b3dacfe514ec8515764380,工商银行
北京市朝阳区望京中环南路9号望京大厦内B座首层(近花家地街),朝阳区,北京市,1,39.991877,116.476527,中国工商银行(北京四元桥支行),北京市,ea4a3dc985a9742e4e55474c,(010)64729493,ea4a3dc985a9742e4e55474c,工商银行
北京市朝阳区酒仙桥路4号,朝阳区,北京市,1,39.991092,116.49735,中国工商银行(望京大山子支行),北京市,,(010)64372971,b650d8850e2599c4fa0cad85,工商银行
北京市朝阳区清河营东路1号院4号楼一层,朝阳区,北京市,1,40.054265,116.443011,中国工商银行(北京福熙大道支行),北京市,,(010)64696295,19bd75c95731991d0ab93a3f,工商银行
北京市朝阳区东小口镇立汤路188号北方明珠大厦1楼,朝阳区,北京市,1,40.063804,116.421479,中国工商银行(北京天通苑支行),北京市,083a55fa3e601079246e987a,"(010)58608121,(010)58608102",083a55fa3e601079246e987a,工商银行
北京市朝阳区林萃东路2号院甲3号楼首层F110区域,朝阳区,北京市,1,40.015192,116.387942,中国工商银行(北京国奥村支行),北京市,95e957af95b184dd29d7abee,(010)84374005,95e957af95b184dd29d7abee,工商银行
北京市朝阳区北辰东路8号北辰汇欣大厦A座1层,朝阳区,北京市,1,40.000912,116.410414,中国工商银行(北京北辰路支行),北京市,d6c20476040ef7618c55ecc0,"(010)64993963,(010)84980594",d6c20476040ef7618c55ecc0,工商银行
北京市朝阳区林萃西里三号路林萃西里26号楼1层,朝阳区,北京市,1,40.019305,116.378695,中国工商银行(亚运村林萃路支行),北京市,480b24d0ca6d96f19cec2b7f,"(010)82721800,(010)82721300",480b24d0ca6d96f19cec2b7f,工商银行
朝阳区驼房营西里甲3号楼1楼,朝阳区,北京市,1,39.971042,116.509388,中国工商银行(北京酒仙桥支行),北京市,fa7da3e8e4da9f1f42d63ed5,(010)84305223,fa7da3e8e4da9f1f42d63ed5,工商银行
北京市朝阳区夏家园12号楼地上1层,朝阳区,北京市,1,39.976176,116.45824,中国工商银行(北京半岛国际支行),北京市,31f9101bdc4f15b926e0a04d,"(010)84411279,(010)84411531,(010)84419590",31f9101bdc4f15b926e0a04d,工商银行
朝阳区十里堡甲3号A座首层,朝阳区,北京市,1,39.921478,116.507933,中国工商银行(北京十里堡支行),北京市,341c35de0d0271bee70738b5,(010)65561503,341c35de0d0271bee70738b5,工商银行
北京市朝阳区星火西路19号底商一层,朝阳区,北京市,1,39.943903,116.507615,中国工商银行(北京星火西路支行),北京市,dc27f8d2490d79c897ec8411,(010)85855014,dc27f8d2490d79c897ec8411,工商银行
北京市朝阳区朝阳路69号,朝阳区,北京市,1,39.923746,116.53809,中国工商银行(朝阳高碑店支行),北京市,cba3571520f9043cab0dd8ac,(010)65566841,cba3571520f9043cab0dd8ac,工商银行
朝阳区青年路西里5号院15号楼首层,朝阳区,北京市,1,39.934114,116.523192,中国工商银行(北京青年路支行),北京市,6bba48e794e13ec82fb96d02,(010)85519011,6bba48e794e13ec82fb96d02,工商银行
北京市朝阳区金台西路2号人民日报社西门,朝阳区,北京市,1,39.925633,116.476493,中国工商银行(北京金台路支行),北京市,,,867a8fe96379f996cafa5f1b,工商银行
北京市朝阳区建国路77号华贸中心3座1楼,朝阳区,北京市,1,39.915326,116.488738,中国工商银行(北京华贸中心支行),北京市,3118ab1369ac7f9141d63e3d,,3118ab1369ac7f9141d63e3d,工商银行
北京市朝阳区和平街13区甲3号煤炭大厦向东200米路北,朝阳区,北京市,1,39.968344,116.435349,中国工商银行(青年沟路储蓄所),北京市,a74481d6975dbd46f503b84d,95588,a74481d6975dbd46f503b84d,工商银行
芍药居北里30号楼,朝阳区,北京市,1,39.989651,116.440217,中国工商银行(北京芍药居支行),北京市,bf701d40db28978d128824b0,(010)84618401,bf701d40db28978d128824b0,工商银行
北京市朝阳区广和南里二条16号院,朝阳区,北京市,1,39.891482,116.457087,中国工商银行(北京劲松路支行),北京市,b59e9fe3c86b36ddf70e775d,"(010)67734652,(010)67758971",b59e9fe3c86b36ddf70e775d,工商银行
北京市朝阳区西大望南路周庄嘉园东里32号楼1层,朝阳区,北京市,1,39.869468,116.48344,中国工商银行(北京南新园支行),北京市,b7021bf8f40e32faf5e73bb5,,b7021bf8f40e32faf5e73bb5,工商银行
北京市朝阳区广渠路甲40号九龙花园,朝阳区,北京市,1,39.898734,116.474065,中国工商银行(北京九龙山支行),北京市,e48d8359d584d1681b94c613,"(010)67720366,(010)67757063",e48d8359d584d1681b94c613,工商银行
广渠路23号院5号,朝阳区,北京市,1,39.899767,116.494627,中国工商银行(北京大郊亭支行),北京市,edc8365fde33c5b4ae045784,,edc8365fde33c5b4ae045784,工商银行
东直门外大街22号楼东侧,朝阳区,北京市,1,39.946596,116.45629,中国工商银行(朝阳幸福三村支行),北京市,c0491fb209e562fe8433047e,95588,c0491fb209e562fe8433047e,工商银行
首都机场2号航站楼1楼国际出港大厅,朝阳区,北京市,1,40.086699,116.600001,中国工商银行(北京望京支行新空港分),北京市,f25c1f8bc6a9bfe1b45f1ea9,,f25c1f8bc6a9bfe1b45f1ea9,工商银行
朝阳区首都机场南路14号机场宿舍区小花园,朝阳区,北京市,1,40.056451,116.601369,中国工商银行(北京首都机场南支行),北京市,33fbfa83838da5c10bf5eb71,"(010)64563996,(010)64576574",33fbfa83838da5c10bf5eb71,工商银行
北京市朝阳区光华路4号东方梅地亚中心C座102、103、105、106单元,朝阳区,北京市,1,39.917855,116.479711,中国工商银行(北京东方梅地亚支行),北京市,5d4f38fabd291a57f60e7731,"(010)85718171,(010)85718161",5d4f38fabd291a57f60e7731,工商银行
北京市朝阳区朝阳门北大街22号中国石化大厦326室,朝阳区,北京市,1,39.930951,116.442965,中国工商银行(北京中石化大厦支行),北京市,66345fd26f0c75a515b54b57,(010)59960711,66345fd26f0c75a515b54b57,工商银行
北京市朝阳区紫南家园108号楼1层101~102号,朝阳区,北京市,1,39.883589,116.503541,中国工商银行(北京世纪东方城支行),北京市,4401ef7c2aea6967b45f1e27,(010)87357163,4401ef7c2aea6967b45f1e27,工商银行
北京市朝阳区山水文园东园北门,朝阳区,北京市,1,39.873698,116.48907,中国工商银行(九龙山山水文园支行),北京市,bf0c6df5f9978699eb1e9741,(010)87388104,bf0c6df5f9978699eb1e9741,工商银行
北京市朝阳区秋实东街清友园19号楼,朝阳区,北京市,1,40.047093,116.432723,中国工商银行(亚运村北苑家园支行),北京市,e116be54c082247bc91b957a,(010)84967553,e116be54c082247bc91b957a,工商银行
北京市朝阳区十里堡路一号恒泰大厦A座一层101室,朝阳区,北京市,1,39.93388,116.508685,中国工商银行(北京八里庄北里支行),北京市,669775d0a24eee5bfd0eb04d,"(010)85839059,(010)85810811",669775d0a24eee5bfd0eb04d,工商银行
北京市朝阳区高碑店北路5号商业楼,朝阳区,北京市,1,39.920253,116.527853,中国工商银行(九龙山高碑店北路支行),北京市,,(010)85779151,849188c4003edee349fd3fa1,工商银行
北京市朝阳区弘善家园310号楼1层101号底商,朝阳区,北京市,1,39.874854,116.457946,中国工商银行(北京华威南路弘善支行),北京市,34744195ea64da4ff33cba48,(010)67608922,34744195ea64da4ff33cba48,工商银行
利泽中园105号,朝阳区,北京市,1,40.017707,116.480078,中国工商银行(北京望京科技园区支行),北京市,,(010)64390921,a2c21b2c92ea613787330491,工商银行
朝阳区科学园南里东街2号,朝阳区,北京市,1,40.003948,116.391525,中国工商银行(北京科学园南路支行),北京市,a3f21eee377a14472eb17ea1,(010)64830768,a3f21eee377a14472eb17ea1,工商银行
北京市朝阳建国路110号,朝阳区,北京市,1,39.913304,116.471433,中国工商银行(北京商务中心区支行),北京市,060f5e53143123d7091cc7b5,,060f5e53143123d7091cc7b5,工商银行
北京市朝阳区外馆东街51号凯景铭座一层,朝阳区,北京市,1,39.968629,116.410245,中国工商银行(北京和平北路东口支行),北京市,,(010)84123118,4482d48423f9a3b33fe23125,工商银行
北京市朝阳区东三环南路58号富顿中心2号楼1层101号,朝阳区,北京市,1,39.891299,116.468742,中国工商银行(北京东三环南路支行),北京市,f4460918f07d2b6ab01e36b5,(010)58672705,f4460918f07d2b6ab01e36b5,工商银行
北京市朝阳区吕营大街十八里店南桥观筑庭园801号楼103-203号,朝阳区,北京市,1,39.845582,116.476669,中国工商银行(北京十八里店南桥支行),北京市,40ef815d8cfe5654d9d891d7,"(010)87641837,(010)87641897",40ef815d8cfe5654d9d891d7,工商银行
建国路110号,朝阳区,北京市,1,39.913239,116.471475,中国工商银行-24小时自助银行(北京商务中心区支行),北京市,fc3bc8885688f887cac3db94,,fc3bc8885688f887cac3db94,工商银行
北京市朝阳区工体北路2号西北100米,朝阳区,北京市,1,40.009841,116.410571,中国工商银行(亚运村支行营业部电费代收点),北京市,62388011ff5dbbf4c92915cb,,62388011ff5dbbf4c92915cb,工商银行
北京市朝阳区西坝河西里2号,朝阳区,北京市,1,39.972908,116.446124,中国工商银行(北京望京支行香河园储蓄所),北京市,6deee3086a1c396a29fc484c,(010)64226615,6deee3086a1c396a29fc484c,工商银行
北京市朝阳区惠新东街甲6号中国石化大厦一层,朝阳区,北京市,1,39.990559,116.431038,中国工商银行(北京中石化小营大厦支行),北京市,6d029e5e991570573913fd52,,6d029e5e991570573913fd52,工商银行
潘家园华威里26号,朝阳区,北京市,1,39.879133,116.463235,广西大厦工行ATM(广西大厦),北京市,818a13f2c3e2d49795ca07a6,,818a13f2c3e2d49795ca07a6,工商银行
北京市朝阳区工体北路13号世茂广场·工三F1,朝阳区,北京市,1,39.941374,116.456032,中国工商银行ATM(世茂广场·工三),北京市,9117e56d4d559dec8bb988cf,,9117e56d4d559dec8bb988cf,工商银行
北京市朝阳区酒仙桥路甲10号星城国际大厦,朝阳区,北京市,1,39.985372,116.497087,中国工商银行(北京望京支行营业室),北京市,a4c482e75d3577913c9a5ea3,(010)64371674,a4c482e75d3577913c9a5ea3,工商银行
北京市朝阳门外大街1号金麒大厦1层,朝阳区,北京市,1,39.929405,116.454926,中国工商银行(北京朝阳支行营业部),北京市,08fc93dfd44dc3ef9b68b40d,"(010)65991155,(010)65993727,(010)65993588",08fc93dfd44dc3ef9b68b40d,工商银行
北京市朝阳区苏园南里5,朝阳区,北京市,1,39.976506,116.495983,中国工商银行24小时自助银行(酒仙桥路),北京市,6ba92472dc07e9f2deee8b98,,6ba92472dc07e9f2deee8b98,工商银行
北京市朝阳区甘露园南里18号楼底商,朝阳区,北京市,1,39.922964,116.521094,中国工商银行24小时自助银行(甘露园储蓄所),北京市,a5097bfa38c45563f13cbaa9,,a5097bfa38c45563f13cbaa9,工商银行
朝阳区和平里北街丙14号,朝阳区,北京市,1,39.96848,116.435502,中国工商银行24小时自助银行(北京青年沟路储蓄所),北京市,8978ed4ad6e500a7b33c81e3,,8978ed4ad6e500a7b33c81e3,工商银行
八里庄西里100号,朝阳区,北京市,1,39.921286,116.500066,中国工商银行24小时自助银行服务(北京分行朝阳支行八里庄西里),北京市,0c211d575d14de19441a32f3,,0c211d575d14de19441a32f3,工商银行
西大望路59号院-2-1,朝阳区,北京市,1,39.895581,116.483558,中国工商银行24小时自助银行(北京西大望路支行),北京市,2ac87c3783721b08b9df8f69,,2ac87c3783721b08b9df8f69,工商银行
北京市朝阳区天辰东路7号国家会议中心F1,朝阳区,北京市,1,40.006019,116.397013,中国工商银行ATM,北京市,9342fb4002242b38b05c6ace,,9342fb4002242b38b05c6ace,工商银行
西大望路17号八王坟长途汽车站内,朝阳区,北京市,1,39.908438,116.484906,中国工商银行ATM,北京市,d72a03ac5047e38371455b07,,d72a03ac5047e38371455b07,工商银行
机场西路8号首都机场宾馆大堂内,朝阳区,北京市,1,40.076522,116.59534,中国工商银行ATM,北京市,931b4039e6cef521901fc927,,931b4039e6cef521901fc927,工商银行
北京市朝阳区建国门外大街1号北京国贸饭店F1,朝阳区,北京市,1,39.9173,116.465996,中国工商银行ATM,北京市,a29126a3a26035a2a1046437,,a29126a3a26035a2a1046437,工商银行
北京市朝阳区花家地东路3号,朝阳区,北京市,1,39.989983,116.484837,中国工商银行ATM,北京市,bf7cb612fb33e902a8f0cd91,,bf7cb612fb33e902a8f0cd91,工商银行
北京市朝阳区樱花园东街2号中日友好医院B栋F1,朝阳区,北京市,1,39.980412,116.432692,中国工商银行24小时自助银行,北京市,,,91f5794bc86f10a6ede4a5f4,工商银行
太阳宫地铁站内,朝阳区,北京市,1,39.978886,116.454009,中国工商银行24小时自助银行,北京市,e9638c45a032dc17f90cadbd,,e9638c45a032dc17f90cadbd,工商银行
朝阳区北辰西路8号院1号楼,朝阳区,北京市,1,40.00787,116.394518,中国工商银行自助银行,北京市,6f643f8c9e771c678433040a,,6f643f8c9e771c678433040a,工商银行
建国门外大街1号国贸大厦-三期2层,朝阳区,北京市,1,39.918028,116.465098,中国工商银行自助银行,北京市,a229fb7598c49262b05c6a32,,a229fb7598c49262b05c6a32,工商银行
北京市朝阳区建国门外大街8号财源国际中心,朝阳区,北京市,1,39.913513,116.459407,中国工商银行ATM(永安里支行),北京市,5a524102fb8075cec4f50d62,,5a524102fb8075cec4f50d62,工商银行
北京市朝阳区东四环中路193号红星美凯龙世博建材设计中心F1,朝阳区,北京市,1,39.89498,116.494181,中国工商银行ATM(红星美凯龙),北京市,169c745d3083e631ad045725,,b4852dcc3379ff2e8f1a89b2,工商银行
来广营西路5号,朝阳区,北京市,1,40.029156,116.427893,中国工商银行ATM(来广营西路),北京市,,,b391db45442a2df1581093d5,工商银行
北京市朝阳建国路88号SOHO现代城1层,朝阳区,北京市,1,39.913306,116.481502,中国工商银行24小时自助银行,北京市,d14056b46cf48d6fddee8b41,,5f5067735d6b557688db738a,工商银行
鼓楼外大街19号北京歌华开元大酒店1层,朝阳区,北京市,1,39.971631,116.400074,中国工商银行ATM(鼓楼外大街),北京市,,,aa323038e2275bf629fc48c3,工商银行
北京市朝阳区高碑店北路5-3附近,朝阳区,北京市,1,39.920173,116.527961,中国工商银行24小时自助银行,北京市,,,26b205de05bc2295c1f1cf9a,工商银行
北京市朝阳区弘善路辅路,朝阳区,北京市,1,39.874697,116.4581,中国工商银行24小时自助银行,北京市,,,a38d2aac161cb0bb7ab55cd2,工商银行
朝阳区安立路101号名人大厦一层,朝阳区,北京市,1,40.001815,116.412928,中国工商银行24小时自助银行,北京市,9d97d740829391ef990050df,,9d97d740829391ef990050df,工商银行
定福庄南里1号,朝阳区,北京市,1,39.921399,116.569927,中国工商银行24小时自助银行(北京定福庄支行),北京市,be0e843d4890f83efbdc85d8,,be0e843d4890f83efbdc85d8,工商银行
北京市朝阳区立汤路188号万优汇,朝阳区,北京市,1,40.063868,116.421515,中国工商银行ATM(北京天通苑支行),北京市,,,542a8d3f1a9ba6d63b221cc3,工商银行
北京市朝阳区安慧里四区中国化工大厦,朝阳区,北京市,1,39.995655,116.417946,中国工商银行ATM(中国化工大厦),北京市,2a3e2c65c4573ab0be4842bc,,2a3e2c65c4573ab0be4842bc,工商银行
北京市朝阳区建国门外大街1号国贸商城1期F1,朝阳区,北京市,1,39.915271,116.46513,中国工商银行ATM(国贸商城一期),北京市,3f809839e9999258b1077da8,,3f809839e9999258b1077da8,工商银行
建国门外大街甲12号新华保险大厦,朝阳区,北京市,1,39.913445,116.453647,中国工商银行ATM(新华保险大厦),北京市,eb367503491dfd6501ec01b7,95588,eb367503491dfd6501ec01b7,工商银行
北京市朝阳区建国门外大街22号北京赛特购物中心F2,朝阳区,北京市,1,39.913626,116.448033,中国工商银行ATM(赛特购物中心),北京市,83ec8fa33126c71d5cbe863f,,83ec8fa33126c71d5cbe863f,工商银行
北京市朝阳区科学园南里东街4号附近,朝阳区,北京市,1,40.006049,116.388421,中国工商银行24小时自助银行(北京大屯路支行),北京市,5dcc870045f70cb480a00c9b,,5dcc870045f70cb480a00c9b,工商银行
北京市朝阳区建国路128号,朝阳区,北京市,1,39.911957,116.470558,中国工商银行ATM(中航工业大厦北),北京市,80384115a1e3527a00ff2dea,,80384115a1e3527a00ff2dea,工商银行
北京市朝阳区林萃西里26号楼首层,朝阳区,北京市,1,40.019345,116.378305,中国工商银行24小时自助银行服务,北京市,eb145d19a9bfc181badf8fea,,eb145d19a9bfc181badf8fea,工商银行
北京市朝阳区北苑路秋实街1号易事达购物休闲广场F1,朝阳区,北京市,1,40.048231,116.428369,中国工商银行ATM(易事达购物休闲广场),北京市,6769a933856c3e92fa42b212,,6769a933856c3e92fa42b212,工商银行
北京市朝阳区科荟前街3号东门,朝阳区,北京市,1,40.01414,116.378964,中国工商银行24小时自助银行(白庙路),北京市,0ce65c2d65787f592d47337f,,0ce65c2d65787f592d47337f,工商银行
东四环中路与广渠路交叉口西150米,朝阳区,北京市,1,39.899698,116.494964,中国工商银行24小时自助银行(广渠路),北京市,e56497fd1b5c4ba6f82d6146,,e56497fd1b5c4ba6f82d6146,工商银行
东土城路14号,朝阳区,北京市,1,39.958209,116.439726,中国工商银行24小时自助银行(北京建材经贸大厦西),北京市,9556031984e9c1739cf77968,,9556031984e9c1739cf77968,工商银行
北京市朝阳区平乐园100号(北京市双龙南里204号北25米)北京工业大学内,朝阳区,北京市,1,39.879627,116.487892,中国工商银行24小时自助银行(日新路),北京市,9fdf92603c2e9b0fed74f8f6,,9fdf92603c2e9b0fed74f8f6,工商银行
燕翔西路9号,朝阳区,北京市,1,40.053139,116.601496,中国工商银行24小时自助银行(首都机场南储蓄所),北京市,5211d219ad7124267dc87673,,5211d219ad7124267dc87673,工商银行
北京市朝阳区裕民路12号中国国际科技会展中心C座,朝阳区,北京市,1,39.979455,116.388765,中国工商银行ATM(元辰鑫国际酒店北),北京市,da3c571f957040cdab0dd864,,da3c571f957040cdab0dd864,工商银行
朝阳区首都机场南路3号南,朝阳区,北京市,1,40.058413,116.599779,中国工商银行网点自助服务区(北京分行望京支行首都机场支行),北京市,,,654823047d0c15b540ab9a1b,工商银行
北京市朝阳区东苇路辅路,朝阳区,北京市,1,40.012801,116.57051,中国工商银行离行式自助服务区(北京分行望京支行郁金香花园),北京市,05d05ce756ad4e9cdb2f283c,,05d05ce756ad4e9cdb2f283c,工商银行
北京市朝阳区管庄北京市朝阳区第二实验小学管庄高部校区,朝阳区,北京市,1,39.921552,116.598202,中国工商银行24小时自助银行(管庄储蓄所),北京市,23116913a168bc83734b8750,,23116913a168bc83734b8750,工商银行
广华居17,朝阳区,北京市,1,40.039002,116.447801,中国工商银行24小时自助银行(北京青年城支行),北京市,80448cef68d76b9d4e2fdf37,,80448cef68d76b9d4e2fdf37,工商银行
育慧北路8号院三区3,朝阳区,北京市,1,40.000514,116.436679,中国工商银行24小时自助银行(世纪村支行),北京市,7524cb4fb213753404026f4f,,7524cb4fb213753404026f4f,工商银行
北京市朝阳区林萃东路2号院甲3号楼首层F110区域,朝阳区,北京市,1,40.015115,116.38786,中国工商银行24小时自助银行(北京国奥村支行),北京市,9e18c41c80d70191acb22aa2,,9e18c41c80d70191acb22aa2,工商银行
慧忠北里407号楼,朝阳区,北京市,1,40.009978,116.410719,中国工商银行24小时自助银行(亚运村支行营业部),北京市,c1653405cffc7779ab175a75,,c1653405cffc7779ab175a75,工商银行
驼房营西里甲3,朝阳区,北京市,1,39.971042,116.509459,中国工商银行24小时自助银行(北京酒仙桥支行),北京市,28e700f1842fae7c095cb3c8,,28e700f1842fae7c095cb3c8,工商银行
望京花家地甲一号,朝阳区,北京市,1,39.983459,116.478879,中国工商银行离行式自助服务区(北京分行望京支行法制日报社),北京市,1b06ae0698fc7762c9c3db8b,,1b06ae0698fc7762c9c3db8b,工商银行
夏家园12号楼,朝阳区,北京市,1,39.976349,116.457787,中国工商银行网点自助服务区(北京分行望京支行夏家园),北京市,5f9863001315e2c4102935fe,,5f9863001315e2c4102935fe,工商银行
北京市朝阳区宵云路36号国航大厦,朝阳区,北京市,1,39.962253,116.470117,中国工商银行24小时自助银行(国航大厦支行),北京市,7bc8a173d9f514f828d7ab74,,7bc8a173d9f514f828d7ab74,工商银行
十里堡北里1号,朝阳区,北京市,1,39.933914,116.508646,中国工商银行24小时自助银行(八里庄北里支行),北京市,e6ee2fd277ca1d482b11d143,,e6ee2fd277ca1d482b11d143,工商银行
青年路西里5号院15号楼首层,朝阳区,北京市,1,39.934215,116.523181,中国工商银行24小时自助银行(青年路支行),北京市,c7eca12b31410c49e015f99e,,c7eca12b31410c49e015f99e,工商银行
北京市朝阳区朝阳路69号,朝阳区,北京市,1,39.923481,116.539653,中国工商银行网点自助服务区(北京分行朝阳支行朝阳路),北京市,4d8726753522272b8bfc06ea,,4d8726753522272b8bfc06ea,工商银行
北京市朝阳区建国路77号华贸购物中心3座1楼(近现代城),朝阳区,北京市,1,39.915424,116.48869,中国工商银行24小时自助银行(北京华贸中心支行),北京市,42a9ad0f4dd41ad7eee4a563,,42a9ad0f4dd41ad7eee4a563,工商银行
十里堡北里恒泰大厦B座1层,朝阳区,北京市,1,39.929656,116.479559,中国工商银行24小时自助银行(北京金台北里支行),北京市,a47ba5cac590a949ae080f91,,a47ba5cac590a949ae080f91,工商银行
姚家园路18号,朝阳区,北京市,1,39.937155,116.475074,中国工商银行24小时自助银行服务(团结湖北三条),北京市,16827fc9c11c8d7643e1921b,,16827fc9c11c8d7643e1921b,工商银行
团结湖路5号,朝阳区,北京市,1,39.937809,116.47343,中国工商银行24小时自助银行(团结湖路),北京市,7ab674a6dcde4ccd4107c146,,7ab674a6dcde4ccd4107c146,工商银行
北京市朝阳区建国路,朝阳区,北京市,1,39.914923,116.479043,中国工商银行离行式自助服务区(九龙山支行建国路万达广场新世界彩璇百货),北京市,c1a6b1c2b8ed02ff24e0a077,,c1a6b1c2b8ed02ff24e0a077,工商银行
北京市朝阳区和平街十区5号楼,朝阳区,北京市,1,39.970393,116.430532,中国工商银行24小时自助银行(北京和平街支行),北京市,f86dea2dcee2937d2b201aeb,,e2fbaccb457f4ad51329350b,工商银行
对外经济贸易大学0,朝阳区,北京市,1,39.985466,116.435389,中国工商银行离行式自助服务区(北京分行望京支行外经贸),北京市,e445b351cb7fc98972455b7e,,e445b351cb7fc98972455b7e,工商银行
北京市朝阳区西坝河中里34号楼1幢等3幢,朝阳区,北京市,1,39.967999,116.446918,中国工商银行24小时自助银行(西坝河中街),北京市,6e93ca29d25c13b96140a948,,06bbafbf6c3ed224c17da230,工商银行
安苑路20号世纪兴源大厦,朝阳区,北京市,1,39.98902,116.418399,中国工商银行24小时自助银行(北京惠新支行),北京市,5b25f446e09ad6eb1029351d,,5b25f446e09ad6eb1029351d,工商银行
北京市朝阳区十八里店,朝阳区,北京市,1,39.869459,116.466764,中国工商银行离行式自助服务区(九龙山支行程田古玩城),北京市,302b5d2f914e6c76bb17e7d6,,302b5d2f914e6c76bb17e7d6,工商银行
北京市朝阳区东三环南路58号富顿中心一层,朝阳区,北京市,1,39.891049,116.468885,中国工商银行24小时自助银行(北京东三环南路支行),北京市,89aa57522540baed081cc7da,,89aa57522540baed081cc7da,工商银行
十八里店南桥观筑庭园801号楼103、203号,朝阳区,北京市,1,39.84566,116.476734,中国工商银行24小时自助银行(北京十八里店南桥支行),北京市,3936af595568195a1e1d11b0,,3936af595568195a1e1d11b0,工商银行
北京市朝阳区京通苑30号楼P1底商,朝阳区,北京市,1,39.91819,116.602007,中国工商银行网点自助服务区(北京分行朝阳支行朝阳路),北京市,c02c81fa3b71fffbae080f04,,c02c81fa3b71fffbae080f04,工商银行
北京市朝阳区北四环东路97号2号楼B座,朝阳区,北京市,1,39.99617,116.431988,中国工商银行离行式自助服务区(北京联合大学),北京市,74150588d17d83f5a0acc4cc,,74150588d17d83f5a0acc4cc,工商银行
北沙滩甲1号中科电大厦1层,朝阳区,北京市,1,40.007936,116.377321,中国工商银行24小时自助银行(北京北沙滩支行),北京市,382a53395215767329fc48a4,,382a53395215767329fc48a4,工商银行
北京市朝阳区安翔北路(中国科学院科学园小区内),朝阳区,北京市,1,40.000802,116.387349,中国工商银行24小时自助银行(安翔北路),北京市,8251a4445ca43603eaf853d3,,8251a4445ca43603eaf853d3,工商银行
北京市朝阳区东直门外大街20号附近,朝阳区,北京市,1,39.946598,116.456348,中国工商银行24小时自助银行(东直门外大街),北京市,,,465593998f2c8b0af6c59c7d,工商银行
北京市市辖区朝阳区亮马桥路40号,朝阳区,北京市,1,39.957947,116.48,中国工商银行离行式自助银行(北京分行朝阳支行亮马桥路),北京市,f4617dfd0087729cb05c6a6c,,f4617dfd0087729cb05c6a6c,工商银行
新源里16号院2,朝阳区,北京市,1,39.954158,116.456415,中国工商银行24小时自助银行(北京新源里支行),北京市,e55f67af58c078fe75e5b6f9,,e55f67af58c078fe75e5b6f9,工商银行
北京市朝阳区酒仙桥路10号,朝阳区,北京市,1,39.985261,116.497028,中国工商银行24小时自助银行(北京望京支行),北京市,6b1bbf824878bdc6c036447e,,6b1bbf824878bdc6c036447e,工商银行
青年路西里5号院15号楼首层,朝阳区,北京市,1,39.934189,116.523331,中国工商银行附行式自助银行(北京分行朝阳支行青年路),北京市,1fbc65f584557dfca8175a9b,,1fbc65f584557dfca8175a9b,工商银行
北京市朝阳区西大望路6号华贸中心,朝阳区,北京市,1,39.915856,116.487335,中国工商银行离行式自助服务区(北京市分行营业部西大望路),北京市,6761a2d7c4cbe819d7851fb5,,6761a2d7c4cbe819d7851fb5,工商银行
樱花园东街5号,朝阳区,北京市,1,39.978942,116.430967,中国工商银行24小时自助银行(北京香河园支行),北京市,750368354cb772d25f0d028f,,750368354cb772d25f0d028f,工商银行
安定路中段33号化信大厦,朝阳区,北京市,1,39.981646,116.412949,中国工商银行24小时自助银行(北京化信支行),北京市,19e7e7d3b791f0c786420e7b,,19e7e7d3b791f0c786420e7b,工商银行
外馆斜街51号凯景铭座底商(近安外大街),朝阳区,北京市,1,39.968687,116.410347,中国工商银行24小时自助银行(北京和平北路东口支行),北京市,192dabecd1b1b46f14b54b17,,192dabecd1b1b46f14b54b17,工商银行
北京市朝阳区朝阳门南大街8号,朝阳区,北京市,1,39.926374,116.442323,中国工商银行附行式自助银行(北京分行朝阳支行朝阳门南大街),北京市,f2f9dd1b4faa5d7106026f45,,f2f9dd1b4faa5d7106026f45,工商银行
朝阳门外市场街20号中保大厦1层,朝阳区,北京市,1,39.926651,116.447047,中国工商银行24小时自助银行(日坛路支行),北京市,12433a7998419bc443024509,,12433a7998419bc443024509,工商银行
北京市朝阳区工人体育场北路15-1号,朝阳区,北京市,1,39.939812,116.454781,中国工商银行24小时自助银行(幸福村储蓄所),北京市,701e9038c36a7e21d33ce338,,701e9038c36a7e21d33ce338,工商银行
紫南家园108号楼,朝阳区,北京市,1,39.883725,116.503624,中国工商银行24小时自助银行(北京世纪东方城支行),北京市,b4e46002a70fc7ccd1f49efe,,b4e46002a70fc7ccd1f49efe,工商银行
北京市朝阳区山水米兰商业街4号楼03商业A-26,朝阳区,北京市,1,39.873527,116.489303,中国工商银行24小时自助银行(北京山水文园支行),北京市,26857f1ca38235f93062120c,,26857f1ca38235f93062120c,工商银行
北京市朝阳区潘家园南里27号伊东·漪龙台大厦,朝阳区,北京市,1,39.881634,116.454302,中国工商银行24小时自助银行(左安门支行),北京市,b31fbce29a7ca43dd7851f2c,,2dae5a4756408f17c7effb7e,工商银行
首都机场货运路0,朝阳区,北京市,1,40.110317,116.590733,中国工商银行离行式自助银行(北京分行望京支行飞行校验中心),北京市,cb33935f7af5b37af5c59c85,,cb33935f7af5b37af5c59c85,工商银行
北京市朝阳区双桥路3号,朝阳区,北京市,1,39.914121,116.582558,中国工商银行离行式自助服务区(北京分行朝阳支行双桥路),北京市,,,399a4582bc27e465167643ed,工商银行
北京市朝阳区广顺北大街33号院1号楼1层101室,朝阳区,北京市,1,40.00026,116.47424,中国工商银行24小时自助银行(北京广顺支行),北京市,2ccee09977e9e986260bd024,,2ccee09977e9e986260bd024,工商银行
北苑家园青友园19号楼,朝阳区,北京市,1,40.04712,116.43262,中国工商银行24小时自助银行(北京北苑家园支行),北京市,dffd4642d021b3b23c9a5e75,,dffd4642d021b3b23c9a5e75,工商银行
北京市朝阳区惠新东街甲6号中石化集团公司小营办公楼一层,朝阳区,北京市,1,39.990656,116.431073,中国工商银行24小时自助银行(北京中石化小营大厦支行),北京市,c75f2847583357e7d6b74e91,,c75f2847583357e7d6b74e91,工商银行
安慧北里秀园15号海亚大厦,朝阳区,北京市,1,40.00496,116.420441,中国工商银行24小时自助银行(安慧分理处),北京市,33a99d6ac77ae97bcf06a47b,,f2f15ffb43439588631c674f,工商银行
北辰东路8号(汇欣大厦1层),朝阳区,北京市,1,40.000855,116.410532,中国工商银行24小时自助银行(北辰路支行),北京市,0884ea64ce606aae4d55470a,,0884ea64ce606aae4d55470a,工商银行
北京市朝阳区朝阳路89号附近,朝阳区,北京市,1,39.923748,116.537956,中国工商银行24小时自助银行服务(北京分行朝阳支行朝阳路),北京市,,,ddceef609560aa9943024511,工商银行
北京市朝阳区十里堡甲3号西单商场F1,朝阳区,北京市,1,39.921444,116.508032,中国工商银行24小时自助银行(北京十里堡支行),北京市,9fbfeef28a34b538ece4a580,,9fbfeef28a34b538ece4a580,工商银行
光华路4号东方梅地亚中心C座1层,朝阳区,北京市,1,39.917836,116.479807,中国工商银行24小时自助银行(北京东方梅地亚支行),北京市,96337db4739f0a0ad418b7fd,,96337db4739f0a0ad418b7fd,工商银行
延静里东街乙5号楼,朝阳区,北京市,1,39.923458,116.490969,中国工商银行24小时自助银行(合成小区东),北京市,4932a4c8160904b30d0a7080,,36f1fd5204a5e8a62b11d15c,工商银行
芍药居北里30号楼,朝阳区,北京市,1,39.989706,116.440446,中国工商银行网点自助服务区(北京分行望京支行芍药居北里),北京市,b13272fa4775ad8d4302458d,,b13272fa4775ad8d4302458d,工商银行
北京市朝阳区左家庄中街6号院9号楼1层,朝阳区,北京市,1,39.961131,116.448124,中国工商银行24小时自助银行(柳芳支行),北京市,a010c4689929ee86081cc726,,a010c4689929ee86081cc726,工商银行
北京市朝阳区小关东里14号附行式自助银行,朝阳区,北京市,1,39.983929,116.423548,中国工商银行24小时自助银行(北京安华支行),北京市,9b1f98921b8afdeb28201a7b,,9b1f98921b8afdeb28201a7b,工商银行
西坝河西里2-1,朝阳区,北京市,1,39.972916,116.446114,中国工商银行24小时自助银行(北京望京香河园储蓄所),北京市,b55af2590d5237372bb97c9c,,b55af2590d5237372bb97c9c,工商银行
建国门南大街10,朝阳区,北京市,1,39.910335,116.443778,中国工商银行离行式自助服务区(北京分行珠市口支行建国门南大街),北京市,03269952aba019ebf5231058,,03269952aba019ebf5231058,工商银行
北京市朝阳区平乐园村100号北京工业大学,朝阳区,北京市,1,39.88383,116.48792,中国工商银行24小时自助银行(北工大社区卫生服务中心西南),北京市,fd13a3f26bc213fab0077db4,,fd13a3f26bc213fab0077db4,工商银行
潘家园南里17楼,朝阳区,北京市,1,39.879366,116.451932,中国工商银行离行式自助银行(北京分行崇文支行潘家园南里肿瘤医院),北京市,3c026841a60f225db1077d9e,,3c026841a60f225db1077d9e,工商银行
机场南路14号,朝阳区,北京市,1,40.056574,116.601357,中国工商银行24小时自助银行(北京分行望京支行首都机场支行),北京市,,,919018d21537fcb071210bc8,工商银行
红松园北里甲2号,朝阳区,北京市,1,39.972371,116.560407,中国工商银行24小时自助银行服务(北京分行望京支行红松园北里),北京市,de58e45dc81096d86f476012,,de58e45dc81096d86f476012,工商银行
东坝乡京奥家园186幢1-2号,朝阳区,北京市,1,39.966871,116.552054,中国工商银行24小时自助银行服务(京奥嘉园支行),北京市,f757e6eee5b37817260bd043,,f757e6eee5b37817260bd043,工商银行
北京市朝阳区常营丽景园甲4号楼1层101,朝阳区,北京市,1,39.930533,116.616969,中国工商银行24小时自助银行(北京常营支行),北京市,b77d5a491e59d040d42ce252,,b77d5a491e59d040d42ce252,工商银行
双桥路康惠园小区3号院2号楼底商,朝阳区,北京市,1,39.912152,116.584011,中国工商银行24小时自助银行服务(北京双桥路支行),北京市,f03d8edab91b46da6fa3ccd4,,f03d8edab91b46da6fa3ccd4,工商银行
酒仙桥路甲4号宏源大厦,朝阳区,北京市,1,39.991134,116.496916,中国工商银行24小时自助银行服务(北京大山子支行),北京市,0342626888011cb14151c01c,,f03438f24da03080601c6764,工商银行
朝阳区南湖西园甲205号楼一层,朝阳区,北京市,1,40.002141,116.463656,中国工商银行24小时自助银行服务(北京分行望京支行南湖西园),北京市,29897d0355397ea94d776ed0,,29897d0355397ea94d776ed0,工商银行
朝阳区望京西园三区315楼底商,朝阳区,北京市,1,40.004433,116.481829,中国工商银行24小时自助银行服务(北京分行望京支行望京西园三区),北京市,,,3c0139a1358d89f36ca3cc09,工商银行
朝阳区南湖东园101号,朝阳区,北京市,1,40.010335,116.473287,中国工商银行24小时自助银行服务(北京南湖东园支行),北京市,06d2dffd132942f688f15d75,,06d2dffd132942f688f15d75,工商银行
望京利泽中园105号楼,朝阳区,北京市,1,40.017705,116.480127,中国工商银行24小时自助银行(北京分行望京支行望京利泽中园),北京市,53b92c9ebc514f826018091f,,53b92c9ebc514f826018091f,工商银行
望京中环南路9号望京大厦A座,朝阳区,北京市,1,39.991902,116.476464,中国工商银行24小时自助银行(北京四元桥支行),北京市,0dc3d82db1886e1274e5b6bc,,0dc3d82db1886e1274e5b6bc,工商银行
北京市朝阳区广华居17号楼一层101室、18号楼一层101室,朝阳区,北京市,1,40.039312,116.447721,中国工商银行24小时自助银行(北京亚运村支行青年城支行),北京市,12098f811f37035f30169b57,,12098f811f37035f30169b57,工商银行
北京市朝阳区天乐园1-2,朝阳区,北京市,1,40.0393,116.419226,中国工商银行24小时自助银行服务(北京媒体村支行),北京市,4642844a266507d9c9fa5f75,,4642844a266507d9c9fa5f75,工商银行
科学园南里东街2,朝阳区,北京市,1,40.003863,116.391362,中国工商银行24小时自助银行服务(北京大屯路支行),北京市,06d2dffd46cd9f8888f15d0c,,06d2dffd46cd9f8888f15d0c,工商银行
朝阳区夏家园12号楼地上一层,朝阳区,北京市,1,39.976431,116.457998,中国工商银行24小时自助银行(北京分行望京支行夏家园),北京市,553613f21877a73ca5da39a3,,553613f21877a73ca5da39a3,工商银行
朝阳区南十里居13号,朝阳区,北京市,1,39.964105,116.498091,中国工商银行24小时自助银行服务(北京分行望京支行南十里居),北京市,37d60a46555acc601e1d114f,,97410940e9bb4cb5fa0cadb6,工商银行
东三环北路丙2号天元港中心1层,朝阳区,北京市,1,39.961347,116.466496,中国工商银行24小时自助银行(北京燕莎支行),北京市,04bdf4a3f2571c31354aae9d,,04bdf4a3f2571c31354aae9d,工商银行
麦子店街41,朝阳区,北京市,1,39.952771,116.47522,中国工商银行24小时自助银行服务(北京麦子店支行),北京市,e74311145b02c34d5cbe8644,,e74311145b02c34d5cbe8644,工商银行
朝阳区八里庄北里128号华业玫瑰郡底商,朝阳区,北京市,1,39.936675,116.507933,中国工商银行24小时自助银行服务(北京分行朝阳支行石佛营东里),北京市,c1bfa8fde9dffc418605bf1d,,c1bfa8fde9dffc418605bf1d,工商银行
星火西路19号楼底商一层,朝阳区,北京市,1,39.943078,116.507597,中国工商银行24小时自助银行服务(北京分行朝阳支行星火西路),北京市,c9b912ea6a01ae0e882fb508,,c9b912ea6a01ae0e882fb508,工商银行
建国路77号,朝阳区,北京市,1,39.915577,116.488832,中国工商银行24小时自助银行服务(北京市分行华贸中心支行建国路),北京市,17c41e74096c6c1fca09f025,,17c41e74096c6c1fca09f025,工商银行
北京市朝阳区西大望路甲2号南侧,朝阳区,北京市,1,39.920538,116.484972,中国工商银行24小时自助银行服务(北京市分行大望路支行西大望路),北京市,1540950d52c726e8ae0457fa,,1540950d52c726e8ae0457fa,工商银行
北京市朝阳区东三环双井北里2号楼底商,朝阳区,北京市,1,39.903764,116.468704,中国工商银行24小时自助银行(北京分行九龙山支行双花园),北京市,23d2b4e31500bc0f89f15dfb,,23d2b4e31500bc0f89f15dfb,工商银行
朝阳门外大街1号金麒大厦1层,朝阳区,北京市,1,39.929217,116.455233,中国工商银行24小时自助银行(北京朝阳支行),北京市,71a7df82a399a5be6f4760a1,,71a7df82a399a5be6f4760a1,工商银行
六里屯北里18号楼A座,朝阳区,北京市,1,39.93715,116.481566,中国工商银行24小时自助银行服务(北京分行朝阳支行六里屯北里),北京市,b5ee3c0001dbea9d61685857,,4ad1a6218e3be52ee8e582f0,工商银行
东大桥路8号,朝阳区,北京市,1,39.924808,116.457944,中国工商银行24小时自助银行(北京市分行尚都支行东大桥路),北京市,b7af4e3e66233d8f8bf15d35,,b7af4e3e66233d8f8bf15d35,工商银行
金台里甲25号楼,朝阳区,北京市,1,39.927298,116.484263,中国工商银行24小时自助银行服务(北京分行朝阳支行金台里),北京市,436d0ab5cd96be409d9d68af,,4c4b2a354efc6184e5e96587,工商银行
北京市朝阳区百子湾路32号院1号楼3号商铺,朝阳区,北京市,1,39.905707,116.478995,中国工商银行24小时自助银行服务(北京九龙山支行百子湾),北京市,f98d3b5f773e4aa8c3364436,,f98d3b5f773e4aa8c3364436,工商银行
安定路五路居化信大厦33号,朝阳区,北京市,1,39.981476,116.413224,中国工商银行24小时自助银行(北京分行亚运村支行安定路),北京市,44cb01c1a073a6cb9322e021,,44cb01c1a073a6cb9322e021,工商银行
北京市朝阳区芍药居小区北里30号楼,朝阳区,北京市,1,39.989794,116.44022,中国工商银行24小时自助银行(北京分行望京支行芍药居北里),北京市,b957666ae85a74cfab059db7,,b957666ae85a74cfab059db7,工商银行
左家庄北里35号楼,朝阳区,北京市,1,39.961959,116.451687,中国工商银行24小时自助银行服务(北京分行朝阳支行左家庄北里),北京市,3f2c5c8678978bb18505bf3f,,3f2c5c8678978bb18505bf3f,工商银行
北京市朝阳区和平街11区38号楼,朝阳区,北京市,1,39.973412,116.424989,中国工商银行24小时自助银行服务(北京分行和平里北三环支行),北京市,09a0cb9cba281d40ca1b9595,,09a0cb9cba281d40ca1b9595,工商银行
北三环东路西坝河东里14号,朝阳区,北京市,1,39.971095,116.453775,中国工商银行24小时自助银行服务(北京国展支行),北京市,b8775249caf66f457ec87619,,b8775249caf66f457ec87619,工商银行
"北京市朝阳区安贞西里二区21号楼首层(安华桥向北200米-300米路东,中国科技馆东门东北方马路东)",朝阳区,北京市,1,39.978624,116.40143,中国工商银行24小时自助银行服务(北京亚运村双北桥支行),北京市,9f4e6d1509d437e4d813189e,,dda40eb35f2fd7a90782c2ae,工商银行
北土城西路11号城建开发大厦1层,朝阳区,北京市,1,39.983376,116.391302,中国工商银行24小时自助银行(北京马甸支行),北京市,5ffb1816508c83216f476027,,5ffb1816508c83216f476027,工商银行
北京市朝阳区朝阳门外大街17号北京祥业大厦,朝阳区,北京市,1,39.930534,116.446716,中国工商银行24小时自助银行(工人体育场南路西小区西南),北京市,fa7da3e869a4281c42d63e27,,fa7da3e869a4281c42d63e27,工商银行
朝外市场街20号,朝阳区,北京市,1,39.926363,116.447006,中国工商银行24小时自助银行(北京市分行日坛路支行朝外市场街),北京市,6e0a41859eb0c9b5eee4a54f,,6e0a41859eb0c9b5eee4a54f,工商银行
双桥温泉北路2号楼,朝阳区,北京市,1,39.897662,116.613766,中国工商银行24小时自助银行服务(北京分行朝阳支行双桥温泉北路),北京市,,,d3c79a91a895d2b2a11de990,工商银行
北京市朝阳区垡头金蝉南里14号楼一层底商7~9号,朝阳区,北京市,1,39.867627,116.510705,中国工商银行24小时自助银行服务(北京分行九龙山支行翠城支行),北京市,9e178d7edc54bb5ba80dd84b,,9e178d7edc54bb5ba80dd84b,工商银行
北京市朝阳区广渠门外大街22号,朝阳区,北京市,1,39.89878,116.463062,中国工商银行24小时自助银行服务(北京广渠路支行),北京市,44b035cdbf34905e4557262d,,44b035cdbf34905e4557262d,工商银行
北京市朝阳区农光南里１号楼,朝阳区,北京市,1,39.886136,116.468295,中国工商银行24小时自助银行(北京分行九龙山支行潘家园支行),北京市,011220f69e083bf8921fc92c,,011220f69e083bf8921fc92c,工商银行
北京市朝阳区周庄嘉园东里32号楼一层,朝阳区,北京市,1,39.869521,116.48358,中国工商银行24小时自助银行服务(北京分行九龙山支行南新园支行),北京市,2ac0334609aa045d75e5b664,,2ac0334609aa045d75e5b664,工商银行
北京市朝阳区广和南里二条16号院3号楼底商,朝阳区,北京市,1,39.891274,116.457115,中国工商银行24小时自助银行服务(北京分行九龙山支行劲松路支行),北京市,ea46f792747bce84fd0eb084,,ea46f792747bce84fd0eb084,工商银行
北京市朝阳区广渠路甲40号,朝阳区,北京市,1,39.898623,116.474139,中国工商银行24小时自助银行(北京分行九龙山支行),北京市,f6b008a6b65ed67a06fef5e6,,f6b008a6b65ed67a06fef5e6,工商银行
十里河大羊坊路民航空管楼A座,朝阳区,北京市,1,39.871193,116.466741,中国工商银行24小时自助银行服务(北京分行方庄支行十里河支行),北京市,447e706ce9ecdd2636b06c8f,,447e706ce9ecdd2636b06c8f,工商银行
武圣东里52号楼,朝阳区,北京市,1,39.883231,116.474546,中国工商银行24小时自助银行服务(北京武圣里支行),北京市,5cba5fdb04f42a2be8e582f4,,5cba5fdb04f42a2be8e582f4,工商银行
北京市朝阳区华威里27号长安大饭店1层,朝阳区,北京市,1,39.877569,116.464648,中国工商银行24小时自助银行(九龙山支行),北京市,,,cf17f8cdce96e12bca09f0e5,工商银行
