address,area,city,detail,lat,lng,name,province,street_id,telephone,uid
上海市松江区梅家浜路1507号,松江区,上海市,1,31.057935,121.235816,中国建设银行(梅家浜路支行),上海市,8faeec082eb7d2d53586f4b1,,8faeec082eb7d2d53586f4b1
上海市松江区莘松路1104-1106号(春九路莘松路),松江区,上海市,1,31.104497,121.360063,中国建设银行(莘松路支行),上海市,56e88cba5aba4864a5c7569a,(021)67750021,56e88cba5aba4864a5c7569a
上海市松江区人民北路151号1幢北区,松江区,上海市,1,31.015203,121.234724,中国建设银行(松江支行),上海市,af1ae56b8a1ebc134207c1e7,"(021)57725533,(021)57721746",af1ae56b8a1ebc134207c1e7
上海市松江区影视路28弄1号,松江区,上海市,1,31.019948,121.320906,中国建设银行(车墩支行),上海市,cdd3e34430d3b0b9b817e7d4,(021)57602491,cdd3e34430d3b0b9b817e7d4
广富林路697弄1号1层,松江区,上海市,1,31.061453,121.251439,中国建设银行(上海广富林路支行),上海市,2c5d70433743a18526e0a088,,2c5d70433743a18526e0a088
泗泾镇开江西路448号,松江区,上海市,1,31.116997,121.280806,中国建设银行(上海泗泾支行),上海市,8cba4bb059d35885ac04579a,(021)57610766,8cba4bb059d35885ac04579a
仓汇路680号,松江区,上海市,1,31.022449,121.209243,中国建设银行(上海仓汇路支行),上海市,d987bc8b2441e56e26d2bb1c,(021)67711429,d987bc8b2441e56e26d2bb1c
松江区九亭镇沪亭北路660号三层,松江区,上海市,1,31.155059,121.321964,中国建设银行(上海沪亭北路支行),上海市,2c8bd236f78ae8f2220262b5,(021)67606530,2c8bd236f78ae8f2220262b5
九亭镇九亭大街502号,松江区,上海市,1,31.135147,121.334157,中国建设银行(上海九亭支行),上海市,2e022f8af0c7def6316212a7,(021)57633750,2e022f8af0c7def6316212a7
兴仓路12号-20号,松江区,上海市,1,31.01325,121.21524,中国建设银行(仓桥支行),上海市,a3e8341c4c23bf944afd3fe7,(021)67710614,a3e8341c4c23bf944afd3fe7
新桥镇新镇街831号,松江区,上海市,1,31.068844,121.320572,中国建设银行(上海新桥支行),上海市,0ce65c2dae1fb8582c4733e2,(021)57640573,0ce65c2dae1fb8582c4733e2
佘山镇外青松公路8986号,松江区,上海市,1,31.105133,121.193254,中国建设银行(上海佘山支行),上海市,a12baa40a58d1d57e956fa9e,(021)57651969,da63e3e665e6643d09b93a38
洞泾镇长兴路606号,松江区,上海市,1,31.087326,121.274354,中国建设银行(上海洞泾支行),上海市,c21db9e5baba938201ff2de2,(021)57671245,76e4ae510da9451cb2077d61
松江区谷阳北路1425弄88号(谷阳北路绿城路),松江区,上海市,1,31.038987,121.23976,中国建设银行(绿城路支行),上海市,c61bd305183f226bc37da282,(021)67733154,c61bd305183f226bc37da282
上海市松江区泗泾镇古楼公路959号,松江区,上海市,1,31.110884,121.259276,中国建设银行(上海古楼路支行),上海市,,(021)67895812,a67e11cde99869a254bfffdf
文诚路765号(上海新晖大酒店西侧),松江区,上海市,1,31.038142,121.216319,中国建设银行24小时自助银行服务(上海新晖大酒店北),上海市,c879fa0159ca614bc909f0e7,,c879fa0159ca614bc909f0e7
上海市松江区文汇路328号,松江区,上海市,1,31.055804,121.220814,中国建设银行ATM(文汇路),上海市,3810c8794bfce98a9c09f7e7,,3810c8794bfce98a9c09f7e7
上海市松江区莘砖公路328号漕河泾·松江新兴产业园创新生活广场F1,松江区,上海市,1,31.09947,121.330653,中国建设银行ATM(棕榈广场),上海市,,,ef17b5a728100c983ce231ee
上海市松江区荣乐西路830号新理想广场F1,松江区,上海市,1,31.023216,121.202972,中国建设银行ATM(新理想广场),上海市,653f06889b462ed68433046d,,653f06889b462ed68433046d
文合路855号,松江区,上海市,1,31.028042,121.179649,中国建设银行24小时自助银行(思贤路),上海市,24d0550889fdead21288242f,,24d0550889fdead21288242f
新镇街831号,松江区,上海市,1,31.068787,121.32049,中国建设银行24小时自助银行(新中街步行街店),上海市,af1ae56b8be1bd134307c1e2,,af1ae56b8be1bd134307c1e2
古楼公路959号,松江区,上海市,1,31.110905,121.259311,中国建设银行24小时自助银行(上海古楼路支行),上海市,,,2b2942eae5bf194788fc0631
谷阳北路1425弄88号,松江区,上海市,1,31.038885,121.239754,中国建设银行24小时自助银行(上海松江绿城路支行),上海市,cca65812c09db8bdcf06a476,,cca65812c09db8bdcf06a476
上海市松江区仓汇路680号,松江区,上海市,1,31.022278,121.209391,中国建设银行24小时自助银行(仓汇路支行),上海市,e4242cc7d6992b468b2fb5d9,,e4242cc7d6992b468b2fb5d9
九亭大街502,松江区,上海市,1,31.134915,121.334285,中国建设银行24小时自助银行(上海九亭支行),上海市,3913dae745a6932b17b54b8a,,3913dae745a6932b17b54b8a
上海松江区洞泾镇长兴路606号,松江区,上海市,1,31.087192,121.274161,中国建设银行24小时自助银行(上海洞泾支行),上海市,80bac9955a9a55aac4f025af,,80bac9955a9a55aac4f025af
上海市松江区新松江路927弄开元地中海商业广场F1,松江区,上海市,1,31.044558,121.227626,中国建设银行24小时自助银行(开元地中海商业广场),上海市,15a938107a84fabc14c8f6e7,,15a938107a84fabc14c8f6e7
上海市松江区人民北路151号1幢北区,松江区,上海市,1,31.01505,121.234762,中国建设银行24小时自助银行(人民北路),上海市,4e0a3b4905f08e6b0a5cb3da,,4e0a3b4905f08e6b0a5cb3da
上海市松江区影视路28弄1,松江区,上海市,1,31.020042,121.321012,中国建设银行24小时自助银行(上海车墩支行),上海市,,,290f7fdad04ad2b4921fc987
开江西路448号,松江区,上海市,1,31.116924,121.280619,中国建设银行24小时自助银行(上海泗泾支行),上海市,53349ee38fb2076f2302629a,,53349ee38fb2076f2302629a
上海市松江区兴仓路12号-20号,松江区,上海市,1,31.0132,121.215091,中国建设银行24小时自助银行(仓桥支行),上海市,e93761f69a0b8a0d223bf2e7,,e93761f69a0b8a0d223bf2e7
沪亭北路660-664号,松江区,上海市,1,31.155013,121.321928,中国建设银行24小时自助银行服务(上海沪亭北路支行),上海市,e7c315adc67c1599f6c59cc3,,e7c315adc67c1599f6c59cc3
上海松江区莘松路1104-1106号,松江区,上海市,1,31.104577,121.360083,中国建设银行24小时自助银行(上海莘松路支行),上海市,e2c734e4559d155c15a1900f,,e2c734e4559d155c15a1900f
上海市松江区虬长路214号,松江区,上海市,1,31.021533,121.315765,中国建设银行24小时自助银行(车墩支行),上海市,030c5df95e60d76690114cb2,,030c5df95e60d76690114cb2
梅家浜路1507号,松江区,上海市,1,31.057828,121.235676,中国建设银行24小时自助银行(上海梅家浜路支行),上海市,735f3e761c8a4cb4c27da2f3,,735f3e761c8a4cb4c27da2f3
外青松公路8986,松江区,上海市,1,31.105081,121.192995,中国建设银行24小时自助银行(上海佘山支行),上海市,0ed20a157feaa09656bfff9e,,0ed20a157feaa09656bfff9e
