address,area,city,detail,lat,lng,name,province,street_id,telephone,uid
浦东新区御桥路1742号,浦东新区,上海市,1,31.163774,121.57508,中国工商银行(御桥路支行),上海市,b12a56c6ad541ec203ff2d18,,b12a56c6ad541ec203ff2d18
祥科路58号炬芯研发大楼A栋1楼,浦东新区,上海市,1,31.185435,121.610733,中国工商银行(中科路支行),上海市,8ae7eb6bdb7298405a3ac8a4,"(021)50330701,(021)50330702",59e90ed8a899a9f66e20b922
上海市三林路818号,浦东新区,上海市,1,31.147544,121.514774,中国工商银行(三林支行),上海市,bf29b7026ec65a9808b93aa6,"(021)58416005,(021)58413003,(021)58493167",bf29b7026ec65a9808b93aa6
上海市浦东新区年家浜路505号,浦东新区,上海市,1,31.119683,121.574915,中国工商银行(年家浜路支行),上海市,7282052e179a42312a3a9fa2,(021)31167402,7282052e179a42312a3a9fa2
上海市浦东新区上南路4561号,浦东新区,上海市,1,31.144602,121.52091,中国工商银行(上南路支行),上海市,b388f9fd67fe963fb35c6a03,,b388f9fd67fe963fb35c6a03
上海市浦东新区通济路150号,浦东新区,上海市,1,31.053098,121.752559,中国工商银行(听潮支行),上海市,c7fb04bd1e833c14fb0cad80,(021)68030212,c7fb04bd1e833c14fb0cad80
上海市浦东新区浦东大道2448号,浦东新区,上海市,1,31.262754,121.56441,中国工商银行(上川路支行),上海市,23116913c551a0fc734b8772,(021)58500241,23116913c551a0fc734b8772
上海市浦东新区云桥路875号,浦东新区,上海市,1,31.255685,121.624156,工行金桥科技大楼,上海市,cd66b8322f9236dadbeced3c,,cd66b8322f9236dadbeced3c
国展路839号上海华电大厦21楼,浦东新区,上海市,1,31.18711,121.492427,中国工商银行,上海市,,,760937e683bc469fd6b74ee9
上海市浦东新区唐安路822号,浦东新区,上海市,1,31.213934,121.659366,中国工商银行(唐镇支行),上海市,7153eb2a07803466a6da39ec,(021)20768687,7153eb2a07803466a6da39ec
上海市浦东新区崂山路590号,浦东新区,上海市,1,31.232216,121.530369,中国工商银行(上海市崂山路支行),上海市,bde46ce329d955f4c62ba19d,,bde46ce329d955f4c62ba19d
上海市浦东新区新金桥路1348号,浦东新区,上海市,1,31.260316,121.621047,中国工商银行(新金桥支行),上海市,8fa14fc3ad680f6ff7eafc72,"(021)58998176,(021)58998177",8fa14fc3ad680f6ff7eafc72
上海市浦东新区川沙路4599号,浦东新区,上海市,1,31.205424,121.70326,中国工商银行(奇天商厦),上海市,2e00c5dd946d481dd7851f7f,,2e00c5dd946d481dd7851f7f
"上海市浦东新区向城路58号东方国际科技大厦1层A-I座,2层A-C座,4层A-I座",浦东新区,上海市,1,31.229667,121.536842,中国工商银行(上海市陆家嘴支行),上海市,3f352f4f4be4ad5609a8d46f,(021)50581921,3f352f4f4be4ad5609a8d46f
上海市浦东新区世纪大道777号,浦东新区,上海市,1,31.239583,121.522579,中国工商银行(上海市东昌支行),上海市,2c0bd6c50cc7e0ab43ab9a4e,"(021)58793036,(021)58793037",2c0bd6c50cc7e0ab43ab9a4e
上海市浦东新区博山路100号,浦东新区,上海市,1,31.251521,121.562279,中国工商银行(博山路支行),上海市,691305231e168f09725e8049,,691305231e168f09725e8049
浦东新区张杨北路775号,浦东新区,上海市,1,31.275879,121.59391,中国工商银行(浦兴路支行),上海市,a5097bfafd8e9262f03cba72,"(021)50348937,(021)50348939,(021)50348935",a5097bfafd8e9262f03cba72
上海市浦东新区金杨路627号,浦东新区,上海市,1,31.257047,121.587437,中国工商银行(上海市金杨支行),上海市,8eb48fa1f3b117a7f32d8372,,8eb48fa1f3b117a7f32d8372
上海市浦东新区成山路2175-2177号,浦东新区,上海市,1,31.185747,121.546316,中国工商银行(上海市锦绣路支行),上海市,6ed3083a8dac2db62b3a9f4e,,6ed3083a8dac2db62b3a9f4e
浦东大道637号,浦东新区,上海市,1,31.246859,121.529387,中国工商银行(浦东大道支行),上海市,f696f3c2303f7b961a11d599,,f696f3c2303f7b961a11d599
上海市浦东新区南泉路1230号,浦东新区,上海市,1,31.218883,121.529193,中国工商银行(上海市南泉路支行),上海市,f3c2373cf1546a2fd32dd699,"(021)50397303,(021)50942380",f3c2373cf1546a2fd32dd699
上海市浦东新区丁香路1399弄30号邻里之家1层,浦东新区,上海市,1,31.23594,121.570477,中国工商银行(上海市丁香路支行),上海市,dbf4d6ee872701576ea3cc99,"(021)50119928,(021)50119967",dbf4d6ee872701576ea3cc99
上海市浦东新区华星路419号,浦东新区,上海市,1,31.125488,121.773509,中国工商银行(祝桥支行),上海市,beabdbf45ac586997169d3b5,(021)58108181,beabdbf45ac586997169d3b5
上海市浦东新区牌楼东路19号,浦东新区,上海市,1,31.030691,121.653413,中国工商银行(新场支行),上海市,,"(021)58173232,(021)58171111,(021)20911665",11d99b59b9152e32c16c14c4
上海市浦东新区海天五路速航路口浦东国际机场内,浦东新区,上海市,1,31.168847,121.803708,中国工商银行(国际机场支行),上海市,a74481d6524b7a47f403b8a2,(021)68341162,a74481d6524b7a47f403b8a2
临沂北路252号-262号,浦东新区,上海市,1,31.205986,121.527702,中国工商银行(自动柜员机),上海市,18c77aa8e6546245364aae64,,18c77aa8e6546245364aae64
德州路399号,浦东新区,上海市,1,31.172661,121.490563,中国工商银行(德州路支行),上海市,e56bf5e3c1eabe450782c25c,(021)58726203,e56bf5e3c1eabe450782c25c
民春路民春路32号,浦东新区,上海市,1,31.278083,121.662629,中国工商银行-24小时自助银行,上海市,c179c7e353383fcd8a36eedf,,35362c8288dab0ec430245b0
南码头路519号,浦东新区,上海市,1,31.199069,121.51737,中国工商银行(自动柜员机),上海市,b1586c49896a5c2c72210bfc,,b1586c49896a5c2c72210bfc
上海市浦东新区迪士尼小镇(小镇市集)申迪西路255弄635号,浦东新区,上海市,1,31.145937,121.667458,中国工商银行(上海市度假区支行),上海市,,(021)50633928,642c9064822386b6b11e36e0
浦东新区季景路28号近夏碧路(季景北路季景路),浦东新区,上海市,1,31.345646,121.593221,中国工商银行(上海市高桥支行),上海市,34f68ab074b9970b8f55ec67,"(021)58620463,(021)58621940",34f68ab074b9970b8f55ec67
上海市浦东新区浦东大道1200号巨洋大厦一层,浦东新区,上海市,1,31.24792,121.540614,中国工商银行(浦东大道第二支行),上海市,361acd051517604e3c9a5e90,"(021)58515860,(021)58512807",361acd051517604e3c9a5e90
上海市浦东新区临沂路130号,浦东新区,上海市,1,31.201217,121.519676,中国工商银行(上海市临沂路支行),上海市,ea804d059a178bc4deee8bb7,,ea804d059a178bc4deee8bb7
上海市浦东新区沪南路2420号百联东郊购物中心F1层,浦东新区,上海市,1,31.160629,121.569965,中国工商银行(上海市沪南路支行),上海市,ec58958fa779ff9dc356ac7d,(021)58309801,ec58958fa779ff9dc356ac7d
上海市浦东新区世博大道1859号宝武大厦2号楼1楼,浦东新区,上海市,1,31.189973,121.492595,中国工商银行(外滩宝钢国贸支行),上海市,,(021)50201876,8d1bf6e3b8f848dec81b95b2
上海市浦东新区永泰路1572号,浦东新区,上海市,1,31.150521,121.540805,中国工商银行(上海市永泰路支行),上海市,81d6a5091729833d6e20b9c9,"(021)50855355,(021)50856652,(021)50657668",81d6a5091729833d6e20b9c9
上海市浦东新区沪南路5469号咸塘小镇商业步行街1层,浦东新区,上海市,1,31.041364,121.60359,中国工商银行(上海市航头支行),上海市,aee76a9a67e3883128d7ab30,(021)20903722,aee76a9a67e3883128d7ab30
上海市浦东新区泥城镇鸿音路2925~2929号,浦东新区,上海市,1,30.905568,121.822077,中国工商银行(上海市泥城支行),上海市,a1418eb41c976401eae582a5,"(021)38258871,(021)38258882",a1418eb41c976401eae582a5
上海市浦东新区民春路32号,浦东新区,上海市,1,31.278031,121.662489,中国工商银行(上海市曹路支行),上海市,9af5307eed304d67d5b74e81,,9af5307eed304d67d5b74e81
上海市浦东新区惠南镇拱极路2883号,浦东新区,上海市,1,31.059485,121.770706,中国工商银行(上海市拱极路支行),上海市,,"(021)58010979,(021)58011122",cb1dfc46571d72bae311033c
浦东新区大同路331号第七人民医院对面,浦东新区,上海市,1,31.349961,121.585517,中国工商银行(上海市大同路支行),上海市,8ab0dfc43ccb7317d8eced67,"(021)68660504,(021)50406726",8ab0dfc43ccb7317d8eced67
上海市浦东新区新灵路118号国际商贸大厦1楼,浦东新区,上海市,1,31.323036,121.616592,中国工商银行(上海市新灵路支行),上海市,7fd72311a861049e5cbe8672,(021)50460759,7fd72311a861049e5cbe8672
上海市浦东新区台儿庄路269-271号金桥翡翠坊1层,浦东新区,上海市,1,31.266233,121.59887,中国工商银行(上海市长岛路支行),上海市,f3c2373c801efd2cd22dd656,(021)68958436,f3c2373c801efd2cd22dd656
上海市浦东新区张江路639号,浦东新区,上海市,1,31.210629,121.62256,中国工商银行(上海市张江支行),上海市,04bdf4a3d4ff064e354aae4e,"(021)58552448,(021)58550243",04bdf4a3d4ff064e354aae4e
上海市浦东新区玉兰路259号,浦东新区,上海市,1,31.213006,121.553205,中国工商银行(上海市花木支行),上海市,03bf1ccad461f3b90e3ddaef,"(021)50591836,(021)38763246",03bf1ccad461f3b90e3ddaef
上海市浦东新区东绣路555号,浦东新区,上海市,1,31.212748,121.543235,中国工商银行(上海市东绣路支行),上海市,2fd2beabd9f75a2f7bdbd299,(021)50453029,2fd2beabd9f75a2f7bdbd299
上海市浦东新区高木桥路275-279号,浦东新区,上海市,1,31.189071,121.6369,中国工商银行(上海市孙桥支行),上海市,69a82af62750cfd19e82ea28,"(021)58998015,(021)58997986",69a82af62750cfd19e82ea28
上海市浦东新区莲溪路146号,浦东新区,上海市,1,31.19207,121.566662,中国工商银行(上海市北蔡支行),上海市,be54cde93391355978f7964e,"(021)50610156,(021)68946207,(021)58437781",be54cde93391355978f7964e
康桥镇康桥路1000号,浦东新区,上海市,1,31.153588,121.570192,中国工商银行(上海市康桥支行),上海市,89170221b6bfcef07f29bd23,(021)58122137,89170221b6bfcef07f29bd23
秀沿路895号中邦城市商业休闲街1层,浦东新区,上海市,1,31.1414,121.578912,中国工商银行(上海市秀沿路支行),上海市,a5097bfa632f181ef03cbac9,(021)68063308,a5097bfa632f181ef03cbac9
上海市浦东新区年家浜路319号,浦东新区,上海市,1,31.121284,121.585438,中国工商银行(上海市周浦支行),上海市,be54cde933e1355979f796be,(021)68123043,be54cde933e1355979f796be
上海市浦东新区昌里东路307-309号,浦东新区,上海市,1,31.182699,121.51691,中国工商银行(上海市东明路支行),上海市,606ab0d02ceaea290f3dda8a,"(021)50777160,(021)50775139",606ab0d02ceaea290f3dda8a
浦东新区齐河路308号(云莲路口),浦东新区,上海市,1,31.185292,121.512246,中国工商银行(上海市齐河路支行),上海市,ab3ad1e10f9a6d4714948e51,"(021)58723715,(021)58723580",ab3ad1e10f9a6d4714948e51
耀华路12号,浦东新区,上海市,1,31.183729,121.500567,中国工商银行(上海市周家渡支行),上海市,,(021)58800691,060f5e532f5ee4d6081cc75c
上海市金高路1771号,浦东新区,上海市,1,31.274135,121.61677,中国工商银行(上海市金高支行),上海市,5c56edd618691059a1d2301a,(021)58346258,5c56edd618691059a1d2301a
上海市浦东新区利津路1311号,浦东新区,上海市,1,31.288015,121.60018,中国工商银行(上海市巨峰路支行),上海市,5b25f4465e9040e91029351a,"(021)33828323,(021)33828736",5b25f4465e9040e91029351a
上海市浦东新区迎春路870-874号,浦东新区,上海市,1,31.230298,121.561728,中国工商银行(上海市联洋支行),上海市,74f6bd4cb2757e55734b87ef,(021)68540977,74f6bd4cb2757e55734b87ef
上海市浦东新区梅花路811-815号,浦东新区,上海市,1,31.216075,121.561599,中国工商银行(上海市白杨路支行),上海市,cde9e2c7e4b284b5e81e974e,"(021)38764025,(021)50599260",cde9e2c7e4b284b5e81e974e
浦东新区张江高科技园区科苑路201号,浦东新区,上海市,1,31.215011,121.595117,中国工商银行(上海市科苑支行),上海市,3f826ed3d16c5447d1f49e4e,,3f826ed3d16c5447d1f49e4e
浦东新区浦电路212号近南泉路(南泉路浦电路),浦东新区,上海市,1,31.225178,121.52972,中国工商银行(上海市浦电路支行),上海市,dbf4d6eea7a8e1566fa3cc11,(021)58883533,dbf4d6eea7a8e1566fa3cc11
上海市南码头路189号,浦东新区,上海市,1,31.204928,121.514688,中国工商银行(上海市南码头支行),上海市,9fbfeef2377e3044ede4a54e,95588,9fbfeef2377e3044ede4a54e
上海市浦东新区东方路1866号,浦东新区,上海市,1,31.205963,121.527662,中国工商银行(上海市东方路支行),上海市,55fa2c0b0093d82c1ce9994e,(021)50391721,55fa2c0b0093d82c1ce9994e
浦东新区商城路335-1号,浦东新区,上海市,1,31.23497,121.517397,中国工商银行(上海市商城路支行),上海市,00f1c7fbefebf51ec056ac4e,"(021)58873061,(021)58873319",00f1c7fbefebf51ec056ac4e
上海市浦东新区张杨路1593号,浦东新区,上海市,1,31.24107,121.545436,中国工商银行(上海市桃林路支行),上海市,f4a33da9efa5c9083010af4e,"(021)68537557,(021)68535031,(021)68535794",f4a33da9efa5c9083010af4e
上海市浦东新区上南路3127号,浦东新区,上海市,1,31.165366,121.50556,中国工商银行(上海市杨思支行),上海市,cb5811bb484976af40ab9a39,"(021)50101275,(021)50103130",cb5811bb484976af40ab9a39
上海市浦东新区南汇新城镇环湖西一路333号建设银行旁边,浦东新区,上海市,1,30.90147,121.932856,中国工商银行(上海市滴水湖支行),上海市,93df0dc301d67c28882fb5e7,"(021)68280198,(021)68280179",93df0dc301d67c28882fb5e7
"上海市浦东新区金海路2449弄6号103室,2457-2461号1-2层",浦东新区,上海市,1,31.271882,121.658297,中国工商银行(浦东开发区金海路支行),上海市,,(021)50890252,ddad02d99e01b218a5da3915
上海市浦东新区龙东大道5385号近新川路,浦东新区,上海市,1,31.240532,121.689195,中国工商银行(上海市龙东大道支行),上海市,631c41577465c46031f71d7f,"(021)58588691,(021)38972428",631c41577465c46031f71d7f
上海市浦东新区妙境路815号,浦东新区,上海市,1,31.192435,121.698903,中国工商银行(上海市川沙第二支行),上海市,c5ddcc081ec52bc7d813187f,(021)68392046,c5ddcc081ec52bc7d813187f
上海市碧云路1212号,浦东新区,上海市,1,31.249066,121.596173,中国工商银行(上海市碧云国际支行),上海市,e116be541fbfe37ac91b954e,"(021)33820081,(021)33820758",e116be541fbfe37ac91b954e
上海市浦东新区申江路1500号(非对外营业),浦东新区,上海市,1,31.282479,121.630539,中国工商银行(上海市通用汽车支行),上海市,736ca529804417ac246e98be,(021)50316975,736ca529804417ac246e98be
博云路2号浦软大厦1层,浦东新区,上海市,1,31.208033,121.610174,中国工商银行(上海市浦东软件园支行),上海市,d4034eb36c40c188c036446b,"(021)33925855,(021)50807178",d4034eb36c40c188c036446b
长柳路68-76号证大立方大厦一楼(近丁香路),浦东新区,上海市,1,31.230909,121.558676,中国工商银行(上海市联洋第二支行),上海市,,(021)68543530,74c933fb81e677209e82ea7a
上海市浦东新区银城中路68号时代金融中心47层4701室,浦东新区,上海市,1,31.246814,121.513235,中国工商银行(票据营业部上海分部),上海市,b273b98b5a13eb0c353a7172,,b273b98b5a13eb0c353a7172
上海市浦东新区松林路300号期货大厦一层,浦东新区,上海市,1,31.231705,121.541762,中国工商银行(上海市期货大厦支行),上海市,a740177be840be1d31f71dd7,(021)68401033,a740177be840be1d31f71dd7
上海市浦东新区世纪大道88号金茂大厦4楼,浦东新区,上海市,1,31.241306,121.511881,中国工商银行(上海市金茂大厦支行),上海市,0fafa24029a0d780018972b8,(021)50470321,0fafa24029a0d780018972b8
上海市浦东新区浦东南路500号国家开发银行大厦,浦东新区,上海市,1,31.242756,121.517337,中国工商银行(上海市证券大厦支行),上海市,75d0881ac6b1014c3a04b14e,"(021)58403216,(021)58405958,(021)58768215",75d0881ac6b1014c3a04b14e
上海市浦东新区世纪大道地铁2号线B1层A区服务中心对面,浦东新区,上海市,1,31.234814,121.53279,中国工商银行(地铁世纪大道站支行),上海市,771e857f2b65e4b3430245f9,(021)22057790,771e857f2b65e4b3430245f9
上海市浦东新区陆家嘴西路168号正大广场B1层09-107号,浦东新区,上海市,1,31.242583,121.506744,中国工商银行(上海市正大广场支行),上海市,b193cb7f98a22043f603b8b9,"(021)50988085,(021)50471319",b193cb7f98a22043f603b8b9
上海市浦东新区昌里路318号,浦东新区,上海市,1,31.17925,121.498249,中国工商银行(上海市上钢新村支行),上海市,5e53af1a9a2ff45e4151c05c,"(021)58456597,(021)68706922",5e53af1a9a2ff45e4151c05c
上海市浦东新区闻局路1333号,浦东新区,上海市,1,31.139709,121.784054,中国工商银行(上海市浦东机场综合保税区支行),上海市,023ce7831fc080b59fe321b2,"(021)50135759,(021)50135732,(021)50135753",023ce7831fc080b59fe321b2
上海市浦东新区世纪大道100号上海环球金融中心商场3层,浦东新区,上海市,1,31.240407,121.514277,中国工商银行(上海市环球金融中心支行),上海市,8ac7a997323fd07fa8f0cdf4,(021)68776167,8ac7a997323fd07fa8f0cdf4
上海市即墨路88号,浦东新区,上海市,1,31.244648,121.51897,中国工商银行(上海市分行第二营业部营业厅),上海市,8a562408b184331879dbd2d2,(021)58885888,8a562408b184331879dbd2d2
上海市浦东新区东书房路476号,浦东新区,上海市,1,31.169098,121.542556,中国工商银行(上海市三林世博家园支行),上海市,14d0bc4152bf99114251c0f8,(021)58680503,14d0bc4152bf99114251c0f8
世纪大道1701号,浦东新区,上海市,1,31.230597,121.54251,中国工商银行(上海市钻石交易中心支行),上海市,606ab0d05cf17a570f3dda99,(021)50158153,606ab0d05cf17a570f3dda99
浦东新区峨山路91弄98号近东方路,浦东新区,上海市,1,31.220792,121.538076,中国工商银行(上海市陆家嘴软件园支行),上海市,10e80d65b2e29cf1c7f50daf,"(021)50891136,(021)50890713",10e80d65b2e29cf1c7f50daf
惠南镇城南路258号,浦东新区,上海市,1,31.046035,121.759647,中国工商银行(南汇支行营业厅),上海市,8ab0dfc43c957317d9ecedbd,(021)68019360,8ab0dfc43c957317d9ecedbd
上海市浦东新区银城中路488号101室,浦东新区,上海市,1,31.239819,121.510155,中国工商银行(上海市地铁支行营业厅),上海市,f1ee019930a18998d8d891ff,(021)58780059,f1ee019930a18998d8d891ff
上海市浦东新区新元南路555号,浦东新区,上海市,1,30.878102,121.82728,中国工商银行(上海市临港支行营业厅),上海市,373cf75776f22e6f4254d784,(021)68284176,373cf75776f22e6f4254d784
上海市浦东新区陆家嘴东路166号,浦东新区,上海市,1,31.242197,121.515938,中国工商银行(营业部中保大厦支行),上海市,,(021)68600111,123e3d6da7d914f59e95dece
上海市浦东新区浦东南路2024号,浦东新区,上海市,1,31.217789,121.524308,中国工商银行(上海市浦东分行营业厅),上海市,c8b5cdefab899e02130daa4e,(021)58757777,c8b5cdefab899e02130daa4e
上海市浦东新区碧云路1212,浦东新区,上海市,1,31.249089,121.596202,中国工商银行24小时自助银行(碧云国际支行),上海市,18e8b498141a03fd5c0d021b,,18e8b498141a03fd5c0d021b
金桥路1391号,浦东新区,上海市,1,31.259049,121.59507,中国工商银行(上海市浦东开发区支行营业厅),上海市,7c410a2ea8f986692cb17e98,(021)58542020,7c410a2ea8f986692cb17e98
上海市浦东新区马吉路28号,浦东新区,上海市,1,31.354613,121.595532,中国工商银行(上海自贸试验区分行营业厅),上海市,dfc496b6dbd724ae8936ee67,"(021)58690116,(021)58692712,(021)58699240",dfc496b6dbd724ae8936ee67
沪南路355号芳华路地铁内,浦东新区,上海市,1,31.199758,121.556375,中国工商银行ATM,上海市,5614411f0f14713130169b95,,5614411f0f14713130169b95
川沙新镇上海迪士尼度假区迪士尼小镇,浦东新区,上海市,1,31.145879,121.667534,中国工商银行ATM,上海市,40476539fc79e7b06e20b9cf,,b9da0d830d4964e90c0a7098
川沙镇黄赵路310号上海迪士尼乐园,浦东新区,上海市,1,31.147634,121.669453,中国工商银行ATM,上海市,4c08ba7e1130516fae04579f,,4c08ba7e1130516fae04579f
云台路1800号上海市东方医院门诊内,浦东新区,上海市,1,31.154039,121.520082,中国工商银行ATM,上海市,78711889ef45cd1ab9df8f81,,78711889ef45cd1ab9df8f81
上海市惠南镇拱为路2800号,浦东新区,上海市,1,31.064288,121.742584,中国工商银行ATM,上海市,e6b8dd01e41ad8701fe99950,,e6b8dd01e41ad8701fe99950
上海市浦东新区9号线杨高中路站杨高中路站B1,浦东新区,上海市,1,31.234409,121.55564,中国工商银行ATM,上海市,595b688914f5d18b5fbe86ee,,595b688914f5d18b5fbe86ee
上海市浦东新区川沙新镇上海迪士尼度假区内,浦东新区,上海市,1,31.144203,121.663579,中国工商银行ATM,上海市,2843d6117da1b9dd2d47338b,,2843d6117da1b9dd2d47338b
金科路1800号东郊宾馆1层,浦东新区,上海市,1,31.232095,121.60297,中国工商银行ATM(金科路),上海市,14b9eabd621644c3eddfcab6,,14b9eabd621644c3eddfcab6
上海市浦东新区杨高南路889号上海东锦江希尔顿逸林酒店1层,浦东新区,上海市,1,31.217184,121.540446,中国工商银行ATM(杨高路),上海市,a3b83542d577c38c3617dc47,,a3b83542d577c38c3617dc47
上海市浦东新区上南路205号(近国展路)中华艺术宫内,浦东新区,上海市,1,31.190131,121.500667,中国工商银行ATM(上南路),上海市,3e75dbe049d4aa1b4f3a5903,,3e75dbe049d4aa1b4f3a5903
纳贤路与荣科路交叉口西50米,浦东新区,上海市,1,31.183786,121.612226,中国工商银行ATM机(荣科路),上海市,051a693b70a31c10deee8b99,,051a693b70a31c10deee8b99
上海市浦东新区宣桥镇南六公路178号上海野生动物园内,浦东新区,上海市,1,31.059302,121.722174,中国工商银行ATM(人民西路),上海市,fdc22f3ffa29edb328b97c96,,fdc22f3ffa29edb328b97c96
北张家浜路88号左岸88b座1层,浦东新区,上海市,1,31.221964,121.528554,中国工商银行ATM(北张家浜路),上海市,e81362adea636d299403195a,,e81362adea636d299403195a
上海市浦东新区上南路3521号易初莲花,浦东新区,上海市,1,31.160378,121.509543,中国工商银行ATM(卜蜂莲花),上海市,168a5570ff7592b009a8d4ff,,168a5570ff7592b009a8d4ff
上海市浦东新区金藏路58号红星美凯龙家居艺术设计博览中心F1,浦东新区,上海市,1,31.254969,121.601715,中国工商银行24小时自助银行,上海市,,,cbee1669d009260395ca0748
上海市轨道交通地铁8号线凌兆新村站站厅内,浦东新区,上海市,1,31.146328,121.496088,中国工商银行24小时自助银行,上海市,5f9a28ece1ec052b3486f4c5,,5f9a28ece1ec052b3486f4c5
周浦镇天雄路588弄13号,浦东新区,上海市,1,31.110722,121.620016,中国工商银行24小时自助银行,上海市,9b46b3728f433be50a5cb368,,9b46b3728f433be50a5cb368
松林路300号上海期货大厦1层,浦东新区,上海市,1,31.231821,121.541594,中国工商银行ATM(上海期货大厦),上海市,6f120f6530b285a37369d372,,6f120f6530b285a37369d372
即墨路150号上海市东方医院门诊内,浦东新区,上海市,1,31.243292,121.518833,中国工商银行ATM(上海市东方医院),上海市,cc16647e168e4105220220db,,cc16647e168e4105220220db
东方路3261号振华企业广场B座1层102室,浦东新区,上海市,1,31.198245,121.524688,中国工商银行ATM(振华企业广场),上海市,d8234999825854bf9d82ead8,,d8234999825854bf9d82ead8
博成路850号上海世博展览馆购物中心1层,浦东新区,上海市,1,31.188824,121.496595,中国工商银行ATM(世博支行网点),上海市,4395b43e9c1d24b14e2fdf6b,,4395b43e9c1d24b14e2fdf6b
上海市浦东新区机场镇纬一路100号上海浦东国际机场T2航站楼F2,浦东新区,上海市,1,31.157199,121.815134,中国工商银行ATM(上海浦东国际机场),上海市,9e764200f98b5b7e1811d5d9,,9e764200f98b5b7e1811d5d9
世纪大道1600号陆家嘴商务广场b1层,浦东新区,上海市,1,31.230432,121.542762,中国工商银行24小时自助银行(浦电路),上海市,49ed3526fc518917adb22adf,,49ed3526fc518917adb22adf
上海市浦东新区世纪大道100号上海环球金融中心商场B1,浦东新区,上海市,1,31.240634,121.513483,中国工商银行ATM(上海国金中心商场),上海市,c8b912d5f0b87d2943afe6bc,,c8b912d5f0b87d2943afe6bc
上海市浦东新区康桥路787号,浦东新区,上海市,1,31.152063,121.555157,中国工商银行24小时自助银行(康桥路),上海市,6f04ce87caddf180223bf25c,,6f04ce87caddf180223bf25c
惠南镇城南路258号,浦东新区,上海市,1,31.046104,121.759573,中国工商银行24小时自助银行服务(南汇支行网点),上海市,,,ce7c4c167788841188fc0665
上海市浦东新区东方路796号九六广场F1,浦东新区,上海市,1,31.233143,121.530891,中国工商银行24小时自助银行(96广场),上海市,80c79ef84782957614948eaf,,80c79ef84782957614948eaf
唐安路822号,浦东新区,上海市,1,31.214108,121.659033,中国工商银行24小时自助银行(唐镇支行),上海市,fa82312c1740c3464afc8d8c,,fa82312c1740c3464afc8d8c
浦东新区申迪北路750号,浦东新区,上海市,1,31.146528,121.668255,中国工商银行离行式自助服务区(上海分行外滩度假区支行迪士尼乐园主入口),上海市,1622ee05ceefba3abda240ac,,1622ee05ceefba3abda240ac
上海市浦东新区申迪北路750号,浦东新区,上海市,1,31.144121,121.6635,中国工商银行离行式自助服务区(上海分行外滩度假区支行迪士尼乐园停车场),上海市,,,a09804b7c2a2800f213bf259
上海市浦东新区海徐路135号,浦东新区,上海市,1,31.346379,121.617972,中国工商银行离行式自助服务区(上海分行自贸试验区外高桥保税区支行二发电),上海市,ed85c82362d8c5aa3a13fd17,,ed85c82362d8c5aa3a13fd17
季景路28号,浦东新区,上海市,1,31.345565,121.593271,中国工商银行24小时自助银行(高桥支行),上海市,f4ce0ec574bc13dbfa0cad63,,f4ce0ec574bc13dbfa0cad63
上海市杨高北路2005号,浦东新区,上海市,1,31.322166,121.611964,中国工商银行离行式自助服务区(上海分行自贸试验区新灵路支行南方数据中心),上海市,e95029e17279da6ab6147f51,,e95029e17279da6ab6147f51
上海市浦东新区利津路1311,浦东新区,上海市,1,31.287945,121.600191,中国工商银行24小时自助银行(巨峰路支行),上海市,dd714c1aee17dcb77269d308,,e889a74479a4a4b48605bf72
博云路2号浦软大厦1层,浦东新区,上海市,1,31.208034,121.610174,中国工商银行24小时自助银行(浦东软件园支行),上海市,d24e48eb0b1e4acaafee7a55,,d24e48eb0b1e4acaafee7a55
2号线世纪公园站站厅,浦东新区,上海市,1,31.221777,121.558508,中国工商银行离行式自助服务区(上海分行地铁支行世纪公园站),上海市,,,d32c0a7dc21c9001a1046422
郭守敬路31号,浦东新区,上海市,1,31.215122,121.595234,中国工商银行24小时自助银行(科苑支行),上海市,30744e09fc6aeb3088fc06cc,,72e57fd7e14668aef8dc8549
上海市浦东新区梅花路815,浦东新区,上海市,1,31.216046,121.561659,中国工商银行24小时自助银行(白杨路支行),上海市,2d5d200b36a834855e0d021e,,2d5d200b36a834855e0d021e
浦东大道1200号巨洋大厦,浦东新区,上海市,1,31.24791,121.540506,中国工商银行24小时自助银行(浦东大道第二支行),上海市,0523a141bdb70360b33c8199,,0523a141bdb70360b33c8199
浦东大道637号同科公寓,浦东新区,上海市,1,31.246793,121.529418,中国工商银行24小时自助银行(浦东大道支行),上海市,985f467e08fe01ee4afc8d91,,985f467e08fe01ee4afc8d91
东方路2000号,浦东新区,上海市,1,31.203884,121.525696,中国工商银行离行式自助服务区(上海分行静安南京西路支行东方电视台),上海市,a1d656896ef51912911fc940,,a1d656896ef51912911fc940
上海市浦东新区世纪大道1701号,浦东新区,上海市,1,31.230663,121.542541,中国工商银行网点自助服务区(上海分行第二营业部钻石交易中心支行),上海市,74cad00c5e14bf2ead080f40,,74cad00c5e14bf2ead080f40
上海市市辖区地铁二号线东昌路站,浦东新区,上海市,1,31.236828,121.514196,中国工商银行离行式自助服务区(上海分行地铁支行东昌路站),上海市,6acedd9a5b0be4f00d3dda10,,6acedd9a5b0be4f00d3dda10
上海市浦东新区南码头路189号,浦东新区,上海市,1,31.204929,121.514551,中国工商银行24小时自助银行(南码头支行),上海市,72aa2513d39e3246077ce849,,72aa2513d39e3246077ce849
上海市市辖区浦东新区银城中路488号101室,浦东新区,上海市,1,31.239726,121.510008,中国工商银行ATM(上海市地铁支行营业厅),上海市,19b7cdb7e5cad05cc26c1404,,19b7cdb7e5cad05cc26c1404
东绣路555、559,浦东新区,上海市,1,31.212828,121.543264,中国工商银行24小时自助银行(东绣路支行),上海市,b9e5d0b8df4ae0c281a12e6a,,b9e5d0b8df4ae0c281a12e6a
2号线世纪大道站站厅,浦东新区,上海市,1,31.234621,121.533218,中国工商银行网点自助服务区(上海分行地铁世纪大道站支行),上海市,efedda6fb175b53ed4851fe1,,efedda6fb175b53ed4851fe1
上海市浦东新区南泉路1230号,浦东新区,上海市,1,31.218703,121.529224,中国工商银行24小时自助银行(南泉路支行),上海市,c4344877762ec7958c55ecc5,,c4344877762ec7958c55ecc5
上海市浦东新区高木桥路279号,浦东新区,上海市,1,31.189063,121.636956,中国工商银行24小时自助银行(高木桥路),上海市,6a80fe1704d2374e7ec87644,,6a80fe1704d2374e7ec87644
上海市周浦镇年家浜路319号,浦东新区,上海市,1,31.121309,121.585659,中国工商银行24小时自助银行(周浦支行),上海市,f2f15ffbe4b876f6631c672c,,f2f15ffbe4b876f6631c672c
浦东新区齐河路308号,浦东新区,上海市,1,31.185344,121.512063,中国工商银行24小时自助银行(齐河路支行),上海市,0a1fedfdac57b44304026f97,,0a1fedfdac57b44304026f97
三林路818,浦东新区,上海市,1,31.147488,121.514646,中国工商银行24小时自助银行(三林支行),上海市,65dce2ddddaf9b5e4d2fdf78,,d35a51e0baf0e083b21e364d
上海市浦东新区沪南路5469号咸塘小镇商业步行街1层,浦东新区,上海市,1,31.04155,121.603869,中国工商银行24小时自助银行(航头支行),上海市,f3309829dac0148d2fb96da1,,f3309829dac0148d2fb96da1
浦东机场基地二路2号,浦东新区,上海市,1,31.169262,121.781499,中国工商银行离行式自助服务区(上海分行长宁虹桥机场支行中国国际航空公司),上海市,b483735ba3db45cd6240a9f8,,b483735ba3db45cd6240a9f8
闻局路1333号,浦东新区,上海市,1,31.139644,121.783989,中国工商银行ATM(浦东机场综合保税区支行),上海市,6b986bd641115ca5f33cba78,,6b986bd641115ca5f33cba78
上海市惠南镇拱极路2883号,浦东新区,上海市,1,31.059667,121.770408,中国工商银行网点自助服务区(上海分行南汇拱极路支行),上海市,7f5b14e4b7bec918631c67c2,,7f5b14e4b7bec918631c67c2
上海市新场镇牌楼东路19号,浦东新区,上海市,1,31.030701,121.65347,中国工商银行24小时自助银行(新场支行),上海市,a5097bfafddc9262f13cba80,,a5097bfafddc9262f13cba80
杨高北路1000号上海外高桥皇冠假日酒店1层,浦东新区,上海市,1,31.344848,121.597243,中国工商银行ATM(上海外高桥皇冠假日酒店),上海市,d7fd2ad3ac8ad32a0bccdd56,,d7fd2ad3ac8ad32a0bccdd56
上海市浦东新区日樱北路210,浦东新区,上海市,1,31.33189,121.618448,中国工商银行离行式自助服务区(上海分行浦东开发区支行日东光学),上海市,bf4a9222d1c9c65ec92915d7,,bf4a9222d1c9c65ec92915d7
新金桥路新金桥路1348号,浦东新区,上海市,1,31.260251,121.621174,中国工商银行24小时自助银行(新金桥支行),上海市,429b792be5563252cc06a4aa,,429b792be5563252cc06a4aa
上海市4号线浦东大道站,浦东新区,上海市,1,31.262331,121.563212,中国工商银行离行式自助服务区(上海分行地铁支行浦东大道站),上海市,93cd7d16b28e309df8f0cb9e,,93cd7d16b28e309df8f0cb9e
上海市浦东新区利津路78号,浦东新区,上海市,1,31.284921,121.585309,中国工商银行离行式自助服务区(上海分行第二营业部营业厅高化办公区),上海市,12f69cf2e74cfa276b49f3b9,,12f69cf2e74cfa276b49f3b9
上海市浦东新区五莲路593弄-45号,浦东新区,上海市,1,31.275806,121.593898,中国工商银行24小时自助银行(浦兴路支行),上海市,93df0dc30ce27955882fb5cc,,93df0dc30ce27955882fb5cc
金科路2300号,浦东新区,上海市,1,31.222123,121.605276,中国工商银行离行式自助服务区(上海分行浦东开发区支行日月光厂区),上海市,,,f52fac9d3d32d0b61811d55a
上海市浦东新区丁香路1399弄30号邻里之家1层,浦东新区,上海市,1,31.235761,121.570608,中国工商银行24小时自助银行(丁香路支行),上海市,0523a14130e38e1cb23c8149,,0523a14130e38e1cb23c8149
上海市浦东新区长柳路68号,浦东新区,上海市,1,31.230861,121.558852,中国工商银行24小时自助银行(联洋第二支行),上海市,64ff3be1c3b83fc590114c41,,64ff3be1c3b83fc590114c41
9号线杨高中路站站厅内,浦东新区,上海市,1,31.240405,121.569186,中国工商银行离行式自助服务区(上海分行地铁支行杨高中路站),上海市,bfcf924a5bf48dcb78f796fc,,bfcf924a5bf48dcb78f796fc
峨山路97号109号,浦东新区,上海市,1,31.22078,121.537907,中国工商银行24小时自助银行(陆家嘴软件园支行),上海市,be78789ab7de4cf18d1a897f,,be78789ab7de4cf18d1a897f
浦东南路500号国家开发银行大厦,浦东新区,上海市,1,31.242821,121.517375,中国工商银行24小时自助银行(证券大厦支行),上海市,5c9ba4e8baffda08b31e360b,,5c9ba4e8baffda08b31e360b
6号线源深体育中心站站厅,浦东新区,上海市,1,31.23787,121.543207,中国工商银行离行式自助服务区(上海分行地铁支行源深体育中心站),上海市,,,7accf1d2902f8d944107c1cb
陆家嘴西路168号正大广场地下1层,浦东新区,上海市,1,31.242626,121.506833,中国工商银行24小时自助银行(正大广场),上海市,2ab5fc1c30c77fe1fa0cadc0,,2ab5fc1c30c77fe1fa0cadc0
上海市浦东新区莲溪路146号,浦东新区,上海市,1,31.191994,121.566728,中国工商银行24小时自助银行(北蔡支行),上海市,ab412d2402de952b4bcc4a2e,,ab412d2402de952b4bcc4a2e
昌里路318,浦东新区,上海市,1,31.179238,121.498165,中国工商银行24小时自助银行(上钢新村支行),上海市,af80fa3cbff4f0af095cb30a,,af80fa3cbff4f0af095cb30a
上海市浦东新区新元南路555号,浦东新区,上海市,1,30.878123,121.827266,中国工商银行24小时自助银行(临港支行),上海市,2ad32cc351f4f78e9c95de84,,2ad32cc351f4f78e9c95de84
龙东大道5385号,浦东新区,上海市,1,31.240556,121.689136,中国工商银行附行式自助银行(上海分行张江龙东大道支行龙东大道),上海市,c6149233a9df1032c03644a0,,c6149233a9df1032c03644a0
唐镇龙东大道5385号龙东大厦a,浦东新区,上海市,1,31.240616,121.689076,中国工商银行24小时自助银行(龙东大道支行),上海市,cf36743b16c28e6fab175acc,,ffd6d403949a9ef116b54bb1
上海市浦东新区祖冲之路2633号1楼大厅,浦东新区,上海市,1,31.218241,121.641802,中国工商银行离行式自助服务区(上海分行张江集电园支行上海船舶研究设计院),上海市,117b3439886c0d8e22f017ba,,117b3439886c0d8e22f017ba
浦东国际机场T2航站楼,浦东新区,上海市,1,31.185079,121.79339,中国工商银行离行式自助服务区(上海分行张江国际机场支行浦东国际机场T2航站楼),上海市,e97d7819b30ef5256ca3cc03,,e97d7819b30ef5256ca3cc03
海天五路速航路口浦东国际机场内,浦东新区,上海市,1,31.168816,121.803731,中国工商银行24小时自助银行(国际机场支行),上海市,3ee1f2e9c892bfd02a11d1f4,,3ee1f2e9c892bfd02a11d1f4
上海市浦东新区川沙路5398号百联川沙购物中心F1,浦东新区,上海市,1,31.191017,121.703872,中国工商银行24小时自助银行(百联川沙购物中心),上海市,4f44e6028858f17841d63e52,,4f44e6028858f17841d63e52
上海市富特北路458号3号楼,浦东新区,上海市,1,31.340797,121.606504,中国工商银行离行式自助服务区(上海分行自贸试验区新灵路支行上海外高桥进口商品直销中心),上海市,e302c43cf595bdbb4151c093,,e302c43cf595bdbb4151c093
新灵路118号国际商贸大厦,浦东新区,上海市,1,31.322952,121.616658,中国工商银行24小时自助银行(新灵路支行),上海市,d6c5d991589fa2eb30169b15,,d6c5d991589fa2eb30169b15
上海市浦东新区长岛路1170号金桥翡翠坊F1,浦东新区,上海市,1,31.266167,121.598851,中国工商银行24小时自助银行(上海长岛路支行),上海市,844a750e3a5229c7636858a7,,844a750e3a5229c7636858a7
张江路18号,浦东新区,上海市,1,31.22399,121.615424,中国工商银行离行式自助服务区(上海分行浦东分行营业厅中芯微电子公司),上海市,1a5ff8ad4c38892cf6c59c29,,1a5ff8ad4c38892cf6c59c29
陆家嘴东路166号一楼大厅,浦东新区,上海市,1,31.242243,121.516093,中国工商银行离行式自助服务区(上海分行浦东证券大厦支行中保大厦),上海市,5e6c368952abdf9d6fa3ccc6,,5e6c368952abdf9d6fa3ccc6
崂山路332号,浦东新区,上海市,1,31.23821,121.527612,中国工商银行离行式自助服务区(上海分行浦东东昌支行波特营),上海市,856f8890a686c5b23ce23176,,856f8890a686c5b23ce23176
峨山路101号,浦东新区,上海市,1,31.221036,121.538205,中国工商银行附行式自助银行(上海分行浦东陆家嘴软件园支行),上海市,1b0fcbe6bdec54fd23026299,,1b0fcbe6bdec54fd23026299
上海市轨道交通地铁2号线陆家嘴站站厅内,浦东新区,上海市,1,31.244555,121.5099,中国工商银行离行式自助服务区(上海分行地铁支行陆家嘴站),上海市,9442cfad00f2a63fa3acc48a,,9442cfad00f2a63fa3acc48a
上海市浦东新区纳贤路800号,浦东新区,上海市,1,31.189194,121.610731,中国工商银行离行式自助服务区(上海分行张江集电园支行科海大厦),上海市,b65f46b7d167a0ac132935ba,,b65f46b7d167a0ac132935ba
世博村路300号,浦东新区,上海市,1,31.200887,121.512958,中国工商银行离行式自助服务区(上海分行营业部正大广场支行上海市人民政府),上海市,c486942ff8ca63aea8f0cd9f,,c486942ff8ca63aea8f0cd9f
上海市浦东新区园二路259号,浦东新区,上海市,1,31.321823,121.641197,中国工商银行24小时自助银行服务(上海分行浦东开发区支行园二路),上海市,ed3a32d018f5ae383b221c33,,2e05115c02fe4ff8b1077dc9
上海市浦东新区华夏东路2255号浦东商场(川北居民区北)1层,浦东新区,上海市,1,31.205321,121.703285,中国工商银行24小时自助银行(浦东商场华夏东路店),上海市,5575810814300fc0e5073841,,5575810814300fc0e5073841
川沙路4599号,浦东新区,上海市,1,31.205532,121.703192,中国工商银行24小时自助银行(上海分行张江川沙支行川沙路),上海市,01beae9b93d328c44afd3f84,,01beae9b93d328c44afd3f84
上海市祝桥镇华星路419号,浦东新区,上海市,1,31.125734,121.773848,中国工商银行24小时自助银行服务(上海分行南汇祝桥支行),上海市,726ac8a8019e82295bf6be8a,,726ac8a8019e82295bf6be8a
上海市浦东新区妙境路815号-3楼,浦东新区,上海市,1,31.192365,121.698933,中国工商银行24小时自助银行服务(川沙第二支行),上海市,1d86f51e983ca234441a32c6,,af1ae56b8b86bd134207c17f
上海市浦东新区迪士尼地铁站2号出口西北50米,浦东新区,上海市,1,31.147966,121.675211,中国工商银行24小时自助银行(迪士尼团队办公楼东南),上海市,7768e3ba70ed20ecca2915f8,,7768e3ba70ed20ecca2915f8
上海市浦东新区惠南镇通济路150号,浦东新区,上海市,1,31.052997,121.752559,中国工商银行24小时自助银行服务(上海分行南汇听潮支行),上海市,d42312d4078298d951e5c592,,d42312d4078298d951e5c592
大同路331号,浦东新区,上海市,1,31.349962,121.585517,中国工商银行24小时自助银行(上海分行浦东开发区大同路支行),上海市,52575907d54d49bdc9fa5f22,,52575907d54d49bdc9fa5f22
马吉路28号,浦东新区,上海市,1,31.354452,121.595277,中国工商银行24小时自助银行(东华金融大厦),上海市,550fd5f960238c07921fc9b2,,550fd5f960238c07921fc9b2
上海市金高路1771号,浦东新区,上海市,1,31.2742,121.616421,中国工商银行24小时自助银行服务(上海分行浦东开发区金高路支行),上海市,a9056e2739f221082fb96d6d,,a9056e2739f221082fb96d6d
浦东大道2444--2448号,浦东新区,上海市,1,31.262873,121.564367,中国工商银行24小时自助银行服务(上海分行浦东上川路支行),上海市,,,72267072a5b837e100ec010b
金桥路1395-1397福建天安大厦,浦东新区,上海市,1,31.259099,121.595029,中国工商银行24小时自助银行服务(金桥支行),上海市,d305db1f82c31d40922ca384,,d305db1f82c31d40922ca384
金杨路625-627号,浦东新区,上海市,1,31.257277,121.587523,中国工商银行24小时自助银行服务(金杨支行),上海市,cac5fc766448d18d2cb96d73,,cac5fc766448d18d2cb96d73
博山路100号,浦东新区,上海市,1,31.251439,121.562202,中国工商银行24小时自助银行服务(上海分行浦东博山路支行),上海市,6b6da4405a713f70d2f49e05,,6b6da4405a713f70d2f49e05
上海市张江路639号,浦东新区,上海市,1,31.210494,121.622536,中国工商银行24小时自助银行(上海分行张江支行张江路),上海市,8c788f4b9a7e9c9743e192b6,,8c788f4b9a7e9c9743e192b6
玉兰路玉兰路257号,浦东新区,上海市,1,31.213034,121.553374,中国工商银行24小时自助银行服务(上海分行浦东开发区花木支行),上海市,dcb876d8c548444dafee7a22,,10dbfc2fb1012585f8dc8580
浦东大道1200号,浦东新区,上海市,1,31.247672,121.540606,中国工商银行24小时自助银行服务(上海分行浦东浦东大道第二支行),上海市,58650167b55545ad4e776e00,,58650167b55545ad4e776e00
张杨路1593号,浦东新区,上海市,1,31.241069,121.545436,中国工商银行24小时自助银行(上海分行浦东桃林路支行),上海市,cd24befedbf0f799a01de9c8,,cd24befedbf0f799a01de9c8
浦电路351号附近,浦东新区,上海市,1,31.23059,121.542605,中国工商银行24小时自助银行(上海市钻石交易中心支行),上海市,29a84134e091b3726f3e1b98,,29a84134e091b3726f3e1b98
浦电路212号,浦东新区,上海市,1,31.225177,121.529729,中国工商银行24小时自助银行服务(上海分行浦东浦电路支行),上海市,8ea48878ab136191d8eceded,,8ea48878ab136191d8eceded
上海市浦东新区南码头路189号,浦东新区,上海市,1,31.204929,121.514551,中国工商银行24小时自助银行(南码头支行),上海市,8ac02df255b658ce118824be,,8ac02df255b658ce118824be
崂山路624号,浦东新区,上海市,1,31.230037,121.53089,中国工商银行24小时自助银行服务(上海分行浦东崂山路支行崂山路),上海市,8476a584e4bd714609b93ad3,,8476a584e4bd714609b93ad3
上海市浦东新区即墨路88号,浦东新区,上海市,1,31.244998,121.519161,中国工商银行24小时自助银行(上海分行第二营业部营业厅),上海市,233ce5fcb006c3810c0e6b23,,233ce5fcb006c3810c0e6b23
浦东南路2024号,浦东新区,上海市,1,31.217816,121.524437,中国工商银行24小时自助银行服务(上海分行浦东分行营业厅),上海市,358b388dec6f8cfcc61b752a,,358b388dec6f8cfcc61b752a
世纪大道777号,浦东新区,上海市,1,31.239489,121.522462,中国工商银行24小时自助银行服务(上海分行浦东东昌支行),上海市,d0e8c1511504bdd64e776ead,,d0e8c1511504bdd64e776ead
东方路800号,浦东新区,上海市,1,31.232464,121.530677,中国工商银行24小时自助银行服务(上海分行浦东崂山路支行),上海市,dbdbbda6eb46662c17b54b95,,dbdbbda6eb46662c17b54b95
商城路335—1号,浦东新区,上海市,1,31.234965,121.517418,中国工商银行24小时自助银行(商城路支行),上海市,5e53af1a866de8214051c095,,5e53af1a866de8214051c095
向城路58号,浦东新区,上海市,1,31.22956,121.536797,中国工商银行24小时自助银行(上海分行浦东陆家嘴支行),上海市,1fce5c5d55478b48e6e965c1,,1fce5c5d55478b48e6e965c1
上海市浦东新区张杨路655号,浦东新区,上海市,1,31.234007,121.524973,中国工商银行24小时自助银行服务(上海分行浦东东昌支行南泉北路),上海市,a88a6368f22ba06108f5eb1e,,a88a6368f22ba06108f5eb1e
上海市沪南路2420号,浦东新区,上海市,1,31.160213,121.570366,中国工商银行24小时自助银行服务(上海分行世博沪南路支行),上海市,353b23d9d70d4ee802294f44,,353b23d9d70d4ee802294f44
御桥路1742号,浦东新区,上海市,1,31.163832,121.575076,中国工商银行24小时自助银行(御桥路支行),上海市,89b4fae6c249db7b3fe2312d,,89b4fae6c249db7b3fe2312d
上海市浦东新区康桥镇康桥路1000号,浦东新区,上海市,1,31.153683,121.570175,中国工商银行24小时自助银行服务(上海分行南汇康桥支行),上海市,d926a0e06b97434dc26c14e0,,d926a0e06b97434dc26c14e0
年家浜路319号,浦东新区,上海市,1,31.121407,121.585474,中国工商银行24小时自助银行服务(上海分行南汇周浦支行),上海市,eecb6f10edd620856f20b981,,eecb6f10edd620856f20b981
秀沿路895号,浦东新区,上海市,1,31.14147,121.578871,中国工商银行24小时自助银行(秀沿路支行),上海市,435d7aea326463485abbbcc9,,435d7aea326463485abbbcc9
上海市浦东新区年家浜路503、505、507、509、511号,浦东新区,上海市,1,31.119712,121.575065,中国工商银行24小时自助银行(年家浜路支行),上海市,fa00cd22b501445e4d5547a2,,fa00cd22b501445e4d5547a2
临沂路130号,浦东新区,上海市,1,31.20116,121.519937,中国工商银行24小时自助银行(上海分行世博临沂路支行),上海市,36cfd282e72ee48d9222e00f,,36cfd282e72ee48d9222e00f
昌里东路307号,浦东新区,上海市,1,31.182703,121.516912,中国工商银行24小时自助银行(上海分行世博东明路支行),上海市,20e1b09e143854374d6d463e,,20e1b09e143854374d6d463e
上海市成山路2177号,浦东新区,上海市,1,31.185757,121.546421,中国工商银行24小时自助银行服务(上海分行世博锦绣路支行),上海市,4fc3161ab4850ba83a13fd49,,7c148eff41910f91f4e73bf7
东书房路476号,浦东新区,上海市,1,31.169333,121.542722,中国工商银行24小时自助银行(上海分行世博三林世博家园支行),上海市,89198ce4235873e0b320a898,,f4345339de4e2393f603b84d
上海市德州路399号,浦东新区,上海市,1,31.172661,121.490564,中国工商银行24小时自助银行服务(上海分行世博德州路支行),上海市,469eec4d9b98952ab23c81dd,,469eec4d9b98952ab23c81dd
耀华路12号,浦东新区,上海市,1,31.183844,121.500632,中国工商银行24小时自助银行服务(上海分行世博周家渡支行),上海市,76bdb6dfc473dea625d2bb21,,76bdb6dfc473dea625d2bb21
昌里东路307-309,浦东新区,上海市,1,31.180662,121.505154,中国工商银行24小时自助银行(东明路支行),上海市,8da7cf94e89aaab44107c112,,8da7cf94e89aaab44107c112
上海市浦东新区上南路3123号,浦东新区,上海市,1,31.165102,121.505077,中国工商银行24小时自助银行服务(上海分行世博杨思支行),上海市,16e7df4020b7160016b54bf0,,16e7df4020b7160016b54bf0
三林路818号,浦东新区,上海市,1,31.147538,121.514773,中国工商银行24小时自助银行服务(上海分行世博三林支行),上海市,d7032000049074f904026f9d,,d7032000049074f904026f9d
上海市永泰路1572号,浦东新区,上海市,1,31.150607,121.540647,中国工商银行24小时自助银行(上海分行世博永泰路支行),上海市,b364b858b1a4abf42a06ce5f,,b364b858b1a4abf42a06ce5f
上海市浦东新区泥城镇鸿音路2925-2929号,浦东新区,上海市,1,30.905655,121.822073,中国工商银行24小时自助银行(上海分行临港泥城支行),上海市,,,8eb5bbb9b174eba1f21937dd
上南路4561号,浦东新区,上海市,1,31.144522,121.52078,中国工商银行24小时自助银行服务(上海分行世博上南路支行),上海市,63f160e52696c10b96f08c83,,63f160e52696c10b96f08c83
申江路1500号,浦东新区,上海市,1,31.282103,121.631529,中国银行ATM,上海市,e50eab43342563230869d970,,e50eab43342563230869d970
