address,area,city,detail,lat,lng,name,province,street_id,telephone,uid,机构名称
北京市海淀区上地信息路28号信息大厦1层,海淀区,北京市,1,40.041838,116.317985,中国建设银行(北京上地支行),北京市,56f2f696864928fe0aa8d410,(010)62967186,56f2f696864928fe0aa8d410,建设银行
杏石口路西杉创意园一区4号楼,海淀区,北京市,1,39.959891,116.2363,中国建设银行(北京巨山路支行),北京市,6b55149e0675b83e1c38941b,(010)62730109,6b55149e0675b83e1c38941b,建设银行
北三环西路99号院西海国际中心117-118号,海淀区,北京市,1,39.970261,116.31499,中国建设银行(苏州桥支行),北京市,44f2cc85ea381820c9c3db76,,44f2cc85ea381820c9c3db76,建设银行
北京市海淀区首体南路9号主语商务中心5号楼一层,海淀区,北京市,1,39.940691,116.33158,中国建设银行(首体南路支行),北京市,43b7e889921b446a58f6be46,(010)68790409,43b7e889921b446a58f6be46,建设银行
用友软件园北区17号楼,海淀区,北京市,1,40.077991,116.249943,中国建设银行(北京永丰路支行),北京市,6fa636e249ae78485fbe86d1,(010)82789613,6fa636e249ae78485fbe86d1,建设银行
北京市海淀区圆西路2号,海淀区,北京市,1,40.030848,116.286359,中国建设银行(北京圆西路支行),北京市,e665da1d57155b774afd3fe4,(010)62895585,e665da1d57155b774afd3fe4,建设银行
北京市海淀区龙岗路甲6号,海淀区,北京市,1,40.03646,116.359225,中国建设银行(龙岗路支行),北京市,1bdda665041b0b82ee74f819,(010)62901080,1bdda665041b0b82ee74f819,建设银行
北京市海淀区板井路59号世纪城6区首层,海淀区,北京市,1,39.956241,116.292284,中国建设银行(世纪城支行),北京市,e889a744b58960b58605bf46,(010)88594037,e889a744b58960b58605bf46,建设银行
北京市海淀区复兴路28号,海淀区,北京市,1,39.911589,116.281167,中国建设银行(西四环支行),北京市,53cebd509ca8aa612b02e1a0,"(010)68218709,(010)68218718",53cebd509ca8aa612b02e1a0,建设银行
北京市海淀区苏州街3号大恒科技大厦一层,海淀区,北京市,1,39.988345,116.311822,中国建设银行(北京硅谷支行),北京市,881a28e729ae0247f942b246,(010)82569379,881a28e729ae0247f942b246,建设银行
西二旗大街天信亮酒店1层,海淀区,北京市,1,40.060267,116.323052,中国建设银行(西二旗支行),北京市,f1e033a56d8275e50ab93af6,(010)82717180,f1e033a56d8275e50ab93af6,建设银行
北京市海淀区中关村大街27号中关村大厦1层(近海淀医院),海淀区,北京市,1,39.98373,116.323009,中国建设银行(中关村支行),北京市,14076deea757edf402294f41,(010)82856384,14076deea757edf402294f41,建设银行
北京市海淀区中关村南路新科祥园小区甲7号楼裙房,海淀区,北京市,1,39.987022,116.330055,中国建设银行(中南路支行),北京市,3be122e15258a8521ef74d41,(010)62533804,3be122e15258a8521ef74d41,建设银行
北京市海淀区知春路7号致真大厦C座1层,海淀区,北京市,1,39.982761,116.357566,中国建设银行(北京学知支行),北京市,71f2833f9d681767ee74f878,(010)82263371,71f2833f9d681767ee74f878,建设银行
北京市海淀区羊坊店路恩菲科技大厦1层,海淀区,北京市,1,39.911251,116.328209,中国建设银行(金安支行),北京市,632cb216c7e16fc6ae080fff,"(010)63955750,(010)63955786,(010)63936101",632cb216c7e16fc6ae080fff,建设银行
北京市海淀区紫竹院路88号紫竹花园A座,海淀区,北京市,1,39.950576,116.308897,中国建设银行(紫竹桥支行),北京市,64ff3be165bed1bb90114c41,(010)88552608,64ff3be165bed1bb90114c41,建设银行
北京市海淀区阜成路19号,海淀区,北京市,1,39.93,116.324257,中国建设银行(阜成路支行),北京市,c7fb04bdd2fcf815fa0cad46,(010)68725785,c7fb04bdd2fcf815fa0cad46,建设银行
北京市海淀区志新东路甲6号,海淀区,北京市,1,39.997791,116.376023,中国建设银行(齐园路储蓄所),北京市,a5097bfa39a35663f03cba46,(010)62326339,a5097bfa39a35663f03cba46,建设银行
北京市海淀区花园北路20号牡丹园北里6号楼首层,海淀区,北京市,1,39.986443,116.381286,中国建设银行(牡丹园储蓄所),北京市,7bfa08fca380c87f25d2bb46,(010)62082990,7bfa08fca380c87f25d2bb46,建设银行
北京市海淀区成府路29号,海淀区,北京市,1,39.99867,116.359389,中国建设银行(五道口储蓄所),北京市,befdb29289f586e187154141,(010)62335345,befdb29289f586e187154141,建设银行
北京市海淀区信息路19-1号,海淀区,北京市,1,40.037358,116.318421,中国建设银行(上地储蓄所),北京市,dc2f32e10edd97f470455b8a,(010)62981673,dc2f32e10edd97f470455b8a,建设银行
北京市海淀区远大路一号金源时代购物中心一层,海淀区,北京市,1,39.964623,116.29397,中国建设银行(北京金源支行),北京市,0dc3d82d4bc8b06c75e5b646,(010)88872123,0dc3d82d4bc8b06c75e5b646,建设银行
北京市海淀区学院路甲38号长城电脑大厦一层,海淀区,北京市,1,39.98754,116.361222,中国建设银行(花园路支行),北京市,669775d0a345ed5bfd0eb046,(010)62001170,669775d0a345ed5bfd0eb046,建设银行
北京市海淀区车公庄西路38号,海淀区,北京市,1,39.938024,116.318944,中国建设银行(花园村储蓄所),北京市,f26e2fc516915e721ef74dbb,(010)68413376,f26e2fc516915e721ef74dbb,建设银行
北京市海淀区北蜂窝路5号院1-2号楼间裙房1楼,海淀区,北京市,1,39.911339,116.335023,中国建设银行(会成支行),北京市,cb4c459f3b2133d1df1e52ba,(010)63951400,cb4c459f3b2133d1df1e52ba,建设银行
北京市海淀区文慧园北路22号,海淀区,北京市,1,39.960381,116.368421,中国建设银行(小西天储蓄所),北京市,ea4a3dc982a2772e4e554741,(010)62273182,ea4a3dc982a2772e4e554741,建设银行
"北京市海淀区万柳东路15号(101室,201室),17号(101室,201室)",海淀区,北京市,1,39.975794,116.307204,中国建设银行(北京万泉支行),北京市,b292b3aa7a02bf56be484241,,b292b3aa7a02bf56be484241,建设银行
北京市海淀区增光路小区35号,海淀区,北京市,1,39.934145,116.329016,中国建设银行(增光路支行),北京市,e3082848bd8911bfb34c4941,,e3082848bd8911bfb34c4941,建设银行
北京市海淀区四季青路8号海淀烟草公司旁,海淀区,北京市,1,39.960016,116.278234,中国建设银行(四季青支行),北京市,8d96925c50225138c0f1cfb3,(010)88499403,8d96925c50225138c0f1cfb3,建设银行
北京市海淀区闵庄南路9号,海淀区,北京市,1,39.972389,116.253634,中国建设银行(闵庄南路支行),北京市,8bc934301a9d18fffd0eb083,(010)88403297,8bc934301a9d18fffd0eb083,建设银行
北京市海淀区复兴路甲36号白朗园B段,海淀区,北京市,1,39.913071,116.270492,中国建设银行(北京玉泉支行),北京市,28bbd6398627e29df7eafcff,(010)88202118,28bbd6398627e29df7eafcff,建设银行
花园北路49号,海淀区,北京市,1,39.988865,116.3662,中国建设银行(自动柜员机),北京市,,,68a6811f83d79d555e17c313,建设银行
北京市海淀区万柳中路蜂鸟家园2号楼一层,海淀区,北京市,1,39.971,116.303897,中国建设银行(北京万柳支行),北京市,b3aa435d42b5860b15764341,"(010)82564746,(010)82860546",b3aa435d42b5860b15764341,建设银行
北京市海淀区北蜂窝路14-1号,海淀区,北京市,1,39.909365,116.335828,中国建设银行(北蜂窝路支行),北京市,7f58a0d4250cacdd94ec84aa,(010)63463363,7f58a0d4250cacdd94ec84aa,建设银行
北京市海淀区阜成路101号,海淀区,北京市,1,39.931158,116.293257,中国建设银行(北京恩济支行),北京市,,(010)88138033,187626d789ddff5289db73bb,建设银行
北京市海淀区翠微中里14号,海淀区,北京市,1,39.921575,116.302022,中国建设银行(万寿路支行),北京市,48f12be895e5b6c7ce04efd2,(010)68213023,48f12be895e5b6c7ce04efd2,建设银行
北京市海淀区万丰路18号院5号1层101号,海淀区,北京市,1,39.893947,116.301921,中国建设银行(橙色年代支行),北京市,56f2f6963c82f2800ba8d4a0,(010)58871941,56f2f6963c82f2800ba8d4a0,建设银行
北京市海淀区复兴路3-2号,海淀区,北京市,1,39.91384,116.340045,中国建设银行(木樨地支行),北京市,2cc3c8e82273a5d64c2fdfa0,(010)68572048,2cc3c8e82273a5d64c2fdfa0,建设银行
永定路乙一号乐府商厦一号楼一层底商,海淀区,北京市,1,39.934926,116.270182,中国建设银行(乐府江南支行),北京市,254cb3b244c763fb0b1cc7ce,(010)58970603,254cb3b244c763fb0b1cc7ce,建设银行
北京市海淀区北三环中路43号,海淀区,北京市,1,39.976748,116.377028,中国建设银行(北京北太平庄支行),北京市,9fbfeef2cb77f445ede4a546,(010)62050174,9fbfeef2cb77f445ede4a546,建设银行
北京市海淀区北三环中路40号,海淀区,北京市,1,39.973322,116.370908,中国建设银行(北京北三环支行),北京市,09185c56f4de145ef019379a,(010)62006036,09185c56f4de145ef019379a,建设银行
北京市海淀区后屯南路26号,海淀区,北京市,1,40.047608,116.36072,中国建设银行(北京小营东路支行),北京市,d9050b9c3eca932d306212e0,(010)61199783,d9050b9c3eca932d306212e0,建设银行
北京市海淀区清华大学34小区,海淀区,北京市,1,40.017019,116.325482,中国建设银行(北京清华西门支行),北京市,adfcb9caa59b4633a21de959,(010)62798636,adfcb9caa59b4633a21de959,建设银行
北京市海淀区农大南路万霖博雅明园(厢黄旗1号楼)103、104室,海淀区,北京市,1,40.030816,116.302087,中国建设银行(北京农大南路支行),北京市,31a5eaf9f0351a9feb56fa26,(010)82791610,31a5eaf9f0351a9feb56fa26,建设银行
北京市海淀区高粱桥斜街59号院2号楼,海淀区,北京市,1,39.95008,116.355418,中国建设银行(北京长河湾支行),北京市,d5f93c0e89cd365fecdfca9a,(010)82191686,d5f93c0e89cd365fecdfca9a,建设银行
北京市海淀区四道口2号1号楼地上1层,海淀区,北京市,1,39.966064,116.351738,中国建设银行(北京四道口支行),北京市,29e390b4a220dc79a31de91e,,29e390b4a220dc79a31de91e,建设银行
北京市海淀区中关村南大街46号,海淀区,北京市,1,39.953168,116.335873,中国建设银行(北京白石桥支行),北京市,d305db1f218bfa3e932ca346,(010)58995578,d305db1f218bfa3e932ca346,建设银行
北京市海淀区西郊板井曙光花园中路11号北京农科大厦首层B106室,海淀区,北京市,1,39.949473,116.294308,中国建设银行(北京曙光花园支行),北京市,7aea43b7ded662f87c29bd46,(010)51501578,7aea43b7ded662f87c29bd46,建设银行
北京市海淀区蓝靛厂居住区世纪城3期春荫园6号楼,海淀区,北京市,1,39.969308,116.289836,中国建设银行(北京远大中路支行),北京市,d4034eb38a6c2ff6c0364441,(010)88872754,d4034eb38a6c2ff6c0364441,建设银行
北京市海淀区玉渊潭南路1号B座首层,海淀区,北京市,1,39.917029,116.337426,中国建设银行(北京钓鱼台支行),北京市,4648934ad61a2f293c9a5e6b,(010)68781028,4648934ad61a2f293c9a5e6b,建设银行
北京市海淀区三里河路17号,海淀区,北京市,1,39.932769,116.340204,中国建设银行(北京甘家口支行),北京市,00f1c7fb23e2311fc056ac46,"(010)88392604,(010)88392556",00f1c7fb23e2311fc056ac46,建设银行
北京市海淀区玉渊潭南路10-2号,海淀区,北京市,1,39.916978,116.320715,中国建设银行(玉渊潭南路储蓄所),北京市,fa835ce2bc3d33b6e912e4a0,(010)68512182,fa835ce2bc3d33b6e912e4a0,建设银行
北京市海淀区西翠路5号今日商业中心9号楼一层,海淀区,北京市,1,39.906716,116.287457,中国建设银行(北京今日家园支行),北京市,4eb94d3544d946768f55ecee,(010)88285045,4eb94d3544d946768f55ecee,建设银行
北京市海淀区北洼路18号,海淀区,北京市,1,39.942802,116.310219,中国建设银行(北京北洼路支行),北京市,bb661eb9046a6e88abf0cdaa,(010)68429375,bb661eb9046a6e88abf0cdaa,建设银行
北京市海淀区海淀路50号,海淀区,北京市,1,39.992705,116.320876,中国建设银行(北京北大南街支行),北京市,101bc61bc95a1ea3c42ba146,(010)62521857,101bc61bc95a1ea3c42ba146,建设银行
北京市海淀区学院南路47号,海淀区,北京市,1,39.963632,116.346257,中国建设银行(北京皂君庙支行),北京市,2848ffd6955c8b0f48cc4a41,,2848ffd6955c8b0f48cc4a41,建设银行
北京市海淀区知春路96号,海淀区,北京市,1,39.981762,116.331989,中国建设银行(北京中关村分行),北京市,5e60fb0e4da3dd4eeb12e4af,(010)51998115,5e60fb0e4da3dd4eeb12e4af,建设银行
西四环北路160号,海淀区,北京市,1,39.937793,116.282766,中国建设银行(北京定慧北桥支行),北京市,10385cd6e41e514114b54bb8,(010)88505513,10385cd6e41e514114b54bb8,建设银行
北京市海淀区太平路44号一层,海淀区,北京市,1,39.906283,116.273467,中国建设银行(北京太平路支行),北京市,2ad32cc31da8338f9c95dea0,(010)88279079,2ad32cc31da8338f9c95dea0,建设银行
阳光北里1-4号商业楼1栋,海淀区,北京市,1,40.043225,116.342541,中国建设银行(安宁庄东路支行),北京市,3a0a78bdd28314fa6318096c,(010)62948941,3a0a78bdd28314fa6318096c,建设银行
清华园街道清华大学16区,海淀区,北京市,1,40.004652,116.33103,中国建设银行(北京清华大学支行),北京市,72d5d0fb277d6d7125d2bbd6,,72d5d0fb277d6d7125d2bbd6,建设银行
北京市海淀区中关村东路18号财智大厦1层,海淀区,北京市,1,39.994073,116.340397,中国建设银行(北京保福寺支行),北京市,071787ec1da9f5d13ce23146,(010)52725381,071787ec1da9f5d13ce23146,建设银行
北京市海淀区清华东路17号中国农业大学东校区南平房,海淀区,北京市,1,40.008439,116.359666,中国建设银行(北京清华东路支行),北京市,9dec8d941acde500d3ff23aa,(010)62317336,9dec8d941acde500d3ff23aa,建设银行
阜成路30号院16号乙楼底商,海淀区,北京市,1,39.929657,116.3094,中国建设银行(北京西钓鱼台支行),北京市,07f3c8b5efb08b636240a946,"(010)68461071,(010)88517017",07f3c8b5efb08b636240a946,建设银行
北京市海淀区恩济里小区27号楼底商首层,海淀区,北京市,1,39.934021,116.293448,中国建设银行(北京恩济里支行),北京市,04bdf4a318f6c24f354aae46,(010)88123570,04bdf4a318f6c24f354aae46,建设银行
北京海淀区金沟河路108号底商地上1层,海淀区,北京市,1,39.924177,116.285004,中国建设银行(北京紫金长安支行),北京市,3d449ccc4758dfc8220262c6,(010)88121722,3d449ccc4758dfc8220262c6,建设银行
北京市海淀区清华大学东门外华业大厦,海淀区,北京市,1,40.002591,116.339974,中国建设银行(北京清华园支行),北京市,435d7aeadbf38c485abbbc58,,435d7aeadbf38c485abbbc58,建设银行
北京市海淀区西直门北大街32号枫蓝国际购物中心C座一层商业区,海淀区,北京市,1,39.958183,116.363942,中国建设银行(北京西直门北大街支行),北京市,3dc9befd89cd7616bea24041,(010)62252814,3dc9befd89cd7616bea24041,建设银行
北京市海淀区东北旺西路8号中关村软件园一期27号楼C座一层102号,海淀区,北京市,1,40.050931,116.294553,中国建设银行(中关村软件园支行营业所),北京市,,,a8529b75b690f96c21f017b6,建设银行
北京市海淀区万寿路西街11号院5号楼,海淀区,北京市,1,39.918068,116.29004,中国建设银行(北京市海淀区育英储蓄所),北京市,5ce2637d284ad051af31e5a0,(010)68241808,5ce2637d284ad051af31e5a0,建设银行
北京市海淀区清华东路17号中国农业大学东校区(东南门)附近,海淀区,北京市,1,40.007943,116.365202,中国建设银行24小时自助银行(金码大厦东),北京市,352cc7fa1461238e58f6bed1,,352cc7fa1461238e58f6bed1,建设银行
苏家坨北清路与稻香湖路交叉口西北角,海淀区,北京市,1,40.077401,116.18961,建行数据中心,北京市,665ddde4ce75cb7e09a8d446,,665ddde4ce75cb7e09a8d446,建设银行
西三环北路105号首都师范大学内,海淀区,北京市,1,39.934742,116.314092,中国建设银行ATM(科原大厦西),北京市,dbf4d6eef74891546fa3cc73,,dbf4d6eef74891546fa3cc73,建设银行
阜成路101号永兴花园饭店,海淀区,北京市,1,39.93113,116.293285,中国建设银行24小时自助银行,北京市,be06f5973277b41754bfff72,,be06f5973277b41754bfff72,建设银行
北京市海淀区花园北路20号牡丹园北里6号楼,海淀区,北京市,1,39.986443,116.381227,中国建设银行24小时自助银行服务(牡丹园储蓄所),北京市,7f82edd5351bea920c0a703f,,d82d669759b14da6d518b740,建设银行
北京市海淀区海淀路50号北大资源东楼,海淀区,北京市,1,39.992594,116.320789,中国建设银行24小时自助银行(北京北大南街支行),北京市,6ec25d4a3792164b94ec848f,,6ec25d4a3792164b94ec848f,建设银行
紫竹院路100号院信弘大厦1层,海淀区,北京市,1,39.950594,116.30885,中国建设银行24小时自助银行服务(北京紫竹桥支行),北京市,a12baa40e1ead956e856fa43,,a12baa40e1ead956e856fa43,建设银行
北京市海淀区友谊路104号,海淀区,北京市,1,40.08345,116.277776,中国建设银行ATM,北京市,,,67f9a49cff0d9dd18f55ec36,建设银行
北京市海淀区王庄路1号清华同方科技广场A座1层,海淀区,北京市,1,40.005457,116.346096,中国建设银行ATM,北京市,c60883c358576b228605bfe8,,c60883c358576b228605bfe8,建设银行
北四环西路99号西海国际中心,海淀区,北京市,1,39.97881,116.281759,中国建设银行CCB,北京市,,95533,cdbd98901c0960d652e5c5c4,建设银行
北京市海淀区清华大学-财务处内,海淀区,北京市,1,40.011613,116.333926,中国建设银行24小时自助银行,北京市,302d8027f5f5dbfc363a71ba,,302d8027f5f5dbfc363a71ba,建设银行
北京市海淀区复兴路69号卓展购物中心B1,海淀区,北京市,1,39.919786,116.286305,中国建设银行ATM(安正),北京市,eafb4dea76f4f8f0ca1b955d,,eafb4dea76f4f8f0ca1b955d,建设银行
北京市海淀区中关村大街40号当代商城F1,海淀区,北京市,1,39.976695,116.327495,中国建设银行ATM(当代商城),北京市,2374c38cc7677657cb213d05,,2374c38cc7677657cb213d05,建设银行
玉渊潭南路3号水科院大厦B座1层,海淀区,北京市,1,39.916962,116.337279,中国建设银行24小时自助银行,北京市,50fb64ff73a0e75de8f853a3,,50fb64ff73a0e75de8f853a3,建设银行
北京市海淀区阜成路6号海军总医院外科楼南门1层,海淀区,北京市,1,39.928266,116.331175,中国建设银行ATM(海军总医院),北京市,2bcbf10d1b66598059bbbc05,,2bcbf10d1b66598059bbbc05,建设银行
北京市海淀区金沟河路21号永辉超市1层,海淀区,北京市,1,39.924164,116.266037,中国建设银行ATM(金沟河路),北京市,df6185097f9711ea9f09f70b,,df6185097f9711ea9f09f70b,建设银行
北京市海淀区圆明园西路2号中国农业大学西校区内,海淀区,北京市,1,40.035885,116.291227,中国建设银行ATM(绿苑西路),北京市,08b5778a429b7d67455726bb,,08b5778a429b7d67455726bb,建设银行
海淀区国家图书馆内2楼,海淀区,北京市,1,39.949004,116.33073,中国建设银行ATM(国家图书馆),北京市,b0f059e13aa7b776bea24035,,b0f059e13aa7b776bea24035,建设银行
金沟河路3号院819楼1楼,海淀区,北京市,1,39.924129,116.276216,中国建设银行24小时自助银行,北京市,,,17a7712a343201a4f2193738,建设银行
用友软件园北区17号楼,海淀区,北京市,1,40.077668,116.249933,中国建设银行ATM(北京永丰路支行),北京市,f297412e0393b074c92915ca,,f297412e0393b074c92915ca,建设银行
北京市海淀区中关村东路107号,海淀区,北京市,1,39.981782,116.332388,中国建设银行海淀消费信贷中心,北京市,d1d29a78489b1c3d2dfaa77f,,d1d29a78489b1c3d2dfaa77f,建设银行
海淀北二街6中国普天大厦,海淀区,北京市,1,39.989657,116.318306,中国建设银行ATM(中国普天大厦),北京市,,,4824d363cfd7e66e2ce67b37,建设银行
阳光北里1-4号商业楼1栋,海淀区,北京市,1,40.043196,116.342616,中国建设银行24小时自助银行服务(安宁庄支行网点),北京市,f6192a0570167f1b0482c2a8,,161a0ed2ff6102505cd4fe6c,建设银行
知春路17-7号致真大厦C座,海淀区,北京市,1,39.982771,116.357496,中国建设银行24小时自助银行服务,北京市,a76160fac7110d0c9a00504b,,a76160fac7110d0c9a00504b,建设银行
北京市海淀区远大路1号世纪金源购物中心F1,海淀区,北京市,1,39.96447,116.291817,中国建设银行ATM(金源新燕莎MALL),北京市,b6a5cb551e81c1e8b21e361b,,b6a5cb551e81c1e8b21e361b,建设银行
北京市海淀区西直门北大街32号枫蓝国际购物中心F1,海淀区,北京市,1,39.959477,116.363037,中国建设银行ATM(枫蓝国际购物中心),北京市,555f673f2306e017d92f2848,,555f673f2306e017d92f2848,建设银行
北京市海淀区中关村南大街2号华宇时尚购物中心F1,海淀区,北京市,1,39.971422,116.330139,中国建设银行ATM(华宇时尚购物中心),北京市,0e9794b1dcc403a37069d36e,,0e9794b1dcc403a37069d36e,建设银行
农大南路41号,海淀区,北京市,1,40.030853,116.302197,中国建设银行24小时自助银行(北京农大南路支行),北京市,1cea15a9d6640dc507fef56c,,1cea15a9d6640dc507fef56c,建设银行
北京市海淀区复兴路51号凯德晶品购物中心LG层,海淀区,北京市,1,39.914181,116.304395,中国建设银行ATM(凯德晶品购物中心),北京市,7c3d353d3c8dcf701811d5de,,7c3d353d3c8dcf701811d5de,建设银行
北太平庄路18号城建大厦A座1层,海淀区,北京市,1,39.974596,116.377554,中国建设银行24小时自助银行服务(北京北环支行),北京市,7342fcbcae2f90b8704b8755,,7342fcbcae2f90b8704b8755,建设银行
北京市海淀区北三环中路40-1,海淀区,北京市,1,39.973278,116.370595,中国建设银行24小时自助银行(北三环支行),北京市,b97dd156f942a3b91811d5b1,,b97dd156f942a3b91811d5b1,建设银行
北京市海淀区颐和园路5号治贝子园附近,海淀区,北京市,1,39.995011,116.320699,中国建设银行24小时自助银行(中关村北大街),北京市,43c31baa0df041aac9e33ccc,,43c31baa0df041aac9e33ccc,建设银行
北京市海淀区西直门北大街32号枫蓝国际购物中心F1,海淀区,北京市,1,39.958252,116.363906,中国建设银行24小时自助银行(枫蓝国际购物中心),北京市,399292d4ff05736b80a00c8e,,a1e83b41c853e1dcab175af2,建设银行
北京市海淀区西直门北大街23号,海淀区,北京市,1,39.959925,116.361375,中国建设银行24小时自助银行服务(明光村小区),北京市,06c8074feed2b6e390114ca3,,ea4efaaf4f358a55882fb584,建设银行
北京市海淀区学院路甲38号长城电脑大厦底商,海淀区,北京市,1,39.987582,116.361206,中国建设银行24小时自助银行(校园南路),北京市,ab71f2412544fd625d0d0261,,ab71f2412544fd625d0d0261,建设银行
中关村新科祥园8号,海淀区,北京市,1,39.987075,116.33003,中国建设银行24小时自助银行服务(中南路支行),北京市,b82e801f99934dd943ab9a8c,,b82e801f99934dd943ab9a8c,建设银行
学院南路47-2号,海淀区,北京市,1,39.963668,116.346088,中国建设银行24小时自助银行(皂君庙储蓄所),北京市,244368ffeb226a82704b875e,,244368ffeb226a82704b875e,建设银行
板井路世纪城六区1楼底商,海淀区,北京市,1,39.956241,116.292284,中国建设银行24小时自助银行服务(北京世纪城支行),北京市,,,9ce26ac10b6dfb1089f15daa,建设银行
北京市海淀区远大路１号金源新燕莎ＭＡＬＬ1层,海淀区,北京市,1,39.964599,116.294085,中国建设银行24小时自助银行(金源支行),北京市,5cfadcd9d94b88869ff77945,,5cfadcd9d94b88869ff77945,建设银行
春荫园6,海淀区,北京市,1,39.969286,116.289991,中国建设银行24小时自助银行(远大中路储蓄所),北京市,8c8e43f670c38ed2b426551b,,8c8e43f670c38ed2b426551b,建设银行
复兴路3-2,海淀区,北京市,1,39.913951,116.340056,中国建设银行24小时自助银行服务(北京木樨地支行),北京市,5d8d4ac521ff153fabf0cd4f,,5d8d4ac521ff153fabf0cd4f,建设银行
北京市海淀区复兴路33号翠微百货F1,海淀区,北京市,1,39.914215,116.309117,中国建设银行24小时自助银行(翠微百货),北京市,4edf9fbf24b2cfeacc06a45f,,4edf9fbf24b2cfeacc06a45f,建设银行
北京市海淀区四季青路8号1层161-163号,海淀区,北京市,1,39.960015,116.278185,中国建设银行24小时自助银行(北京四季青支行),北京市,d6ee8724e2fa8e9ea8f0cd73,,d6ee8724e2fa8e9ea8f0cd73,建设银行
永定路乙1号乐府商厦1号楼1层,海淀区,北京市,1,39.935064,116.269844,中国建设银行24小时自助银行(乐府江南支行),北京市,161a0ed2ff7502505cd4fe40,,161a0ed2ff7502505cd4fe40,建设银行
复兴路甲36-4,海淀区,北京市,1,39.913115,116.270538,中国建设银行24小时自助银行(玉泉支行),北京市,108b1cea821125d23586f427,,108b1cea821125d23586f427,建设银行
北京市海淀区田村路43号京粮广场F1,海淀区,北京市,1,39.93731,116.260139,中国建设银行24小时自助银行(京粮广场),北京市,79d3c286b586357817c8f6d7,,79d3c286b586357817c8f6d7,建设银行
志新东路甲8号2号楼1层117号,海淀区,北京市,1,39.997796,116.376018,中国建设银行24小时自助银行(齐园路储蓄所),北京市,,,45a740c627882b4d990050c0,建设银行
北京市海淀区马甸西村月季园8号楼,海淀区,北京市,1,39.977114,116.380158,中国建设银行24小时自助银行(冠城园储蓄所),北京市,2c6f6521f70746eb82a12e15,,2c6f6521f70746eb82a12e15,建设银行
北京市海淀区永泰庄6号院,海淀区,北京市,1,40.03643,116.359226,中国建设银行24小时自助银行(北京龙岗路支行),北京市,f234d996946f079e8bb988ce,,f234d996946f079e8bb988ce,建设银行
信息路19-1号,海淀区,北京市,1,40.037386,116.318504,中国建设银行24小时自助银行(上地储蓄所),北京市,08a773ba37ab3c5e373a718a,,08a773ba37ab3c5e373a718a,建设银行
上地信息路28号信息大厦,海淀区,北京市,1,40.042051,116.31837,中国建设银行24小时自助银行(北京上地支行),北京市,1d69850b59627a587369d396,,246b1c8f138390eaf7b9160d,建设银行
西三旗安宁庄路11号(西二旗大街附近),海淀区,北京市,1,40.060226,116.322918,中国建设银行24小时自助银行(北京西二旗支行),北京市,7aad5fc874204a9f4d2fdfca,,7aad5fc874204a9f4d2fdfca,建设银行
北京市海淀区中关村东路18号,海淀区,北京市,1,39.99395,116.340561,中国建设银行24小时自助银行(北京保福寺支行),北京市,18a2bfa6c85eb49c95ca07b2,,18a2bfa6c85eb49c95ca07b2,建设银行
华业大厦2202,海淀区,北京市,1,40.002279,116.34014,中国建设银行24小时自助银行(北京清华园支行),北京市,a9e1560e5446c7d12a02e114,,a9e1560e5446c7d12a02e114,建设银行
北京市海淀区清华东路2号中国农业大学东校区南平房,海淀区,北京市,1,40.00868,116.359767,中国建设银行24小时自助银行(北京清华东路支行),北京市,397bd4a3b7a8b9544251c001,,397bd4a3b7a8b9544251c001,建设银行
北京市海淀区万泉庄路15号万泉商务花园,海淀区,北京市,1,39.975736,116.307326,中国建设银行24小时自助银行(万泉商务花园),北京市,42a780845f707ad4f7b916fe,,42a780845f707ad4f7b916fe,建设银行
北京市海淀区万柳蜂鸟家园2号楼一层,海淀区,北京市,1,39.970884,116.304028,中国建设银行24小时自助银行(万柳支行),北京市,abdee2e91d914ea017948e55,,abdee2e91d914ea017948e55,建设银行
中关村大街27号中关村大厦,海淀区,北京市,1,39.983623,116.322955,中国建设银行24小时自助银行(中关村支行),北京市,c83ddd3ea154ed351e58000f,,c83ddd3ea154ed351e58000f,建设银行
阜成路19,海淀区,北京市,1,39.93,116.324259,中国建设银行24小时自助银行服务(阜成路支行),北京市,49677eaa6f272d9013293569,,49677eaa6f272d9013293569,建设银行
北京市海淀区增光路35号附近,海淀区,北京市,1,39.934201,116.328947,中国建设银行24小时自助银行服务(北京增光支行),北京市,,,2f036c022f65521063685831,建设银行
首都体育馆南路主语国际中心5号楼1楼,海淀区,北京市,1,39.940687,116.331578,中国建设银行24小时自助银行(北京首体南路支行),北京市,6f0bbfb0d8d680e535b06c8b,,6f0bbfb0d8d680e535b06c8b,建设银行
恩济里27楼,海淀区,北京市,1,39.934086,116.293236,中国建设银行24小时自助银行服务(恩济里储蓄所),北京市,0a46dc0fc0f16723316212b2,,0a46dc0fc0f16723316212b2,建设银行
北京市海淀区金沟河东路9号金和嘉园底商,海淀区,北京市,1,39.924217,116.285823,中国建设银行24小时自助银行服务(紫金长安支行),北京市,544c46fb3c1cce14b11e36a7,,544c46fb3c1cce14b11e36a7,建设银行
北京市海淀区玉渊潭南路10-2,海淀区,北京市,1,39.916962,116.320755,中国建设银行24小时自助银行(玉渊潭南路储蓄所),北京市,2cb2f24a47ea005b3586f435,,2cb2f24a47ea005b3586f435,建设银行
太平路44号,海淀区,北京市,1,39.906336,116.273739,中国建设银行24小时自助银行服务(北京太平路支行),北京市,83c537ca1fab113933f71d5a,,83c537ca1fab113933f71d5a,建设银行
北京市海淀区北三环中路43号,海淀区,北京市,1,39.976677,116.376905,中国建设银行24小时自助银行(冠城园储蓄所),北京市,440d10d7dfbf7183f503b827,,440d10d7dfbf7183f503b827,建设银行
后屯南路26号,海淀区,北京市,1,40.047612,116.360747,中国建设银行24小时自助银行(北京小营东路支行),北京市,e1e736a9cc313c53744ff1ac,,e1e736a9cc313c53744ff1ac,建设银行
北京市海淀区学院路30北京科技大学,海淀区,北京市,1,39.994906,116.365812,中国建设银行24小时自助银行(北四环中路辅路),北京市,be8052fe2aa45c04d8eced76,,be8052fe2aa45c04d8eced76,建设银行
北京市海淀区圆明园西路2号中国农业大学西校区,海淀区,北京市,1,40.033969,116.288325,中国建设银行24小时自助银行(学苑五路),北京市,0b6d08a8b92de37efda77828,,68eebaaa57e3f41de91e97cc,建设银行
龙背村路99号院1,海淀区,北京市,1,40.022846,116.277516,中国建设银行24小时自助银行(肖家河支行),北京市,692b2ce9b41b42765b10937a,,692b2ce9b41b42765b10937a,建设银行
:北京市海淀区四道口路2号院1,海淀区,北京市,1,39.966044,116.352218,中国建设银行24小时自助银行(北京四道口支行),北京市,52dc09da38add052a5da390d,,52dc09da38add052a5da390d,建设银行
北三环西路34号,海淀区,北京市,1,39.972619,116.334602,中国建设银行24小时自助银行(北三环西路支行),北京市,e9028067299b219fd7851fcd,,e9028067299b219fd7851fcd,建设银行
北京市海淀区中关村南大街46号,海淀区,北京市,1,39.952905,116.335906,中国建设银行24小时自助银行(北京白石桥支行),北京市,f8153052c4d0efad16c905d0,,f8153052c4d0efad16c905d0,建设银行
海淀区高梁桥斜街59号院2号楼(中国建设银行长河湾支行2楼),海淀区,北京市,1,39.950265,116.354638,中国建设银行24小时自助银行(北京长河湾支行),北京市,49efc071f1ff57f8018972fc,,89fd4ea30edd7839e4e965b2,建设银行
西三环北路19号北外国际大厦1层东侧大厅,海淀区,北京市,1,39.960933,116.315144,中国建设银行24小时自助银行服务(北京外国语大学支行),北京市,f79b8089a7feb3d11b94c6e6,,dad061ab5247c71707fef55f,建设银行
曙光花园中路11号北京农科大厦,海淀区,北京市,1,39.949096,116.294038,中国建设银行24小时自助银行(曙光花园储蓄所),北京市,3f9337d6c66b58cef62310b2,,3f9337d6c66b58cef62310b2,建设银行
北京市海淀区苏州街3号大恒科技大厦,海淀区,北京市,1,39.988175,116.311846,中国建设银行24小时自助银行服务(北京硅谷支行),北京市,248eacab96251d3dd23ce3fe,,248eacab96251d3dd23ce3fe,建设银行
北京市海淀区西三环北路2号北京外国语大学内,海淀区,北京市,1,39.961354,116.319487,中国建设银行ATM(北京外国语大学7号楼学生公寓南),北京市,3048a78738c894023586f4f9,,3048a78738c894023586f4f9,建设银行
北京市海淀区北蜂窝路14-1号,海淀区,北京市,1,39.909348,116.335892,中国建设银行24小时自助银行(北京北窝蜂路支行),北京市,351592292dc0d7ffab059d18,,351592292dc0d7ffab059d18,建设银行
北京市海淀区三里河路17号甘家口大厦F1,海淀区,北京市,1,39.93279,116.34024,中国建设银行24小时自助银行(北京市海淀区甘家口百货商场),北京市,b88defd4eec1c31e25d2bbc1,,b88defd4eec1c31e25d2bbc1,建设银行
北京市海淀区复兴路12号底商,海淀区,北京市,1,39.911212,116.328271,中国建设银行24小时自助银行服务(北京金安支行),北京市,1ebbf6defcd4ed8b78f796f4,,881ced9c9b93b0bb9fe321f7,建设银行
北京市海淀区车公庄西路38号院1,海淀区,北京市,1,39.937941,116.319018,中国建设银行24小时自助银行(花园村储蓄所),北京市,07610ce50e3e7ff6cac3dbfb,,b92d544586c1d5173c9a5e21,建设银行
北洼西里18号,海淀区,北京市,1,39.94298,116.310314,中国建设银行24小时自助银行(北洼路支行),北京市,a5b70893c2fc0ccde81e97cc,,a5b70893c2fc0ccde81e97cc,建设银行
北京市海淀区西四环北路160号,海淀区,北京市,1,39.9381,116.28258,中国建设银行24小时自助银行(北京定慧北桥支行),北京市,81290ae8c2b5cb51b23c81f8,,81290ae8c2b5cb51b23c81f8,建设银行
闵庄南路9号广盛园,海淀区,北京市,1,39.972378,116.253707,中国建设银行24小时自助银行服务(闵庄南路支行),北京市,14bc8edfb6e612d5260bd08d,,14bc8edfb6e612d5260bd08d,建设银行
北京市海淀区杏石口路中间建筑1区4号楼,海淀区,北京市,1,39.959944,116.2363,中国建设银行24小时自助银行(杏石口路),北京市,a63bd6d578101333f32d83a2,,a63bd6d578101333f32d83a2,建设银行
北京市海淀区阜石路69号,海淀区,北京市,1,39.931312,116.237092,中国建设银行ATM(锦绣大地商务在线东北),北京市,c9888d1ce361e20972455bc2,,c9888d1ce361e20972455bc2,建设银行
万丰路18号院5号1层101号,海淀区,北京市,1,39.893897,116.301913,中国建设银行24小时自助银行服务(北京橙色年代支行),北京市,c5ed7c9f6492008c49fc8d10,,c5ed7c9f6492008c49fc8d10,建设银行
北京市海淀区文惠园北路22号,海淀区,北京市,1,39.960296,116.36833,中国建设银行24小时自助银行服务(小西天储蓄所),北京市,38e4803763403549373a7133,,38e4803763403549373a7133,建设银行
成府路20-1号,海淀区,北京市,1,39.998761,116.359298,中国建设银行24小时自助银行服务(五道口储蓄所),北京市,28e700f1ef9ac101095cb340,,28e700f1ef9ac101095cb340,建设银行
海淀区知春路96号,海淀区,北京市,1,39.981549,116.33194,中国建设银行24小时自助银行(科南路储蓄所),北京市,6032a6ad7ef5672beb56fa1b,,f181148e19d1a5d6c61e513e,建设银行
