address,area,city,detail,lat,lng,name,province,street_id,telephone,uid
"北京市海淀区知春路108号1号楼豪景大厦一层101,201,202号",海淀区,北京市,1,39.98154,116.328218,中国工商银行(北京知春路支行),北京市,e2c734e48e57d05d15a19046,(010)62105198,e2c734e48e57d05d15a19046
北京市海淀区苏州街18号,海淀区,北京市,1,39.984153,116.31293,中国工商银行(北京苏州街支行),北京市,64486815b1a144b1276e98dd,(010)82617352,64486815b1a144b1276e98dd
北京市海淀区上地信息路38号1号楼一层103号,海淀区,北京市,1,40.031036,116.320667,中国工商银行(北京上地支行),北京市,5c56edd68a44a627a1d2303a,,5c56edd68a44a627a1d2303a
北京市海淀区永丰基地新材料创业大厦南楼一层106-107室,海淀区,北京市,1,40.081925,116.241871,中国工商银行(北京永丰支行),北京市,75036835776257d25e0d02da,(010)58717540,75036835776257d25e0d02da
圆明园西路兰园小区16号楼一层,海淀区,北京市,1,40.03734,116.280771,中国工商银行(北京马连洼支行),北京市,3be122e175d6c72f1ef74dce,(010)62811676,3be122e175d6c72f1ef74dce
小营西路,海淀区,北京市,1,40.043215,116.345468,中国工商银行(清河镇支行),北京市,6835e3a78567664ee311036c,(010)62914021,6835e3a78567664ee311036c
北京市海淀区曙光花园彰化路10号,海淀区,北京市,1,39.948365,116.296463,中国工商银行(曙光支行),北京市,7fd72311944dc09f5cbe8646,(010)88430753,7fd72311944dc09f5cbe8646
北京市海淀区万寿路24号院(万寿路地铁站北),海淀区,北京市,1,39.914711,116.301722,中国工商银行,北京市,cd31c01a3f7b486deee4a503,95588,cd31c01a3f7b486deee4a503
北京市海淀区永泰庄北路永泰东里小区41号楼1层,海淀区,北京市,1,40.041194,116.362378,中国工商银行(北京永泰支行),北京市,9ee7cc78f1aabc7016c9056c,(010)62997040,9ee7cc78f1aabc7016c9056c
海淀区阜成路79号,海淀区,北京市,1,39.931387,116.300091,中国工商银行(翠微路支行),北京市,62fce365f29ced5fd91318ac,(010)88127149,62fce365f29ced5fd91318ac
北京市海淀区文慧园北路9号今典花园9号楼首层,海淀区,北京市,1,39.958563,116.367754,中国工商银行(索家坟支行),北京市,b703e96b467fb3fa8f1a8946,"(010)62250369,(010)62228474",b703e96b467fb3fa8f1a8946
北京市海淀区西三旗育新花园小区2号楼一层,海淀区,北京市,1,40.065354,116.351329,中国工商银行(北京育新支行),北京市,d1469ee7b30c4a628433046c,,d1469ee7b30c4a628433046c
北京市海淀区学院南路34号中商信大厦,海淀区,北京市,1,39.963156,116.363351,中国工商银行(北京学院路支行),北京市,d5f93c0ea5e8ea21ecdfcab3,,d5f93c0ea5e8ea21ecdfcab3
北京市海淀区中关村大街59号中国人民大学汇贤楼C座一层,海淀区,北京市,1,39.976267,116.314022,中国工商银行(北京人民大学支行),北京市,c6a7063e90efc3a72b11d191,"(010)62514668,(010)62513099",c6a7063e90efc3a72b11d191
北京市海淀区西四环北路71号1楼,海淀区,北京市,1,39.957623,116.280127,中国工商银行(北京郦城支行),北京市,6ee01020f923da9253e5c5b3,,6ee01020f923da9253e5c5b3
西二旗西路2号,海淀区,北京市,1,40.06004,116.321216,中国工商银行(24小时自助银行),北京市,49a02a7a0afb4e3e2a201a84,,49a02a7a0afb4e3e2a201a84
海淀区花园北路39号,海淀区,北京市,1,39.987861,116.370738,中国工商银行(花园北路支行),北京市,15a9381025273fbd14c8f646,95588,15a9381025273fbd14c8f646
西四环北路9号,海淀区,北京市,1,39.965904,116.280496,中国工商银行(四季青支行),北京市,3f826ed31d659046d1f49e46,(010)88488159,3f826ed31d659046d1f49e46
北京市海淀区羊坊店路11-1号一层,海淀区,北京市,1,39.908101,116.327208,中国工商银行(北京羊坊店支行),北京市,dbf4d6ee4064482a6ea3cca0,,dbf4d6ee4064482a6ea3cca0
北京市海淀区板井路77号(世纪城)独立写字楼首层,海淀区,北京市,1,39.960106,116.284974,中国工商银行(北京世纪城支行),北京市,0523a14174ea4a1db23c8146,(010)88596707,0523a14174ea4a1db23c8146
北京市海淀区阜成路29号,海淀区,北京市,1,39.930169,116.322097,中国工商银行(马神庙储蓄所),北京市,0ed20a1533b2649757bfff46,(010)68984269,0ed20a1533b2649757bfff46
海淀区万柳中路万柳星标家园11号楼商业1号大厦底商,海淀区,北京市,1,39.973839,116.3004,中国工商银行(北京万柳支行),北京市,680fb703ea34819c8bb98846,,680fb703ea34819c8bb98846
北京市海淀区长春桥路5号11号楼首层,海淀区,北京市,1,39.967052,116.309679,中国工商银行(北京苏州桥支行),北京市,2e00c5ddcd00111fd6851f9a,(010)82564206,2e00c5ddcd00111fd6851f9a
北京市海淀区交大东路18号院9号楼1楼交通大学东门对面,海淀区,北京市,1,39.960089,116.354208,中国工商银行(北京交大东路支行),北京市,a12baa40e1d5d956e856fa46,(010)51466045,a12baa40e1d5d956e856fa46
北京市海淀区双清路30号清华大学16区,海淀区,北京市,1,40.005151,116.330927,中国工商银行(清华大学支行),北京市,,(010)62782553,5ee45c32c148d53f373a71d7
北京市海淀区中直路西苑中直机关院外,海淀区,北京市,1,40.000396,116.298199,中国工商银行(北京西苑支行),北京市,2527be1ea3b0adb34afc8d46,(010)62881332,2527be1ea3b0adb34afc8d46
北京市海淀区北蜂窝路5号院楼间裙房首层,海淀区,北京市,1,39.911564,116.335167,中国工商银行(北京铁道支行),北京市,b6861f7a1d796e42593ac841,95588,b6861f7a1d796e42593ac841
北京市海淀区北洼路30号,海淀区,北京市,1,39.940892,116.30981,中国工商银行(北京增光支行),北京市,d810dc638901466c7369d3d7,(010)68453730,d810dc638901466c7369d3d7
"海淀区花园北路49号(北大医学部财务楼,北京医科大学北门)",海淀区,北京市,1,39.988278,116.367329,中国工商银行(自动柜员机),北京市,b8965ce36d113570ec74f8a3,,b8965ce36d113570ec74f8a3
北京市海淀区天秀路10-5号,海淀区,北京市,1,40.027061,116.283986,中国工商银行(北京天秀支行),北京市,eb3675031241261b00ec016c,(010)62827938,eb3675031241261b00ec016c
北京市海淀区知春路17号一层004号,海淀区,北京市,1,39.982596,116.354085,中国工商银行(海淀海升支行),北京市,,(010)62074869,c16f928f722ab258220220b1
北京市海淀区复兴路61号东侧综合楼,海淀区,北京市,1,39.91632,116.298708,中国工商银行-24小时自助银行,北京市,000d3c533b8ca3d530f71df7,,000d3c533b8ca3d530f71df7
北京市海淀区永定路96号附近,海淀区,北京市,1,39.909765,116.271383,中国工商银行(北京永南支行),北京市,,,a97bb8fb32c1a8aaae080f73
北京市海淀区复兴路40号A座,海淀区,北京市,1,39.913207,116.266045,中国工商银行(北京玉东支行),北京市,7aea43b7324d86867c29bddb,"(010)68272420,(010)68278821,(010)68225018",7aea43b7324d86867c29bddb
花园路2号院1号楼2层,海淀区,北京市,1,39.984913,116.374562,中国工商银行(北京柳芳支行),北京市,,,770b27fbd032bf5aab059dc7
德胜门西大街15-9号,海淀区,北京市,1,39.952559,116.367799,中国工商银行(远洋风景支行),北京市,850815e1e101e09b43e19246,"(010)82291471,(010)82293560",850815e1e101e09b43e19246
北京市海淀区小营西路31号,海淀区,北京市,1,40.04162,116.333241,中国工商银行(北京小营西路支行),北京市,,(010)66331010,97daeacc903a07a28e772798
北京市海淀区农大南路10号首层,海淀区,北京市,1,40.030859,116.301941,中国工商银行(北京博雅西园支行),北京市,34b2e320d6cafb4d3ae4a68e,(010)82793730,34b2e320d6cafb4d3ae4a68e
北京市海淀区南大街甲10号银海大厦,海淀区,北京市,1,39.969456,116.329969,中国工商银行(北京紫竹院支行),北京市,5c9d7f4f3b9940e4cac3db1c,(010)68940874,5c9d7f4f3b9940e4cac3db1c
海淀区北洼路30号A座1楼(近京味斋),海淀区,北京市,1,39.951782,116.307845,中国工商银行(北京北洼路支行),北京市,e78c0427917d4fc8c26c14b5,"(010)68413369,(010)68413239",e78c0427917d4fc8c26c14b5
北京市海淀区北蜂窝路20号,海淀区,北京市,1,39.907817,116.335917,中国工商银行(北京北蜂窝路支行),北京市,fa7da3e8815cf06243d63ea0,(010)63433627,fa7da3e8815cf06243d63ea0
海淀区北蜂窝甲4号,海淀区,北京市,1,39.910405,116.335806,中国工商银行(北京会城门支行),北京市,5e53af1a5e2b305f4051c0a0,(010)63491716,5e53af1a5e2b305f4051c0a0
北京市海淀区首体南路38号(创景大厦)一、二层,海淀区,北京市,1,39.930914,116.332701,中国工商银行(北京阜成路支行),北京市,c879fa010269a44ac909f046,(010)58892917,c879fa010269a44ac909f046
海淀区三里河路17号甘家口大厦内(近增光路),海淀区,北京市,1,39.932782,116.33947,中国工商银行(北京甘家口支行),北京市,c2f72e648ddbf9383d9a5ea5,"(010)68315571,(010)88392675",c2f72e648ddbf9383d9a5ea5
北京市海淀区复兴路61-1号,海淀区,北京市,1,39.914298,116.298512,中国工商银行(翠微路万寿路支行),北京市,14d93f3070ed1ec05b109312,(010)68211280,14d93f3070ed1ec05b109312
北京市海淀区永定路1号(近乐府江南小区),海淀区,北京市,1,39.934723,116.270584,中国工商银行(北京半壁店支行),北京市,fed82e8d9e52d9050582c246,(010)58977530,fed82e8d9e52d9050582c246
北京市海淀区志新东路5号首层,海淀区,北京市,1,39.997595,116.375376,中国工商银行(北京二里庄支行),北京市,fa01e9378ba8f14a774ff146,"(010)82371582,(010)62321909",fa01e9378ba8f14a774ff146
北太平庄路29号,海淀区,北京市,1,39.976417,116.376023,中国工商银行(北京北太平庄支行),北京市,74c933fb1bdd995e9e82ea46,(010)82079780,74c933fb1bdd995e9e82ea46
双清路30号清华大学清华园,海淀区,北京市,1,40.004311,116.330931,中国工商银行(清华大学结算中心),北京市,6943c34a893e67939968b44d,,6943c34a893e67939968b44d
北京市海淀区学院路30号方兴大厦,海淀区,北京市,1,39.998898,116.362948,中国工商银行(北京东升路支行),北京市,61f634f662ee1a786b49f346,"(010)62316478,(010)62318817",b6777317b59e8a9e2b3a9f91
北京市海淀区红山口甲3号,海淀区,北京市,1,40.024225,116.272704,中国工商银行(北京国防大学支行),北京市,9fb9bb9d561987bc6fa3cc75,(010)62864209,9fb9bb9d561987bc6fa3cc75
厢红旗1号,海淀区,北京市,1,40.013387,116.26327,中国工商银行(北京厢红旗支行),北京市,3a7be39ea1fbdbf4704b87d8,"(010)62884472,(010)66771409",3a7be39ea1fbdbf4704b87d8
北京市海淀区大钟路9号京仪科技大厦B座,海淀区,北京市,1,39.97711,116.344788,中国工商银行(大钟寺东路支行),北京市,1020060fa07f2bdb1994c6b3,(010)82117236,1020060fa07f2bdb1994c6b3
北京市海淀区中关村南大街2号数码大厦B座1A号,海淀区,北京市,1,39.971406,116.329714,中国工商银行(海淀双榆树支行),北京市,e116be54c3b6277bc91b9546,(010)51727147,e116be54c3b6277bc91b9546
北京市海淀区北三环西路7号蓟门里小区,海淀区,北京市,1,39.973907,116.357698,中国工商银行(海淀蓟门里支行),北京市,aa40108becb4d015c5effb46,"(010)62063495,(010)62019446",aa40108becb4d015c5effb46
北京市海淀区科学院南路中关村新科祥园甲2号楼,海淀区,北京市,1,39.989626,116.330935,中国工商银行(北京科学院支行),北京市,6ed3083a41a5e9b72b3a9f46,,6ed3083a41a5e9b72b3a9f46
北京市海淀区南大街5号北京理工大学内远志楼1层,海淀区,北京市,1,39.966544,116.322011,中国工商银行(北京理工大学支行),北京市,0a15c7ec52756ffced74f846,,0a15c7ec52756ffced74f846
北京市海淀区羊坊店路11-1号,海淀区,北京市,1,39.908008,116.327254,中国工商银行(北京玉渊潭支行),北京市,829e304d0d651b78c9e33cd2,(010)63950195,829e304d0d651b78c9e33cd2
北京市海淀区玉渊潭南路9-3,海淀区,北京市,1,39.916838,116.334048,中国工商银行(北京世纪坛支行),北京市,1020060fe3136aa61994c6a0,"(010)68525174,(010)68522346,(010)68525289",1020060fe3136aa61994c6a0
北京市海淀区玉渊潭南路85号君安写字楼1层,海淀区,北京市,1,39.91943,116.30376,中国工商银行(北京翠微中里支行),北京市,bcaebff84d3d6654c8e33ca0,"(010)68255598,(010)68253792",bcaebff84d3d6654c8e33ca0
北京市海淀区太平路甲5号,海淀区,北京市,1,39.906759,116.297843,中国工商银行(北京太平路支行),北京市,,(010)68210900,c0f1e521984c662ac17da202
西四环中路39-2号,海淀区,北京市,1,39.919778,116.279768,中国工商银行(北京西四环支行),北京市,d4a601276b666d9a3686f409,(010)68158857,d4a601276b666d9a3686f409
北京市海淀区翠微路乙3号,海淀区,北京市,1,39.915565,116.308278,中国工商银行(北京公主坟支行),北京市,05dd7d5fa5abd27cad080f3e,"(010)68217668,(010)68217280,(010)68272553",05dd7d5fa5abd27cad080f3e
玉泉路甲12号玉海园小区综合服务楼1楼,海淀区,北京市,1,39.92389,116.26029,中国工商银行(北京玉海园支行),北京市,2c176b94cb6fc2384e5547a5,"(010)88266731,(010)88263324,(010)88264212",2c176b94cb6fc2384e5547a5
北京市海淀区花园东路8号,海淀区,北京市,1,39.991481,116.375675,中国工商银行(北京花园东路支行),北京市,108b1ceafaf7fdac3586f446,"(010)82030574,(010)82030647",108b1ceafaf7fdac3586f446
北京市海淀区花园路2号中城写字楼,海淀区,北京市,1,39.985055,116.375761,中国工商银行(新街口牡丹园支行),北京市,161a0ed2ff4b02505cd4fe46,(010)62379423,161a0ed2ff4b02505cd4fe46
北京市海淀区永泰庄北路清河永泰园小区13号,海淀区,北京市,1,40.040932,116.356523,中国工商银行(北京永泰园支行),北京市,,(010)82750047,a32fc3993c87ae918936ee97
北京市海淀区双清路30号清华大学校内,海淀区,北京市,1,40.005169,116.330935,中国工商银行(北京清华大学支行),北京市,efa2e83d9609752cad0457d6,(010)62782553,efa2e83d9609752cad0457d6
北京市海淀区学院路15号,海淀区,北京市,1,39.999265,116.353884,中国工商银行(北京语言大学支行),北京市,eeea71cd48b53d6843ab9ad0,(010)61196052,eeea71cd48b53d6843ab9ad0
北京市海淀区成府路53号,海淀区,北京市,1,39.998655,116.332881,中国工商银行(北京成府路支行),北京市,e3a7fd1347f5465129b97c9a,(010)62793503,e3a7fd1347f5465129b97c9a
北京市海淀区百旺茉莉园18~19号楼间0103、0104、0203、0204号房,海淀区,北京市,1,40.055531,116.263498,中国工商银行(北京百旺新城支行),北京市,d5464cf8a13a8d57fda7786c,,d5464cf8a13a8d57fda7786c
北京市海淀区学院路37号北航校内合一楼,海淀区,北京市,1,39.987588,116.351333,中国工商银行(北京四环北路支行),北京市,e96b44207719b75982288a46,"(010)82328404,(010)82323734",e96b44207719b75982288a46
北京市海淀区中关村大街42号,海淀区,北京市,1,39.975349,116.327627,中国工商银行(双榆树西里支行),北京市,79cceb366b6e4af71e580072,(010)62624683,79cceb366b6e4af71e580072
北京市海淀区魏公村街1号韦伯豪家园2号楼1楼,海淀区,北京市,1,39.960398,116.325389,中国工商银行(北京魏公村支行),北京市,a5ef680fb35c2cd7b9df8f46,,a5ef680fb35c2cd7b9df8f46
北京市海淀区高梁桥斜街59号院2号楼一、二层,海淀区,北京市,1,39.950041,116.355399,中国工商银行(北京长河湾支行),北京市,72aa25139797f647077ce846,(010)82191141,72aa25139797f647077ce846
北京市海淀区紫竹院甲1号人济山庄一层,海淀区,北京市,1,39.947306,116.320517,中国工商银行(北京紫竹桥支行),北京市,7c5e480b2ad80db7acb22a9a,(010)88554378,7c5e480b2ad80db7acb22a9a
北京市海淀区蓝靛厂东路2号院金源时代商务中心2号楼C座1B-1C,海淀区,北京市,1,39.967627,116.29568,中国工商银行(北京世纪金源支行),北京市,fed76b0c5aa1f8064002453d,(010)88877141,a7c56ee0100d82cea2acc4b3
北京市海淀区车公庄西路甲19号华通大厦A座一层,海淀区,北京市,1,39.938663,116.327958,中国工商银行(北京四道口支行),北京市,cc0849a0d57d7d539503199a,"(010)68431533,(010)68421059,(010)68421224",cc0849a0d57d7d539503199a
北京市海淀区西翠路5号上品折扣F1层,海淀区,北京市,1,39.906941,116.288547,中国工商银行(北京沙窝路支行),北京市,060f5e53135a20d7091cc7a0,(010)88285655,060f5e53135a20d7091cc7a0
北京市海淀区复兴路28-1,海淀区,北京市,1,39.913341,116.284777,中国工商银行(北京复兴路支行),北京市,e56bf5e305ee7a440682c2a0,(010)68295358,e56bf5e305ee7a440682c2a0
北京市海淀区西三环北路87号国际财经中心1楼,海淀区,北京市,1,39.941817,116.315878,中国工商银行(北京花园桥支行),北京市,1d55a8ee8c89c93ca90dd836,"(010)68451051,(010)88824028",1d55a8ee8c89c93ca90dd836
北京市海淀区西四环北路125号德润科技大厦一层101-106号,海淀区,北京市,1,39.944425,116.279266,中国工商银行(翠微路金四季支行),北京市,,(010)88495663,bbf1bb59ce36e3be1ce999dd
太平路27号,海淀区,北京市,1,39.906773,116.276452,中国工商银行(北京永定路支行),北京市,aa40108b9d222117c5effbdb,"(010)68182052,(010)68182058",aa40108b9d222117c5effbdb
北京市海淀区显龙山路19号1幢1层2座122号,海淀区,北京市,1,40.055222,116.18432,中国工商银行(北京温泉新区支行),北京市,a332573106222b76c036445f,"(010)82492913,(010)82492826",a332573106222b76c036445f
北京市海淀区西三旗建材城东路16号,海淀区,北京市,1,40.067417,116.381306,中国工商银行(北京建材城东路支行),北京市,78bd50f750325b5b31870a6c,(010)82952045,78bd50f750325b5b31870a6c
北京市海淀区中关村南大街18号北京·国际1层,海淀区,北京市,1,39.959071,116.331609,中国工商银行(北京中关村南路支行),北京市,cde9e2c738bb40b4e81e9746,(010)62184945,cde9e2c738bb40b4e81e9746
北京市海淀区阜成路51号,海淀区,北京市,1,39.930517,116.311259,中国工商银行(翠微路西八里庄支行),北京市,fa835ce2bc2333b6e812e446,(010)68430652,fa835ce2bc2333b6e812e446
北京市海淀区西外大街168号腾达大厦1层,海淀区,北京市,1,39.943934,116.33437,中国工商银行(北京首都体育馆支行),北京市,0715bb99355ad67c2afc4814,(010)88576732,23116913f97d64fd734b8746
北京市海淀区太平路5号综合办公楼中间部位一层和二层,海淀区,北京市,1,39.907237,116.301243,中国工商银行(北京万寿路南口支行),北京市,a7c56ee0af60c3b3a2acc4a0,"(010)68211067,(010)68211701",a7c56ee0af60c3b3a2acc4a0
北京市海淀区西四环中路16号院1号楼一层,海淀区,北京市,1,39.921286,116.282194,中国工商银行(北京五棵松奥体支行),北京市,35b61d64894191546d20b96f,"(010)68275243,(010)68270513",35b61d64894191546d20b96f
北京市海淀区新街口外大街19北京师范大学,海淀区,北京市,1,39.967609,116.372289,中国工商银行24小时自助银行(励耘学苑西),北京市,,,b119907159b9df70e60738e5
阜成路79号,海淀区,北京市,1,39.931002,116.300177,中国工商银行(翠微路支行营业部电费代收点),北京市,e607ba8b21dc0cc71df74d0b,(010)88127149,e607ba8b21dc0cc71df74d0b
北京市海淀区复兴路28号中国人民解放军总医院门诊楼一层东侧1区房,海淀区,北京市,1,39.912733,116.283595,中国工商银行(北京翠微路支行五棵松储蓄所),北京市,,(010)68288929,a77aad5ece985e74b23c8127
东北旺西路中关村软件园16号楼,海淀区,北京市,1,40.056525,116.298398,中国工商银行软件开发中心,北京市,572f61cc00dbf8fb077ce82a,,572f61cc00dbf8fb077ce82a
北京市海淀区中关村南大街5号北京理工大学,海淀区,北京市,1,39.966566,116.322283,中国工商银行24小时自助银行(理工大学储蓄所),北京市,dffd4642775952cc3d9a5e8b,,dffd4642775952cc3d9a5e8b
莲花池东路39号西金大厦1层,海淀区,北京市,1,39.903655,116.321184,中国工商银行(北京西客站支行营业部),北京市,66cf01bd0dc614e19ee3211c,"(010)63955371,(010)63955321",66cf01bd0dc614e19ee3211c
北京市海淀区中关村东路甲100号3楼,海淀区,北京市,1,39.983437,116.340778,中国工商银行(北京海淀支行营业室),北京市,58a62c83a74f5269276e985b,,58a62c83a74f5269276e985b
复兴路28号-1康馨大厦,海淀区,北京市,1,39.913308,116.284485,中国工商银行(复兴路支行)电费代收点,北京市,02e7907d5f0806b92cb96d0c,(010)68220531,02e7907d5f0806b92cb96d0c
北京市海淀区北四环西路65号海淀新技术大厦内,海淀区,北京市,1,39.992431,116.311375,中国工商银行(北京海淀西区支行营业部),北京市,a14f5b2e1ce9b0a700ec01de,"(010)62559095,(010)62559094,(010)62542640",a14f5b2e1ce9b0a700ec01de
北京市海淀区西四环北路71号,海淀区,北京市,1,39.95752,116.280218,中国工商银行24小时自助银行服务(北京郦城支行),北京市,87d2ec21886754a8fa42b225,,87d2ec21886754a8fa42b225
北京市海淀区西四环北路117号金四季购物中心F1,海淀区,北京市,1,39.95067,116.27799,中国工商银行24小时自助银行(金四季购物中心),北京市,80bbee01147009dc93114ccf,,80bbee01147009dc93114ccf
北京市海淀区玉渊潭南路85君安写字楼1层,海淀区,北京市,1,39.919314,116.303696,中国工商银行24小时自助银行(北京翠微中里支行),北京市,41b452e110a40c5d2afc48e1,,41b452e110a40c5d2afc48e1
学院路15号,海淀区,北京市,1,39.999314,116.353791,工商银行24小时自助银行服务(北京分行中关村支行学院路离行式),北京市,275389131865bc5421f01784,,2e81b67714e5284c4557265a
志新路44号,海淀区,北京市,1,40.000898,116.363963,中国工商银行24小时自助银行服务,北京市,b2f283999da57d52b04c49cc,,b2f283999da57d52b04c49cc
羊坊店路9-2,海淀区,北京市,1,39.909593,116.32732,中国工商银行ATM,北京市,88e1f8a5bfba1f520bccdd9a,,88e1f8a5bfba1f520bccdd9a
北京市海淀区中关村大街40号当代商城F1,海淀区,北京市,1,39.976701,116.327565,中国工商银行ATM,北京市,bfc64ee09bbc57ec1c389466,,bfc64ee09bbc57ec1c389466
北三环西路甲5号附近,海淀区,北京市,1,39.973772,116.35788,ICBC24h自助银行服务,北京市,aaccf3dfe760ab97f7b9163a,,aaccf3dfe760ab97f7b9163a
海淀区中关村南四街４号,海淀区,北京市,1,39.986355,116.341743,中国工商银行自助银行,北京市,4a460f86fd3c1336b05c6a28,,4a460f86fd3c1336b05c6a28
北京市海淀区北四环西路88号院,海淀区,北京市,1,39.978497,116.292177,中国工商银行自助银行,北京市,80b60e5c3a69c4a9ede4a517,,80b60e5c3a69c4a9ede4a517
北京市海淀区北四环西路甲2号(辽宁大厦),海淀区,北京市,1,39.990761,116.343559,中国工商银行自助银行,北京市,bc5db9c702b888495e17c3c1,,bc5db9c702b888495e17c3c1
车道沟桥东南角,海淀区,北京市,1,39.951955,116.302906,中国工商银行车道沟宿舍,北京市,,,17c0440555a8c8abd8131858
西四环北路9,海淀区,北京市,1,39.965873,116.280444,中国工商银行ATM(鑫泰大厦),北京市,a57a9afff0b3d01389fc0695,,a57a9afff0b3d01389fc0695
北京市海淀区远大路1号世纪金源购物中心F3,海淀区,北京市,1,39.964684,116.297271,中国工商银行ATM(贵友大厦),北京市,,,82efecbb71cc8d5974026917
西三环中路19号,海淀区,北京市,1,39.910211,116.316328,中国工商银行24小时自助银行,北京市,fa34b5f4d0f9b9cf354aae33,,fa34b5f4d0f9b9cf354aae33
北京市海淀区复兴路甲23号北京城乡贸易中心F1,海淀区,北京市,1,39.914269,116.313523,中国工商银行24小时自助银行,北京市,e680010a7b6caac2c4f02559,,e680010a7b6caac2c4f02559
北京市海淀区,海淀区,北京市,1,39.981299,116.328828,中国工商银行24小时的服务,北京市,5896d19ac104a37dae31e5a7,,5896d19ac104a37dae31e5a7
北京市海淀区北下关钢铁研究总院南院(气象路北),海淀区,北京市,1,39.954634,116.341601,中国工商银行24小时自助银行,北京市,2583c48c24e8040c17b54bdd,,2583c48c24e8040c17b54bdd
学院南路34号,海淀区,北京市,1,39.963565,116.363507,中国工商银行ATM(学院南路),北京市,48a95d052e0d158d8605bf9f,,48a95d052e0d158d8605bf9f
北京市海淀区地铁四号线国家图书馆站,海淀区,北京市,1,39.949504,116.331249,中国工商银行ATM(国家图书馆),北京市,504fb8fc5744d0a03062128a,,504fb8fc5744d0a03062128a
复兴路61-1号,海淀区,北京市,1,39.914172,116.298499,中国工商银行24h自助银行服务,北京市,63cec39dd75e5331be48422e,,63cec39dd75e5331be48422e
北京市海淀区北三环西路38号北京双安商场1层,海淀区,北京市,1,39.972495,116.332927,中国工商银行ATM(双安商场),北京市,a4d8a20eeba1aaf6f33cba11,,a4d8a20eeba1aaf6f33cba11
西四环北路136号金泰海博大酒店,海淀区,北京市,1,39.944128,116.28169,中国工商银行24小时自助银行(美丽园路),北京市,d5464cf85ce6e22afda77837,,d5464cf85ce6e22afda77837
海淀区中关村北一条9号科电大厦,海淀区,北京市,1,39.99463,116.33314,中国工商银行24小时自助银行,北京市,0e68bb23a5075bef43024502,,0e68bb23a5075bef43024502
北京市海淀区花园北路48邮科社区,海淀区,北京市,1,39.985517,116.364475,中国工商银行ATM(邮科社区西北),北京市,41f79bf817f07adac17da2ba,,41f79bf817f07adac17da2ba
北京市海淀区青龙桥街道信息路体大颐清园北二门,海淀区,北京市,1,40.024088,116.327948,中国工商银行24小时自助银行服务,北京市,369cd40ba4ef8bf8da2f2809,,369cd40ba4ef8bf8da2f2809
大有北里148号,海淀区,北京市,1,40.020641,116.284492,中国工商银行ATM(第二十二储蓄所),北京市,941eaa293ee8d844cae33c9e,,941eaa293ee8d844cae33c9e
中关村大街59号中国人民大学汇贤楼A座1层,海淀区,北京市,1,39.976308,116.314045,中国工商银行ATM(人民大学支行),北京市,907646199c0ea479b817e707,,907646199c0ea479b817e707
北京市海淀区车公庄西路12号院附近,海淀区,北京市,1,39.936644,116.332807,中国工商银行24小时自助银行服务,北京市,,,b0946e650708653b4afd3f83
交大东路11号交通大学家属院内,海淀区,北京市,1,39.959726,116.351496,中国工商银行24小时自助银行服务(交通大学支行),北京市,d5f93c0ecda97222eddfca73,,d5f93c0ecda97222eddfca73
北京市海淀区中关村东路100号(海淀支行门口),海淀区,北京市,1,39.983264,116.340794,中国工商银行24小时自助银行(北京海淀支行),北京市,7891c91437d6d7224251c012,,7891c91437d6d7224251c012
西苑中直机关院内,海淀区,北京市,1,40.000411,116.29831,中国工商银行24小时自助银行服务,北京市,6a00c03e2f20e007d33ce323,,6a00c03e2f20e007d33ce323
红山口甲3号红山瑞廷酒店1层,海淀区,北京市,1,40.024189,116.272811,中国工商银行24小时自助银行服务,北京市,7fa80c0b3e3473b39868b4e3,,7fa80c0b3e3473b39868b4e3
海淀区中关村丹棱街5号,海淀区,北京市,1,39.985448,116.316656,中国工商银行24小时自助银行服务,北京市,9989b558b3777804d3ff233b,,9989b558b3777804d3ff233b
北京市海淀区中关村南大街18号,海淀区,北京市,1,39.960825,116.330431,中国工商银行ATM(大慧寺7号院西北),北京市,de928f0f3df40a072a02e1ef,,de928f0f3df40a072a02e1ef
北京市海淀区清华大学-紫荆学生公寓内,海淀区,北京市,1,40.011612,116.333929,中国工商银行ATM(清华大学财务处内),北京市,48f8a8b90378229f0f0a705c,,48f8a8b90378229f0f0a705c
北京市海淀区交大东路42号,海淀区,北京市,1,39.956234,116.355265,中国工商银行24小时自助银行(净土寺),北京市,ed2336d044951de7fbdc851b,,ed2336d044951de7fbdc851b
北京市海淀区万寿路28号,海淀区,北京市,1,39.905206,116.30188,中国工商银行24小时自助银行(万寿路),北京市,3a0a78bd7c0aca84631809e2,,3a0a78bd7c0aca84631809e2
翠微路21号,海淀区,北京市,1,39.905798,116.308325,中国工商银行24小时自助银行(翠微路),北京市,692bd54abd51f6db2b201afc,,692bd54abd51f6db2b201afc
建材城东路16号,海淀区,北京市,1,40.06745,116.381175,中国工商银行离行式自助服务区(北京分行中关村支行建材城东路),北京市,,,474527aefbc579cc75e5b625
安宁北里8号,海淀区,北京市,1,40.054951,116.336222,中国工商银行离行式自助服务区(北京分行中关村支行安宁北里),北京市,d97dcdcb25a8e6942afc4824,,d97dcdcb25a8e6942afc4824
东北旺南路27号,海淀区,北京市,1,40.048391,116.3017,中国工商银行离行式自助银行(北京分行中关村支行东北旺南路),北京市,c8c2b190655b374b57bffff3,,c8c2b190655b374b57bffff3
北京市海淀区上地九街国际创业园2号楼,海淀区,北京市,1,40.052333,116.312377,中国工商银行24小时自助银行(北京中关村支行营业部),北京市,46e86fdd0f89ef6fd13ce36c,,46e86fdd0f89ef6fd13ce36c
清华园街道清华大学16区结算中心,海淀区,北京市,1,40.005154,116.330814,中国工商银行24小时自助银行(清华大学储蓄所),北京市,642c3239a33ed5afab0dd8fe,,642c3239a33ed5afab0dd8fe
学院路30号方兴大厦,海淀区,北京市,1,39.998922,116.362877,中国工商银行24小时自助银行(北京东升路支行),北京市,ce3ed03555ba5d6fc6effb0e,,ce3ed03555ba5d6fc6effb0e
农大南路33号,海淀区,北京市,1,40.031123,116.305128,中国工商银行离行式自助银行(北京分行中关村支行农大南路),北京市,d4e9de5a888361885fd4fe2a,,d4e9de5a888361885fd4fe2a
中关村南大街18号北京国际大厦b座,海淀区,北京市,1,39.959104,116.331465,中国工商银行24小时自助银行(中关村南路支行),北京市,dce8d4f594805b6517c8f6d8,,dce8d4f594805b6517c8f6d8
海淀区魏公村街1号韦伯豪家园2号楼1楼(近中关村南大街),海淀区,北京市,1,39.960306,116.325442,中国工商银行24小时自助银行(魏公村储蓄所),北京市,b1ea326b2c20cb59c909f098,,b1ea326b2c20cb59c909f098
北京市海淀区西直门北大街62号,海淀区,北京市,1,39.950964,116.364262,中国工商银行离行式自助银行(北京分行广安门支行西直门北大街),北京市,,,08a58e76cea4b28b3be4a6f9
北京市海淀区西三环北路2号北京外国语大学,海淀区,北京市,1,39.961321,116.319401,中国工商银行24小时自助银行(北京外国语大学社区北),北京市,bff8fa7dc2472edec8213d2c,,bff8fa7dc2472edec8213d2c
海淀区苏州街18号长远天地大厦,海淀区,北京市,1,39.984355,116.312993,中国工商银行24小时自助银行(北京苏州街支行),北京市,d8757517d28d75ccf503b8f0,,669775d05ba23525fd0eb027
北京市海淀区北蜂窝路20号,海淀区,北京市,1,39.907843,116.335854,中国工商银行24小时自助银行(北京北蜂窝路支行),北京市,77608998006e9d9d83a00c36,,77608998006e9d9d83a00c36
"北京市海淀区首体南路38号(创景大厦)一,二层",海淀区,北京市,1,39.930896,116.332704,中国工商银行24小时自助银行(北京阜成路支行),北京市,470e2e322fa92d167c29bd81,,470e2e322fa92d167c29bd81
三里河路17号,海淀区,北京市,1,39.932652,116.339505,中国工商银行24小时自助银行(北京甘家口储蓄所),北京市,2fade5b2e64cdc9e14948eac,,2fade5b2e64cdc9e14948eac
北京市海淀区车公庄西路甲19号,海淀区,北京市,1,39.938528,116.327549,中国工商银行24小时自助银行服务(北京四道口支行),北京市,2037869eefe5fd4dbca8227d,,2037869eefe5fd4dbca8227d
阜成路29号,海淀区,北京市,1,39.930153,116.322096,中国工商银行附行式自助银行(北京分行西客站支行阜成路),北京市,,,e49d9a1da302887e49fc8d41
西三环北路83号首师大北一区,海淀区,北京市,1,39.942694,116.313716,中国工商银行ATM(首都师范大学文学院文科楼),北京市,7d5f3a0afbdd954b2cb90840,,7d5f3a0afbdd954b2cb90840
复兴路甲18号,海淀区,北京市,1,39.913185,116.310476,中国工商银行离行式自助银行(北京分行翠微路支行复兴路甲18号),北京市,71cacd3c28845897130daa8b,,71cacd3c28845897130daa8b
北京市海淀区岭南路14号广东大厦,海淀区,北京市,1,39.940994,116.30969,中国工商银行24小时自助银行(北京增光支行),北京市,12929d701262f59cf7e73b67,,12929d701262f59cf7e73b67
北京市海淀区北京市海淀区阜成路30号16号楼,海淀区,北京市,1,39.930462,116.311172,中国工商银行24小时自助银行(西八里庄支行),北京市,42b268f9c4b95738a8059d13,,42b268f9c4b95738a8059d13
复兴路40号A座,海淀区,北京市,1,39.913185,116.266103,中国工商银行24小时自助银行(北京玉东支行),北京市,876bac8830c2564e1c38948b,,876bac8830c2564e1c38948b
西三旗建材城东路16号,海淀区,北京市,1,40.067479,116.381481,中国工商银行24小时自助银行(北京建材城东路分理处),北京市,72aa251397bdf647077ce86c,,72aa251397bdf647077ce86c
北京市海淀区志新东路5号首层,海淀区,北京市,1,39.997646,116.375386,中国工商银行24小时自助银行(二里庄支行),北京市,29ddb9bbc1a006bee4e9658d,,29ddb9bbc1a006bee4e9658d
北京市海淀区德胜门西大街15号9,海淀区,北京市,1,39.952333,116.36786,中国工商银行24小时自助银行(远洋风景支行),北京市,26def9c572024446912ca30d,,26def9c572024446912ca30d
花园北路39号(北医储蓄所旁),海淀区,北京市,1,39.987856,116.370528,中国工商银行24小时自助银行(北京花园北路支行),北京市,fa7da3e8817cf06242d63e40,,fa7da3e8817cf06242d63e40
永泰东里41号楼1层,海淀区,北京市,1,40.041188,116.362534,中国工商银行24小时自助银行(北京永泰支行),北京市,a618378cec1d924914b54bda,,a618378cec1d924914b54bda
北京市海淀区清河永泰园甲13号楼一层,海淀区,北京市,1,40.040823,116.356459,中国工商银行24小时自助银行(北京永泰园支行),北京市,b9741be360e73ac6b11e36b2,,b9741be360e73ac6b11e36b2
北京市海淀区马连洼兰园小区16号楼一层,海淀区,北京市,1,40.037271,116.280804,中国工商银行24小时自助银行(北京马连洼支行),北京市,b0d056f2e7d77703cac3db5f,,b0d056f2e7d77703cac3db5f
北四环中路267号,海淀区,北京市,1,39.993533,116.355622,中国工商银行离行式自助银行(北京分行中关村支行北四环中路),北京市,73e8c895b34b2f3e83a00c38,,73e8c895b34b2f3e83a00c38
北京市海淀区双清路30号清华大学,海淀区,北京市,1,40.017544,116.334398,中国工商银行24小时自助银行(清华大学紫荆学生公寓西北),北京市,07f1be16ef53bfd940e192a1,,07f1be16ef53bfd940e192a1
北京市海淀区农大南路10号首层,海淀区,北京市,1,40.030782,116.301886,中国工商银行24小时自助银行(北京博雅西园支行),北京市,6fddd7fdfda7e97f3517dc6c,,6fddd7fdfda7e97f3517dc6c
北四环西路65,海淀区,北京市,1,39.992352,116.311384,中国工商银行24小时自助银行(北京海淀西区支行),北京市,6b6644a91c06893e08ccddec,,6b6644a91c06893e08ccddec
厢红旗1号,海淀区,北京市,1,40.013237,116.263109,中国工商银行24小时自助银行(厢红旗分理处),北京市,f696f3c2f94832eb1b11d56c,,f696f3c2f94832eb1b11d56c
大钟寺东路9号京仪科技大厦B座,海淀区,北京市,1,39.977089,116.344791,中国工商银行24小时自助银行(北京大钟寺东路支行),北京市,575cd182a1de25cff7e73b02,,575cd182a1de25cff7e73b02
中关村新科祥园甲2号商务,海淀区,北京市,1,39.989806,116.331315,中国工商银行24小时自助银行(北京科学院支行),北京市,ac5b50668927a20ac06c1448,,ac5b50668927a20ac06c1448
北京市海淀区高梁桥斜街59号院2号楼一、二层,海淀区,北京市,1,39.950018,116.355471,中国工商银行24小时自助银行(长河湾支行),北京市,2fd2beaba99fca2c7adbd270,,2fd2beaba99fca2c7adbd270
海淀区知春路108号,海淀区,北京市,1,39.981521,116.32813,中国工商银行24小时自助银行(北京知春路支行),北京市,e6c7275b424765b495f08c97,,e6c7275b424765b495f08c97
北京市海淀区车道沟10号,海淀区,北京市,1,39.951832,116.307704,中国工商银行24小时自助银行(北京北洼路支行),北京市,5e53af1a8096ee214151c0e2,,5e53af1a8096ee214151c0e2
板井路77号,海淀区,北京市,1,39.960059,116.284974,中国工商银行24小时自助银行(北京世纪城支行),北京市,41619b3038a1c95140024507,,41619b3038a1c95140024507
北京市海淀区海淀南路18号,海淀区,北京市,1,39.9815,116.319252,中国工商银行24小时自助银行(海淀南路储蓄所),北京市,50bc1d4d757d3c2fb13c8159,,50bc1d4d757d3c2fb13c8159
北京市海淀区车公庄西路5号,海淀区,北京市,1,39.938582,116.337042,中国工商银行离行式自助服务区(北京市分行南礼士路支行南礼士路支行),北京市,3a92b8dd41cbb270ae080f3c,,3a92b8dd41cbb270ae080f3c
西直门外大街168-3,海淀区,北京市,1,39.943805,116.334349,中国工商银行24小时自助银行(北京首都体育馆支行),北京市,8f6b4dffdbe66895a0acc473,,8f6b4dffdbe66895a0acc473
羊坊店路11-1号中车大厦1层西客站,海淀区,北京市,1,39.908019,116.327316,中国工商银行24小时自助银行(北京羊坊店支行),北京市,fa5f136649e3a1d70f0e6b67,,fa5f136649e3a1d70f0e6b67
万寿路24号2号楼,海淀区,北京市,1,39.9149,116.301739,中国工商银行离行式自助银行(北京分行翠微路支行万寿路24号),北京市,b666f2d170f63d6ff90cad78,,b666f2d170f63d6ff90cad78
海淀区西三环北路87号国际财经中心1楼,海淀区,北京市,1,39.941794,116.31603,中国工商银行24小时自助银行(北京花园桥支行),北京市,b671e758090cedb06fa3ccd7,,b671e758090cedb06fa3ccd7
花园东路8号中国工商银行(北京花园东路支行)附近,海淀区,北京市,1,39.991393,116.375821,中国工商银行24小时自助银行(北京花园东路支行),北京市,c0aed566aa9f287bc61b7556,,c0aed566aa9f287bc61b7556
北京市海淀区北太平庄路29号,海淀区,北京市,1,39.977036,116.375687,中国工商银行网点自助服务区(北京分行海淀支行北太平庄路),北京市,a890b9ed6d6f7dd02b06ce1f,,a890b9ed6d6f7dd02b06ce1f
北京市海淀区花园东路25号中城写字楼,海淀区,北京市,1,39.985035,116.375798,中国工商银行24小时自助银行(北京牡丹园支行),北京市,8478d63a9a2d836c10293517,,ad538922ac15f291c809f08a
北京市海淀区成府路53中国工商银行(成府路支行)内,海淀区,北京市,1,39.99869,116.332834,中国工商银行24小时自助银行(北京成府路支行),北京市,e710a2aac00ee140a7c7563c,,e710a2aac00ee140a7c7563c
北京市海淀区天秀路10-5,海淀区,北京市,1,40.027059,116.283982,中国工商银行24小时自助银行(北京天秀支行),北京市,96b672aaabee6f0bce04efe2,,96b672aaabee6f0bce04efe2
北京市海淀区颐和园路5号北京大学,海淀区,北京市,1,39.997905,116.309633,中国工商银行24小时自助银行(畅春新园西),北京市,edab09aab43fc246abf72936,,edab09aab43fc246abf72936
四号线北大东门,海淀区,北京市,1,39.998016,116.322136,中国工商银行离行式自助银行(北京分行中关村支行四号线),北京市,34757b174df7517e3310af39,,34757b174df7517e3310af39
北京市海淀区中关村大街42号,海淀区,北京市,1,39.975343,116.327661,中国工商银行24小时自助银行(北京双榆树西里支行),北京市,dba2dd904dd74334ddee8b33,,dba2dd904dd74334ddee8b33
皂君庙西里甲8号,海淀区,北京市,1,39.965089,116.341297,中国工商银行24小时自助银行(皂君庙路),北京市,efb4febf9fa93cefeddfca27,,efb4febf9fa93cefeddfca27
学院南路47-2,海淀区,北京市,1,39.963934,116.347263,中国工商银行24小时自助银行(学院南路支行),北京市,7a63d410dcccff7340e19219,,7a63d410dcccff7340e19219
紫竹院路甲1中国工商银行(北京紫竹桥支行)附近,海淀区,北京市,1,39.947283,116.32058,中国工商银行24小时自助银行(北京紫竹桥支行),北京市,8e5a456e4a7631f115a190eb,,8e5a456e4a7631f115a190eb
北京市海淀区长春桥路5号11好楼首层,海淀区,北京市,1,39.967064,116.309797,中国工商银行24小时自助银行(北京苏州桥支行),北京市,98afe7fc48ffde5691114c82,,98afe7fc48ffde5691114c82
万柳星标家园11号楼商业1号大厦,海淀区,北京市,1,39.973833,116.300258,中国工商银行24小时自助银行(北京万柳支行),北京市,691305235a1f4b08725e8046,,691305235a1f4b08725e8046
曙光花园彰化路10号,海淀区,北京市,1,39.948379,116.29618,中国工商银行24小时自助银行(曙光支行),北京市,6ee010206163429152e5c573,,6ee010206163429152e5c573
北京市海淀区增光路甲57号,海淀区,北京市,1,39.933343,116.336778,中国工商银行离行式自助银行(北京市分行南礼士路支行南礼士路支行),北京市,,,cdac77b1905b4d944d776e0b
北蜂窝路8-4号,海淀区,北京市,1,39.910504,116.335827,中国工商银行24小时自助银行(会城门支行),北京市,91beb473ada9f36d7069d370,,91beb473ada9f36d7069d370
太平路22号,海淀区,北京市,1,39.906428,116.291281,中国工商银行离行式自助服务区(北京分行翠微路支行太平路22号),北京市,5e41c2a26416a4c5f8f0cbcf,,5e41c2a26416a4c5f8f0cbcf
北京市海淀区西四环中路16号-2楼-b1层,海淀区,北京市,1,39.921259,116.28213,中国工商银行24小时自助银行服务(北京五颗松奥体支行),北京市,1479cecb7064c4e4ab0dd891,,1479cecb7064c4e4ab0dd891
海淀区翠微路乙3号,海淀区,北京市,1,39.915431,116.308448,中国工商银行24小时自助银行(北京公主坟支行),北京市,aa9be21706ae584a2fe67b9f,,aa9be21706ae584a2fe67b9f
阜成路79号,海淀区,北京市,1,39.930944,116.300187,中国工商银行网点自助服务区(北京分行翠微路支行),北京市,5f08b0b4d2fcca66774ff175,,5f08b0b4d2fcca66774ff175
北京市海淀区杏石口路9号合众大厦一层,海淀区,北京市,1,39.954004,116.275695,中国工商银行附行式自助银行(北京分行翠微路支行金四季支行),北京市,88de77ac6c536273a21de996,,88de77ac6c536273a21de996
北京市海淀区永定路96号,海淀区,北京市,1,39.909717,116.271409,中国工商银行附行式自助银行(北京分行翠微路支行永南支行),北京市,ecd4e3a758e3eecf990050ae,,ecd4e3a758e3eecf990050ae
丰慧中路7号,海淀区,北京市,1,40.08204,116.242129,中国工商银行24小时自助银行(北京分行中关村支行丰慧中路),北京市,,,dd33b83a0f8c6f55ab175a1f
丰慧中路7号新材料创业务大厦(永丰产业基地新材料创业大厦首层),海淀区,北京市,1,40.081804,116.241935,中国工商银行24小时自助银行(北京永丰支行),北京市,4ce10ce6b61046dc451a32a2,,4ce10ce6b61046dc451a32a2
文慧园北路9号,海淀区,北京市,1,39.958623,116.367754,中国工商银行24小时自助银行服务(北京索家坟支行),北京市,db4e91fc5479753f6cc02c34,,db4e91fc5479753f6cc02c34
北京市海淀区建材城西路育新花园小区2号,海淀区,北京市,1,40.065331,116.351386,中国工商银行24小时自助银行服务(北京分行中关村支行建材城西路),北京市,2d07a148b012dee226d2bbfd,,2d07a148b012dee226d2bbfd
北京市海淀区小营西路31号,海淀区,北京市,1,40.043022,116.345287,中国工商银行24小时自助银行服务(北京分行中关村支行小营西路),北京市,1e9dd5b0563ac22afa42b226,,1e9dd5b0563ac22afa42b226
上地十街1号辉煌国际6号楼,海淀区,北京市,1,40.059534,116.309087,中国工商银行24小时自助银行(上地十街),北京市,431ea81bf9b27439d518b71b,,431ea81bf9b27439d518b71b
北京市海淀区坡上村12号国际关系学院,海淀区,北京市,1,40.009776,116.293203,中国工商银行24小时自助银行服务(东学路),北京市,,,d7fd2ad3fab70d540bccdd6c
上地信息路38号,海淀区,北京市,1,40.031111,116.320546,中国工商银行24小时自助银行(北京分行中关村支行上地信息路),北京市,7246a59a014a876238221c9f,,7246a59a014a876238221c9f
北京市海淀区中国人民解放军第三一六医院南门,海淀区,北京市,1,40.007537,116.24575,中国工商银行24小时自助银行(道公府路),北京市,504d6113721dffb34657267a,,504d6113721dffb34657267a
北京市海淀区交大东路18号院9号楼首层,海淀区,北京市,1,39.959996,116.354286,中国工商银行24小时自助银行(北京交大东路支行),北京市,a7c56ee079dd1dcda3acc4e2,,a7c56ee079dd1dcda3acc4e2
北京市海淀区双榆树西里19号,海淀区,北京市,1,39.974188,116.331116,中国工商银行24小时自助银行服务(北京分行海淀支行双榆树西里),北京市,,,c2ddf96cb0e259db82a12e98
学院路37号,海淀区,北京市,1,39.987541,116.351269,中国工商银行24小时自助银行服务(知行楼西南),北京市,5100b7453b68c6ee990050ee,,5100b7453b68c6ee990050ee
北三环西路7号,海淀区,北京市,1,39.973816,116.35765,中国工商银行24小时自助银行(蓟门里储蓄所),北京市,341c35de0c4972bee6073840,,341c35de0c4972bee6073840
玉渊潭南路9-3号,海淀区,北京市,1,39.916858,116.334047,中国工商银行24小时自助银行(北京世纪坛支行),北京市,,,86c7cedb64ff7a4e25e0a072
太平路5号,海淀区,北京市,1,39.90725,116.301173,中国工商银行24小时自助银行服务(北京分行翠微路支行万寿路南口支行),北京市,3a69479b4019efe09ee32115,,3a69479b4019efe09ee32115
西四环中路39号,海淀区,北京市,1,39.919551,116.279914,中国工商银行24小时自助银行服务(北京分行翠微路支行西四环支行),北京市,5ae845b8eee0da4185420ebb,,5ae845b8eee0da4185420ebb
北洼路30号,海淀区,北京市,1,39.940905,116.30966,中国工商银行24小时自助银行服务(北京分行翠微路支行增光支行),北京市,85c605fda3bd1b6db31e3650,,85c605fda3bd1b6db31e3650
北京市海淀区莲花池东路39号,海淀区,北京市,1,39.903478,116.320893,中国工商银行24小时自助银行(北京分行西客站支行莲花池东路),北京市,3ca96e8208cf3bd581288a43,,3ca96e8208cf3bd581288a43
复兴路28-1号,海淀区,北京市,1,39.913297,116.284964,中国工商银行24小时自助银行(复兴路辅路),北京市,3f28e8c4ff63cb8aafee7a08,,3f28e8c4ff63cb8aafee7a08
太平路27号,海淀区,北京市,1,39.906791,116.276391,中国工商银行24小时自助银行服务(北京分行翠微路支行永定路支行),北京市,e93d0437c0c7263c0f0e6bb2,,e93d0437c0c7263c0f0e6bb2
玉泉路甲12号,海淀区,北京市,1,39.9239,116.260033,中国工商银行24小时自助银行(北京分行翠微路支行玉海园支行),北京市,109c8c8a9059a5262806ce5e,,109c8c8a9059a5262806ce5e
北京市海淀区阜石路9号,海淀区,北京市,1,39.931041,116.274911,中国工商银行24小时自助银行服务(阜石路辅路),北京市,3d88291b718ea9a29f09f742,,3d88291b718ea9a29f09f742
显龙山路19号,海淀区,北京市,1,40.055057,116.184461,中国工商银行24小时自助银行(北京温泉新区支行),北京市,5874591c2db4f0aa41d63e46,,5874591c2db4f0aa41d63e46
