address,area,city,detail,lat,lng,name,province,street_id,telephone,uid,机构名称
上海市虹口区花园路16号,虹口区,上海市,1,31.275355,121.485246,中国农业银行(上海花园路支行),上海市,,(021)65878606,a2dae90e2710f9e3b04c499d,农业银行
上海市虹口区通州路300号,虹口区,上海市,1,31.264115,121.501836,中国农业银行(通州支行),上海市,09185c569d6b4d5cf1193727,(021)33775667,09185c569d6b4d5cf1193727,农业银行
上海市虹口区四平路1088号临,虹口区,上海市,1,31.266617,121.49551,中国农业银行(溧阳支行),上海市,0ce65c2daea0b8582d473327,"(021)56668573,(021)56668577,(021)56669381",0ce65c2daea0b8582d473327,农业银行
上海市虹口区曲阳路851弄9号,虹口区,上海市,1,31.296415,121.497028,中国农业银行(大柏树支行),上海市,d0b8923f95bd7de3b5f42f27,,d0b8923f95bd7de3b5f42f27,农业银行
上海市虹口区大连路1615号,虹口区,上海市,1,31.279365,121.508432,中国农业银行(上海大连支行),上海市,cb544f590723d3e79c09f705,,cb544f590723d3e79c09f705,农业银行
上海市虹口区万安路298号,虹口区,上海市,1,31.307796,121.491679,中国农业银行(上海江湾支行),上海市,318889fb8446ce65b75f1ebe,,318889fb8446ce65b75f1ebe,农业银行
上海市虹口区曲阳路2号,虹口区,上海市,1,31.274581,121.500851,中国农业银行(上海曲阳支行),上海市,480b24d0907df08c9cec2b6a,,480b24d0907df08c9cec2b6a,农业银行
上海市虹口区新港路277号,虹口区,上海市,1,31.275138,121.505795,中国农业银行(上海天宝路支行),上海市,21d785a5c9f82b43f82d6137,(021)35323101,21d785a5c9f82b43f82d6137,农业银行
上海市虹口区新市南路585号,虹口区,上海市,1,31.300833,121.487838,中国农业银行(上海新市南路支行),上海市,c21db9e5ba05938200ff2d27,,c21db9e5ba05938200ff2d27,农业银行
上海市凉城路435号,虹口区,上海市,1,31.29383,121.476806,中国农业银行(上海凉城路支行),上海市,4ce10ce63190c3a0441a3227,(021)65295013,4ce10ce63190c3a0441a3227,农业银行
上海市虹口区长阳路18号,虹口区,上海市,1,31.259523,121.515392,中国农业银行(上海提篮桥支行),上海市,39d43f82b4110987a8059d22,(021)65455305,39d43f82b4110987a8059d22,农业银行
上海市虹口区东大名路359号边门,虹口区,上海市,1,31.253006,121.502696,中国农业银行(上海北外滩支行),上海市,34e48508db52e9e3d8d8912d,95599,34e48508db52e9e3d8d8912d,农业银行
上海市虹口区,虹口区,上海市,1,31.285209,121.471923,中国农业银行(上海株洲路支行),上海市,b30e51216af81a2682a12e2e,95599,7209382a89007b1495f08c23,农业银行
上海市虹口区吴凇路469号,虹口区,上海市,1,31.257003,121.494785,中国农业银行(上海虹口支行营业室),上海市,233b6e0c06ea5b5496f08c1c,,233b6e0c06ea5b5496f08c1c,农业银行
上海市虹口区吴淞路469号2楼,虹口区,上海市,1,31.257036,121.494845,中国农业银行(上海虹口支行营业室),上海市,2cc3c8e898004ba84c2fdfa8,,2cc3c8e898004ba84c2fdfa8,农业银行
上海市虹口区逸仙路328号,虹口区,上海市,1,31.305615,121.492867,中国农业银行ATM(逸仙路),上海市,22c5a0c90d1de29ecb213d37,,22c5a0c90d1de29ecb213d37,农业银行
吴淞路218号宝矿国际大厦,虹口区,上海市,1,31.253912,121.497329,中国农业银行24小时自助银行(宝矿国际大厦),上海市,e369873f2f1205e71811d586,,e369873f2f1205e71811d586,农业银行
上海市虹口区松花江路2500号29号楼104室,虹口区,上海市,1,31.298094,121.507376,中国农业银行24小时自助银行(政肃路),上海市,,,87c7f4e32b56b9bdd72ce233,农业银行
上海市虹口区广灵二路283-3号,虹口区,上海市,1,31.289781,121.480543,中国农业银行24小时自助银行服务(广灵二路),上海市,5abe2c096df451d5128824b2,,5abe2c096df451d5128824b2,农业银行
上海市虹口区新港路277号正大生活馆F1,虹口区,上海市,1,31.275162,121.50575,中国农业银行24小时自助银行服务(正大生活馆),上海市,de1b5d404d4c3bfcf4b91612,,de1b5d404d4c3bfcf4b91612,农业银行
溧阳路1088号,虹口区,上海市,1,31.266681,121.495488,中国农业银行24小时自助银行(上海溧阳支行),上海市,03b6798f0d2cf7ab770269c9,,03b6798f0d2cf7ab770269c9,农业银行
株洲路387号,虹口区,上海市,1,31.285163,121.471925,中国农业银行24小时自助银行(上海株洲路支行),上海市,ffbf0174fc3725ad704b874a,,ffbf0174fc3725ad704b874a,农业银行
丰镇路57号,虹口区,上海市,1,31.310323,121.485493,中国农业银行24小时自助银行(江湾储蓄所),上海市,7fd7231146b6969e5cbe863f,,7fd7231146b6969e5cbe863f,农业银行
上海市虹口区万安路298号,虹口区,上海市,1,31.307782,121.491787,中国农业银行24小时自助银行(上海江湾支行),上海市,7c2ab49bebbd0a0430169ba8,,7c2ab49bebbd0a0430169ba8,农业银行
上海市虹口区曲阳路851弄9号,虹口区,上海市,1,31.296389,121.497029,中国农业银行24小时自助银行(上海大柏树支行),上海市,75d0881ac65a014c3a04b127,,75d0881ac65a014c3a04b127,农业银行
上海市虹口区凉城路435号,虹口区,上海市,1,31.293947,121.476873,中国农业银行24小时自助银行(上海凉城路支行),上海市,3dea25d9ebfd70d14251c018,,e7a99e219bd76a03b45f1e6b,农业银行
通州路300-2号,虹口区,上海市,1,31.264037,121.501893,中国农业银行24小时自助银行(通州支行),上海市,49d1ffc4ed123113b8bd6302,,49d1ffc4ed123113b8bd6302,农业银行
上海市虹口区四川北路2195号,虹口区,上海市,1,31.273281,121.488749,中国农业银行24小时自助银行(上海四川北路支行网点),上海市,fdbc07da9fb72399df1e523a,,fdbc07da9fb72399df1e523a,农业银行
上海市虹口区三门路719弄22号,虹口区,上海市,1,31.317377,121.487313,中国农业银行24小时自助银行(三门支路支行),上海市,1de59bc36a0bafffe81e97aa,,1de59bc36a0bafffe81e97aa,农业银行
东大名路359号-2楼,虹口区,上海市,1,31.253066,121.502917,中国农业银行24小时自助银行服务(上海大名支行),上海市,61f634f61ac5c2066b49f36a,,61f634f61ac5c2066b49f36a,农业银行
大连路1615号,虹口区,上海市,1,31.279671,121.508399,中国农业银行24小时自助银行服务(上海大连支行),上海市,30676ba4f5388fb371455bb2,,30676ba4f5388fb371455bb2,农业银行
上海市虹口区吴淞路469号森林湾大厦,虹口区,上海市,1,31.257068,121.494754,中国农业银行24小时自助银行(上海虹口支行),上海市,02bbebfef1a8a82225e0a05f,,02bbebfef1a8a82225e0a05f,农业银行
上海市虹口区新市南路585号,虹口区,上海市,1,31.300846,121.487851,中国农业银行24小时自助银行服务(新市南路),上海市,1d9d9db0c32d1befcac3db24,,1d9d9db0c32d1befcac3db24,农业银行
上海市虹口区广纪路7号甲,虹口区,上海市,1,31.290978,121.488961,中国农业银行24小时自助银行服务(广纪路),上海市,f20ae6ba5bdd97a3c9e33c8f,,f20ae6ba5bdd97a3c9e33c8f,农业银行
上海市虹口区曲阳路2号,虹口区,上海市,1,31.274746,121.500828,中国农业银行24小时自助银行服务(曲阳路),上海市,ebebe26e17638e260d3ddadc,,ebebe26e17638e260d3ddadc,农业银行
上海市虹口区西江湾路400号莱福大厦,虹口区,上海市,1,31.277554,121.485531,中国农业银行24小时自助银行(西江湾路),上海市,c0588100734ac846f4e73b9f,,c0588100734ac846f4e73b9f,农业银行
上海市虹口区东体育会路411号,虹口区,上海市,1,31.283936,121.492093,中国农业银行24小时自助银行(东体育会路),上海市,e3cd1e3a398495e4c8213dbf,,e3cd1e3a398495e4c8213dbf,农业银行
四川北路1666号F6层,虹口区,上海市,1,31.262873,121.490208,ABC(东宝百货),上海市,f4ccf65e26779cd91f1d11ef,,f4ccf65e26779cd91f1d11ef,农业银行
