address,area,city,detail,lat,lng,name,province,street_id,telephone,uid,机构名称
上海市青浦区新府中路1760~1766号,青浦区,上海市,1,31.246224,121.237392,中国邮政储蓄银行(新府中路支行),上海市,eeee2d8b7d0df14ad3ff2351,95580,eeee2d8b7d0df14ad3ff2351,邮政储蓄银行
上海市青浦区外青松公路2980,青浦区,上海市,1,31.260813,121.145758,中国邮政储蓄银行24小时自助银行(白鹤支行),上海市,2d7fd0422199ce90eee4a5d1,,2d7fd0422199ce90eee4a5d1,邮政储蓄银行
公园路655号,青浦区,上海市,1,31.153935,121.119828,中国邮政储蓄银行24小时自助银行(青浦区支行),上海市,15e1e85e67e735df581093dc,,15e1e85e67e735df581093dc,邮政储蓄银行
上海市青浦区盈港东路1858号,青浦区,上海市,1,31.177707,121.277696,中国邮政储蓄银行(徐泾镇支行),上海市,e9dce8b9af7647c71f389411,(021)39250301,e9dce8b9af7647c71f389411,邮政储蓄银行
青浦区朱家角镇美周路2-12号,青浦区,上海市,1,31.11559,121.062867,中国邮政储蓄银行(青浦区朱家角支行),上海市,eae495a93a49d06f0b1cc763,(021)59239818,6fb0deeebe9c7a2c3010af39,邮政储蓄银行
上海市青浦区凤星路1460号,青浦区,上海市,1,31.20619,121.235276,中国邮政储蓄银行(凤溪邮局营业部),上海市,ec7e86daa6e7fd1b2efaa72b,"(021)59770018,(021)59772778,(021)59774696",ec7e86daa6e7fd1b2efaa72b,邮政储蓄银行
上海市青浦区新桥路595、597、599号,青浦区,上海市,1,31.219186,121.113729,中国邮政储蓄银行(上海青浦区新桥路支行),上海市,b7ffe72b6de9d8e74bcc4aa9,95580,b7ffe72b6de9d8e74bcc4aa9,邮政储蓄银行
盈港东路1852-1864号,青浦区,上海市,1,31.177661,121.277549,中国邮政储蓄银行24小时自助银行服务(徐泾镇支行),上海市,5817986c49e9c6794e776ecd,,5817986c49e9c6794e776ecd,邮政储蓄银行
上海市青浦区北青公路9335号,青浦区,上海市,1,31.192068,121.138198,中国邮政储蓄银行(香花支行),上海市,680fb703d4b3cfe18bb988c4,(021)59701143,680fb703d4b3cfe18bb988c4,邮政储蓄银行
上海市青浦区赵江路193号,青浦区,上海市,1,31.263259,121.087687,中国邮政储蓄银行(赵屯支行),上海市,,"(021)59211711,(021)59210857",6fddd7fd3ad9a0023417dc96,邮政储蓄银行
上海市青浦区福泉山路478号,青浦区,上海市,1,31.206608,121.188016,中国邮政储蓄银行(重固支行),上海市,e96b44204d9ef92482288ac4,"(021)59781224,(021)59783757",e96b44204d9ef92482288ac4,邮政储蓄银行
上海市青浦区城中东路44号,青浦区,上海市,1,31.152487,121.131378,中国邮政储蓄银行(城中营业所),上海市,aab93a3205fae2134251c0c8,"(021)59726536,(021)59721395",aab93a3205fae2134251c0c8,邮政储蓄银行
上海市青浦区公园路268号,青浦区,上海市,1,31.155227,121.127869,中国邮政储蓄银行(青浦区支行),上海市,0523a141ba740460b23c81dc,(021)59728113,0523a141ba740460b23c81dc,邮政储蓄银行
上海市青浦区商榻镇商蔡路1号,青浦区,上海市,1,31.121235,120.931074,中国邮政储蓄银行(青浦商榻支行),上海市,3a0fbba8a712543c9ee32101,(021)59281719,3a0fbba8a712543c9ee32101,邮政储蓄银行
上海市青浦区外青松公路2980号,青浦区,上海市,1,31.260822,121.1458,中国邮政储蓄银行(白鹤邮局营业部),上海市,7524cb4f4c4d3f4905026f90,95580,7524cb4f4c4d3f4905026f90,邮政储蓄银行
青浦区大盈路412号,青浦区,上海市,1,31.219972,121.097805,中国邮政储蓄银行(大盈邮局营业部),上海市,8234ba908123e5299e95de7d,"(021)59221051,(021)59222120",8234ba908123e5299e95de7d,邮政储蓄银行
青浦区万步路50号,青浦区,上海市,1,31.081918,121.062247,中国邮政储蓄银行(沈巷邮局营业部),上海市,5f976c2be4552c2830169b91,"(021)59830714,(021)59830101",5f976c2be4552c2830169b91,邮政储蓄银行
青浦区莲湖路28号,青浦区,上海市,1,31.055523,120.996531,中国邮政储蓄银行(莲盛邮局营业部),上海市,,95580,02e9d41a1ce7279c2cb908d0,邮政储蓄银行
上海市青浦区练新路90号,青浦区,上海市,1,31.014274,121.048161,中国邮政储蓄银行(练塘邮局营业部),上海市,,(021)59251715,af2675d9646602c7130daaa6,邮政储蓄银行
金泽镇金溪路292号,青浦区,上海市,1,31.042904,120.925406,中国邮政储蓄银行(金泽邮局营业部),上海市,9187f3582723f93a8bb9881a,"(021)59261101,(021)59260718",9187f3582723f93a8bb9881a,邮政储蓄银行
华新街608号(华新街华新新市路),青浦区,上海市,1,31.250884,121.228077,中国邮政储蓄银行(华新邮局营业部),上海市,e6c2ab9a9d3adef471210b26,,e6c2ab9a9d3adef471210b26,邮政储蓄银行
赵兴路52号,青浦区,上海市,1,31.15579,121.205228,中国邮政储蓄银行(赵巷邮局营业部),上海市,d305db1f6b15b443932ca3df,(021)69751287,d305db1f6b15b443932ca3df,邮政储蓄银行
上海市青浦区西岑街397号,青浦区,上海市,1,31.073076,120.971545,中国邮政储蓄银行(西岑邮局营业部),上海市,,(021)59294101,899f58be7c35c94d2902e1f3,邮政储蓄银行
上海市青浦区练塘镇小蒸社区贞溪南路205号,青浦区,上海市,1,30.991173,121.085089,中国邮政储蓄银行(小蒸邮局营业部),上海市,,"(021)59811716,(021)59811357",7999d370ef34f8b89e82eab0,邮政储蓄银行
赵兴路52号,青浦区,上海市,1,31.155853,121.205247,中国邮政储蓄银行24小时自助银行(赵巷支行),上海市,d4034eb3b71ce8f7c13644b1,,d4034eb3b71ce8f7c13644b1,邮政储蓄银行
福泉山路478号,青浦区,上海市,1,31.20655,121.188032,中国邮政储蓄银行24小时自助银行(重固支行),上海市,2527be1ee537e3ce4afc8dc4,,2527be1ee537e3ce4afc8dc4,邮政储蓄银行
赵江路193,青浦区,上海市,1,31.26341,121.087626,中国邮政储蓄银行24小时自助银行服务(赵屯支行),上海市,,,46e86fddc6f7a612d03ce396,邮政储蓄银行
金泽镇金溪路292号,青浦区,上海市,1,31.043086,120.925499,中国邮政储蓄银行24小时自助银行(金泽支行),上海市,6e5ea25f3cb7608fcf06a413,,6e5ea25f3cb7608fcf06a413,邮政储蓄银行
京华路133-139号,青浦区,上海市,1,31.175292,121.281629,中国邮政储蓄银行24小时自助银行(徐泾支行),上海市,9ee392b8940e543cbbbd63c3,,9ee392b8940e543cbbbd63c3,邮政储蓄银行
贞溪南路205号,青浦区,上海市,1,30.991116,121.085148,中国邮政储蓄银行24小时自助银行(贞溪南路),上海市,,,e93761f6a00a900f223bf2e6,邮政储蓄银行
上海市青浦区莲湖路28号,青浦区,上海市,1,31.055576,120.996482,中国邮政储蓄银行24小时自助银行,上海市,,,dda6d432904ccb544107c1e2,邮政储蓄银行
大盈路412号,青浦区,上海市,1,31.219863,121.097828,中国邮政储蓄银行24小时自助银行(上海青浦区大盈营业所),上海市,7388dffd382c43ead2ff23b0,,7388dffd382c43ead2ff23b0,邮政储蓄银行
上海市青浦区凤星路1460号(凤溪家园旁),青浦区,上海市,1,31.206205,121.235263,中国邮政储蓄银行24小时自助银行(凤溪支行),上海市,c671ddf1a6eeee3ead31e585,,c671ddf1a6eeee3ead31e585,邮政储蓄银行
上海市青浦区公园路258,青浦区,上海市,1,31.155345,121.127738,中国邮政储蓄银行24小时自助银行(青浦区支行),上海市,00443be7ba37731b8936ee25,,00443be7ba37731b8936ee25,邮政储蓄银行
上海市青浦区华新镇新府中路1760-1766号,青浦区,上海市,1,31.245839,121.23748,中国邮政储蓄银行24小时自助银行(新府中路支行),上海市,a37bc184163a57cbd72ce2e8,,a37bc184163a57cbd72ce2e8,邮政储蓄银行
上海市青浦区美周路2-12号,青浦区,上海市,1,31.115695,121.062943,中国邮政储蓄银行24小时自助银行(朱家角镇支行),上海市,,,e85e2527ffde2e2e95f08cdc,邮政储蓄银行
上海市青浦区商蔡路2号,青浦区,上海市,1,31.121235,120.931074,中国邮政储蓄银行24小时自助银行(上海青浦区商榻支行),上海市,ef773a0f6e32f84922022001,,01264472fc5a981952e5c5e4,邮政储蓄银行
上海市青浦区新桥路597,青浦区,上海市,1,31.219297,121.11374,中国邮政储蓄银行24小时自助银行(新桥路支行),上海市,502493894dbedeaab1077db2,,502493894dbedeaab1077db2,邮政储蓄银行
北青公路9335号,青浦区,上海市,1,31.192133,121.138151,中国邮政储蓄银行24小时自助银行(香花支行),上海市,e85e2527ffc62e2e95f08cc4,,e85e2527ffc62e2e95f08cc4,邮政储蓄银行
上海市青浦区万步路50,青浦区,上海市,1,31.081915,121.062324,中国邮政储蓄银行24小时自助银行(万步路),上海市,23942308ca15f6651e1d1139,,23942308ca15f6651e1d1139,邮政储蓄银行
蒸发路127号,青浦区,上海市,1,30.979933,121.034904,中国邮政储蓄银行ATM(蒸兴路),上海市,,,606e8f32af9f37b01b94c65e,邮政储蓄银行
上海市青浦区西岑街397号,青浦区,上海市,1,31.073049,120.971476,中国邮政储蓄银行ATM(西岑营业所),上海市,,,2dcc7f11f10ddbe4157643b3,邮政储蓄银行
上海市青浦区漕平路14,青浦区,上海市,1,31.10905,121.061016,朱家角邮政支局,上海市,eafa2419d205f79884154155,,eafa2419d205f79884154155,邮政储蓄银行
