address,area,city,detail,lat,lng,name,province,street_id,telephone,uid
上海市黄浦区福州路431号(福建中路福州路),黄浦区,上海市,1,31.239388,121.488908,中国银行(福州路支行),上海市,f1f5cac5d630779936b06c5e,(021)63731803,f1f5cac5d630779936b06c5e
上海市黄浦区局门路98号,黄浦区,上海市,1,31.213832,121.486464,中国银行(鲁班路支行),上海市,f4a33da9e65ac00b3010af3a,"(021)53014417,(021)95566",f4a33da9e65ac00b3010af3a
上海市黄浦区延安东路618号,黄浦区,上海市,1,31.236154,121.486522,中国银行(延安东路支行),上海市,005861086057d0a446e2745e,(021)53854123,005861086057d0a446e2745e
上海市黄浦区茂名南路205号,黄浦区,上海市,1,31.220064,121.469329,中国银行(卢湾支行),上海市,b292b3aabe4b7b57bf484289,"(021)64748368,(021)64310909",b292b3aabe4b7b57bf484289
南京西路170号国际饭店内,黄浦区,上海市,1,31.239649,121.478232,中国银行(南京西路第二支行),上海市,e3a7fd13b2d8352c29b97cb1,(021)63586392,e3a7fd13b2d8352c29b97cb1
黄浦区斜土东路148号,黄浦区,上海市,1,31.213655,121.495837,中国银行(斜土路支行),上海市,e85e25271f5b8e2d95f08c5a,(021)63135737,e85e25271f5b8e2d95f08c5a
上海市黄浦区瑞金一路139号,黄浦区,上海市,1,31.227118,121.470038,中国银行(瑞金一路支行),上海市,7aea43b7129fa6f97d29bd8e,"95566,(021)53064009",7aea43b7129fa6f97d29bd8e
上海市黄浦区中山南路328号,黄浦区,上海市,1,31.226855,121.509856,中国银行(黄浦支行),上海市,15e1e85eee6dbca35810935a,(021)63326060,15e1e85eee6dbca35810935a
上海市黄浦区兴业路158号,黄浦区,上海市,1,31.225638,121.48025,中国银行(新天地支行),上海市,b3aa435d86fc420a14764389,,b3aa435d86fc420a14764389
上海市黄浦区蒙自路477-2临021-63336753,黄浦区,上海市,1,31.20801,121.485906,中国银行(蒙自路支行),上海市,1f159cf7f40ac1b994ec84b1,(021)63336901,1f159cf7f40ac1b994ec84b1
上海市黄浦区河南南路358号,黄浦区,上海市,1,31.23004,121.49489,中国银行(豫园支行),上海市,79273f1841bf01abc1f1cfa4,(021)63356166,48eb0058524e50ac2fe67b5e
上海市黄浦区浙江中路535号,黄浦区,上海市,1,31.244127,121.483145,中国银行(北京东路支行),上海市,cac5fc765c62c9f22cb96d5e,(021)63616637,cac5fc765c62c9f22cb96d5e
上海市黄浦区泰康路9-11号,黄浦区,上海市,1,31.21404,121.477674,中国银行(上海市泰康路支行),上海市,43b7e8895e52806b59f6be8e,(021)64670121,43b7e8895e52806b59f6be8e
斜土路768-4号,黄浦区,上海市,1,31.20766,121.477816,中国银行(打浦路支行),上海市,f9c9bdbe51bee6984251c0d2,"(021)53017421,(021)53017426",f9c9bdbe51bee6984251c0d2
上海市黄浦区九江路100号,黄浦区,上海市,1,31.243281,121.4946,中国银行(黄浦支行九江路分理处),上海市,08f1f1f5e183fecb88db735e,(021)63526934,08f1f1f5e183fecb88db735e
上海市黄浦区金陵中路1号,黄浦区,上海市,1,31.232173,121.486246,中国银行(大世界支行),上海市,a74481d6521f7a47f403b88e,(021)63190067,a74481d6521f7a47f403b88e
上海市黄浦区人民路998号,黄浦区,上海市,1,31.228886,121.489577,中国银行(人民路支行),上海市,3cc93d7bef97f1b1fa42b27d,(021)53027220,3cc93d7bef97f1b1fa42b27d
上海市黄浦区中华路1131号,黄浦区,上海市,1,31.220659,121.495442,中国银行(中华路支行),上海市,d5464cf8e4084a56fda7785e,"95566,(021)63772415",d5464cf8e4084a56fda7785e
上海市黄浦区西藏南路758号,黄浦区,上海市,1,31.221256,121.490981,中国银行(西藏南路支行),上海市,d219bb1d17a2828af50e775e,(021)63289441,d219bb1d17a2828af50e775e
上海市黄浦区龙华东路858号,黄浦区,上海市,1,31.199024,121.479466,中国银行(龙华东路支行),上海市,1b806581a5bbf1fcce04ef62,(021)53062590,1b806581a5bbf1fcce04ef62
上海市黄浦区淮海中路927弄127号甲,黄浦区,上海市,1,31.222142,121.466777,中国银行(上海市保管箱中心),上海市,ce0b3d48dcba3876ab059d02,(021)64730217,ce0b3d48dcba3876ab059d02
上海市黄浦区中山东一路23号,黄浦区,上海市,1,31.245237,121.496289,中国银行(上海市分行营业部),上海市,,,4cf8d24e7dad02e59cf7795e
四川中路321号11楼,黄浦区,上海市,1,31.243422,121.494505,中银保险(上海分公司),上海市,8fa14fc381ed2b10f7eafce4,(021)63392880,8fa14fc381ed2b10f7eafce4
中山东一路23号,黄浦区,上海市,1,31.245211,121.496378,中银通,上海市,,,824949b8d6f3b5e215a190b4
上海市黄浦区淮海中路282号香港广场B1,黄浦区,上海市,1,31.228954,121.481671,中国银行24小时自助银行(淮海中路第二支行),上海市,51b08a63ecf5ae414acc4aca,,51b08a63ecf5ae414acc4aca
上海市南京东路20号中国银行大楼,黄浦区,上海市,1,31.244815,121.496115,中国银行24小时自助银行服务,上海市,878a4d98702eaa05c6effb13,,878a4d98702eaa05c6effb13
湖滨路222号企业天地1号楼1楼瑞士银行对面,黄浦区,上海市,1,31.226991,121.482627,中国银行ATM,上海市,24f1b758159221f052e5c597,,24f1b758159221f052e5c597
上海市黄浦区泰康路9号,黄浦区,上海市,1,31.214287,121.477656,中国银行24小时自助银行(泰康路支行),上海市,2527be1e08be76cd4afc8d4e,,2527be1e08be76cd4afc8d4e
茂名南路58号花园饭店1层,黄浦区,上海市,1,31.225998,121.466379,中国银行ATM(茂名南路),上海市,2d8ba9653238b180ae31e57f,,2d8ba9653238b180ae31e57f
九江路100号中央大厦1层,黄浦区,上海市,1,31.24328,121.494604,中国银行ATM(河南中路),上海市,254e2d7846e96f96a0acc4db,,254e2d7846e96f96a0acc4db
上海市黄浦区西藏南路750号527室,黄浦区,上海市,1,31.221308,121.490974,中国银行24小时自助银行(西藏南路支行),上海市,c4a785818fefc234f723102c,,c4a785818fefc234f723102c
上海市黄浦区淮海中路282号香港广场北座7楼,黄浦区,上海市,1,31.229587,121.481258,中国银行财富管理中心(卢湾),上海市,d69e4583075195d22dfaa71e,,d69e4583075195d22dfaa71e
上海市黄浦区兴业路156弄2附近,黄浦区,上海市,1,31.2257,121.480234,中国银行出国金融服务中心,上海市,d6b98a53635f2a91d7851f8c,,d6b98a53635f2a91d7851f8c
上海市黄浦区瞿溪路860-6号,黄浦区,上海市,1,31.206098,121.486415,中国银行24小时自助服务(瞿溪路),上海市,d8ea06df6f34c8aaab059d4e,,d8ea06df6f34c8aaab059d4e
上海市黄浦区茂名南路59号锦江饭店-锦北楼1层,黄浦区,上海市,1,31.226662,121.467324,中国银行货币兑换机(锦江饭店),上海市,40db917169f531446ca3cc2e,,40db917169f531446ca3cc2e
上海市黄浦区斜土路768-4号,黄浦区,上海市,1,31.208846,121.482249,中国银行24小时自助银行(斜土路),上海市,d9143c3d8ded6df88bfc061d,,d9143c3d8ded6df88bfc061d
中华路1131号,黄浦区,上海市,1,31.220657,121.495418,中国银行24小时自助银行(中华路),上海市,aec83f261ed7b601acb22a88,,aec83f261ed7b601acb22a88
金陵中路1号,黄浦区,上海市,1,31.231864,121.486174,中国银行24小时自助银行(大世界支行),上海市,bd2e9422cd08704f9c09f746,,bd2e9422cd08704f9c09f746
上海市黄浦区方浜中路280号金豫商厦F1,黄浦区,上海市,1,31.230571,121.498679,中国银行24小时自助银行(金豫商厦),上海市,0f883cff4185d395a8175a16,,0f883cff4185d395a8175a16
人民路972号金天地国际大厦1层,黄浦区,上海市,1,31.228819,121.489595,中国银行24小时自助服务(人民路支行),上海市,2480d242e1d1420e8b2fb52b,,2480d242e1d1420e8b2fb52b
上海市黄浦区龙华东路810号绿地缤纷城F1,黄浦区,上海市,1,31.198876,121.479552,中国银行24小时自助银行服务(龙华东路支行),上海市,998bea8834e0a50b3a13fd71,,998bea8834e0a50b3a13fd71
圆明园路12号,黄浦区,上海市,1,31.245428,121.494773,中国银行(上海市分行外汇黄金交易中心),上海市,689eb374c881b22445e2744c,,689eb374c881b22445e2744c
茂名南路205号1楼,黄浦区,上海市,1,31.220109,121.469327,中国银行24小时自助银行服务(卢湾支行),上海市,31c0acefcb1c3038f7eafc22,,31c0acefcb1c3038f7eafc22
福州路431号,黄浦区,上海市,1,31.239503,121.489087,中国银行24小时自助银行服务(福州路支行),上海市,,,9b6afe8f7f9511b328d7ab1f
上海市黄浦区蒙自路477-2临,黄浦区,上海市,1,31.207905,121.485931,中国银行24小时自助银行服务(蒙自路支行),上海市,358b7de9ea51c25dd518b7b0,,358b7de9ea51c25dd518b7b0
中山南路328,黄浦区,上海市,1,31.226953,121.50984,中国银行24小时自助银行服务(黄浦支行),上海市,cde9e2c7fbae87b5e81e975a,,cde9e2c7fbae87b5e81e975a
上海市黄浦区延安东路618号东海商业中心,黄浦区,上海市,1,31.230057,121.494909,中国银行24小时自助银行服务(豫园支行),上海市,dcc4fa24187a7dae0869d911,,4b801e6abc2e7a95a3acc424
延安东路618号,黄浦区,上海市,1,31.213837,121.486459,中国银行24小时自助银行(延安东路支行),上海市,43ee3277232df4183904b102,,43ee3277232df4183904b102
斜土路768-4号,黄浦区,上海市,1,31.207676,121.477707,中国银行24小时自助银行服务(打浦路支行),上海市,c53246130adb6eacc61e51d7,,c53246130adb6eacc61e51d7
上海市黄浦区延安东路550号10楼,黄浦区,上海市,1,31.236801,121.488032,中行嘉信,上海市,,,fa061a1d991c182752e5c5f6
