address,area,city,detail,lat,lng,name,province,street_id,telephone,uid
上海市黄浦区淮海中路701号,黄浦区,上海市,1,31.225183,121.471838,中国农业银行(上海瑞金二路支行),上海市,7bfa08fc67c90c7e24d2bb8e,,7bfa08fc67c90c7e24d2bb8e
上海市黄浦区西藏南路123号,黄浦区,上海市,1,31.233268,121.486051,中国农业银行(上海西藏南路支行),上海市,2a7a25ec4390fd1d6c3e1b73,,2a7a25ec4390fd1d6c3e1b73
黄浦区延安东路518号,黄浦区,上海市,1,31.236856,121.488866,中国农业银行(上海市分行营业部),上海市,af1ae56bab219d6c4207c1d9,,af1ae56bab219d6c4207c1d9
中山东一路26号,黄浦区,上海市,1,31.245766,121.496411,中国农业银行(上海外滩支行),上海市,9986f4f97aa7d9fb03ec01c4,95599,9986f4f97aa7d9fb03ec01c4
徐家汇路599-601号,黄浦区,上海市,1,31.21142,121.477612,中国农业银行(上海卢湾支行),上海市,d3a15150d4ee03450f0a70a3,(021)53961663,d3a15150d4ee03450f0a70a3
上海市国货路172号甲,黄浦区,上海市,1,31.214243,121.502895,中国农业银行(上海国货路支行),上海市,0dc3d82d96d1776d75e5b65e,,0dc3d82d96d1776d75e5b65e
上海市黄浦区中华路1359号,黄浦区,上海市,1,31.223236,121.49269,中国农业银行(上海老西门支行),上海市,6835e3a74a82254fe3110312,(021)63774535,6835e3a74a82254fe3110312
上海市大兴街34号兴林公寓底层,黄浦区,上海市,1,31.218886,121.495379,中国农业银行(上海大兴街支行),上海市,1816533483a59005fb2d615e,(021)63456996,1816533483a59005fb2d615e
上海市黄浦区丽园路857号,黄浦区,上海市,1,31.212879,121.483518,中国农业银行(上海丽园路支行),上海市,101bc61b9fa348a2c42ba13e,,101bc61b9fa348a2c42ba13e
打浦路406号,黄浦区,上海市,1,31.203517,121.479047,中国农业银行(上海中山南路支行),上海市,0e25f6a437408f842fb17efb,(021)63463760,0e25f6a437408f842fb17efb
上海市中华路567号,黄浦区,上海市,1,31.222144,121.50466,中国农业银行(上海南外滩支行),上海市,f9fd6062aabb4c1e0f0e6b5e,,f9fd6062aabb4c1e0f0e6b5e
上海市黄浦区中华路186号,黄浦区,上海市,1,31.227929,121.505605,中国农业银行(上海城隍庙支行),上海市,e4909d5489554ccb59bbbcec,,e4909d5489554ccb59bbbcec
"上海市黄浦区马当路568号一,二层",黄浦区,上海市,1,31.216848,121.482351,中国农业银行(上海马当路支行),上海市,66f4ca8683eb1ea9f6c59c7f,,66f4ca8683eb1ea9f6c59c7f
上海市黄浦区斜土路17号,黄浦区,上海市,1,31.212859,121.490936,中国农业银行(上海斜土路支行),上海市,3cae00c4c9dbb14a9a68b4b0,(021)63040525,3cae00c4c9dbb14a9a68b4b0
黄浦区苏州大道东123号汇金大厦1楼,黄浦区,上海市,1,31.239991,121.487198,中国农业银行(上海湖北路支行),上海市,7d62036323a1d584157643db,95599,d437b01511b816974151c0e1
上海市黄浦区北京东路412号,黄浦区,上海市,1,31.246041,121.488484,中国农业银行(上海北京东路支行),上海市,4166f8e6f427c11ad6b74e18,(021)33302311,4166f8e6f427c11ad6b74e18
上海市黄浦区新昌路483号,黄浦区,上海市,1,31.244647,121.472978,中国农业银行(上海新昌路支行),上海市,d146b388dcbb62df7402695e,(021)63594019,d146b388dcbb62df7402695e
上海市黄浦区陆家浜路1286号,黄浦区,上海市,1,31.217123,121.491104,中国农业银行(上海陆家浜路支行),上海市,606289fd6ce5f04ca204645e,(021)63771897,606289fd6ce5f04ca204645e
上海市黄浦区陆家浜路1296号,黄浦区,上海市,1,31.217064,121.491083,中国农业银行(上海西藏南路分理处),上海市,d47dff4c7b17d36b220220ac,,d47dff4c7b17d36b220220ac
汉口路515,黄浦区,上海市,1,31.240013,121.487147,中国农业银行(上海市分行信用卡中心),上海市,447757f06afc4bd038e4a673,95599,447757f06afc4bd038e4a673
上海市黄浦区淮海中路701号新鑫大厦6层,黄浦区,上海市,1,31.225269,121.471632,中国农业银行上海分行审计处,上海市,1b2cdc455ab9d8084d776e5c,(021)53828137,1b2cdc455ab9d8084d776e5c
汉口路515号,黄浦区,上海市,1,31.240014,121.487147,中国农业银行24小时自助银行(湖北路支行),上海市,6ed3083a066baab62b3a9f13,,6ed3083a066baab62b3a9f13
上海市黄浦区旧校场路13号,黄浦区,上海市,1,31.23314,121.497345,中国农业银行ATM(旧校场路),上海市,8cba4bb0c248df85ad045712,,8cba4bb0c248df85ad045712
上海市黄浦区中山东一路26号中国农业银行(上海外滩支行),黄浦区,上海市,1,31.24563,121.496488,中国农业银行ATM(上海外滩支行),上海市,f53411b822b14ace9fe321e4,,f53411b822b14ace9fe321e4
上海市黄浦区紫霞路14号,黄浦区,上海市,1,31.224218,121.509803,中国农业银行24小时自助银行服务,上海市,64920a3d0c54c5a62cb96da0,,64920a3d0c54c5a62cb96da0
中山南路318号新源广场2号楼1层,黄浦区,上海市,1,31.228042,121.505592,中国农业银行24小时自助银行服务(上海城隍庙支行),上海市,be016413de5f405cae045714,,be016413de5f405cae045714
上海市黄浦区马当路303号临,黄浦区,上海市,1,31.221365,121.481891,中国农业银行24小时自助银行(马当路),上海市,6befd69e9375bd1dfa42b287,,6befd69e9375bd1dfa42b287
上海市黄浦区大吉路293号,黄浦区,上海市,1,31.219046,121.488346,中国农业银行24小时自助银行(大吉路),上海市,d5baeaf0871ee4bd07fef520,,f8bba73e1a26d26ce115f9e7
上海市黄浦区中华路567,黄浦区,上海市,1,31.22204,121.504737,中国农业银行24小时自助银行服务(中华路),上海市,4cf7e5ec328e990d8d7727f8,,4cf7e5ec328e990d8d7727f8
大兴街32号,黄浦区,上海市,1,31.218938,121.495301,中国农业银行24小时自助银行(上海大兴街支行),上海市,f2f15ffb1ac54cf6631c67c8,,f2f15ffb1ac54cf6631c67c8
上海市黄浦区陆家浜路1296号,黄浦区,上海市,1,31.217177,121.490922,中国农业银行24小时自助银行(上海陆家浜路支行),上海市,aab8f96f58324ba19868b42f,,aab8f96f58324ba19868b42f
西藏南路123号-2楼,黄浦区,上海市,1,31.233239,121.486037,中国农业银行24小时自助银行(上海西藏南路支行),上海市,6b38b99b2ac6cef83913fd23,,6b38b99b2ac6cef83913fd23
上海市黄浦区北京东路412,黄浦区,上海市,1,31.245966,121.488364,中国农业银行24小时自助银行(上海北京东路支行),上海市,e89b57aa71ef2100ac31e57e,,0d7d77f25b0673c376e5b61c
上海市黄浦区新昌路485-487号,黄浦区,上海市,1,31.2447,121.473056,中国农业银行24小时自助银行(上海新昌路支行),上海市,783b55f164d8586b774ff191,,783b55f164d8586b774ff191
丽水路81号紫锦城商厦底商,黄浦区,上海市,1,31.234275,121.497359,中国农业银行24小时自助银行(紫锦城商厦),上海市,cb572b0cbea7f04100ff2d8c,,cb572b0cbea7f04100ff2d8c
香山路15号,黄浦区,上海市,1,31.221803,121.472383,中国农业银行24小时自助银行服务(香山路店),上海市,602520a0ee9beb8bab059d50,,602520a0ee9beb8bab059d50
丽园路857-1号,黄浦区,上海市,1,31.212838,121.48354,中国农业银行24小时自助银行服务(上海丽园路支行),上海市,0ce65c2d9335a5272c4733b7,,0ce65c2d9335a5272c4733b7
中华路1359,黄浦区,上海市,1,31.223133,121.492713,中国农业银行24小时自助银行(上海老西门支行),上海市,3c5a9e1d54e6c9bcf02d832b,,3c5a9e1d54e6c9bcf02d832b
延安东路518号,黄浦区,上海市,1,31.236819,121.488785,中国农业银行24小时自助银行(上海市分行营业部),上海市,c335ef23568fc3fb5b109382,,c335ef23568fc3fb5b109382
上海市黄浦区马当路568号,黄浦区,上海市,1,31.21683,121.48238,中国农业银行24小时自助银行(上海马当路支行),上海市,93dd94c7e186f49a75e5b639,,93dd94c7e186f49a75e5b639
龙华东路810号海外滩·名品汇地下1层,黄浦区,上海市,1,31.203421,121.47907,中国农业银行24小时自助银行(上海中山南路支行),上海市,53fbc49dab56f82be9f853b8,,53fbc49dab56f82be9f853b8
上海市黄浦区国货路172号甲,黄浦区,上海市,1,31.21417,121.502882,中国农业银行24小时自助银行(上海国货路支行),上海市,7d92b037595592813be4a69b,,7d92b037595592813be4a69b
上海市黄浦区陆家浜路399号101室,黄浦区,上海市,1,31.217364,121.505953,中国农业银行24小时自助银行服务(上海陆家浜路支行),上海市,a6efd2b000cf32ffabf7298c,,964f1f803aa1324d220220cb
上海市黄浦区斜土路17号,黄浦区,上海市,1,31.212361,121.489934,中国农业银行24小时自助银行(上海斜土路支行),上海市,0e3029e846b12fd904fef500,,0e3029e846b12fd904fef500
上海市黄浦区徐家汇路601号,黄浦区,上海市,1,31.21095,121.475999,中国农业银行24小时自助银行服务(徐家汇路),上海市,170a1413d2740f49364aaea2,,170a1413d2740f49364aaea2
